{
  "type": "FeatureCollection",
  "source": "opensky",
  "dataset": "aircraft_italy",
  "generated_at": "2026-07-28T23:35:44.282029+00:00",
  "opensky_time": 1785281726,
  "count": 132,
  "features": [
    {
      "type": "Feature",
      "geometry": {
        "type": "Point",
        "coordinates": [
          18.0929,
          43.002
        ]
      },
      "properties": {
        "icao24": "46b826",
        "callsign": "AEE609",
        "origin_country": "Greece",
        "time_position": 1785281726,
        "last_contact": 1785281726,
        "baro_altitude": 11277.6,
        "on_ground": false,
        "velocity": 253.35,
        "true_track": 138.7,
        "vertical_rate": 0,
        "geo_altitude": 11978.64,
        "squawk": "0543",
        "spi": false,
        "position_source": 0
      }
    },
    {
      "type": "Feature",
      "geometry": {
        "type": "Point",
        "coordinates": [
          12.7932,
          44.8412
        ]
      },
      "properties": {
        "icao24": "471f6f",
        "callsign": "WMT1BF",
        "origin_country": "Hungary",
        "time_position": 1785281726,
        "last_contact": 1785281726,
        "baro_altitude": 8709.66,
        "on_ground": false,
        "velocity": 246.01,
        "true_track": 109.42,
        "vertical_rate": 6.83,
        "geo_altitude": 9296.4,
        "squawk": "0274",
        "spi": false,
        "position_source": 0
      }
    },
    {
      "type": "Feature",
      "geometry": {
        "type": "Point",
        "coordinates": [
          13.7967,
          44.7189
        ]
      },
      "properties": {
        "icao24": "801612",
        "callsign": "AIC102",
        "origin_country": "India",
        "time_position": 1785281725,
        "last_contact": 1785281726,
        "baro_altitude": 11277.6,
        "on_ground": false,
        "velocity": 273.08,
        "true_track": 126.27,
        "vertical_rate": 0,
        "geo_altitude": 11940.54,
        "squawk": "2270",
        "spi": false,
        "position_source": 0
      }
    },
    {
      "type": "Feature",
      "geometry": {
        "type": "Point",
        "coordinates": [
          17.6836,
          45.7485
        ]
      },
      "properties": {
        "icao24": "4bb4f0",
        "callsign": "MGH260",
        "origin_country": "Turkey",
        "time_position": 1785281725,
        "last_contact": 1785281725,
        "baro_altitude": 11285.22,
        "on_ground": false,
        "velocity": 255.61,
        "true_track": 125,
        "vertical_rate": 0,
        "geo_altitude": 11894.82,
        "squawk": "7712",
        "spi": false,
        "position_source": 0
      }
    },
    {
      "type": "Feature",
      "geometry": {
        "type": "Point",
        "coordinates": [
          17.0323,
          44.6857
        ]
      },
      "properties": {
        "icao24": "4068f5",
        "callsign": "EXS24JS",
        "origin_country": "United Kingdom",
        "time_position": 1785281725,
        "last_contact": 1785281726,
        "baro_altitude": 10972.8,
        "on_ground": false,
        "velocity": 207.43,
        "true_track": 306.53,
        "vertical_rate": 0,
        "geo_altitude": 11635.74,
        "squawk": "2214",
        "spi": false,
        "position_source": 0
      }
    },
    {
      "type": "Feature",
      "geometry": {
        "type": "Point",
        "coordinates": [
          17.5025,
          38.8732
        ]
      },
      "properties": {
        "icao24": "738065",
        "callsign": "ELY392",
        "origin_country": "Israel",
        "time_position": 1785281726,
        "last_contact": 1785281726,
        "baro_altitude": 11277.6,
        "on_ground": false,
        "velocity": 218.29,
        "true_track": 106.43,
        "vertical_rate": 0,
        "geo_altitude": 11955.78,
        "squawk": "1413",
        "spi": false,
        "position_source": 0
      }
    },
    {
      "type": "Feature",
      "geometry": {
        "type": "Point",
        "coordinates": [
          11.6306,
          40.0846
        ]
      },
      "properties": {
        "icao24": "738057",
        "callsign": "ELY398",
        "origin_country": "Israel",
        "time_position": 1785281726,
        "last_contact": 1785281726,
        "baro_altitude": 10363.2,
        "on_ground": false,
        "velocity": 234.36,
        "true_track": 102.94,
        "vertical_rate": 0,
        "geo_altitude": 11056.62,
        "squawk": "1450",
        "spi": false,
        "position_source": 0
      }
    },
    {
      "type": "Feature",
      "geometry": {
        "type": "Point",
        "coordinates": [
          15.3134,
          43.461
        ]
      },
      "properties": {
        "icao24": "738056",
        "callsign": "ELY388",
        "origin_country": "Israel",
        "time_position": 1785281726,
        "last_contact": 1785281726,
        "baro_altitude": 10668,
        "on_ground": false,
        "velocity": 250.48,
        "true_track": 120.62,
        "vertical_rate": 0,
        "geo_altitude": 11338.56,
        "squawk": "0414",
        "spi": false,
        "position_source": 0
      }
    },
    {
      "type": "Feature",
      "geometry": {
        "type": "Point",
        "coordinates": [
          18.8333,
          44.6546
        ]
      },
      "properties": {
        "icao24": "738055",
        "callsign": "ELY326",
        "origin_country": "Israel",
        "time_position": 1785281724,
        "last_contact": 1785281725,
        "baro_altitude": 10668,
        "on_ground": false,
        "velocity": 256.98,
        "true_track": 118.98,
        "vertical_rate": 0,
        "geo_altitude": 11300.46,
        "squawk": "0673",
        "spi": false,
        "position_source": 0
      }
    },
    {
      "type": "Feature",
      "geometry": {
        "type": "Point",
        "coordinates": [
          17.2612,
          46.4022
        ]
      },
      "properties": {
        "icao24": "471d6a",
        "callsign": "WZZ835A",
        "origin_country": "Hungary",
        "time_position": 1785281726,
        "last_contact": 1785281726,
        "baro_altitude": 10020.3,
        "on_ground": false,
        "velocity": 230.93,
        "true_track": 60.07,
        "vertical_rate": -2.93,
        "geo_altitude": 10614.66,
        "squawk": "1000",
        "spi": false,
        "position_source": 0
      }
    },
    {
      "type": "Feature",
      "geometry": {
        "type": "Point",
        "coordinates": [
          9.9593,
          45.172
        ]
      },
      "properties": {
        "icao24": "4891b6",
        "callsign": "ENT6LM",
        "origin_country": "Poland",
        "time_position": 1785281726,
        "last_contact": 1785281726,
        "baro_altitude": 10972.8,
        "on_ground": false,
        "velocity": 247.33,
        "true_track": 50.32,
        "vertical_rate": 0,
        "geo_altitude": 11635.74,
        "squawk": "3753",
        "spi": false,
        "position_source": 0
      }
    },
    {
      "type": "Feature",
      "geometry": {
        "type": "Point",
        "coordinates": [
          12.0887,
          40.0101
        ]
      },
      "properties": {
        "icao24": "4bb2b0",
        "callsign": "THY5LY",
        "origin_country": "Turkey",
        "time_position": 1785281726,
        "last_contact": 1785281726,
        "baro_altitude": 10363.2,
        "on_ground": false,
        "velocity": 226.85,
        "true_track": 81.39,
        "vertical_rate": 0,
        "geo_altitude": 11087.1,
        "squawk": "4430",
        "spi": false,
        "position_source": 0
      }
    },
    {
      "type": "Feature",
      "geometry": {
        "type": "Point",
        "coordinates": [
          17.5921,
          46.4507
        ]
      },
      "properties": {
        "icao24": "4bb1e4",
        "callsign": "THY4RN",
        "origin_country": "Turkey",
        "time_position": 1785281726,
        "last_contact": 1785281726,
        "baro_altitude": 11902.44,
        "on_ground": false,
        "velocity": 262.23,
        "true_track": 118.73,
        "vertical_rate": 0,
        "geo_altitude": 12519.66,
        "squawk": "2243",
        "spi": false,
        "position_source": 0
      }
    },
    {
      "type": "Feature",
      "geometry": {
        "type": "Point",
        "coordinates": [
          14.6787,
          46.1095
        ]
      },
      "properties": {
        "icao24": "7380c1",
        "callsign": "ELY318",
        "origin_country": "Israel",
        "time_position": 1785281725,
        "last_contact": 1785281725,
        "baro_altitude": 11887.2,
        "on_ground": false,
        "velocity": 269.41,
        "true_track": 129.34,
        "vertical_rate": -0.33,
        "geo_altitude": 12550.14,
        "squawk": "2261",
        "spi": false,
        "position_source": 0
      }
    },
    {
      "type": "Feature",
      "geometry": {
        "type": "Point",
        "coordinates": [
          17.7843,
          38.7025
        ]
      },
      "properties": {
        "icao24": "7380c7",
        "callsign": "ELY017",
        "origin_country": "Israel",
        "time_position": 1785281726,
        "last_contact": 1785281726,
        "baro_altitude": 10355.58,
        "on_ground": false,
        "velocity": 270.01,
        "true_track": 280.54,
        "vertical_rate": 0,
        "geo_altitude": 11026.14,
        "squawk": "2254",
        "spi": false,
        "position_source": 0
      }
    },
    {
      "type": "Feature",
      "geometry": {
        "type": "Point",
        "coordinates": [
          14.0601,
          38.3265
        ]
      },
      "properties": {
        "icao24": "4bb267",
        "callsign": "THY658",
        "origin_country": "Turkey",
        "time_position": 1785281726,
        "last_contact": 1785281726,
        "baro_altitude": 10675.62,
        "on_ground": false,
        "velocity": 211.43,
        "true_track": 74.48,
        "vertical_rate": 0,
        "geo_altitude": 11346.18,
        "squawk": "6141",
        "spi": false,
        "position_source": 0
      }
    },
    {
      "type": "Feature",
      "geometry": {
        "type": "Point",
        "coordinates": [
          10.261,
          44.2901
        ]
      },
      "properties": {
        "icao24": "020175",
        "callsign": "MAC465",
        "origin_country": "Morocco",
        "time_position": 1785281726,
        "last_contact": 1785281726,
        "baro_altitude": 4533.9,
        "on_ground": false,
        "velocity": 199.95,
        "true_track": 72.17,
        "vertical_rate": -13.98,
        "geo_altitude": 4945.38,
        "squawk": "1000",
        "spi": false,
        "position_source": 0
      }
    },
    {
      "type": "Feature",
      "geometry": {
        "type": "Point",
        "coordinates": [
          13.2404,
          45.512
        ]
      },
      "properties": {
        "icao24": "406753",
        "callsign": "EZY2158",
        "origin_country": "United Kingdom",
        "time_position": 1785281726,
        "last_contact": 1785281726,
        "baro_altitude": 10972.8,
        "on_ground": false,
        "velocity": 211.03,
        "true_track": 316.19,
        "vertical_rate": 0.33,
        "geo_altitude": 11628.12,
        "squawk": "5301",
        "spi": false,
        "position_source": 0
      }
    },
    {
      "type": "Feature",
      "geometry": {
        "type": "Point",
        "coordinates": [
          14.6705,
          46.3327
        ]
      },
      "properties": {
        "icao24": "4bb18d",
        "callsign": "THY41J",
        "origin_country": "Turkey",
        "time_position": 1785281726,
        "last_contact": 1785281726,
        "baro_altitude": 11879.58,
        "on_ground": false,
        "velocity": 266.9,
        "true_track": 117.31,
        "vertical_rate": 0,
        "geo_altitude": 12534.9,
        "squawk": "1165",
        "spi": false,
        "position_source": 0
      }
    },
    {
      "type": "Feature",
      "geometry": {
        "type": "Point",
        "coordinates": [
          13.0011,
          41.2269
        ]
      },
      "properties": {
        "icao24": "3a2e23",
        "callsign": "REU972",
        "origin_country": "France",
        "time_position": 1785281725,
        "last_contact": 1785281725,
        "baro_altitude": 9448.8,
        "on_ground": false,
        "velocity": 261.94,
        "true_track": 134.2,
        "vertical_rate": 0,
        "geo_altitude": 10111.74,
        "squawk": "7640",
        "spi": false,
        "position_source": 0
      }
    },
    {
      "type": "Feature",
      "geometry": {
        "type": "Point",
        "coordinates": [
          16.3587,
          40.0885
        ]
      },
      "properties": {
        "icao24": "3009bf",
        "callsign": null,
        "origin_country": "Italy",
        "time_position": 1785281613,
        "last_contact": 1785281613,
        "baro_altitude": 746.76,
        "on_ground": false,
        "velocity": 59.92,
        "true_track": 203.26,
        "vertical_rate": -4.23,
        "geo_altitude": 914.4,
        "squawk": null,
        "spi": false,
        "position_source": 0
      }
    },
    {
      "type": "Feature",
      "geometry": {
        "type": "Point",
        "coordinates": [
          18.952,
          45.9167
        ]
      },
      "properties": {
        "icao24": "89655b",
        "callsign": "UAE6",
        "origin_country": "United Arab Emirates",
        "time_position": 1785281725,
        "last_contact": 1785281726,
        "baro_altitude": 11277.6,
        "on_ground": false,
        "velocity": 271.58,
        "true_track": 128,
        "vertical_rate": 0,
        "geo_altitude": 11894.82,
        "squawk": "2217",
        "spi": false,
        "position_source": 0
      }
    },
    {
      "type": "Feature",
      "geometry": {
        "type": "Point",
        "coordinates": [
          18.3885,
          42.7523
        ]
      },
      "properties": {
        "icao24": "40660c",
        "callsign": "TOM8FL",
        "origin_country": "United Kingdom",
        "time_position": 1785281725,
        "last_contact": 1785281725,
        "baro_altitude": 10972.8,
        "on_ground": false,
        "velocity": 218.6,
        "true_track": 326.91,
        "vertical_rate": 0,
        "geo_altitude": 11666.22,
        "squawk": "2076",
        "spi": false,
        "position_source": 0
      }
    },
    {
      "type": "Feature",
      "geometry": {
        "type": "Point",
        "coordinates": [
          14.8746,
          35.6816
        ]
      },
      "properties": {
        "icao24": "040188",
        "callsign": "ETH741",
        "origin_country": "Ethiopia",
        "time_position": 1785281726,
        "last_contact": 1785281726,
        "baro_altitude": 11277.6,
        "on_ground": false,
        "velocity": 261.05,
        "true_track": 96.68,
        "vertical_rate": 0.33,
        "geo_altitude": 11910.06,
        "squawk": "4103",
        "spi": false,
        "position_source": 0
      }
    },
    {
      "type": "Feature",
      "geometry": {
        "type": "Point",
        "coordinates": [
          14.0582,
          43.0529
        ]
      },
      "properties": {
        "icao24": "4ca569",
        "callsign": "RYR9YL",
        "origin_country": "Ireland",
        "time_position": 1785281725,
        "last_contact": 1785281726,
        "baro_altitude": 11582.4,
        "on_ground": false,
        "velocity": 220.43,
        "true_track": 305.69,
        "vertical_rate": 0,
        "geo_altitude": 12291.06,
        "squawk": "2656",
        "spi": false,
        "position_source": 0
      }
    },
    {
      "type": "Feature",
      "geometry": {
        "type": "Point",
        "coordinates": [
          18.4179,
          39.0508
        ]
      },
      "properties": {
        "icao24": "4ba9e8",
        "callsign": "THY571",
        "origin_country": "Turkey",
        "time_position": 1785281726,
        "last_contact": 1785281726,
        "baro_altitude": 10363.2,
        "on_ground": false,
        "velocity": 252.7,
        "true_track": 244.95,
        "vertical_rate": 0,
        "geo_altitude": 11026.14,
        "squawk": "2345",
        "spi": false,
        "position_source": 0
      }
    },
    {
      "type": "Feature",
      "geometry": {
        "type": "Point",
        "coordinates": [
          9.0503,
          46.1249
        ]
      },
      "properties": {
        "icao24": "49d2b7",
        "callsign": "EWG2GC",
        "origin_country": "Czech Republic",
        "time_position": 1785281726,
        "last_contact": 1785281726,
        "baro_altitude": 10972.8,
        "on_ground": false,
        "velocity": 229.67,
        "true_track": 347.58,
        "vertical_rate": 0,
        "geo_altitude": 11605.26,
        "squawk": "2765",
        "spi": false,
        "position_source": 0
      }
    },
    {
      "type": "Feature",
      "geometry": {
        "type": "Point",
        "coordinates": [
          13.9226,
          45.8911
        ]
      },
      "properties": {
        "icao24": "49d2ee",
        "callsign": "TVS2867",
        "origin_country": "Czech Republic",
        "time_position": 1785281726,
        "last_contact": 1785281726,
        "baro_altitude": 10972.8,
        "on_ground": false,
        "velocity": 234.03,
        "true_track": 10,
        "vertical_rate": 0,
        "geo_altitude": 11612.88,
        "squawk": "1000",
        "spi": false,
        "position_source": 0
      }
    },
    {
      "type": "Feature",
      "geometry": {
        "type": "Point",
        "coordinates": [
          14.6972,
          43.7536
        ]
      },
      "properties": {
        "icao24": "06a2e1",
        "callsign": "QTR8250",
        "origin_country": "Qatar",
        "time_position": 1785281725,
        "last_contact": 1785281726,
        "baro_altitude": 10058.4,
        "on_ground": false,
        "velocity": 266.89,
        "true_track": 120.72,
        "vertical_rate": 0,
        "geo_altitude": 10713.72,
        "squawk": "3743",
        "spi": false,
        "position_source": 0
      }
    },
    {
      "type": "Feature",
      "geometry": {
        "type": "Point",
        "coordinates": [
          17.9844,
          35.7823
        ]
      },
      "properties": {
        "icao24": "06a2f2",
        "callsign": "QTR52A",
        "origin_country": "Qatar",
        "time_position": 1785281721,
        "last_contact": 1785281722,
        "baro_altitude": 11887.2,
        "on_ground": false,
        "velocity": 262.87,
        "true_track": 100.14,
        "vertical_rate": 0,
        "geo_altitude": 12618.72,
        "squawk": "6162",
        "spi": false,
        "position_source": 0
      }
    },
    {
      "type": "Feature",
      "geometry": {
        "type": "Point",
        "coordinates": [
          17.2348,
          35.223
        ]
      },
      "properties": {
        "icao24": "06a2ee",
        "callsign": "QTR152",
        "origin_country": "Qatar",
        "time_position": 1785281725,
        "last_contact": 1785281725,
        "baro_altitude": 11269.98,
        "on_ground": false,
        "velocity": 267.72,
        "true_track": 95.51,
        "vertical_rate": 0.33,
        "geo_altitude": 11963.4,
        "squawk": "4106",
        "spi": false,
        "position_source": 0
      }
    },
    {
      "type": "Feature",
      "geometry": {
        "type": "Point",
        "coordinates": [
          17.7692,
          47.0123
        ]
      },
      "properties": {
        "icao24": "49d42b",
        "callsign": "TVS2558",
        "origin_country": "Czech Republic",
        "time_position": 1785281726,
        "last_contact": 1785281726,
        "baro_altitude": 11277.6,
        "on_ground": false,
        "velocity": 256.4,
        "true_track": 142.99,
        "vertical_rate": 0,
        "geo_altitude": 11879.58,
        "squawk": "5432",
        "spi": false,
        "position_source": 0
      }
    },
    {
      "type": "Feature",
      "geometry": {
        "type": "Point",
        "coordinates": [
          11.8073,
          47.6423
        ]
      },
      "properties": {
        "icao24": "407fae",
        "callsign": "TOM721",
        "origin_country": "United Kingdom",
        "time_position": 1785281726,
        "last_contact": 1785281726,
        "baro_altitude": 11582.4,
        "on_ground": false,
        "velocity": 218.77,
        "true_track": 304.85,
        "vertical_rate": 0,
        "geo_altitude": 12207.24,
        "squawk": "3551",
        "spi": false,
        "position_source": 0
      }
    },
    {
      "type": "Feature",
      "geometry": {
        "type": "Point",
        "coordinates": [
          6.6181,
          46.547
        ]
      },
      "properties": {
        "icao24": "4b3301",
        "callsign": "RGA04",
        "origin_country": "Switzerland",
        "time_position": 1785281474,
        "last_contact": 1785281474,
        "baro_altitude": null,
        "on_ground": true,
        "velocity": 0,
        "true_track": 45,
        "vertical_rate": null,
        "geo_altitude": null,
        "squawk": null,
        "spi": false,
        "position_source": 0
      }
    },
    {
      "type": "Feature",
      "geometry": {
        "type": "Point",
        "coordinates": [
          18.9463,
          46.5638
        ]
      },
      "properties": {
        "icao24": "49d327",
        "callsign": "TVS44T",
        "origin_country": "Czech Republic",
        "time_position": 1785281726,
        "last_contact": 1785281726,
        "baro_altitude": 11277.6,
        "on_ground": false,
        "velocity": 255.43,
        "true_track": 150.7,
        "vertical_rate": -0.33,
        "geo_altitude": 11879.58,
        "squawk": "1452",
        "spi": false,
        "position_source": 0
      }
    },
    {
      "type": "Feature",
      "geometry": {
        "type": "Point",
        "coordinates": [
          7.4058,
          47.6327
        ]
      },
      "properties": {
        "icao24": "3912a2",
        "callsign": "FGEVC",
        "origin_country": "France",
        "time_position": 1785281726,
        "last_contact": 1785281726,
        "baro_altitude": 883.92,
        "on_ground": false,
        "velocity": 68.98,
        "true_track": 267.86,
        "vertical_rate": -0.33,
        "geo_altitude": 1005.84,
        "squawk": "3450",
        "spi": false,
        "position_source": 0
      }
    },
    {
      "type": "Feature",
      "geometry": {
        "type": "Point",
        "coordinates": [
          13.5272,
          46.8574
        ]
      },
      "properties": {
        "icao24": "406e9f",
        "callsign": "EXS7GT",
        "origin_country": "United Kingdom",
        "time_position": 1785281726,
        "last_contact": 1785281726,
        "baro_altitude": 12192,
        "on_ground": false,
        "velocity": 227.6,
        "true_track": 307.28,
        "vertical_rate": 0,
        "geo_altitude": 12847.32,
        "squawk": "5337",
        "spi": false,
        "position_source": 0
      }
    },
    {
      "type": "Feature",
      "geometry": {
        "type": "Point",
        "coordinates": [
          8.7258,
          45.6215
        ]
      },
      "properties": {
        "icao24": "31d7a0",
        "callsign": "ECHO4",
        "origin_country": "Italy",
        "time_position": 1785281620,
        "last_contact": 1785281620,
        "baro_altitude": null,
        "on_ground": true,
        "velocity": 3.86,
        "true_track": 135,
        "vertical_rate": null,
        "geo_altitude": null,
        "squawk": null,
        "spi": false,
        "position_source": 0
      }
    },
    {
      "type": "Feature",
      "geometry": {
        "type": "Point",
        "coordinates": [
          13.4089,
          47.675
        ]
      },
      "properties": {
        "icao24": "4ca251",
        "callsign": "RYR7VZ",
        "origin_country": "Ireland",
        "time_position": 1785281726,
        "last_contact": 1785281726,
        "baro_altitude": 7315.2,
        "on_ground": false,
        "velocity": 182.71,
        "true_track": 334.66,
        "vertical_rate": 0,
        "geo_altitude": 7795.26,
        "squawk": "3727",
        "spi": false,
        "position_source": 0
      }
    },
    {
      "type": "Feature",
      "geometry": {
        "type": "Point",
        "coordinates": [
          10.1056,
          35.309
        ]
      },
      "properties": {
        "icao24": "39cea9",
        "callsign": "TVF8496",
        "origin_country": "France",
        "time_position": 1785281505,
        "last_contact": 1785281507,
        "baro_altitude": 9044.94,
        "on_ground": false,
        "velocity": 261.03,
        "true_track": 165.39,
        "vertical_rate": -18.21,
        "geo_altitude": 9715.5,
        "squawk": "7633",
        "spi": false,
        "position_source": 0
      }
    },
    {
      "type": "Feature",
      "geometry": {
        "type": "Point",
        "coordinates": [
          14.4366,
          45.8663
        ]
      },
      "properties": {
        "icao24": "407e68",
        "callsign": "EXS86FT",
        "origin_country": "United Kingdom",
        "time_position": 1785281726,
        "last_contact": 1785281726,
        "baro_altitude": 10972.8,
        "on_ground": false,
        "velocity": 213.2,
        "true_track": 314.02,
        "vertical_rate": 0,
        "geo_altitude": 11605.26,
        "squawk": "0501",
        "spi": false,
        "position_source": 0
      }
    },
    {
      "type": "Feature",
      "geometry": {
        "type": "Point",
        "coordinates": [
          11.6095,
          46.0561
        ]
      },
      "properties": {
        "icao24": "407e60",
        "callsign": "EZY78NM",
        "origin_country": "United Kingdom",
        "time_position": 1785281726,
        "last_contact": 1785281726,
        "baro_altitude": 11582.4,
        "on_ground": false,
        "velocity": 215.06,
        "true_track": 298.89,
        "vertical_rate": -0.33,
        "geo_altitude": 12245.34,
        "squawk": "5357",
        "spi": false,
        "position_source": 0
      }
    },
    {
      "type": "Feature",
      "geometry": {
        "type": "Point",
        "coordinates": [
          17.1059,
          42.7678
        ]
      },
      "properties": {
        "icao24": "407f96",
        "callsign": "TOM17E",
        "origin_country": "United Kingdom",
        "time_position": 1785281726,
        "last_contact": 1785281726,
        "baro_altitude": 9753.6,
        "on_ground": false,
        "velocity": 229.73,
        "true_track": 303.12,
        "vertical_rate": 0,
        "geo_altitude": 10401.3,
        "squawk": "6623",
        "spi": false,
        "position_source": 0
      }
    },
    {
      "type": "Feature",
      "geometry": {
        "type": "Point",
        "coordinates": [
          8.7228,
          45.642
        ]
      },
      "properties": {
        "icao24": "44079a",
        "callsign": "EJU94AD",
        "origin_country": "Austria",
        "time_position": 1785281708,
        "last_contact": 1785281708,
        "baro_altitude": null,
        "on_ground": true,
        "velocity": 9.26,
        "true_track": 348.75,
        "vertical_rate": null,
        "geo_altitude": null,
        "squawk": "1000",
        "spi": false,
        "position_source": 0
      }
    },
    {
      "type": "Feature",
      "geometry": {
        "type": "Point",
        "coordinates": [
          10.547,
          46.028
        ]
      },
      "properties": {
        "icao24": "407f79",
        "callsign": "EZY18YQ",
        "origin_country": "United Kingdom",
        "time_position": 1785281726,
        "last_contact": 1785281726,
        "baro_altitude": 11582.4,
        "on_ground": false,
        "velocity": 216.38,
        "true_track": 306.98,
        "vertical_rate": 0,
        "geo_altitude": 12260.58,
        "squawk": "3721",
        "spi": false,
        "position_source": 0
      }
    },
    {
      "type": "Feature",
      "geometry": {
        "type": "Point",
        "coordinates": [
          8.7101,
          45.6354
        ]
      },
      "properties": {
        "icao24": "4403a7",
        "callsign": null,
        "origin_country": "Austria",
        "time_position": 1785281567,
        "last_contact": 1785281723,
        "baro_altitude": null,
        "on_ground": true,
        "velocity": 0.45,
        "true_track": 312.19,
        "vertical_rate": null,
        "geo_altitude": null,
        "squawk": "4130",
        "spi": false,
        "position_source": 0
      }
    },
    {
      "type": "Feature",
      "geometry": {
        "type": "Point",
        "coordinates": [
          6.1363,
          40.4977
        ]
      },
      "properties": {
        "icao24": "4cc4c5",
        "callsign": "ABD5052",
        "origin_country": "Iceland",
        "time_position": 1785281725,
        "last_contact": 1785281725,
        "baro_altitude": 10058.4,
        "on_ground": false,
        "velocity": 253.14,
        "true_track": 174.75,
        "vertical_rate": 0,
        "geo_altitude": 10728.96,
        "squawk": "0101",
        "spi": false,
        "position_source": 0
      }
    },
    {
      "type": "Feature",
      "geometry": {
        "type": "Point",
        "coordinates": [
          10.1203,
          43.5785
        ]
      },
      "properties": {
        "icao24": "440484",
        "callsign": "EJU91TB",
        "origin_country": "Austria",
        "time_position": 1785281726,
        "last_contact": 1785281726,
        "baro_altitude": 9944.1,
        "on_ground": false,
        "velocity": 235.01,
        "true_track": 330.35,
        "vertical_rate": -4.88,
        "geo_altitude": 10607.04,
        "squawk": "7064",
        "spi": false,
        "position_source": 0
      }
    },
    {
      "type": "Feature",
      "geometry": {
        "type": "Point",
        "coordinates": [
          8.7313,
          45.6367
        ]
      },
      "properties": {
        "icao24": "440425",
        "callsign": "EJU17BL",
        "origin_country": "Austria",
        "time_position": 1785281726,
        "last_contact": 1785281726,
        "baro_altitude": null,
        "on_ground": true,
        "velocity": 14.4,
        "true_track": 329.06,
        "vertical_rate": null,
        "geo_altitude": null,
        "squawk": "1000",
        "spi": false,
        "position_source": 0
      }
    },
    {
      "type": "Feature",
      "geometry": {
        "type": "Point",
        "coordinates": [
          12.7371,
          45.4037
        ]
      },
      "properties": {
        "icao24": "406a62",
        "callsign": "EXS8HQ",
        "origin_country": "United Kingdom",
        "time_position": 1785281726,
        "last_contact": 1785281726,
        "baro_altitude": 11582.4,
        "on_ground": false,
        "velocity": 210.41,
        "true_track": 307.15,
        "vertical_rate": 0,
        "geo_altitude": 12252.96,
        "squawk": "6637",
        "spi": false,
        "position_source": 0
      }
    },
    {
      "type": "Feature",
      "geometry": {
        "type": "Point",
        "coordinates": [
          14.9756,
          45.969
        ]
      },
      "properties": {
        "icao24": "406a63",
        "callsign": "EXS3TJ",
        "origin_country": "United Kingdom",
        "time_position": 1785281726,
        "last_contact": 1785281726,
        "baro_altitude": 10972.8,
        "on_ground": false,
        "velocity": 213.63,
        "true_track": 330.1,
        "vertical_rate": -0.33,
        "geo_altitude": 11612.88,
        "squawk": "7734",
        "spi": false,
        "position_source": 0
      }
    },
    {
      "type": "Feature",
      "geometry": {
        "type": "Point",
        "coordinates": [
          6.713,
          43.4111
        ]
      },
      "properties": {
        "icao24": "3e31d8",
        "callsign": "PAV612",
        "origin_country": "Germany",
        "time_position": 1785281726,
        "last_contact": 1785281726,
        "baro_altitude": 2194.56,
        "on_ground": false,
        "velocity": 136.39,
        "true_track": 88.27,
        "vertical_rate": -6.5,
        "geo_altitude": 2400.3,
        "squawk": "1170",
        "spi": false,
        "position_source": 0
      }
    },
    {
      "type": "Feature",
      "geometry": {
        "type": "Point",
        "coordinates": [
          11.5287,
          45.9194
        ]
      },
      "properties": {
        "icao24": "407d5c",
        "callsign": "WUK7PY",
        "origin_country": "United Kingdom",
        "time_position": 1785281726,
        "last_contact": 1785281726,
        "baro_altitude": 10988.04,
        "on_ground": false,
        "velocity": 222.17,
        "true_track": 301.56,
        "vertical_rate": 0,
        "geo_altitude": 11658.6,
        "squawk": "5336",
        "spi": false,
        "position_source": 0
      }
    },
    {
      "type": "Feature",
      "geometry": {
        "type": "Point",
        "coordinates": [
          15.5537,
          44.9616
        ]
      },
      "properties": {
        "icao24": "4b9c63",
        "callsign": "BBT172",
        "origin_country": "Turkey",
        "time_position": 1785281725,
        "last_contact": 1785281726,
        "baro_altitude": 10363.2,
        "on_ground": false,
        "velocity": 229.57,
        "true_track": 19.37,
        "vertical_rate": 0,
        "geo_altitude": 10995.66,
        "squawk": "1000",
        "spi": false,
        "position_source": 0
      }
    },
    {
      "type": "Feature",
      "geometry": {
        "type": "Point",
        "coordinates": [
          13.5681,
          41.7575
        ]
      },
      "properties": {
        "icao24": "80159e",
        "callsign": "AIC191",
        "origin_country": "India",
        "time_position": 1785281725,
        "last_contact": 1785281726,
        "baro_altitude": 7886.7,
        "on_ground": false,
        "velocity": 204.76,
        "true_track": 279.98,
        "vertical_rate": -9.1,
        "geo_altitude": 8473.44,
        "squawk": "7730",
        "spi": false,
        "position_source": 0
      }
    },
    {
      "type": "Feature",
      "geometry": {
        "type": "Point",
        "coordinates": [
          6.2876,
          45.3798
        ]
      },
      "properties": {
        "icao24": "44056b",
        "callsign": "EJU96HC",
        "origin_country": "Austria",
        "time_position": 1785281726,
        "last_contact": 1785281726,
        "baro_altitude": 6332.22,
        "on_ground": false,
        "velocity": 211.57,
        "true_track": 281.5,
        "vertical_rate": -7.48,
        "geo_altitude": 6797.04,
        "squawk": "1000",
        "spi": false,
        "position_source": 0
      }
    },
    {
      "type": "Feature",
      "geometry": {
        "type": "Point",
        "coordinates": [
          8.5651,
          47.4419
        ]
      },
      "properties": {
        "icao24": "4b1802",
        "callsign": "SWR",
        "origin_country": "Switzerland",
        "time_position": 1785281724,
        "last_contact": 1785281726,
        "baro_altitude": null,
        "on_ground": true,
        "velocity": 0.06,
        "true_track": 146.25,
        "vertical_rate": null,
        "geo_altitude": null,
        "squawk": "2000",
        "spi": false,
        "position_source": 0
      }
    },
    {
      "type": "Feature",
      "geometry": {
        "type": "Point",
        "coordinates": [
          18.6703,
          42.2778
        ]
      },
      "properties": {
        "icao24": "408064",
        "callsign": "WUK7402",
        "origin_country": "United Kingdom",
        "time_position": 1785281725,
        "last_contact": 1785281725,
        "baro_altitude": 6758.94,
        "on_ground": false,
        "velocity": 225.95,
        "true_track": 136.2,
        "vertical_rate": -14.63,
        "geo_altitude": 7284.72,
        "squawk": "2252",
        "spi": false,
        "position_source": 0
      }
    },
    {
      "type": "Feature",
      "geometry": {
        "type": "Point",
        "coordinates": [
          18.2915,
          42.9205
        ]
      },
      "properties": {
        "icao24": "40804e",
        "callsign": "WUK8QH",
        "origin_country": "United Kingdom",
        "time_position": 1785281725,
        "last_contact": 1785281725,
        "baro_altitude": 10972.8,
        "on_ground": false,
        "velocity": 215.88,
        "true_track": 317.22,
        "vertical_rate": 0,
        "geo_altitude": 11666.22,
        "squawk": null,
        "spi": false,
        "position_source": 0
      }
    },
    {
      "type": "Feature",
      "geometry": {
        "type": "Point",
        "coordinates": [
          8.5307,
          45.2158
        ]
      },
      "properties": {
        "icao24": "440cbe",
        "callsign": "EJU35FN",
        "origin_country": "Austria",
        "time_position": 1785281725,
        "last_contact": 1785281726,
        "baro_altitude": 2849.88,
        "on_ground": false,
        "velocity": 136.94,
        "true_track": 329.77,
        "vertical_rate": -8.13,
        "geo_altitude": 3116.58,
        "squawk": "1000",
        "spi": false,
        "position_source": 0
      }
    },
    {
      "type": "Feature",
      "geometry": {
        "type": "Point",
        "coordinates": [
          7.6354,
          41.9369
        ]
      },
      "properties": {
        "icao24": "02a1a1",
        "callsign": "LBT789",
        "origin_country": "Tunisia",
        "time_position": 1785281725,
        "last_contact": 1785281725,
        "baro_altitude": 10668,
        "on_ground": false,
        "velocity": 227.32,
        "true_track": 152.8,
        "vertical_rate": -0.33,
        "geo_altitude": 11369.04,
        "squawk": "5667",
        "spi": false,
        "position_source": 0
      }
    },
    {
      "type": "Feature",
      "geometry": {
        "type": "Point",
        "coordinates": [
          18.2401,
          42.1606
        ]
      },
      "properties": {
        "icao24": "408262",
        "callsign": "EXS42YS",
        "origin_country": "United Kingdom",
        "time_position": 1785281725,
        "last_contact": 1785281725,
        "baro_altitude": 10980.42,
        "on_ground": false,
        "velocity": 221.36,
        "true_track": 310.95,
        "vertical_rate": 0,
        "geo_altitude": 11696.7,
        "squawk": "5506",
        "spi": false,
        "position_source": 0
      }
    },
    {
      "type": "Feature",
      "geometry": {
        "type": "Point",
        "coordinates": [
          14.6114,
          35.7965
        ]
      },
      "properties": {
        "icao24": "0a0045",
        "callsign": "DAH328",
        "origin_country": "Algeria",
        "time_position": 1785281725,
        "last_contact": 1785281725,
        "baro_altitude": 11887.2,
        "on_ground": false,
        "velocity": 252.13,
        "true_track": 96.44,
        "vertical_rate": 0,
        "geo_altitude": 12565.38,
        "squawk": "4115",
        "spi": false,
        "position_source": 0
      }
    },
    {
      "type": "Feature",
      "geometry": {
        "type": "Point",
        "coordinates": [
          7.7161,
          36.3658
        ]
      },
      "properties": {
        "icao24": "0a008c",
        "callsign": null,
        "origin_country": "Algeria",
        "time_position": 1785281636,
        "last_contact": 1785281636,
        "baro_altitude": 6751.32,
        "on_ground": false,
        "velocity": 215.71,
        "true_track": 85.49,
        "vertical_rate": 7.15,
        "geo_altitude": 6492.24,
        "squawk": null,
        "spi": false,
        "position_source": 0
      }
    },
    {
      "type": "Feature",
      "geometry": {
        "type": "Point",
        "coordinates": [
          6.644,
          39.9429
        ]
      },
      "properties": {
        "icao24": "02a1ab",
        "callsign": "LBL505",
        "origin_country": "Tunisia",
        "time_position": 1785281726,
        "last_contact": 1785281726,
        "baro_altitude": 11894.82,
        "on_ground": false,
        "velocity": 224.74,
        "true_track": 163.1,
        "vertical_rate": 0,
        "geo_altitude": 12656.82,
        "squawk": "5671",
        "spi": false,
        "position_source": 0
      }
    },
    {
      "type": "Feature",
      "geometry": {
        "type": "Point",
        "coordinates": [
          7.4775,
          42.1773
        ]
      },
      "properties": {
        "icao24": "02a1b4",
        "callsign": "LBT845",
        "origin_country": "Tunisia",
        "time_position": 1785281726,
        "last_contact": 1785281726,
        "baro_altitude": 11269.98,
        "on_ground": false,
        "velocity": 230.3,
        "true_track": 153.03,
        "vertical_rate": 0,
        "geo_altitude": 11993.88,
        "squawk": "5670",
        "spi": false,
        "position_source": 0
      }
    },
    {
      "type": "Feature",
      "geometry": {
        "type": "Point",
        "coordinates": [
          12.8811,
          45.1981
        ]
      },
      "properties": {
        "icao24": "738c0c",
        "callsign": "ICL982",
        "origin_country": "Israel",
        "time_position": 1785281725,
        "last_contact": 1785281725,
        "baro_altitude": 11277.6,
        "on_ground": false,
        "velocity": 270.67,
        "true_track": 125.56,
        "vertical_rate": 0,
        "geo_altitude": 11917.68,
        "squawk": "2206",
        "spi": false,
        "position_source": 0
      }
    },
    {
      "type": "Feature",
      "geometry": {
        "type": "Point",
        "coordinates": [
          17.5673,
          47.4374
        ]
      },
      "properties": {
        "icao24": "44b0c3",
        "callsign": "ABB864",
        "origin_country": "Belgium",
        "time_position": 1785281726,
        "last_contact": 1785281726,
        "baro_altitude": 10363.2,
        "on_ground": false,
        "velocity": 228.63,
        "true_track": 294.32,
        "vertical_rate": 0,
        "geo_altitude": 10911.84,
        "squawk": "1000",
        "spi": false,
        "position_source": 0
      }
    },
    {
      "type": "Feature",
      "geometry": {
        "type": "Point",
        "coordinates": [
          10.2397,
          46.4779
        ]
      },
      "properties": {
        "icao24": "408000",
        "callsign": "EZY89KT",
        "origin_country": "United Kingdom",
        "time_position": 1785281726,
        "last_contact": 1785281726,
        "baro_altitude": 11582.4,
        "on_ground": false,
        "velocity": 223.37,
        "true_track": 306.95,
        "vertical_rate": 0,
        "geo_altitude": 12237.72,
        "squawk": "2760",
        "spi": false,
        "position_source": 0
      }
    },
    {
      "type": "Feature",
      "geometry": {
        "type": "Point",
        "coordinates": [
          13.9118,
          46.4724
        ]
      },
      "properties": {
        "icao24": "408033",
        "callsign": "EXS56HW",
        "origin_country": "United Kingdom",
        "time_position": 1785281726,
        "last_contact": 1785281726,
        "baro_altitude": 10965.18,
        "on_ground": false,
        "velocity": 212.91,
        "true_track": 308.92,
        "vertical_rate": 0,
        "geo_altitude": 11605.26,
        "squawk": "5314",
        "spi": false,
        "position_source": 0
      }
    },
    {
      "type": "Feature",
      "geometry": {
        "type": "Point",
        "coordinates": [
          12.2763,
          45.7402
        ]
      },
      "properties": {
        "icao24": "408011",
        "callsign": "EZY15JF",
        "origin_country": "United Kingdom",
        "time_position": 1785281726,
        "last_contact": 1785281726,
        "baro_altitude": 10972.8,
        "on_ground": false,
        "velocity": 212.3,
        "true_track": 300.11,
        "vertical_rate": 0,
        "geo_altitude": 11628.12,
        "squawk": "1152",
        "spi": false,
        "position_source": 0
      }
    },
    {
      "type": "Feature",
      "geometry": {
        "type": "Point",
        "coordinates": [
          7.6539,
          47.1867
        ]
      },
      "properties": {
        "icao24": "440bcc",
        "callsign": "BCS6YG",
        "origin_country": "Austria",
        "time_position": 1785281725,
        "last_contact": 1785281725,
        "baro_altitude": 11277.6,
        "on_ground": false,
        "velocity": 237.8,
        "true_track": 151.44,
        "vertical_rate": 0,
        "geo_altitude": 11894.82,
        "squawk": "0504",
        "spi": false,
        "position_source": 0
      }
    },
    {
      "type": "Feature",
      "geometry": {
        "type": "Point",
        "coordinates": [
          7.762,
          45.631
        ]
      },
      "properties": {
        "icao24": "440bc8",
        "callsign": "BCS76P",
        "origin_country": "Austria",
        "time_position": 1785281726,
        "last_contact": 1785281726,
        "baro_altitude": 6949.44,
        "on_ground": false,
        "velocity": 203.23,
        "true_track": 299.74,
        "vertical_rate": 10.08,
        "geo_altitude": 7421.88,
        "squawk": "0467",
        "spi": false,
        "position_source": 0
      }
    },
    {
      "type": "Feature",
      "geometry": {
        "type": "Point",
        "coordinates": [
          9.8738,
          39.4874
        ]
      },
      "properties": {
        "icao24": "4ca907",
        "callsign": "MSA83E",
        "origin_country": "Ireland",
        "time_position": 1785281578,
        "last_contact": 1785281578,
        "baro_altitude": 4831.08,
        "on_ground": false,
        "velocity": 199.81,
        "true_track": 217.05,
        "vertical_rate": -12.35,
        "geo_altitude": 5189.22,
        "squawk": "6463",
        "spi": false,
        "position_source": 0
      }
    },
    {
      "type": "Feature",
      "geometry": {
        "type": "Point",
        "coordinates": [
          17.1021,
          43.0925
        ]
      },
      "properties": {
        "icao24": "4ca960",
        "callsign": "NOS2610",
        "origin_country": "Ireland",
        "time_position": 1785281726,
        "last_contact": 1785281726,
        "baro_altitude": 10668,
        "on_ground": false,
        "velocity": 254.32,
        "true_track": 118.12,
        "vertical_rate": 0,
        "geo_altitude": 11338.56,
        "squawk": "0257",
        "spi": false,
        "position_source": 0
      }
    },
    {
      "type": "Feature",
      "geometry": {
        "type": "Point",
        "coordinates": [
          18.3183,
          46.5893
        ]
      },
      "properties": {
        "icao24": "49d5ee",
        "callsign": "TVS2253",
        "origin_country": "Czech Republic",
        "time_position": 1785281726,
        "last_contact": 1785281726,
        "baro_altitude": 10965.18,
        "on_ground": false,
        "velocity": 209.76,
        "true_track": 327.01,
        "vertical_rate": -0.33,
        "geo_altitude": 11551.92,
        "squawk": "1735",
        "spi": false,
        "position_source": 0
      }
    },
    {
      "type": "Feature",
      "geometry": {
        "type": "Point",
        "coordinates": [
          14.6211,
          42.4932
        ]
      },
      "properties": {
        "icao24": "4ca6fc",
        "callsign": "RYR7PV",
        "origin_country": "Ireland",
        "time_position": 1785281723,
        "last_contact": 1785281726,
        "baro_altitude": 11582.4,
        "on_ground": false,
        "velocity": 222.89,
        "true_track": 307.87,
        "vertical_rate": 0,
        "geo_altitude": 12291.06,
        "squawk": "4415",
        "spi": false,
        "position_source": 0
      }
    },
    {
      "type": "Feature",
      "geometry": {
        "type": "Point",
        "coordinates": [
          12.1122,
          42.4255
        ]
      },
      "properties": {
        "icao24": "4ca82b",
        "callsign": "MSA92C",
        "origin_country": "Ireland",
        "time_position": 1785281726,
        "last_contact": 1785281726,
        "baro_altitude": 11894.82,
        "on_ground": false,
        "velocity": 236.21,
        "true_track": 155.56,
        "vertical_rate": 0,
        "geo_altitude": 12633.96,
        "squawk": "7466",
        "spi": false,
        "position_source": 0
      }
    },
    {
      "type": "Feature",
      "geometry": {
        "type": "Point",
        "coordinates": [
          15.6374,
          41.3342
        ]
      },
      "properties": {
        "icao24": "4ca82c",
        "callsign": "MSA56B",
        "origin_country": "Ireland",
        "time_position": 1785281726,
        "last_contact": 1785281726,
        "baro_altitude": 4930.14,
        "on_ground": false,
        "velocity": 198.81,
        "true_track": 113.65,
        "vertical_rate": -15.28,
        "geo_altitude": 5356.86,
        "squawk": "1000",
        "spi": false,
        "position_source": 0
      }
    },
    {
      "type": "Feature",
      "geometry": {
        "type": "Point",
        "coordinates": [
          18.4921,
          46.3056
        ]
      },
      "properties": {
        "icao24": "4bcde3",
        "callsign": "SXS4ZH",
        "origin_country": "Turkey",
        "time_position": 1785281725,
        "last_contact": 1785281726,
        "baro_altitude": 10668,
        "on_ground": false,
        "velocity": 258.48,
        "true_track": 140.73,
        "vertical_rate": 0,
        "geo_altitude": 11254.74,
        "squawk": "6033",
        "spi": false,
        "position_source": 0
      }
    },
    {
      "type": "Feature",
      "geometry": {
        "type": "Point",
        "coordinates": [
          14.878,
          45.8603
        ]
      },
      "properties": {
        "icao24": "405e24",
        "callsign": "TOM5JX",
        "origin_country": "United Kingdom",
        "time_position": 1785281726,
        "last_contact": 1785281726,
        "baro_altitude": 11582.4,
        "on_ground": false,
        "velocity": 209.21,
        "true_track": 311.41,
        "vertical_rate": 0,
        "geo_altitude": 12230.1,
        "squawk": "5652",
        "spi": false,
        "position_source": 0
      }
    },
    {
      "type": "Feature",
      "geometry": {
        "type": "Point",
        "coordinates": [
          16.8439,
          47.3107
        ]
      },
      "properties": {
        "icao24": "4bce43",
        "callsign": "SXS4UQ",
        "origin_country": "Turkey",
        "time_position": 1785281726,
        "last_contact": 1785281726,
        "baro_altitude": 11582.4,
        "on_ground": false,
        "velocity": 207.4,
        "true_track": 305.31,
        "vertical_rate": 0,
        "geo_altitude": 12192,
        "squawk": "3235",
        "spi": false,
        "position_source": 0
      }
    },
    {
      "type": "Feature",
      "geometry": {
        "type": "Point",
        "coordinates": [
          12.9525,
          47.4546
        ]
      },
      "properties": {
        "icao24": "4bcda5",
        "callsign": "SXS93K",
        "origin_country": "Turkey",
        "time_position": 1785281726,
        "last_contact": 1785281726,
        "baro_altitude": 11582.4,
        "on_ground": false,
        "velocity": 214.72,
        "true_track": 316.75,
        "vertical_rate": 0,
        "geo_altitude": 12199.62,
        "squawk": "5335",
        "spi": false,
        "position_source": 0
      }
    },
    {
      "type": "Feature",
      "geometry": {
        "type": "Point",
        "coordinates": [
          13.4087,
          47.7582
        ]
      },
      "properties": {
        "icao24": "4bcdb0",
        "callsign": "SXS2GA",
        "origin_country": "Turkey",
        "time_position": 1785281725,
        "last_contact": 1785281726,
        "baro_altitude": 11277.6,
        "on_ground": false,
        "velocity": 250.49,
        "true_track": 131.09,
        "vertical_rate": 0,
        "geo_altitude": 11887.2,
        "squawk": "7716",
        "spi": false,
        "position_source": 0
      }
    },
    {
      "type": "Feature",
      "geometry": {
        "type": "Point",
        "coordinates": [
          11.3696,
          36.7867
        ]
      },
      "properties": {
        "icao24": "4bcced",
        "callsign": "THY6114",
        "origin_country": "Turkey",
        "time_position": 1785281726,
        "last_contact": 1785281726,
        "baro_altitude": 4495.8,
        "on_ground": false,
        "velocity": 184.81,
        "true_track": 263.61,
        "vertical_rate": -7.48,
        "geo_altitude": 4831.08,
        "squawk": "2312",
        "spi": false,
        "position_source": 0
      }
    },
    {
      "type": "Feature",
      "geometry": {
        "type": "Point",
        "coordinates": [
          18.697,
          47.4665
        ]
      },
      "properties": {
        "icao24": "4bce15",
        "callsign": "SXS14E",
        "origin_country": "Turkey",
        "time_position": 1785281726,
        "last_contact": 1785281726,
        "baro_altitude": 11277.6,
        "on_ground": false,
        "velocity": 254.28,
        "true_track": 145.63,
        "vertical_rate": 0,
        "geo_altitude": 11841.48,
        "squawk": "4233",
        "spi": false,
        "position_source": 0
      }
    },
    {
      "type": "Feature",
      "geometry": {
        "type": "Point",
        "coordinates": [
          15.6235,
          44.5475
        ]
      },
      "properties": {
        "icao24": "40768a",
        "callsign": "EZY52DQ",
        "origin_country": "United Kingdom",
        "time_position": 1785281726,
        "last_contact": 1785281726,
        "baro_altitude": 10972.8,
        "on_ground": false,
        "velocity": 208.73,
        "true_track": 295.24,
        "vertical_rate": 0,
        "geo_altitude": 11643.36,
        "squawk": "5355",
        "spi": false,
        "position_source": 0
      }
    },
    {
      "type": "Feature",
      "geometry": {
        "type": "Point",
        "coordinates": [
          10.2836,
          47.5711
        ]
      },
      "properties": {
        "icao24": "407687",
        "callsign": "EZY34PE",
        "origin_country": "United Kingdom",
        "time_position": 1785281725,
        "last_contact": 1785281725,
        "baro_altitude": 11567.16,
        "on_ground": false,
        "velocity": 217.66,
        "true_track": 321.91,
        "vertical_rate": 0,
        "geo_altitude": 12184.38,
        "squawk": "3126",
        "spi": false,
        "position_source": 0
      }
    },
    {
      "type": "Feature",
      "geometry": {
        "type": "Point",
        "coordinates": [
          8.0034,
          47.6863
        ]
      },
      "properties": {
        "icao24": "4074b8",
        "callsign": "EZY18GD",
        "origin_country": "United Kingdom",
        "time_position": 1785281726,
        "last_contact": 1785281726,
        "baro_altitude": 11582.4,
        "on_ground": false,
        "velocity": 216.33,
        "true_track": 304.63,
        "vertical_rate": 0,
        "geo_altitude": 12199.62,
        "squawk": "7466",
        "spi": false,
        "position_source": 0
      }
    },
    {
      "type": "Feature",
      "geometry": {
        "type": "Point",
        "coordinates": [
          6.1302,
          41.5448
        ]
      },
      "properties": {
        "icao24": "06e028",
        "callsign": "RWD701",
        "origin_country": "Rwanda",
        "time_position": 1785281726,
        "last_contact": 1785281726,
        "baro_altitude": 11277.6,
        "on_ground": false,
        "velocity": 239.89,
        "true_track": 175.7,
        "vertical_rate": 0,
        "geo_altitude": 12009.12,
        "squawk": "0115",
        "spi": false,
        "position_source": 0
      }
    },
    {
      "type": "Feature",
      "geometry": {
        "type": "Point",
        "coordinates": [
          15.3276,
          39.7545
        ]
      },
      "properties": {
        "icao24": "4cafcb",
        "callsign": "MSA95S",
        "origin_country": "Ireland",
        "time_position": 1785281605,
        "last_contact": 1785281608,
        "baro_altitude": 6210.3,
        "on_ground": false,
        "velocity": 191.64,
        "true_track": 145.5,
        "vertical_rate": -14.31,
        "geo_altitude": 6629.4,
        "squawk": "1000",
        "spi": false,
        "position_source": 0
      }
    },
    {
      "type": "Feature",
      "geometry": {
        "type": "Point",
        "coordinates": [
          8.6222,
          44.8593
        ]
      },
      "properties": {
        "icao24": "4cafd0",
        "callsign": "RYR9DB",
        "origin_country": "Ireland",
        "time_position": 1785281726,
        "last_contact": 1785281726,
        "baro_altitude": 4053.84,
        "on_ground": false,
        "velocity": 178.39,
        "true_track": 349.53,
        "vertical_rate": -7.15,
        "geo_altitude": 4389.12,
        "squawk": "1000",
        "spi": false,
        "position_source": 0
      }
    },
    {
      "type": "Feature",
      "geometry": {
        "type": "Point",
        "coordinates": [
          17.8302,
          47.3105
        ]
      },
      "properties": {
        "icao24": "01023a",
        "callsign": "MSC2908",
        "origin_country": "Egypt",
        "time_position": 1785281726,
        "last_contact": 1785281726,
        "baro_altitude": 10972.8,
        "on_ground": false,
        "velocity": 211.54,
        "true_track": 317.46,
        "vertical_rate": 0,
        "geo_altitude": 11574.78,
        "squawk": "2656",
        "spi": false,
        "position_source": 0
      }
    },
    {
      "type": "Feature",
      "geometry": {
        "type": "Point",
        "coordinates": [
          18.4356,
          42.0991
        ]
      },
      "properties": {
        "icao24": "010264",
        "callsign": "MSC2918",
        "origin_country": "Egypt",
        "time_position": 1785281726,
        "last_contact": 1785281726,
        "baro_altitude": 11582.4,
        "on_ground": false,
        "velocity": 227.39,
        "true_track": 323.65,
        "vertical_rate": 0,
        "geo_altitude": 12306.3,
        "squawk": "5536",
        "spi": false,
        "position_source": 0
      }
    },
    {
      "type": "Feature",
      "geometry": {
        "type": "Point",
        "coordinates": [
          18.9569,
          46.355
        ]
      },
      "properties": {
        "icao24": "010266",
        "callsign": "MSC2938",
        "origin_country": "Egypt",
        "time_position": 1785281726,
        "last_contact": 1785281726,
        "baro_altitude": 10965.18,
        "on_ground": false,
        "velocity": 209.66,
        "true_track": 320.18,
        "vertical_rate": 0,
        "geo_altitude": 11567.16,
        "squawk": "2660",
        "spi": false,
        "position_source": 0
      }
    },
    {
      "type": "Feature",
      "geometry": {
        "type": "Point",
        "coordinates": [
          18.3657,
          43.4866
        ]
      },
      "properties": {
        "icao24": "010205",
        "callsign": "MSR780",
        "origin_country": "Egypt",
        "time_position": 1785281726,
        "last_contact": 1785281726,
        "baro_altitude": 10668,
        "on_ground": false,
        "velocity": 259.77,
        "true_track": 135.96,
        "vertical_rate": 0,
        "geo_altitude": 11330.94,
        "squawk": "2262",
        "spi": false,
        "position_source": 0
      }
    },
    {
      "type": "Feature",
      "geometry": {
        "type": "Point",
        "coordinates": [
          16.7609,
          45.9901
        ]
      },
      "properties": {
        "icao24": "01028e",
        "callsign": "NMA750",
        "origin_country": "Egypt",
        "time_position": 1785281726,
        "last_contact": 1785281726,
        "baro_altitude": 10972.8,
        "on_ground": false,
        "velocity": 216.28,
        "true_track": 319.15,
        "vertical_rate": 0,
        "geo_altitude": 11597.64,
        "squawk": "7740",
        "spi": false,
        "position_source": 0
      }
    },
    {
      "type": "Feature",
      "geometry": {
        "type": "Point",
        "coordinates": [
          14.0326,
          45.0796
        ]
      },
      "properties": {
        "icao24": "407739",
        "callsign": "TOM30A",
        "origin_country": "United Kingdom",
        "time_position": 1785281725,
        "last_contact": 1785281725,
        "baro_altitude": 9144,
        "on_ground": false,
        "velocity": 234.71,
        "true_track": 307.7,
        "vertical_rate": 0,
        "geo_altitude": 9745.98,
        "squawk": "5662",
        "spi": false,
        "position_source": 0
      }
    },
    {
      "type": "Feature",
      "geometry": {
        "type": "Point",
        "coordinates": [
          13.2336,
          46.6772
        ]
      },
      "properties": {
        "icao24": "407731",
        "callsign": "EXS94BN",
        "origin_country": "United Kingdom",
        "time_position": 1785281725,
        "last_contact": 1785281725,
        "baro_altitude": 11582.4,
        "on_ground": false,
        "velocity": 211.24,
        "true_track": 309.47,
        "vertical_rate": 0.33,
        "geo_altitude": 12207.24,
        "squawk": "5312",
        "spi": false,
        "position_source": 0
      }
    },
    {
      "type": "Feature",
      "geometry": {
        "type": "Point",
        "coordinates": [
          17.2381,
          41.9354
        ]
      },
      "properties": {
        "icao24": "4075f3",
        "callsign": "TOM2PY",
        "origin_country": "United Kingdom",
        "time_position": 1785281726,
        "last_contact": 1785281726,
        "baro_altitude": 11582.4,
        "on_ground": false,
        "velocity": 223,
        "true_track": 315.65,
        "vertical_rate": 0,
        "geo_altitude": 12306.3,
        "squawk": "7741",
        "spi": false,
        "position_source": 0
      }
    },
    {
      "type": "Feature",
      "geometry": {
        "type": "Point",
        "coordinates": [
          12.4872,
          45.385
        ]
      },
      "properties": {
        "icao24": "0101de",
        "callsign": "MSR982",
        "origin_country": "Egypt",
        "time_position": 1785281726,
        "last_contact": 1785281726,
        "baro_altitude": 11887.2,
        "on_ground": false,
        "velocity": 268.25,
        "true_track": 123.26,
        "vertical_rate": 0,
        "geo_altitude": 12565.38,
        "squawk": "2220",
        "spi": false,
        "position_source": 0
      }
    },
    {
      "type": "Feature",
      "geometry": {
        "type": "Point",
        "coordinates": [
          17.529,
          40.6969
        ]
      },
      "properties": {
        "icao24": "4d23e1",
        "callsign": "CHZ212",
        "origin_country": "Malta",
        "time_position": 1785281726,
        "last_contact": 1785281726,
        "baro_altitude": 11277.6,
        "on_ground": false,
        "velocity": 241.28,
        "true_track": 140.71,
        "vertical_rate": 0,
        "geo_altitude": 11940.54,
        "squawk": "3560",
        "spi": false,
        "position_source": 0
      }
    },
    {
      "type": "Feature",
      "geometry": {
        "type": "Point",
        "coordinates": [
          13.2433,
          44.4596
        ]
      },
      "properties": {
        "icao24": "4cadbf",
        "callsign": "RYR81LE",
        "origin_country": "Ireland",
        "time_position": 1785281726,
        "last_contact": 1785281726,
        "baro_altitude": 10972.8,
        "on_ground": false,
        "velocity": 218.44,
        "true_track": 280.86,
        "vertical_rate": 0,
        "geo_altitude": 11643.36,
        "squawk": "4135",
        "spi": false,
        "position_source": 0
      }
    },
    {
      "type": "Feature",
      "geometry": {
        "type": "Point",
        "coordinates": [
          14.0491,
          36.4171
        ]
      },
      "properties": {
        "icao24": "4cadba",
        "callsign": "RYR14YV",
        "origin_country": "Ireland",
        "time_position": 1785281726,
        "last_contact": 1785281726,
        "baro_altitude": 3383.28,
        "on_ground": false,
        "velocity": 159.71,
        "true_track": 154.84,
        "vertical_rate": -8.13,
        "geo_altitude": 3665.22,
        "squawk": "0542",
        "spi": false,
        "position_source": 0
      }
    },
    {
      "type": "Feature",
      "geometry": {
        "type": "Point",
        "coordinates": [
          7.2462,
          40.7108
        ]
      },
      "properties": {
        "icao24": "4d2475",
        "callsign": "BBG251",
        "origin_country": "Malta",
        "time_position": 1785281726,
        "last_contact": 1785281726,
        "baro_altitude": 10363.2,
        "on_ground": false,
        "velocity": 246.17,
        "true_track": 95.88,
        "vertical_rate": 0,
        "geo_altitude": 11071.86,
        "squawk": "1410",
        "spi": false,
        "position_source": 0
      }
    },
    {
      "type": "Feature",
      "geometry": {
        "type": "Point",
        "coordinates": [
          15.6889,
          43.2586
        ]
      },
      "properties": {
        "icao24": "4d245b",
        "callsign": "WMT1Q",
        "origin_country": "Malta",
        "time_position": 1785281726,
        "last_contact": 1785281726,
        "baro_altitude": 11285.22,
        "on_ground": false,
        "velocity": 244.88,
        "true_track": 61.93,
        "vertical_rate": 0,
        "geo_altitude": 11978.64,
        "squawk": "1235",
        "spi": false,
        "position_source": 0
      }
    },
    {
      "type": "Feature",
      "geometry": {
        "type": "Point",
        "coordinates": [
          10.2043,
          44.1776
        ]
      },
      "properties": {
        "icao24": "33fce0",
        "callsign": "RILA",
        "origin_country": "Italy",
        "time_position": 1785281725,
        "last_contact": 1785281726,
        "baro_altitude": 1607.82,
        "on_ground": false,
        "velocity": 46.66,
        "true_track": 304.22,
        "vertical_rate": 1.3,
        "geo_altitude": 1607.82,
        "squawk": null,
        "spi": false,
        "position_source": 0
      }
    },
    {
      "type": "Feature",
      "geometry": {
        "type": "Point",
        "coordinates": [
          14.197,
          47.442
        ]
      },
      "properties": {
        "icao24": "4cae85",
        "callsign": "TFL9MC",
        "origin_country": "Ireland",
        "time_position": 1785281726,
        "last_contact": 1785281726,
        "baro_altitude": 10972.8,
        "on_ground": false,
        "velocity": 218.91,
        "true_track": 317.95,
        "vertical_rate": 0,
        "geo_altitude": 11582.4,
        "squawk": "5331",
        "spi": false,
        "position_source": 0
      }
    },
    {
      "type": "Feature",
      "geometry": {
        "type": "Point",
        "coordinates": [
          9.1258,
          45.8816
        ]
      },
      "properties": {
        "icao24": "4caca2",
        "callsign": "ABR177",
        "origin_country": "Ireland",
        "time_position": 1785281725,
        "last_contact": 1785281725,
        "baro_altitude": 4861.56,
        "on_ground": false,
        "velocity": 110.27,
        "true_track": 348.43,
        "vertical_rate": 4.88,
        "geo_altitude": 5212.08,
        "squawk": "1000",
        "spi": false,
        "position_source": 0
      }
    },
    {
      "type": "Feature",
      "geometry": {
        "type": "Point",
        "coordinates": [
          14.7074,
          46.8902
        ]
      },
      "properties": {
        "icao24": "4070ec",
        "callsign": "EXS7JF",
        "origin_country": "United Kingdom",
        "time_position": 1785281726,
        "last_contact": 1785281726,
        "baro_altitude": 11582.4,
        "on_ground": false,
        "velocity": 209.2,
        "true_track": 316.1,
        "vertical_rate": 0,
        "geo_altitude": 12207.24,
        "squawk": "6626",
        "spi": false,
        "position_source": 0
      }
    },
    {
      "type": "Feature",
      "geometry": {
        "type": "Point",
        "coordinates": [
          8.726,
          45.6484
        ]
      },
      "properties": {
        "icao24": "4cad4b",
        "callsign": "ABR420",
        "origin_country": "Ireland",
        "time_position": 1785281715,
        "last_contact": 1785281715,
        "baro_altitude": null,
        "on_ground": true,
        "velocity": 0,
        "true_track": 36.56,
        "vertical_rate": null,
        "geo_altitude": null,
        "squawk": null,
        "spi": false,
        "position_source": 0
      }
    },
    {
      "type": "Feature",
      "geometry": {
        "type": "Point",
        "coordinates": [
          6.3228,
          45.903
        ]
      },
      "properties": {
        "icao24": "45d970",
        "callsign": "VKG505",
        "origin_country": "Denmark",
        "time_position": 1785281726,
        "last_contact": 1785281726,
        "baro_altitude": 12192,
        "on_ground": false,
        "velocity": 239.48,
        "true_track": 357.29,
        "vertical_rate": 0,
        "geo_altitude": 12862.56,
        "squawk": "5526",
        "spi": false,
        "position_source": 0
      }
    },
    {
      "type": "Feature",
      "geometry": {
        "type": "Point",
        "coordinates": [
          10.764,
          43.5168
        ]
      },
      "properties": {
        "icao24": "4d2243",
        "callsign": "RYR7DE",
        "origin_country": "Malta",
        "time_position": 1785281726,
        "last_contact": 1785281726,
        "baro_altitude": 7917.18,
        "on_ground": false,
        "velocity": 229.07,
        "true_track": 19,
        "vertical_rate": -12.03,
        "geo_altitude": 8488.68,
        "squawk": "5112",
        "spi": false,
        "position_source": 0
      }
    },
    {
      "type": "Feature",
      "geometry": {
        "type": "Point",
        "coordinates": [
          8.3911,
          46.228
        ]
      },
      "properties": {
        "icao24": "4d2215",
        "callsign": "RYR44GP",
        "origin_country": "Malta",
        "time_position": 1785281726,
        "last_contact": 1785281726,
        "baro_altitude": 6652.26,
        "on_ground": false,
        "velocity": 229.31,
        "true_track": 148.49,
        "vertical_rate": -14.96,
        "geo_altitude": 7139.94,
        "squawk": "1157",
        "spi": false,
        "position_source": 0
      }
    },
    {
      "type": "Feature",
      "geometry": {
        "type": "Point",
        "coordinates": [
          17.7649,
          45.7327
        ]
      },
      "properties": {
        "icao24": "406012",
        "callsign": "EZY21FA",
        "origin_country": "United Kingdom",
        "time_position": 1785281726,
        "last_contact": 1785281726,
        "baro_altitude": 10972.8,
        "on_ground": false,
        "velocity": 203.08,
        "true_track": 302.48,
        "vertical_rate": -0.33,
        "geo_altitude": 11597.64,
        "squawk": "2642",
        "spi": false,
        "position_source": 0
      }
    },
    {
      "type": "Feature",
      "geometry": {
        "type": "Point",
        "coordinates": [
          9.7403,
          45.6617
        ]
      },
      "properties": {
        "icao24": "4d2268",
        "callsign": "RYR7BE",
        "origin_country": "Malta",
        "time_position": 1785281432,
        "last_contact": 1785281434,
        "baro_altitude": 236.22,
        "on_ground": false,
        "velocity": 79.73,
        "true_track": 284.57,
        "vertical_rate": -3.9,
        "geo_altitude": 365.76,
        "squawk": "6464",
        "spi": false,
        "position_source": 0
      }
    },
    {
      "type": "Feature",
      "geometry": {
        "type": "Point",
        "coordinates": [
          13.0474,
          35.9165
        ]
      },
      "properties": {
        "icao24": "71005a",
        "callsign": "SVA342",
        "origin_country": "Saudi Arabia",
        "time_position": 1785281726,
        "last_contact": 1785281726,
        "baro_altitude": 11277.6,
        "on_ground": false,
        "velocity": 250.88,
        "true_track": 96,
        "vertical_rate": 0,
        "geo_altitude": 11910.06,
        "squawk": "4270",
        "spi": false,
        "position_source": 0
      }
    },
    {
      "type": "Feature",
      "geometry": {
        "type": "Point",
        "coordinates": [
          11.8483,
          40.0066
        ]
      },
      "properties": {
        "icao24": "4cac36",
        "callsign": "NOS9030",
        "origin_country": "Ireland",
        "time_position": 1785281726,
        "last_contact": 1785281726,
        "baro_altitude": 10668,
        "on_ground": false,
        "velocity": 237.87,
        "true_track": 102.74,
        "vertical_rate": 0,
        "geo_altitude": 11384.28,
        "squawk": "5213",
        "spi": false,
        "position_source": 0
      }
    },
    {
      "type": "Feature",
      "geometry": {
        "type": "Point",
        "coordinates": [
          14.3031,
          40.4438
        ]
      },
      "properties": {
        "icao24": "4d20e5",
        "callsign": "HAT412P",
        "origin_country": "Malta",
        "time_position": 1785281724,
        "last_contact": 1785281725,
        "baro_altitude": 2964.18,
        "on_ground": false,
        "velocity": 138.25,
        "true_track": 94.27,
        "vertical_rate": -7.15,
        "geo_altitude": 3223.26,
        "squawk": "1454",
        "spi": false,
        "position_source": 0
      }
    },
    {
      "type": "Feature",
      "geometry": {
        "type": "Point",
        "coordinates": [
          18.8609,
          43.7068
        ]
      },
      "properties": {
        "icao24": "408352",
        "callsign": "EXS87ET",
        "origin_country": "United Kingdom",
        "time_position": 1785281726,
        "last_contact": 1785281726,
        "baro_altitude": 10972.8,
        "on_ground": false,
        "velocity": 208.81,
        "true_track": 310.2,
        "vertical_rate": 0,
        "geo_altitude": 11635.74,
        "squawk": "2043",
        "spi": false,
        "position_source": 0
      }
    },
    {
      "type": "Feature",
      "geometry": {
        "type": "Point",
        "coordinates": [
          13.6151,
          46.713
        ]
      },
      "properties": {
        "icao24": "408346",
        "callsign": "EXS70VV",
        "origin_country": "United Kingdom",
        "time_position": 1785281726,
        "last_contact": 1785281726,
        "baro_altitude": 10980.42,
        "on_ground": false,
        "velocity": 213.73,
        "true_track": 307.86,
        "vertical_rate": 0,
        "geo_altitude": 11620.5,
        "squawk": "2001",
        "spi": false,
        "position_source": 0
      }
    },
    {
      "type": "Feature",
      "geometry": {
        "type": "Point",
        "coordinates": [
          12.2428,
          47.3559
        ]
      },
      "properties": {
        "icao24": "40832c",
        "callsign": "TOM7NV",
        "origin_country": "United Kingdom",
        "time_position": 1785281726,
        "last_contact": 1785281726,
        "baro_altitude": 12192,
        "on_ground": false,
        "velocity": 216.47,
        "true_track": 304.45,
        "vertical_rate": 0,
        "geo_altitude": 12824.46,
        "squawk": "5661",
        "spi": false,
        "position_source": 0
      }
    },
    {
      "type": "Feature",
      "geometry": {
        "type": "Point",
        "coordinates": [
          12.2789,
          46.9889
        ]
      },
      "properties": {
        "icao24": "710121",
        "callsign": "SVA022",
        "origin_country": "Saudi Arabia",
        "time_position": 1785281725,
        "last_contact": 1785281725,
        "baro_altitude": 10058.4,
        "on_ground": false,
        "velocity": 268.75,
        "true_track": 108.3,
        "vertical_rate": 0,
        "geo_altitude": 10668,
        "squawk": "2267",
        "spi": false,
        "position_source": 0
      }
    },
    {
      "type": "Feature",
      "geometry": {
        "type": "Point",
        "coordinates": [
          14.6435,
          44.6633
        ]
      },
      "properties": {
        "icao24": "408329",
        "callsign": "TOM627",
        "origin_country": "United Kingdom",
        "time_position": 1785281726,
        "last_contact": 1785281726,
        "baro_altitude": 11582.4,
        "on_ground": false,
        "velocity": 211.74,
        "true_track": 303.81,
        "vertical_rate": 0,
        "geo_altitude": 12275.82,
        "squawk": "5333",
        "spi": false,
        "position_source": 0
      }
    },
    {
      "type": "Feature",
      "geometry": {
        "type": "Point",
        "coordinates": [
          13.1971,
          45.1555
        ]
      },
      "properties": {
        "icao24": "408314",
        "callsign": "TOM225",
        "origin_country": "United Kingdom",
        "time_position": 1785281725,
        "last_contact": 1785281725,
        "baro_altitude": 11582.4,
        "on_ground": false,
        "velocity": 213.51,
        "true_track": 307.56,
        "vertical_rate": 0,
        "geo_altitude": 12260.58,
        "squawk": "6633",
        "spi": false,
        "position_source": 0
      }
    },
    {
      "type": "Feature",
      "geometry": {
        "type": "Point",
        "coordinates": [
          8.9686,
          45.2807
        ]
      },
      "properties": {
        "icao24": "4d2095",
        "callsign": "RYR9439",
        "origin_country": "Malta",
        "time_position": 1785281725,
        "last_contact": 1785281725,
        "baro_altitude": 2468.88,
        "on_ground": false,
        "velocity": 130.62,
        "true_track": 172.99,
        "vertical_rate": -9.75,
        "geo_altitude": 2712.72,
        "squawk": "1000",
        "spi": false,
        "position_source": 0
      }
    },
    {
      "type": "Feature",
      "geometry": {
        "type": "Point",
        "coordinates": [
          10.2787,
          46.6478
        ]
      },
      "properties": {
        "icao24": "40717c",
        "callsign": "EXS4CX",
        "origin_country": "United Kingdom",
        "time_position": 1785281725,
        "last_contact": 1785281725,
        "baro_altitude": 10972.8,
        "on_ground": false,
        "velocity": 217.03,
        "true_track": 304.18,
        "vertical_rate": 0,
        "geo_altitude": 11597.64,
        "squawk": "2757",
        "spi": false,
        "position_source": 0
      }
    },
    {
      "type": "Feature",
      "geometry": {
        "type": "Point",
        "coordinates": [
          16.8968,
          45.3251
        ]
      },
      "properties": {
        "icao24": "407182",
        "callsign": "EXS11KE",
        "origin_country": "United Kingdom",
        "time_position": 1785281726,
        "last_contact": 1785281726,
        "baro_altitude": 10972.8,
        "on_ground": false,
        "velocity": 207.01,
        "true_track": 314.09,
        "vertical_rate": 0,
        "geo_altitude": 11612.88,
        "squawk": "5344",
        "spi": false,
        "position_source": 0
      }
    },
    {
      "type": "Feature",
      "geometry": {
        "type": "Point",
        "coordinates": [
          14.7067,
          46.132
        ]
      },
      "properties": {
        "icao24": "4082cc",
        "callsign": "TOM639",
        "origin_country": "United Kingdom",
        "time_position": 1785281725,
        "last_contact": 1785281726,
        "baro_altitude": 10363.2,
        "on_ground": false,
        "velocity": 220.55,
        "true_track": 308.18,
        "vertical_rate": 0,
        "geo_altitude": 10988.04,
        "squawk": "5334",
        "spi": false,
        "position_source": 0
      }
    },
    {
      "type": "Feature",
      "geometry": {
        "type": "Point",
        "coordinates": [
          18.2897,
          42.8911
        ]
      },
      "properties": {
        "icao24": "4082cd",
        "callsign": "TOM871",
        "origin_country": "United Kingdom",
        "time_position": 1785281726,
        "last_contact": 1785281726,
        "baro_altitude": 11582.4,
        "on_ground": false,
        "velocity": 215.6,
        "true_track": 325.89,
        "vertical_rate": 0,
        "geo_altitude": 12291.06,
        "squawk": "2045",
        "spi": false,
        "position_source": 0
      }
    },
    {
      "type": "Feature",
      "geometry": {
        "type": "Point",
        "coordinates": [
          8.9548,
          47.4053
        ]
      },
      "properties": {
        "icao24": "3481c9",
        "callsign": "BCS136",
        "origin_country": "Spain",
        "time_position": 1785281726,
        "last_contact": 1785281726,
        "baro_altitude": 10668,
        "on_ground": false,
        "velocity": 225.71,
        "true_track": 193.85,
        "vertical_rate": 0,
        "geo_altitude": 11277.6,
        "squawk": "1000",
        "spi": false,
        "position_source": 0
      }
    },
    {
      "type": "Feature",
      "geometry": {
        "type": "Point",
        "coordinates": [
          8.5447,
          47.4519
        ]
      },
      "properties": {
        "icao24": "4b17fa",
        "callsign": "SWR",
        "origin_country": "Switzerland",
        "time_position": 1785281718,
        "last_contact": 1785281726,
        "baro_altitude": 358.14,
        "on_ground": true,
        "velocity": 0,
        "true_track": 334.69,
        "vertical_rate": null,
        "geo_altitude": null,
        "squawk": "2000",
        "spi": false,
        "position_source": 0
      }
    }
  ]
}