{
  "type": "FeatureCollection",
  "source": "opensky",
  "dataset": "aircraft_italy",
  "generated_at": "2026-07-28T01:08:30.340300+00:00",
  "opensky_time": 1785200906,
  "count": 73,
  "features": [
    {
      "type": "Feature",
      "geometry": {
        "type": "Point",
        "coordinates": [
          16.722,
          47.1813
        ]
      },
      "properties": {
        "icao24": "4acb23",
        "callsign": "NSZ3353",
        "origin_country": "Sweden",
        "time_position": 1785200905,
        "last_contact": 1785200905,
        "baro_altitude": 10972.8,
        "on_ground": false,
        "velocity": 196.52,
        "true_track": 341.38,
        "vertical_rate": 0,
        "geo_altitude": 11490.96,
        "squawk": "7740",
        "spi": false,
        "position_source": 0
      }
    },
    {
      "type": "Feature",
      "geometry": {
        "type": "Point",
        "coordinates": [
          10.2613,
          45.119
        ]
      },
      "properties": {
        "icao24": "4400ec",
        "callsign": "EJU3704",
        "origin_country": "Austria",
        "time_position": 1785200904,
        "last_contact": 1785200905,
        "baro_altitude": 7269.48,
        "on_ground": false,
        "velocity": 215.45,
        "true_track": 266.44,
        "vertical_rate": -11.7,
        "geo_altitude": 7795.26,
        "squawk": "2073",
        "spi": false,
        "position_source": 0
      }
    },
    {
      "type": "Feature",
      "geometry": {
        "type": "Point",
        "coordinates": [
          8.0939,
          44.2606
        ]
      },
      "properties": {
        "icao24": "4400eb",
        "callsign": "EJU43MX",
        "origin_country": "Austria",
        "time_position": 1785200905,
        "last_contact": 1785200905,
        "baro_altitude": 8656.32,
        "on_ground": false,
        "velocity": 221.64,
        "true_track": 46.79,
        "vertical_rate": -4.55,
        "geo_altitude": 9265.92,
        "squawk": "1000",
        "spi": false,
        "position_source": 0
      }
    },
    {
      "type": "Feature",
      "geometry": {
        "type": "Point",
        "coordinates": [
          7.4289,
          44.2387
        ]
      },
      "properties": {
        "icao24": "34310d",
        "callsign": "BCS7CK",
        "origin_country": "Spain",
        "time_position": 1785200905,
        "last_contact": 1785200905,
        "baro_altitude": 10058.4,
        "on_ground": false,
        "velocity": 234.73,
        "true_track": 237.08,
        "vertical_rate": 0,
        "geo_altitude": 10713.72,
        "squawk": "1000",
        "spi": false,
        "position_source": 0
      }
    },
    {
      "type": "Feature",
      "geometry": {
        "type": "Point",
        "coordinates": [
          17.0448,
          43.3646
        ]
      },
      "properties": {
        "icao24": "471f62",
        "callsign": "WMT286",
        "origin_country": "Hungary",
        "time_position": 1785200904,
        "last_contact": 1785200904,
        "baro_altitude": 11277.6,
        "on_ground": false,
        "velocity": 257.34,
        "true_track": 141.41,
        "vertical_rate": 0,
        "geo_altitude": 11917.68,
        "squawk": "7704",
        "spi": false,
        "position_source": 0
      }
    },
    {
      "type": "Feature",
      "geometry": {
        "type": "Point",
        "coordinates": [
          12.6594,
          43.9408
        ]
      },
      "properties": {
        "icao24": "5003d3",
        "callsign": "AXS700",
        "origin_country": "San Marino",
        "time_position": 1785200904,
        "last_contact": 1785200905,
        "baro_altitude": 13106.4,
        "on_ground": false,
        "velocity": 277.66,
        "true_track": 120.51,
        "vertical_rate": -0.33,
        "geo_altitude": 13754.1,
        "squawk": "0457",
        "spi": false,
        "position_source": 0
      }
    },
    {
      "type": "Feature",
      "geometry": {
        "type": "Point",
        "coordinates": [
          18.8888,
          39.3126
        ]
      },
      "properties": {
        "icao24": "801612",
        "callsign": "AIC101",
        "origin_country": "India",
        "time_position": 1785200904,
        "last_contact": 1785200905,
        "baro_altitude": 11582.4,
        "on_ground": false,
        "velocity": 246.24,
        "true_track": 299.4,
        "vertical_rate": 0,
        "geo_altitude": 12237.72,
        "squawk": "2053",
        "spi": false,
        "position_source": 0
      }
    },
    {
      "type": "Feature",
      "geometry": {
        "type": "Point",
        "coordinates": [
          13.1633,
          43.0532
        ]
      },
      "properties": {
        "icao24": "4401dc",
        "callsign": "EJU91BN",
        "origin_country": "Austria",
        "time_position": 1785200906,
        "last_contact": 1785200906,
        "baro_altitude": 11590.02,
        "on_ground": false,
        "velocity": 219.11,
        "true_track": 302.05,
        "vertical_rate": 0,
        "geo_altitude": 12275.82,
        "squawk": "2005",
        "spi": false,
        "position_source": 0
      }
    },
    {
      "type": "Feature",
      "geometry": {
        "type": "Point",
        "coordinates": [
          15.1923,
          39.3731
        ]
      },
      "properties": {
        "icao24": "73806e",
        "callsign": "ELY376",
        "origin_country": "Israel",
        "time_position": 1785200904,
        "last_contact": 1785200905,
        "baro_altitude": 10668,
        "on_ground": false,
        "velocity": 222.99,
        "true_track": 104.84,
        "vertical_rate": -0.33,
        "geo_altitude": 11277.6,
        "squawk": "4314",
        "spi": false,
        "position_source": 0
      }
    },
    {
      "type": "Feature",
      "geometry": {
        "type": "Point",
        "coordinates": [
          11.8241,
          40.1767
        ]
      },
      "properties": {
        "icao24": "738072",
        "callsign": "ELY001",
        "origin_country": "Israel",
        "time_position": 1785200904,
        "last_contact": 1785200905,
        "baro_altitude": 10363.2,
        "on_ground": false,
        "velocity": 265.64,
        "true_track": 284.47,
        "vertical_rate": 0,
        "geo_altitude": 10995.66,
        "squawk": "5607",
        "spi": false,
        "position_source": 0
      }
    },
    {
      "type": "Feature",
      "geometry": {
        "type": "Point",
        "coordinates": [
          11.9473,
          44.5418
        ]
      },
      "properties": {
        "icao24": "738056",
        "callsign": "ELY388",
        "origin_country": "Israel",
        "time_position": 1785200905,
        "last_contact": 1785200905,
        "baro_altitude": 10477.5,
        "on_ground": false,
        "velocity": 257.41,
        "true_track": 114.31,
        "vertical_rate": 4.55,
        "geo_altitude": 11094.72,
        "squawk": "3752",
        "spi": false,
        "position_source": 0
      }
    },
    {
      "type": "Feature",
      "geometry": {
        "type": "Point",
        "coordinates": [
          17.5865,
          43.2663
        ]
      },
      "properties": {
        "icao24": "7380c5",
        "callsign": "ELY010",
        "origin_country": "Israel",
        "time_position": 1785200904,
        "last_contact": 1785200904,
        "baro_altitude": 11887.2,
        "on_ground": false,
        "velocity": 270.67,
        "true_track": 123.45,
        "vertical_rate": -0.33,
        "geo_altitude": 12542.52,
        "squawk": "2266",
        "spi": false,
        "position_source": 0
      }
    },
    {
      "type": "Feature",
      "geometry": {
        "type": "Point",
        "coordinates": [
          6.1939,
          42.1696
        ]
      },
      "properties": {
        "icao24": "7380c4",
        "callsign": "ELY027",
        "origin_country": "Israel",
        "time_position": 1785200905,
        "last_contact": 1785200905,
        "baro_altitude": 10965.18,
        "on_ground": false,
        "velocity": 251.71,
        "true_track": 310.69,
        "vertical_rate": 0,
        "geo_altitude": 11658.6,
        "squawk": "4003",
        "spi": false,
        "position_source": 0
      }
    },
    {
      "type": "Feature",
      "geometry": {
        "type": "Point",
        "coordinates": [
          9.5343,
          45.4585
        ]
      },
      "properties": {
        "icao24": "020175",
        "callsign": "MAC456Y",
        "origin_country": "Morocco",
        "time_position": 1785200905,
        "last_contact": 1785200905,
        "baro_altitude": 3238.5,
        "on_ground": false,
        "velocity": 162.48,
        "true_track": 232.33,
        "vertical_rate": 3.9,
        "geo_altitude": 3497.58,
        "squawk": "3743",
        "spi": false,
        "position_source": 0
      }
    },
    {
      "type": "Feature",
      "geometry": {
        "type": "Point",
        "coordinates": [
          11.4955,
          35.7097
        ]
      },
      "properties": {
        "icao24": "489221",
        "callsign": "ENT7132",
        "origin_country": "Poland",
        "time_position": 1785200905,
        "last_contact": 1785200905,
        "baro_altitude": 9997.44,
        "on_ground": false,
        "velocity": 235.73,
        "true_track": 20.57,
        "vertical_rate": 7.8,
        "geo_altitude": 10568.94,
        "squawk": "6162",
        "spi": false,
        "position_source": 0
      }
    },
    {
      "type": "Feature",
      "geometry": {
        "type": "Point",
        "coordinates": [
          9.9979,
          46.3541
        ]
      },
      "properties": {
        "icao24": "4067f7",
        "callsign": "TOM8MW",
        "origin_country": "United Kingdom",
        "time_position": 1785200905,
        "last_contact": 1785200905,
        "baro_altitude": 13098.78,
        "on_ground": false,
        "velocity": 221.65,
        "true_track": 310.01,
        "vertical_rate": 0,
        "geo_altitude": 13731.24,
        "squawk": "2761",
        "spi": false,
        "position_source": 0
      }
    },
    {
      "type": "Feature",
      "geometry": {
        "type": "Point",
        "coordinates": [
          16.1533,
          47.7276
        ]
      },
      "properties": {
        "icao24": "4bb195",
        "callsign": "THY182",
        "origin_country": "Turkey",
        "time_position": 1785200905,
        "last_contact": 1785200905,
        "baro_altitude": 10363.2,
        "on_ground": false,
        "velocity": 207.35,
        "true_track": 297.96,
        "vertical_rate": 0.33,
        "geo_altitude": 10835.64,
        "squawk": "2657",
        "spi": false,
        "position_source": 0
      }
    },
    {
      "type": "Feature",
      "geometry": {
        "type": "Point",
        "coordinates": [
          12.9444,
          47.6206
        ]
      },
      "properties": {
        "icao24": "896439",
        "callsign": "ETD8MY",
        "origin_country": "United Arab Emirates",
        "time_position": 1785200904,
        "last_contact": 1785200905,
        "baro_altitude": 11277.6,
        "on_ground": false,
        "velocity": 290.47,
        "true_track": 120.2,
        "vertical_rate": 0,
        "geo_altitude": 11826.24,
        "squawk": "1141",
        "spi": false,
        "position_source": 0
      }
    },
    {
      "type": "Feature",
      "geometry": {
        "type": "Point",
        "coordinates": [
          18.3325,
          44.1796
        ]
      },
      "properties": {
        "icao24": "3965b4",
        "callsign": "AFR111",
        "origin_country": "France",
        "time_position": 1785200905,
        "last_contact": 1785200905,
        "baro_altitude": 10972.8,
        "on_ground": false,
        "velocity": 226.04,
        "true_track": 282.49,
        "vertical_rate": 0,
        "geo_altitude": 11567.16,
        "squawk": "3203",
        "spi": false,
        "position_source": 0
      }
    },
    {
      "type": "Feature",
      "geometry": {
        "type": "Point",
        "coordinates": [
          6.7528,
          44.0321
        ]
      },
      "properties": {
        "icao24": "4ac98a",
        "callsign": "BCS422",
        "origin_country": "Sweden",
        "time_position": 1785200904,
        "last_contact": 1785200905,
        "baro_altitude": 10058.4,
        "on_ground": false,
        "velocity": 227.69,
        "true_track": 231.42,
        "vertical_rate": 0,
        "geo_altitude": 10744.2,
        "squawk": "1000",
        "spi": false,
        "position_source": 0
      }
    },
    {
      "type": "Feature",
      "geometry": {
        "type": "Point",
        "coordinates": [
          8.7784,
          47.2038
        ]
      },
      "properties": {
        "icao24": "4064bb",
        "callsign": "EXS5TV",
        "origin_country": "United Kingdom",
        "time_position": 1785200905,
        "last_contact": 1785200905,
        "baro_altitude": 10972.8,
        "on_ground": false,
        "velocity": 207.87,
        "true_track": 307.86,
        "vertical_rate": 0,
        "geo_altitude": 11590.02,
        "squawk": "7526",
        "spi": false,
        "position_source": 0
      }
    },
    {
      "type": "Feature",
      "geometry": {
        "type": "Point",
        "coordinates": [
          18.9223,
          38.6624
        ]
      },
      "properties": {
        "icao24": "4bb06a",
        "callsign": "THY3KA",
        "origin_country": "Turkey",
        "time_position": 1785200904,
        "last_contact": 1785200904,
        "baro_altitude": 11277.6,
        "on_ground": false,
        "velocity": 253.92,
        "true_track": 44.51,
        "vertical_rate": 0.33,
        "geo_altitude": 11932.92,
        "squawk": "3164",
        "spi": false,
        "position_source": 0
      }
    },
    {
      "type": "Feature",
      "geometry": {
        "type": "Point",
        "coordinates": [
          15.8491,
          40.0878
        ]
      },
      "properties": {
        "icao24": "3009bf",
        "callsign": "IMIOR",
        "origin_country": "Italy",
        "time_position": 1785200626,
        "last_contact": 1785200626,
        "baro_altitude": 1089.66,
        "on_ground": false,
        "velocity": 64.03,
        "true_track": 218.8,
        "vertical_rate": -3.25,
        "geo_altitude": 1234.44,
        "squawk": null,
        "spi": false,
        "position_source": 0
      }
    },
    {
      "type": "Feature",
      "geometry": {
        "type": "Point",
        "coordinates": [
          18.5085,
          36.0352
        ]
      },
      "properties": {
        "icao24": "040188",
        "callsign": "ETH740",
        "origin_country": "Ethiopia",
        "time_position": 1785200905,
        "last_contact": 1785200905,
        "baro_altitude": 11582.4,
        "on_ground": false,
        "velocity": 240.33,
        "true_track": 289.64,
        "vertical_rate": 0,
        "geo_altitude": 12291.06,
        "squawk": null,
        "spi": false,
        "position_source": 0
      }
    },
    {
      "type": "Feature",
      "geometry": {
        "type": "Point",
        "coordinates": [
          18.6793,
          39.49
        ]
      },
      "properties": {
        "icao24": "3a4494",
        "callsign": "REU975",
        "origin_country": "France",
        "time_position": 1785200905,
        "last_contact": 1785200905,
        "baro_altitude": 10972.8,
        "on_ground": false,
        "velocity": 250.6,
        "true_track": 310.75,
        "vertical_rate": 0,
        "geo_altitude": 11605.26,
        "squawk": "7737",
        "spi": false,
        "position_source": 0
      }
    },
    {
      "type": "Feature",
      "geometry": {
        "type": "Point",
        "coordinates": [
          18.8447,
          38.6364
        ]
      },
      "properties": {
        "icao24": "040203",
        "callsign": "ETH500",
        "origin_country": "Ethiopia",
        "time_position": 1785200905,
        "last_contact": 1785200905,
        "baro_altitude": 12192,
        "on_ground": false,
        "velocity": 248.33,
        "true_track": 312.48,
        "vertical_rate": 0,
        "geo_altitude": 12976.86,
        "squawk": "2045",
        "spi": false,
        "position_source": 0
      }
    },
    {
      "type": "Feature",
      "geometry": {
        "type": "Point",
        "coordinates": [
          14.6522,
          43.1555
        ]
      },
      "properties": {
        "icao24": "49d423",
        "callsign": "TVQ6460",
        "origin_country": "Czech Republic",
        "time_position": 1785200904,
        "last_contact": 1785200905,
        "baro_altitude": 10668,
        "on_ground": false,
        "velocity": 241.82,
        "true_track": 205.86,
        "vertical_rate": 0,
        "geo_altitude": 11300.46,
        "squawk": "7373",
        "spi": false,
        "position_source": 0
      }
    },
    {
      "type": "Feature",
      "geometry": {
        "type": "Point",
        "coordinates": [
          18.2907,
          38.937
        ]
      },
      "properties": {
        "icao24": "040102",
        "callsign": "ETH574",
        "origin_country": "Ethiopia",
        "time_position": 1785200904,
        "last_contact": 1785200905,
        "baro_altitude": 12192,
        "on_ground": false,
        "velocity": 247.34,
        "true_track": 306.8,
        "vertical_rate": -0.33,
        "geo_altitude": 12877.8,
        "squawk": null,
        "spi": false,
        "position_source": 0
      }
    },
    {
      "type": "Feature",
      "geometry": {
        "type": "Point",
        "coordinates": [
          8.6619,
          47.0715
        ]
      },
      "properties": {
        "icao24": "407fad",
        "callsign": "TOM38A",
        "origin_country": "United Kingdom",
        "time_position": 1785200904,
        "last_contact": 1785200905,
        "baro_altitude": 11582.4,
        "on_ground": false,
        "velocity": 203.6,
        "true_track": 309.36,
        "vertical_rate": 0,
        "geo_altitude": 12222.48,
        "squawk": "2745",
        "spi": false,
        "position_source": 0
      }
    },
    {
      "type": "Feature",
      "geometry": {
        "type": "Point",
        "coordinates": [
          9.9239,
          46.3942
        ]
      },
      "properties": {
        "icao24": "407fac",
        "callsign": "TOM843",
        "origin_country": "United Kingdom",
        "time_position": 1785200904,
        "last_contact": 1785200905,
        "baro_altitude": 11582.4,
        "on_ground": false,
        "velocity": 203.35,
        "true_track": 309.04,
        "vertical_rate": 0,
        "geo_altitude": 12230.1,
        "squawk": "7516",
        "spi": false,
        "position_source": 0
      }
    },
    {
      "type": "Feature",
      "geometry": {
        "type": "Point",
        "coordinates": [
          18.7837,
          46.064
        ]
      },
      "properties": {
        "icao24": "49d369",
        "callsign": "TVS7KQ",
        "origin_country": "Czech Republic",
        "time_position": 1785200905,
        "last_contact": 1785200905,
        "baro_altitude": 10058.4,
        "on_ground": false,
        "velocity": 267.11,
        "true_track": 142.51,
        "vertical_rate": 0,
        "geo_altitude": 10553.7,
        "squawk": "6006",
        "spi": false,
        "position_source": 0
      }
    },
    {
      "type": "Feature",
      "geometry": {
        "type": "Point",
        "coordinates": [
          16.1129,
          38.9209
        ]
      },
      "properties": {
        "icao24": "48e9f2",
        "callsign": "RYR7104",
        "origin_country": "Poland",
        "time_position": 1785200904,
        "last_contact": 1785200904,
        "baro_altitude": 533.4,
        "on_ground": false,
        "velocity": 96.33,
        "true_track": 98.91,
        "vertical_rate": -5.2,
        "geo_altitude": 640.08,
        "squawk": "1000",
        "spi": false,
        "position_source": 0
      }
    },
    {
      "type": "Feature",
      "geometry": {
        "type": "Point",
        "coordinates": [
          18.2023,
          47.3956
        ]
      },
      "properties": {
        "icao24": "ab5867",
        "callsign": "AAL293",
        "origin_country": "United States",
        "time_position": 1785200905,
        "last_contact": 1785200905,
        "baro_altitude": 10972.8,
        "on_ground": false,
        "velocity": 206.93,
        "true_track": 292.36,
        "vertical_rate": 0,
        "geo_altitude": 11460.48,
        "squawk": "3260",
        "spi": false,
        "position_source": 0
      }
    },
    {
      "type": "Feature",
      "geometry": {
        "type": "Point",
        "coordinates": [
          8.4433,
          47.3031
        ]
      },
      "properties": {
        "icao24": "407e7d",
        "callsign": "EXS82FT",
        "origin_country": "United Kingdom",
        "time_position": 1785200905,
        "last_contact": 1785200905,
        "baro_altitude": 11582.4,
        "on_ground": false,
        "velocity": 202.95,
        "true_track": 308.21,
        "vertical_rate": 0,
        "geo_altitude": 12199.62,
        "squawk": "7524",
        "spi": false,
        "position_source": 0
      }
    },
    {
      "type": "Feature",
      "geometry": {
        "type": "Point",
        "coordinates": [
          18.3027,
          41.5421
        ]
      },
      "properties": {
        "icao24": "49d006",
        "callsign": "TVS2292",
        "origin_country": "Czech Republic",
        "time_position": 1785200905,
        "last_contact": 1785200905,
        "baro_altitude": 10668,
        "on_ground": false,
        "velocity": 240.19,
        "true_track": 166.5,
        "vertical_rate": 0,
        "geo_altitude": 11277.6,
        "squawk": "6015",
        "spi": false,
        "position_source": 0
      }
    },
    {
      "type": "Feature",
      "geometry": {
        "type": "Point",
        "coordinates": [
          11.5498,
          45.5227
        ]
      },
      "properties": {
        "icao24": "407c0a",
        "callsign": "TOM9TY",
        "origin_country": "United Kingdom",
        "time_position": 1785200905,
        "last_contact": 1785200905,
        "baro_altitude": 11582.4,
        "on_ground": false,
        "velocity": 203,
        "true_track": 307.28,
        "vertical_rate": 0,
        "geo_altitude": 12245.34,
        "squawk": "5334",
        "spi": false,
        "position_source": 0
      }
    },
    {
      "type": "Feature",
      "geometry": {
        "type": "Point",
        "coordinates": [
          16.5166,
          47.1857
        ]
      },
      "properties": {
        "icao24": "4bb854",
        "callsign": "PGT66L",
        "origin_country": "Turkey",
        "time_position": 1785200905,
        "last_contact": 1785200905,
        "baro_altitude": 11292.84,
        "on_ground": false,
        "velocity": 279.06,
        "true_track": 126.15,
        "vertical_rate": 0,
        "geo_altitude": 11826.24,
        "squawk": "7654",
        "spi": false,
        "position_source": 0
      }
    },
    {
      "type": "Feature",
      "geometry": {
        "type": "Point",
        "coordinates": [
          16.9832,
          42.7449
        ]
      },
      "properties": {
        "icao24": "4bb84b",
        "callsign": "PGT1562",
        "origin_country": "Turkey",
        "time_position": 1785200905,
        "last_contact": 1785200905,
        "baro_altitude": 11277.6,
        "on_ground": false,
        "velocity": 248.5,
        "true_track": 110.99,
        "vertical_rate": 0,
        "geo_altitude": 11932.92,
        "squawk": "2222",
        "spi": false,
        "position_source": 0
      }
    },
    {
      "type": "Feature",
      "geometry": {
        "type": "Point",
        "coordinates": [
          17.9611,
          46.0797
        ]
      },
      "properties": {
        "icao24": "504e81",
        "callsign": "FIA5812",
        "origin_country": "Republic of Moldova",
        "time_position": 1785200905,
        "last_contact": 1785200905,
        "baro_altitude": 10972.8,
        "on_ground": false,
        "velocity": 262.74,
        "true_track": 79.39,
        "vertical_rate": 0,
        "geo_altitude": 11529.06,
        "squawk": "1161",
        "spi": false,
        "position_source": 0
      }
    },
    {
      "type": "Feature",
      "geometry": {
        "type": "Point",
        "coordinates": [
          18.7484,
          38.0491
        ]
      },
      "properties": {
        "icao24": "46b8b6",
        "callsign": "AEE735",
        "origin_country": "Greece",
        "time_position": 1785200904,
        "last_contact": 1785200905,
        "baro_altitude": 11887.2,
        "on_ground": false,
        "velocity": 253.68,
        "true_track": 86.16,
        "vertical_rate": 0,
        "geo_altitude": 12580.62,
        "squawk": "6132",
        "spi": false,
        "position_source": 0
      }
    },
    {
      "type": "Feature",
      "geometry": {
        "type": "Point",
        "coordinates": [
          8.9307,
          46.9346
        ]
      },
      "properties": {
        "icao24": "407d4c",
        "callsign": "TOM527",
        "origin_country": "United Kingdom",
        "time_position": 1785200905,
        "last_contact": 1785200905,
        "baro_altitude": 11582.4,
        "on_ground": false,
        "velocity": 204.4,
        "true_track": 309.18,
        "vertical_rate": 0,
        "geo_altitude": 12230.1,
        "squawk": "2752",
        "spi": false,
        "position_source": 0
      }
    },
    {
      "type": "Feature",
      "geometry": {
        "type": "Point",
        "coordinates": [
          10.234,
          46.5952
        ]
      },
      "properties": {
        "icao24": "40805d",
        "callsign": "WUK8YM",
        "origin_country": "United Kingdom",
        "time_position": 1785200905,
        "last_contact": 1785200905,
        "baro_altitude": 10972.8,
        "on_ground": false,
        "velocity": 202.92,
        "true_track": 306.03,
        "vertical_rate": 0,
        "geo_altitude": 11605.26,
        "squawk": "2767",
        "spi": false,
        "position_source": 0
      }
    },
    {
      "type": "Feature",
      "geometry": {
        "type": "Point",
        "coordinates": [
          7.2303,
          47.7362
        ]
      },
      "properties": {
        "icao24": "40825f",
        "callsign": "EXS59WJ",
        "origin_country": "United Kingdom",
        "time_position": 1785200905,
        "last_contact": 1785200905,
        "baro_altitude": 10972.8,
        "on_ground": false,
        "velocity": 204.98,
        "true_track": 309.6,
        "vertical_rate": 0,
        "geo_altitude": 11605.26,
        "squawk": "7511",
        "spi": false,
        "position_source": 0
      }
    },
    {
      "type": "Feature",
      "geometry": {
        "type": "Point",
        "coordinates": [
          12.8322,
          45.164
        ]
      },
      "properties": {
        "icao24": "40823c",
        "callsign": "EXS7K",
        "origin_country": "United Kingdom",
        "time_position": 1785200904,
        "last_contact": 1785200904,
        "baro_altitude": 10363.2,
        "on_ground": false,
        "velocity": 217.9,
        "true_track": 304.52,
        "vertical_rate": 0,
        "geo_altitude": 10995.66,
        "squawk": "5326",
        "spi": false,
        "position_source": 0
      }
    },
    {
      "type": "Feature",
      "geometry": {
        "type": "Point",
        "coordinates": [
          17.0962,
          38.822
        ]
      },
      "properties": {
        "icao24": "0a008e",
        "callsign": "DAH3023",
        "origin_country": "Algeria",
        "time_position": 1785200904,
        "last_contact": 1785200904,
        "baro_altitude": 10972.8,
        "on_ground": false,
        "velocity": 235.56,
        "true_track": 251.8,
        "vertical_rate": 0,
        "geo_altitude": 11597.64,
        "squawk": "2347",
        "spi": false,
        "position_source": 0
      }
    },
    {
      "type": "Feature",
      "geometry": {
        "type": "Point",
        "coordinates": [
          14.8224,
          40.5348
        ]
      },
      "properties": {
        "icao24": "02a1aa",
        "callsign": "DAH3015",
        "origin_country": "Tunisia",
        "time_position": 1785200905,
        "last_contact": 1785200905,
        "baro_altitude": 10980.42,
        "on_ground": false,
        "velocity": 250.83,
        "true_track": 263.05,
        "vertical_rate": 0,
        "geo_altitude": 11635.74,
        "squawk": "2332",
        "spi": false,
        "position_source": 0
      }
    },
    {
      "type": "Feature",
      "geometry": {
        "type": "Point",
        "coordinates": [
          11.2733,
          42.0309
        ]
      },
      "properties": {
        "icao24": "408181",
        "callsign": "EZY63MD",
        "origin_country": "United Kingdom",
        "time_position": 1785200905,
        "last_contact": 1785200905,
        "baro_altitude": 10980.42,
        "on_ground": false,
        "velocity": 230.08,
        "true_track": 309.92,
        "vertical_rate": 0,
        "geo_altitude": 11673.84,
        "squawk": "7736",
        "spi": false,
        "position_source": 0
      }
    },
    {
      "type": "Feature",
      "geometry": {
        "type": "Point",
        "coordinates": [
          9.0297,
          38.081
        ]
      },
      "properties": {
        "icao24": "4951d9",
        "callsign": "TAP9003",
        "origin_country": "Portugal",
        "time_position": 1785200903,
        "last_contact": 1785200904,
        "baro_altitude": 10668,
        "on_ground": false,
        "velocity": 239.23,
        "true_track": 163.12,
        "vertical_rate": 0,
        "geo_altitude": 11338.56,
        "squawk": "1152",
        "spi": false,
        "position_source": 0
      }
    },
    {
      "type": "Feature",
      "geometry": {
        "type": "Point",
        "coordinates": [
          16.9821,
          42.7962
        ]
      },
      "properties": {
        "icao24": "408040",
        "callsign": "TOM1AB",
        "origin_country": "United Kingdom",
        "time_position": 1785200905,
        "last_contact": 1785200905,
        "baro_altitude": 10363.2,
        "on_ground": false,
        "velocity": 224.58,
        "true_track": 303.51,
        "vertical_rate": 0,
        "geo_altitude": 10965.18,
        "squawk": "7356",
        "spi": false,
        "position_source": 0
      }
    },
    {
      "type": "Feature",
      "geometry": {
        "type": "Point",
        "coordinates": [
          10.7551,
          45.3035
        ]
      },
      "properties": {
        "icao24": "70c124",
        "callsign": "OMA144",
        "origin_country": "Oman",
        "time_position": 1785200905,
        "last_contact": 1785200905,
        "baro_altitude": 8183.88,
        "on_ground": false,
        "velocity": 257.62,
        "true_track": 97.92,
        "vertical_rate": 7.48,
        "geo_altitude": 8732.52,
        "squawk": "0421",
        "spi": false,
        "position_source": 0
      }
    },
    {
      "type": "Feature",
      "geometry": {
        "type": "Point",
        "coordinates": [
          10.8749,
          41.1603
        ]
      },
      "properties": {
        "icao24": "4ca82c",
        "callsign": "MSA9784",
        "origin_country": "Ireland",
        "time_position": 1785200904,
        "last_contact": 1785200905,
        "baro_altitude": 8724.9,
        "on_ground": false,
        "velocity": 216.05,
        "true_track": 39.3,
        "vertical_rate": -5.2,
        "geo_altitude": 9304.02,
        "squawk": null,
        "spi": false,
        "position_source": 0
      }
    },
    {
      "type": "Feature",
      "geometry": {
        "type": "Point",
        "coordinates": [
          18.4135,
          47.6012
        ]
      },
      "properties": {
        "icao24": "4bcdf9",
        "callsign": "SXS6XR",
        "origin_country": "Turkey",
        "time_position": 1785200905,
        "last_contact": 1785200905,
        "baro_altitude": 11277.6,
        "on_ground": false,
        "velocity": 277.95,
        "true_track": 146.78,
        "vertical_rate": -0.33,
        "geo_altitude": 11742.42,
        "squawk": "7652",
        "spi": false,
        "position_source": 0
      }
    },
    {
      "type": "Feature",
      "geometry": {
        "type": "Point",
        "coordinates": [
          16.747,
          46.2098
        ]
      },
      "properties": {
        "icao24": "4bcdd4",
        "callsign": "SXS9WA",
        "origin_country": "Turkey",
        "time_position": 1785200905,
        "last_contact": 1785200905,
        "baro_altitude": 11277.6,
        "on_ground": false,
        "velocity": 272.85,
        "true_track": 124.71,
        "vertical_rate": 0,
        "geo_altitude": 11826.24,
        "squawk": "7705",
        "spi": false,
        "position_source": 0
      }
    },
    {
      "type": "Feature",
      "geometry": {
        "type": "Point",
        "coordinates": [
          18.4366,
          45.5963
        ]
      },
      "properties": {
        "icao24": "48ea01",
        "callsign": "ENT4FE",
        "origin_country": "Poland",
        "time_position": 1785200905,
        "last_contact": 1785200905,
        "baro_altitude": 11277.6,
        "on_ground": false,
        "velocity": 263.28,
        "true_track": 173.04,
        "vertical_rate": 0.33,
        "geo_altitude": 11849.1,
        "squawk": "2255",
        "spi": false,
        "position_source": 0
      }
    },
    {
      "type": "Feature",
      "geometry": {
        "type": "Point",
        "coordinates": [
          16.1831,
          47.3544
        ]
      },
      "properties": {
        "icao24": "4bce43",
        "callsign": "SXS3FP",
        "origin_country": "Turkey",
        "time_position": 1785200905,
        "last_contact": 1785200905,
        "baro_altitude": 11285.22,
        "on_ground": false,
        "velocity": 284.01,
        "true_track": 125.94,
        "vertical_rate": 0,
        "geo_altitude": 11795.76,
        "squawk": "7661",
        "spi": false,
        "position_source": 0
      }
    },
    {
      "type": "Feature",
      "geometry": {
        "type": "Point",
        "coordinates": [
          18.3093,
          46.3017
        ]
      },
      "properties": {
        "icao24": "4bcdab",
        "callsign": "SXS79Y",
        "origin_country": "Turkey",
        "time_position": 1785200906,
        "last_contact": 1785200906,
        "baro_altitude": 11277.6,
        "on_ground": false,
        "velocity": 280.28,
        "true_track": 130.38,
        "vertical_rate": 0,
        "geo_altitude": 11811,
        "squawk": "4702",
        "spi": false,
        "position_source": 0
      }
    },
    {
      "type": "Feature",
      "geometry": {
        "type": "Point",
        "coordinates": [
          11.3521,
          35.982
        ]
      },
      "properties": {
        "icao24": "010275",
        "callsign": "RSX6082",
        "origin_country": "Egypt",
        "time_position": 1785200905,
        "last_contact": 1785200905,
        "baro_altitude": 11277.6,
        "on_ground": false,
        "velocity": 240.56,
        "true_track": 112.51,
        "vertical_rate": 1.63,
        "geo_altitude": 11871.96,
        "squawk": "1163",
        "spi": false,
        "position_source": 0
      }
    },
    {
      "type": "Feature",
      "geometry": {
        "type": "Point",
        "coordinates": [
          8.0033,
          47.6506
        ]
      },
      "properties": {
        "icao24": "346319",
        "callsign": "BCS47H",
        "origin_country": "Spain",
        "time_position": 1785200905,
        "last_contact": 1785200905,
        "baro_altitude": 11277.6,
        "on_ground": false,
        "velocity": 221.44,
        "true_track": 213.73,
        "vertical_rate": 0,
        "geo_altitude": 11879.58,
        "squawk": "1000",
        "spi": false,
        "position_source": 0
      }
    },
    {
      "type": "Feature",
      "geometry": {
        "type": "Point",
        "coordinates": [
          11.4521,
          45.5387
        ]
      },
      "properties": {
        "icao24": "40773b",
        "callsign": "TOM16H",
        "origin_country": "United Kingdom",
        "time_position": 1785200905,
        "last_contact": 1785200905,
        "baro_altitude": 12192,
        "on_ground": false,
        "velocity": 206.11,
        "true_track": 307.7,
        "vertical_rate": 0,
        "geo_altitude": 12862.56,
        "squawk": "3712",
        "spi": false,
        "position_source": 0
      }
    },
    {
      "type": "Feature",
      "geometry": {
        "type": "Point",
        "coordinates": [
          13.2338,
          40.4056
        ]
      },
      "properties": {
        "icao24": "4d24f1",
        "callsign": "VCJ97G",
        "origin_country": "Malta",
        "time_position": 1785200905,
        "last_contact": 1785200905,
        "baro_altitude": 13106.4,
        "on_ground": false,
        "velocity": 232.14,
        "true_track": 21.45,
        "vertical_rate": -0.33,
        "geo_altitude": 13807.44,
        "squawk": "1205",
        "spi": false,
        "position_source": 0
      }
    },
    {
      "type": "Feature",
      "geometry": {
        "type": "Point",
        "coordinates": [
          15.7943,
          39.952
        ]
      },
      "properties": {
        "icao24": "010288",
        "callsign": "MSR986",
        "origin_country": "Egypt",
        "time_position": 1785200905,
        "last_contact": 1785200905,
        "baro_altitude": 11887.2,
        "on_ground": false,
        "velocity": 241.99,
        "true_track": 118.85,
        "vertical_rate": 0,
        "geo_altitude": 12534.9,
        "squawk": "4313",
        "spi": false,
        "position_source": 0
      }
    },
    {
      "type": "Feature",
      "geometry": {
        "type": "Point",
        "coordinates": [
          12.4657,
          45.0432
        ]
      },
      "properties": {
        "icao24": "40772d",
        "callsign": "EZY26XM",
        "origin_country": "United Kingdom",
        "time_position": 1785200904,
        "last_contact": 1785200905,
        "baro_altitude": 11582.4,
        "on_ground": false,
        "velocity": 209.81,
        "true_track": 307.63,
        "vertical_rate": 0,
        "geo_altitude": 12237.72,
        "squawk": "5310",
        "spi": false,
        "position_source": 0
      }
    },
    {
      "type": "Feature",
      "geometry": {
        "type": "Point",
        "coordinates": [
          10.6975,
          47.1293
        ]
      },
      "properties": {
        "icao24": "4075bb",
        "callsign": "EXS6MN",
        "origin_country": "United Kingdom",
        "time_position": 1785200905,
        "last_contact": 1785200905,
        "baro_altitude": 11582.4,
        "on_ground": false,
        "velocity": 198.29,
        "true_track": 313.84,
        "vertical_rate": 0,
        "geo_altitude": 12184.38,
        "squawk": "2225",
        "spi": false,
        "position_source": 0
      }
    },
    {
      "type": "Feature",
      "geometry": {
        "type": "Point",
        "coordinates": [
          6.823,
          43.9486
        ]
      },
      "properties": {
        "icao24": "4d24fe",
        "callsign": "AIZ991",
        "origin_country": "Malta",
        "time_position": 1785200905,
        "last_contact": 1785200905,
        "baro_altitude": 10972.8,
        "on_ground": false,
        "velocity": 236.22,
        "true_track": 309.17,
        "vertical_rate": -0.33,
        "geo_altitude": 11681.46,
        "squawk": "1162",
        "spi": false,
        "position_source": 0
      }
    },
    {
      "type": "Feature",
      "geometry": {
        "type": "Point",
        "coordinates": [
          16.7416,
          39.5829
        ]
      },
      "properties": {
        "icao24": "0101db",
        "callsign": "MSR996",
        "origin_country": "Egypt",
        "time_position": 1785200905,
        "last_contact": 1785200906,
        "baro_altitude": 11277.6,
        "on_ground": false,
        "velocity": 248.81,
        "true_track": 120.44,
        "vertical_rate": 0,
        "geo_altitude": 11948.16,
        "squawk": "4305",
        "spi": false,
        "position_source": 0
      }
    },
    {
      "type": "Feature",
      "geometry": {
        "type": "Point",
        "coordinates": [
          17.0908,
          39.4474
        ]
      },
      "properties": {
        "icao24": "0101df",
        "callsign": "MSR988",
        "origin_country": "Egypt",
        "time_position": 1785200904,
        "last_contact": 1785200905,
        "baro_altitude": 11887.2,
        "on_ground": false,
        "velocity": 255.33,
        "true_track": 121.32,
        "vertical_rate": -0.33,
        "geo_altitude": 12573,
        "squawk": "4311",
        "spi": false,
        "position_source": 0
      }
    },
    {
      "type": "Feature",
      "geometry": {
        "type": "Point",
        "coordinates": [
          18.2689,
          40.726
        ]
      },
      "properties": {
        "icao24": "4d23e1",
        "callsign": "CHZ112",
        "origin_country": "Malta",
        "time_position": 1785200904,
        "last_contact": 1785200905,
        "baro_altitude": 10675.62,
        "on_ground": false,
        "velocity": 248.66,
        "true_track": 148.02,
        "vertical_rate": 0,
        "geo_altitude": 11254.74,
        "squawk": "2206",
        "spi": false,
        "position_source": 0
      }
    },
    {
      "type": "Feature",
      "geometry": {
        "type": "Point",
        "coordinates": [
          14.7447,
          39.4195
        ]
      },
      "properties": {
        "icao24": "4d2475",
        "callsign": "BBG251",
        "origin_country": "Malta",
        "time_position": 1785200905,
        "last_contact": 1785200905,
        "baro_altitude": 10668,
        "on_ground": false,
        "velocity": 217.11,
        "true_track": 103.71,
        "vertical_rate": 0,
        "geo_altitude": 11292.84,
        "squawk": "4316",
        "spi": false,
        "position_source": 0
      }
    },
    {
      "type": "Feature",
      "geometry": {
        "type": "Point",
        "coordinates": [
          7.8349,
          47.6276
        ]
      },
      "properties": {
        "icao24": "4070e2",
        "callsign": "EXS35MT",
        "origin_country": "United Kingdom",
        "time_position": 1785200905,
        "last_contact": 1785200905,
        "baro_altitude": 10972.8,
        "on_ground": false,
        "velocity": 199.84,
        "true_track": 307.78,
        "vertical_rate": 0,
        "geo_altitude": 11582.4,
        "squawk": "7530",
        "spi": false,
        "position_source": 0
      }
    },
    {
      "type": "Feature",
      "geometry": {
        "type": "Point",
        "coordinates": [
          14.4917,
          35.8492
        ]
      },
      "properties": {
        "icao24": "4cac23",
        "callsign": "RYR7269",
        "origin_country": "Ireland",
        "time_position": 1785200901,
        "last_contact": 1785200901,
        "baro_altitude": null,
        "on_ground": true,
        "velocity": 4.37,
        "true_track": 50.62,
        "vertical_rate": null,
        "geo_altitude": null,
        "squawk": "0543",
        "spi": false,
        "position_source": 0
      }
    },
    {
      "type": "Feature",
      "geometry": {
        "type": "Point",
        "coordinates": [
          13.8013,
          37.6785
        ]
      },
      "properties": {
        "icao24": "4cac83",
        "callsign": "LID641",
        "origin_country": "Ireland",
        "time_position": 1785200905,
        "last_contact": 1785200905,
        "baro_altitude": 1219.2,
        "on_ground": false,
        "velocity": 66.27,
        "true_track": 137.52,
        "vertical_rate": -0.33,
        "geo_altitude": 1341.12,
        "squawk": "2176",
        "spi": false,
        "position_source": 0
      }
    },
    {
      "type": "Feature",
      "geometry": {
        "type": "Point",
        "coordinates": [
          7.0751,
          44.1356
        ]
      },
      "properties": {
        "icao24": "451dad",
        "callsign": "BCS460",
        "origin_country": "Bulgaria",
        "time_position": 1785200905,
        "last_contact": 1785200905,
        "baro_altitude": 10675.62,
        "on_ground": false,
        "velocity": 225.12,
        "true_track": 232.89,
        "vertical_rate": 0,
        "geo_altitude": 11346.18,
        "squawk": "1000",
        "spi": false,
        "position_source": 0
      }
    },
    {
      "type": "Feature",
      "geometry": {
        "type": "Point",
        "coordinates": [
          6.7115,
          47.0392
        ]
      },
      "properties": {
        "icao24": "451dbd",
        "callsign": "BCS2204",
        "origin_country": "Bulgaria",
        "time_position": 1785200904,
        "last_contact": 1785200905,
        "baro_altitude": 9753.6,
        "on_ground": false,
        "velocity": 218.43,
        "true_track": 348.45,
        "vertical_rate": 0,
        "geo_altitude": 10332.72,
        "squawk": "5704",
        "spi": false,
        "position_source": 0
      }
    }
  ]
}