{
  "type": "FeatureCollection",
  "source": "opensky",
  "dataset": "aircraft_italy",
  "generated_at": "2026-08-14T23:53:32.865144+00:00",
  "opensky_time": 1786751608,
  "count": 106,
  "features": [
    {
      "type": "Feature",
      "geometry": {
        "type": "Point",
        "coordinates": [
          10.3017,
          41.162
        ]
      },
      "properties": {
        "icao24": "471f6f",
        "callsign": "WMT4RQ",
        "origin_country": "Hungary",
        "time_position": 1786751607,
        "last_contact": 1786751607,
        "baro_altitude": 10972.8,
        "on_ground": false,
        "velocity": 238.21,
        "true_track": 73.95,
        "vertical_rate": -0.33,
        "geo_altitude": 11551.92,
        "squawk": "3736",
        "spi": false,
        "position_source": 0
      }
    },
    {
      "type": "Feature",
      "geometry": {
        "type": "Point",
        "coordinates": [
          7.4978,
          47.5503
        ]
      },
      "properties": {
        "icao24": "505ceb",
        "callsign": "TOM2YE",
        "origin_country": "Slovakia",
        "time_position": 1786751607,
        "last_contact": 1786751608,
        "baro_altitude": 10972.8,
        "on_ground": false,
        "velocity": 223.12,
        "true_track": 305.52,
        "vertical_rate": 0,
        "geo_altitude": 11513.82,
        "squawk": "7533",
        "spi": false,
        "position_source": 0
      }
    },
    {
      "type": "Feature",
      "geometry": {
        "type": "Point",
        "coordinates": [
          8.7984,
          45.3875
        ]
      },
      "properties": {
        "icao24": "440352",
        "callsign": "EJU3614",
        "origin_country": "Austria",
        "time_position": 1786751607,
        "last_contact": 1786751607,
        "baro_altitude": 1295.4,
        "on_ground": false,
        "velocity": 120.78,
        "true_track": 355.36,
        "vertical_rate": -2.93,
        "geo_altitude": 1455.42,
        "squawk": "1000",
        "spi": false,
        "position_source": 0
      }
    },
    {
      "type": "Feature",
      "geometry": {
        "type": "Point",
        "coordinates": [
          18.7554,
          45.439
        ]
      },
      "properties": {
        "icao24": "4bb4e7",
        "callsign": "MGH502",
        "origin_country": "Turkey",
        "time_position": 1786751608,
        "last_contact": 1786751608,
        "baro_altitude": 11277.6,
        "on_ground": false,
        "velocity": 258.3,
        "true_track": 128.86,
        "vertical_rate": 0,
        "geo_altitude": 11795.76,
        "squawk": "6024",
        "spi": false,
        "position_source": 0
      }
    },
    {
      "type": "Feature",
      "geometry": {
        "type": "Point",
        "coordinates": [
          8.7467,
          45.5824
        ]
      },
      "properties": {
        "icao24": "4401e9",
        "callsign": "EJU68VV",
        "origin_country": "Austria",
        "time_position": 1786751608,
        "last_contact": 1786751608,
        "baro_altitude": 381,
        "on_ground": false,
        "velocity": 80.21,
        "true_track": 348.91,
        "vertical_rate": -4.23,
        "geo_altitude": 480.06,
        "squawk": "4730",
        "spi": false,
        "position_source": 0
      }
    },
    {
      "type": "Feature",
      "geometry": {
        "type": "Point",
        "coordinates": [
          8.7234,
          45.6416
        ]
      },
      "properties": {
        "icao24": "440073",
        "callsign": "EJU3608",
        "origin_country": "Austria",
        "time_position": 1786751510,
        "last_contact": 1786751510,
        "baro_altitude": null,
        "on_ground": true,
        "velocity": 4.37,
        "true_track": 70.31,
        "vertical_rate": null,
        "geo_altitude": null,
        "squawk": "1000",
        "spi": false,
        "position_source": 0
      }
    },
    {
      "type": "Feature",
      "geometry": {
        "type": "Point",
        "coordinates": [
          14.7855,
          38.5608
        ]
      },
      "properties": {
        "icao24": "4bb245",
        "callsign": "THY658",
        "origin_country": "Turkey",
        "time_position": 1786751608,
        "last_contact": 1786751608,
        "baro_altitude": 10066.02,
        "on_ground": false,
        "velocity": 235.82,
        "true_track": 76.12,
        "vertical_rate": 0.33,
        "geo_altitude": 10622.28,
        "squawk": "6177",
        "spi": false,
        "position_source": 0
      }
    },
    {
      "type": "Feature",
      "geometry": {
        "type": "Point",
        "coordinates": [
          10.8166,
          47.4036
        ]
      },
      "properties": {
        "icao24": "4066d0",
        "callsign": "TOM1XC",
        "origin_country": "United Kingdom",
        "time_position": 1786751607,
        "last_contact": 1786751607,
        "baro_altitude": 11582.4,
        "on_ground": false,
        "velocity": 225.97,
        "true_track": 297.67,
        "vertical_rate": 0,
        "geo_altitude": 12138.66,
        "squawk": "3562",
        "spi": false,
        "position_source": 0
      }
    },
    {
      "type": "Feature",
      "geometry": {
        "type": "Point",
        "coordinates": [
          13.5165,
          40.2556
        ]
      },
      "properties": {
        "icao24": "4bb287",
        "callsign": "THY5LY",
        "origin_country": "Turkey",
        "time_position": 1786751608,
        "last_contact": 1786751608,
        "baro_altitude": 10660.38,
        "on_ground": false,
        "velocity": 236.11,
        "true_track": 83.49,
        "vertical_rate": 0,
        "geo_altitude": 11224.26,
        "squawk": "0205",
        "spi": false,
        "position_source": 0
      }
    },
    {
      "type": "Feature",
      "geometry": {
        "type": "Point",
        "coordinates": [
          6.5401,
          44.6078
        ]
      },
      "properties": {
        "icao24": "346648",
        "callsign": "VOE2993",
        "origin_country": "Spain",
        "time_position": 1786751608,
        "last_contact": 1786751608,
        "baro_altitude": 10972.8,
        "on_ground": false,
        "velocity": 222.3,
        "true_track": 326.42,
        "vertical_rate": 0,
        "geo_altitude": 11567.16,
        "squawk": "1000",
        "spi": false,
        "position_source": 0
      }
    },
    {
      "type": "Feature",
      "geometry": {
        "type": "Point",
        "coordinates": [
          9.5122,
          44.6606
        ]
      },
      "properties": {
        "icao24": "346644",
        "callsign": "VOE71RQ",
        "origin_country": "Spain",
        "time_position": 1786751608,
        "last_contact": 1786751608,
        "baro_altitude": 6423.66,
        "on_ground": false,
        "velocity": 204.17,
        "true_track": 54.23,
        "vertical_rate": -12.35,
        "geo_altitude": 6865.62,
        "squawk": "6313",
        "spi": false,
        "position_source": 0
      }
    },
    {
      "type": "Feature",
      "geometry": {
        "type": "Point",
        "coordinates": [
          15.4918,
          45.7292
        ]
      },
      "properties": {
        "icao24": "406753",
        "callsign": "EZY69TN",
        "origin_country": "United Kingdom",
        "time_position": 1786751607,
        "last_contact": 1786751607,
        "baro_altitude": 10972.8,
        "on_ground": false,
        "velocity": 217.98,
        "true_track": 308.2,
        "vertical_rate": 0,
        "geo_altitude": 11513.82,
        "squawk": "0501",
        "spi": false,
        "position_source": 0
      }
    },
    {
      "type": "Feature",
      "geometry": {
        "type": "Point",
        "coordinates": [
          8.4204,
          44.316
        ]
      },
      "properties": {
        "icao24": "489229",
        "callsign": "ENT1364",
        "origin_country": "Poland",
        "time_position": 1786751608,
        "last_contact": 1786751608,
        "baro_altitude": 11582.4,
        "on_ground": false,
        "velocity": 232.07,
        "true_track": 49.5,
        "vertical_rate": 0,
        "geo_altitude": 12184.38,
        "squawk": "1000",
        "spi": false,
        "position_source": 0
      }
    },
    {
      "type": "Feature",
      "geometry": {
        "type": "Point",
        "coordinates": [
          15.0178,
          46.0573
        ]
      },
      "properties": {
        "icao24": "4bb186",
        "callsign": "THY41J",
        "origin_country": "Turkey",
        "time_position": 1786751607,
        "last_contact": 1786751607,
        "baro_altitude": 11887.2,
        "on_ground": false,
        "velocity": 256.76,
        "true_track": 116.15,
        "vertical_rate": -0.33,
        "geo_altitude": 12458.7,
        "squawk": "2230",
        "spi": false,
        "position_source": 0
      }
    },
    {
      "type": "Feature",
      "geometry": {
        "type": "Point",
        "coordinates": [
          18.5571,
          46.0823
        ]
      },
      "properties": {
        "icao24": "4bb184",
        "callsign": "THY4RN",
        "origin_country": "Turkey",
        "time_position": 1786751608,
        "last_contact": 1786751608,
        "baro_altitude": 11887.2,
        "on_ground": false,
        "velocity": 260.22,
        "true_track": 120.01,
        "vertical_rate": 0,
        "geo_altitude": 12435.84,
        "squawk": "5254",
        "spi": false,
        "position_source": 0
      }
    },
    {
      "type": "Feature",
      "geometry": {
        "type": "Point",
        "coordinates": [
          12.618,
          46.9026
        ]
      },
      "properties": {
        "icao24": "4067f0",
        "callsign": "TOM675",
        "origin_country": "United Kingdom",
        "time_position": 1786751608,
        "last_contact": 1786751608,
        "baro_altitude": 11582.4,
        "on_ground": false,
        "velocity": 222.71,
        "true_track": 296.92,
        "vertical_rate": 0.33,
        "geo_altitude": 12131.04,
        "squawk": "5337",
        "spi": false,
        "position_source": 0
      }
    },
    {
      "type": "Feature",
      "geometry": {
        "type": "Point",
        "coordinates": [
          18.4554,
          39.1522
        ]
      },
      "properties": {
        "icao24": "896531",
        "callsign": "FDB1TZ",
        "origin_country": "United Arab Emirates",
        "time_position": 1786751608,
        "last_contact": 1786751608,
        "baro_altitude": 10668,
        "on_ground": false,
        "velocity": 244.45,
        "true_track": 135,
        "vertical_rate": 0,
        "geo_altitude": 11178.54,
        "squawk": "3746",
        "spi": false,
        "position_source": 0
      }
    },
    {
      "type": "Feature",
      "geometry": {
        "type": "Point",
        "coordinates": [
          16.5274,
          44.5348
        ]
      },
      "properties": {
        "icao24": "896472",
        "callsign": "UAE6",
        "origin_country": "United Arab Emirates",
        "time_position": 1786751608,
        "last_contact": 1786751608,
        "baro_altitude": 11277.6,
        "on_ground": false,
        "velocity": 266.45,
        "true_track": 132.97,
        "vertical_rate": 0.33,
        "geo_altitude": 11833.86,
        "squawk": "5270",
        "spi": false,
        "position_source": 0
      }
    },
    {
      "type": "Feature",
      "geometry": {
        "type": "Point",
        "coordinates": [
          6.2356,
          37.9788
        ]
      },
      "properties": {
        "icao24": "40688b",
        "callsign": "BAW57K",
        "origin_country": "United Kingdom",
        "time_position": 1786751607,
        "last_contact": 1786751607,
        "baro_altitude": 11277.6,
        "on_ground": false,
        "velocity": 256.53,
        "true_track": 169.95,
        "vertical_rate": 0,
        "geo_altitude": 11932.92,
        "squawk": "6330",
        "spi": false,
        "position_source": 0
      }
    },
    {
      "type": "Feature",
      "geometry": {
        "type": "Point",
        "coordinates": [
          18.57,
          47.3139
        ]
      },
      "properties": {
        "icao24": "89661e",
        "callsign": "UAE24",
        "origin_country": "United Arab Emirates",
        "time_position": 1786751608,
        "last_contact": 1786751608,
        "baro_altitude": 12496.8,
        "on_ground": false,
        "velocity": 263.4,
        "true_track": 124.09,
        "vertical_rate": 0,
        "geo_altitude": 13014.96,
        "squawk": "5252",
        "spi": false,
        "position_source": 0
      }
    },
    {
      "type": "Feature",
      "geometry": {
        "type": "Point",
        "coordinates": [
          16.023,
          46.2323
        ]
      },
      "properties": {
        "icao24": "4b990d",
        "callsign": "FHY1362",
        "origin_country": "Turkey",
        "time_position": 1786751608,
        "last_contact": 1786751608,
        "baro_altitude": 10668,
        "on_ground": false,
        "velocity": 240.97,
        "true_track": 132.92,
        "vertical_rate": 0,
        "geo_altitude": 11186.16,
        "squawk": "7642",
        "spi": false,
        "position_source": 0
      }
    },
    {
      "type": "Feature",
      "geometry": {
        "type": "Point",
        "coordinates": [
          9.1594,
          44.3427
        ]
      },
      "properties": {
        "icao24": "e4a018",
        "callsign": "PSMBN",
        "origin_country": "Brazil",
        "time_position": 1786751608,
        "last_contact": 1786751608,
        "baro_altitude": 1394.46,
        "on_ground": false,
        "velocity": 107.86,
        "true_track": 288.35,
        "vertical_rate": -6.5,
        "geo_altitude": 1539.24,
        "squawk": "2231",
        "spi": false,
        "position_source": 0
      }
    },
    {
      "type": "Feature",
      "geometry": {
        "type": "Point",
        "coordinates": [
          14.596,
          47.1266
        ]
      },
      "properties": {
        "icao24": "4bcd86",
        "callsign": "SXS2NB",
        "origin_country": "Turkey",
        "time_position": 1786751608,
        "last_contact": 1786751608,
        "baro_altitude": 11277.6,
        "on_ground": false,
        "velocity": 243.35,
        "true_track": 131.92,
        "vertical_rate": 0,
        "geo_altitude": 11826.24,
        "squawk": "7706",
        "spi": false,
        "position_source": 0
      }
    },
    {
      "type": "Feature",
      "geometry": {
        "type": "Point",
        "coordinates": [
          18.4942,
          47.5275
        ]
      },
      "properties": {
        "icao24": "780212",
        "callsign": "CPA254",
        "origin_country": "China",
        "time_position": 1786751608,
        "last_contact": 1786751608,
        "baro_altitude": 9448.8,
        "on_ground": false,
        "velocity": 259.05,
        "true_track": 113.15,
        "vertical_rate": 0,
        "geo_altitude": 9906,
        "squawk": "5242",
        "spi": false,
        "position_source": 0
      }
    },
    {
      "type": "Feature",
      "geometry": {
        "type": "Point",
        "coordinates": [
          14.0876,
          39.982
        ]
      },
      "properties": {
        "icao24": "04004a",
        "callsign": "ETH519",
        "origin_country": "Ethiopia",
        "time_position": 1786751608,
        "last_contact": 1786751608,
        "baro_altitude": 12496.8,
        "on_ground": false,
        "velocity": 258.98,
        "true_track": 126.44,
        "vertical_rate": -0.33,
        "geo_altitude": 13098.78,
        "squawk": "2236",
        "spi": false,
        "position_source": 0
      }
    },
    {
      "type": "Feature",
      "geometry": {
        "type": "Point",
        "coordinates": [
          12.0436,
          45.9582
        ]
      },
      "properties": {
        "icao24": "406fda",
        "callsign": "EZY26XM",
        "origin_country": "United Kingdom",
        "time_position": 1786751608,
        "last_contact": 1786751608,
        "baro_altitude": 10980.42,
        "on_ground": false,
        "velocity": 223.79,
        "true_track": 305.08,
        "vertical_rate": 0,
        "geo_altitude": 11551.92,
        "squawk": "5335",
        "spi": false,
        "position_source": 0
      }
    },
    {
      "type": "Feature",
      "geometry": {
        "type": "Point",
        "coordinates": [
          17.8276,
          43.2709
        ]
      },
      "properties": {
        "icao24": "04008b",
        "callsign": "ETH3725",
        "origin_country": "Ethiopia",
        "time_position": 1786751589,
        "last_contact": 1786751591,
        "baro_altitude": 9448.8,
        "on_ground": false,
        "velocity": 262.26,
        "true_track": 142.97,
        "vertical_rate": 0,
        "geo_altitude": 9928.86,
        "squawk": "7126",
        "spi": false,
        "position_source": 0
      }
    },
    {
      "type": "Feature",
      "geometry": {
        "type": "Point",
        "coordinates": [
          18.8075,
          46.1955
        ]
      },
      "properties": {
        "icao24": "49d403",
        "callsign": "TVS44T",
        "origin_country": "Czech Republic",
        "time_position": 1786751607,
        "last_contact": 1786751608,
        "baro_altitude": 11277.6,
        "on_ground": false,
        "velocity": 242.73,
        "true_track": 162.1,
        "vertical_rate": 0,
        "geo_altitude": 11795.76,
        "squawk": "1417",
        "spi": false,
        "position_source": 0
      }
    },
    {
      "type": "Feature",
      "geometry": {
        "type": "Point",
        "coordinates": [
          17.7195,
          44.4567
        ]
      },
      "properties": {
        "icao24": "407eeb",
        "callsign": "EXS23PW",
        "origin_country": "United Kingdom",
        "time_position": 1786751608,
        "last_contact": 1786751608,
        "baro_altitude": 10972.8,
        "on_ground": false,
        "velocity": 223.56,
        "true_track": 309.77,
        "vertical_rate": 0,
        "geo_altitude": 11506.2,
        "squawk": "1162",
        "spi": false,
        "position_source": 0
      }
    },
    {
      "type": "Feature",
      "geometry": {
        "type": "Point",
        "coordinates": [
          18.9353,
          43.7125
        ]
      },
      "properties": {
        "icao24": "407e7d",
        "callsign": "EXS86FT",
        "origin_country": "United Kingdom",
        "time_position": 1786751608,
        "last_contact": 1786751608,
        "baro_altitude": 10972.8,
        "on_ground": false,
        "velocity": 220.35,
        "true_track": 310.64,
        "vertical_rate": 0,
        "geo_altitude": 11475.72,
        "squawk": "5313",
        "spi": false,
        "position_source": 0
      }
    },
    {
      "type": "Feature",
      "geometry": {
        "type": "Point",
        "coordinates": [
          6.3904,
          40.7905
        ]
      },
      "properties": {
        "icao24": "abcf7f",
        "callsign": "GTI587",
        "origin_country": "United States",
        "time_position": 1786751607,
        "last_contact": 1786751607,
        "baro_altitude": 9753.6,
        "on_ground": false,
        "velocity": 263.78,
        "true_track": 95.93,
        "vertical_rate": 0,
        "geo_altitude": 10325.1,
        "squawk": "1454",
        "spi": false,
        "position_source": 0
      }
    },
    {
      "type": "Feature",
      "geometry": {
        "type": "Point",
        "coordinates": [
          6.5205,
          46.5391
        ]
      },
      "properties": {
        "icao24": "407e60",
        "callsign": "EZY85JZ",
        "origin_country": "United Kingdom",
        "time_position": 1786751608,
        "last_contact": 1786751608,
        "baro_altitude": 11475.72,
        "on_ground": false,
        "velocity": 216.82,
        "true_track": 314.42,
        "vertical_rate": 4.55,
        "geo_altitude": 12054.84,
        "squawk": "5772",
        "spi": false,
        "position_source": 0
      }
    },
    {
      "type": "Feature",
      "geometry": {
        "type": "Point",
        "coordinates": [
          15.7833,
          41.9507
        ]
      },
      "properties": {
        "icao24": "4b9da1",
        "callsign": "NMA5222",
        "origin_country": "Turkey",
        "time_position": 1786751608,
        "last_contact": 1786751608,
        "baro_altitude": 10660.38,
        "on_ground": false,
        "velocity": 240.22,
        "true_track": 130.14,
        "vertical_rate": 0,
        "geo_altitude": 11216.64,
        "squawk": "0457",
        "spi": false,
        "position_source": 0
      }
    },
    {
      "type": "Feature",
      "geometry": {
        "type": "Point",
        "coordinates": [
          6.6566,
          43.0947
        ]
      },
      "properties": {
        "icao24": "440611",
        "callsign": "EJU72TV",
        "origin_country": "Austria",
        "time_position": 1786751608,
        "last_contact": 1786751608,
        "baro_altitude": 9136.38,
        "on_ground": false,
        "velocity": 217.06,
        "true_track": 49.33,
        "vertical_rate": 0,
        "geo_altitude": 9662.16,
        "squawk": "1000",
        "spi": false,
        "position_source": 0
      }
    },
    {
      "type": "Feature",
      "geometry": {
        "type": "Point",
        "coordinates": [
          18.9433,
          38.5468
        ]
      },
      "properties": {
        "icao24": "06a070",
        "callsign": "QTR30J",
        "origin_country": "Qatar",
        "time_position": 1786751608,
        "last_contact": 1786751608,
        "baro_altitude": 10668,
        "on_ground": false,
        "velocity": 260.77,
        "true_track": 122.19,
        "vertical_rate": 0,
        "geo_altitude": 11163.3,
        "squawk": "1233",
        "spi": false,
        "position_source": 0
      }
    },
    {
      "type": "Feature",
      "geometry": {
        "type": "Point",
        "coordinates": [
          8.7653,
          45.5145
        ]
      },
      "properties": {
        "icao24": "44079a",
        "callsign": "EJU94TQ",
        "origin_country": "Austria",
        "time_position": 1786751608,
        "last_contact": 1786751608,
        "baro_altitude": 762,
        "on_ground": false,
        "velocity": 96.86,
        "true_track": 349.29,
        "vertical_rate": -5.2,
        "geo_altitude": 876.3,
        "squawk": "5502",
        "spi": false,
        "position_source": 0
      }
    },
    {
      "type": "Feature",
      "geometry": {
        "type": "Point",
        "coordinates": [
          7.2111,
          43.6626
        ]
      },
      "properties": {
        "icao24": "34368c",
        "callsign": "ANE1217",
        "origin_country": "Spain",
        "time_position": 1786751415,
        "last_contact": 1786751415,
        "baro_altitude": null,
        "on_ground": true,
        "velocity": 0.77,
        "true_track": 45,
        "vertical_rate": null,
        "geo_altitude": null,
        "squawk": "1000",
        "spi": false,
        "position_source": 0
      }
    },
    {
      "type": "Feature",
      "geometry": {
        "type": "Point",
        "coordinates": [
          18.1685,
          46.7474
        ]
      },
      "properties": {
        "icao24": "49d034",
        "callsign": "TVS6EH",
        "origin_country": "Czech Republic",
        "time_position": 1786751608,
        "last_contact": 1786751608,
        "baro_altitude": 10972.8,
        "on_ground": false,
        "velocity": 218.6,
        "true_track": 326.91,
        "vertical_rate": 0,
        "geo_altitude": 11475.72,
        "squawk": "1334",
        "spi": false,
        "position_source": 0
      }
    },
    {
      "type": "Feature",
      "geometry": {
        "type": "Point",
        "coordinates": [
          18.264,
          43.8296
        ]
      },
      "properties": {
        "icao24": "407c0b",
        "callsign": "TOM49T",
        "origin_country": "United Kingdom",
        "time_position": 1786751607,
        "last_contact": 1786751607,
        "baro_altitude": 11582.4,
        "on_ground": false,
        "velocity": 226.59,
        "true_track": 322.19,
        "vertical_rate": 0,
        "geo_altitude": 12123.42,
        "squawk": "6637",
        "spi": false,
        "position_source": 0
      }
    },
    {
      "type": "Feature",
      "geometry": {
        "type": "Point",
        "coordinates": [
          11.671,
          42.09
        ]
      },
      "properties": {
        "icao24": "44042f",
        "callsign": "EJU95WM",
        "origin_country": "Austria",
        "time_position": 1786751607,
        "last_contact": 1786751607,
        "baro_altitude": 10965.18,
        "on_ground": false,
        "velocity": 224.08,
        "true_track": 315.19,
        "vertical_rate": 0,
        "geo_altitude": 11544.3,
        "squawk": "1000",
        "spi": false,
        "position_source": 0
      }
    },
    {
      "type": "Feature",
      "geometry": {
        "type": "Point",
        "coordinates": [
          6.3512,
          44.8709
        ]
      },
      "properties": {
        "icao24": "06a1ed",
        "callsign": "QTR8214",
        "origin_country": "Qatar",
        "time_position": 1786751608,
        "last_contact": 1786751608,
        "baro_altitude": 8869.68,
        "on_ground": false,
        "velocity": 220.65,
        "true_track": 78.98,
        "vertical_rate": -9.43,
        "geo_altitude": 9380.22,
        "squawk": "1000",
        "spi": false,
        "position_source": 0
      }
    },
    {
      "type": "Feature",
      "geometry": {
        "type": "Point",
        "coordinates": [
          6.1067,
          38.5307
        ]
      },
      "properties": {
        "icao24": "407af5",
        "callsign": "BAW59",
        "origin_country": "United Kingdom",
        "time_position": 1786751580,
        "last_contact": 1786751603,
        "baro_altitude": 10668,
        "on_ground": false,
        "velocity": 260.44,
        "true_track": 169.64,
        "vertical_rate": 0,
        "geo_altitude": 11269.98,
        "squawk": "6311",
        "spi": false,
        "position_source": 0
      }
    },
    {
      "type": "Feature",
      "geometry": {
        "type": "Point",
        "coordinates": [
          17.0499,
          47.4624
        ]
      },
      "properties": {
        "icao24": "4bb885",
        "callsign": "TKJ3MQ",
        "origin_country": "Turkey",
        "time_position": 1786751608,
        "last_contact": 1786751608,
        "baro_altitude": 10668,
        "on_ground": false,
        "velocity": 245.3,
        "true_track": 117.75,
        "vertical_rate": 0,
        "geo_altitude": 11170.92,
        "squawk": "4634",
        "spi": false,
        "position_source": 0
      }
    },
    {
      "type": "Feature",
      "geometry": {
        "type": "Point",
        "coordinates": [
          6.1123,
          46.2371
        ]
      },
      "properties": {
        "icao24": "4b1808",
        "callsign": "SWR7LW",
        "origin_country": "Switzerland",
        "time_position": 1786751579,
        "last_contact": 1786751596,
        "baro_altitude": null,
        "on_ground": true,
        "velocity": 0,
        "true_track": 135,
        "vertical_rate": null,
        "geo_altitude": null,
        "squawk": null,
        "spi": false,
        "position_source": 0
      }
    },
    {
      "type": "Feature",
      "geometry": {
        "type": "Point",
        "coordinates": [
          8.5651,
          47.4419
        ]
      },
      "properties": {
        "icao24": "4b1802",
        "callsign": "SWR",
        "origin_country": "Switzerland",
        "time_position": 1786751587,
        "last_contact": 1786751591,
        "baro_altitude": null,
        "on_ground": true,
        "velocity": 0.06,
        "true_track": 146.25,
        "vertical_rate": null,
        "geo_altitude": null,
        "squawk": null,
        "spi": false,
        "position_source": 0
      }
    },
    {
      "type": "Feature",
      "geometry": {
        "type": "Point",
        "coordinates": [
          17.5582,
          43.7075
        ]
      },
      "properties": {
        "icao24": "408086",
        "callsign": "TOM649",
        "origin_country": "United Kingdom",
        "time_position": 1786751606,
        "last_contact": 1786751607,
        "baro_altitude": 11582.4,
        "on_ground": false,
        "velocity": 228.46,
        "true_track": 315.73,
        "vertical_rate": 0,
        "geo_altitude": 12138.66,
        "squawk": "5537",
        "spi": false,
        "position_source": 0
      }
    },
    {
      "type": "Feature",
      "geometry": {
        "type": "Point",
        "coordinates": [
          6.4481,
          46.3697
        ]
      },
      "properties": {
        "icao24": "3c542f",
        "callsign": "BCS465",
        "origin_country": "Germany",
        "time_position": 1786751607,
        "last_contact": 1786751608,
        "baro_altitude": 10363.2,
        "on_ground": false,
        "velocity": 237.08,
        "true_track": 312.27,
        "vertical_rate": 0,
        "geo_altitude": 10919.46,
        "squawk": "5774",
        "spi": false,
        "position_source": 0
      }
    },
    {
      "type": "Feature",
      "geometry": {
        "type": "Point",
        "coordinates": [
          10.8067,
          35.7706
        ]
      },
      "properties": {
        "icao24": "02a1a5",
        "callsign": null,
        "origin_country": "Tunisia",
        "time_position": 1786751442,
        "last_contact": 1786751472,
        "baro_altitude": 137.16,
        "on_ground": false,
        "velocity": 71.3,
        "true_track": 253.66,
        "vertical_rate": -2.93,
        "geo_altitude": 198.12,
        "squawk": null,
        "spi": false,
        "position_source": 0
      }
    },
    {
      "type": "Feature",
      "geometry": {
        "type": "Point",
        "coordinates": [
          15.5258,
          38.4412
        ]
      },
      "properties": {
        "icao24": "02a1a4",
        "callsign": "LBT691",
        "origin_country": "Tunisia",
        "time_position": 1786751608,
        "last_contact": 1786751608,
        "baro_altitude": 10980.42,
        "on_ground": false,
        "velocity": 229.93,
        "true_track": 266.28,
        "vertical_rate": -0.33,
        "geo_altitude": 11551.92,
        "squawk": "2336",
        "spi": false,
        "position_source": 0
      }
    },
    {
      "type": "Feature",
      "geometry": {
        "type": "Point",
        "coordinates": [
          9.8629,
          38.076
        ]
      },
      "properties": {
        "icao24": "02a1a7",
        "callsign": "LBT779",
        "origin_country": "Tunisia",
        "time_position": 1786751473,
        "last_contact": 1786751473,
        "baro_altitude": 11285.22,
        "on_ground": false,
        "velocity": 238.74,
        "true_track": 157.58,
        "vertical_rate": 0,
        "geo_altitude": 11910.06,
        "squawk": "1241",
        "spi": false,
        "position_source": 0
      }
    },
    {
      "type": "Feature",
      "geometry": {
        "type": "Point",
        "coordinates": [
          11.776,
          47.1276
        ]
      },
      "properties": {
        "icao24": "40823f",
        "callsign": "EXS13EV",
        "origin_country": "United Kingdom",
        "time_position": 1786751608,
        "last_contact": 1786751608,
        "baro_altitude": 10972.8,
        "on_ground": false,
        "velocity": 225.24,
        "true_track": 297.03,
        "vertical_rate": 0.33,
        "geo_altitude": 11529.06,
        "squawk": "6617",
        "spi": false,
        "position_source": 0
      }
    },
    {
      "type": "Feature",
      "geometry": {
        "type": "Point",
        "coordinates": [
          7.3968,
          36.8152
        ]
      },
      "properties": {
        "icao24": "02a1aa",
        "callsign": null,
        "origin_country": "Tunisia",
        "time_position": 1786751558,
        "last_contact": 1786751560,
        "baro_altitude": 10660.38,
        "on_ground": false,
        "velocity": 244.95,
        "true_track": 88.56,
        "vertical_rate": 0.33,
        "geo_altitude": 11277.6,
        "squawk": null,
        "spi": false,
        "position_source": 0
      }
    },
    {
      "type": "Feature",
      "geometry": {
        "type": "Point",
        "coordinates": [
          14.9509,
          44.1296
        ]
      },
      "properties": {
        "icao24": "440c6f",
        "callsign": "EJU36JL",
        "origin_country": "Austria",
        "time_position": 1786751608,
        "last_contact": 1786751608,
        "baro_altitude": 10972.8,
        "on_ground": false,
        "velocity": 227.18,
        "true_track": 309.86,
        "vertical_rate": 0,
        "geo_altitude": 11529.06,
        "squawk": "5531",
        "spi": false,
        "position_source": 0
      }
    },
    {
      "type": "Feature",
      "geometry": {
        "type": "Point",
        "coordinates": [
          16.9494,
          44.6479
        ]
      },
      "properties": {
        "icao24": "408033",
        "callsign": "EXS82LG",
        "origin_country": "United Kingdom",
        "time_position": 1786751608,
        "last_contact": 1786751608,
        "baro_altitude": 10980.42,
        "on_ground": false,
        "velocity": 225.71,
        "true_track": 311.03,
        "vertical_rate": 0.33,
        "geo_altitude": 11513.82,
        "squawk": "3261",
        "spi": false,
        "position_source": 0
      }
    },
    {
      "type": "Feature",
      "geometry": {
        "type": "Point",
        "coordinates": [
          8.8684,
          41.9843
        ]
      },
      "properties": {
        "icao24": "440d6f",
        "callsign": "EJU12RT",
        "origin_country": "Austria",
        "time_position": 1786751608,
        "last_contact": 1786751608,
        "baro_altitude": 10370.82,
        "on_ground": false,
        "velocity": 203.44,
        "true_track": 2.75,
        "vertical_rate": -0.33,
        "geo_altitude": 10949.94,
        "squawk": "1000",
        "spi": false,
        "position_source": 0
      }
    },
    {
      "type": "Feature",
      "geometry": {
        "type": "Point",
        "coordinates": [
          15.6362,
          35.6634
        ]
      },
      "properties": {
        "icao24": "0a00e3",
        "callsign": "DAH4651",
        "origin_country": "Algeria",
        "time_position": 1786751608,
        "last_contact": 1786751608,
        "baro_altitude": 10972.8,
        "on_ground": false,
        "velocity": 223.21,
        "true_track": 277.68,
        "vertical_rate": 0,
        "geo_altitude": 11567.16,
        "squawk": "5510",
        "spi": false,
        "position_source": 0
      }
    },
    {
      "type": "Feature",
      "geometry": {
        "type": "Point",
        "coordinates": [
          18.1552,
          43.5511
        ]
      },
      "properties": {
        "icao24": "4ca9e7",
        "callsign": "NOS5965",
        "origin_country": "Ireland",
        "time_position": 1786751607,
        "last_contact": 1786751608,
        "baro_altitude": 12192,
        "on_ground": false,
        "velocity": 247.71,
        "true_track": 293.37,
        "vertical_rate": -0.65,
        "geo_altitude": 12771.12,
        "squawk": "2041",
        "spi": false,
        "position_source": 0
      }
    },
    {
      "type": "Feature",
      "geometry": {
        "type": "Point",
        "coordinates": [
          15.994,
          47.4815
        ]
      },
      "properties": {
        "icao24": "4bab2f",
        "callsign": "THY3393",
        "origin_country": "Turkey",
        "time_position": 1786751607,
        "last_contact": 1786751608,
        "baro_altitude": 10668,
        "on_ground": false,
        "velocity": 243.85,
        "true_track": 126.51,
        "vertical_rate": 0.33,
        "geo_altitude": 11170.92,
        "squawk": "6014",
        "spi": false,
        "position_source": 0
      }
    },
    {
      "type": "Feature",
      "geometry": {
        "type": "Point",
        "coordinates": [
          8.7148,
          45.63
        ]
      },
      "properties": {
        "icao24": "4ca8af",
        "callsign": "RYR9DB",
        "origin_country": "Ireland",
        "time_position": 1786751413,
        "last_contact": 1786751413,
        "baro_altitude": null,
        "on_ground": true,
        "velocity": 1.03,
        "true_track": 348.75,
        "vertical_rate": null,
        "geo_altitude": null,
        "squawk": "1000",
        "spi": false,
        "position_source": 0
      }
    },
    {
      "type": "Feature",
      "geometry": {
        "type": "Point",
        "coordinates": [
          8.2153,
          44.0846
        ]
      },
      "properties": {
        "icao24": "4ca912",
        "callsign": "RYR3399",
        "origin_country": "Ireland",
        "time_position": 1786751607,
        "last_contact": 1786751607,
        "baro_altitude": 10972.8,
        "on_ground": false,
        "velocity": 229.06,
        "true_track": 40.81,
        "vertical_rate": 0,
        "geo_altitude": 11544.3,
        "squawk": "1000",
        "spi": false,
        "position_source": 0
      }
    },
    {
      "type": "Feature",
      "geometry": {
        "type": "Point",
        "coordinates": [
          9.0946,
          45.8964
        ]
      },
      "properties": {
        "icao24": "4ca804",
        "callsign": "RYR86JJ",
        "origin_country": "Ireland",
        "time_position": 1786751608,
        "last_contact": 1786751608,
        "baro_altitude": 5524.5,
        "on_ground": false,
        "velocity": 196.83,
        "true_track": 126.39,
        "vertical_rate": -11.38,
        "geo_altitude": 5897.88,
        "squawk": "2217",
        "spi": false,
        "position_source": 0
      }
    },
    {
      "type": "Feature",
      "geometry": {
        "type": "Point",
        "coordinates": [
          8.722,
          45.6247
        ]
      },
      "properties": {
        "icao24": "4ca80c",
        "callsign": "RYR5U",
        "origin_country": "Ireland",
        "time_position": 1786751600,
        "last_contact": 1786751600,
        "baro_altitude": null,
        "on_ground": true,
        "velocity": 0,
        "true_track": 168.75,
        "vertical_rate": null,
        "geo_altitude": null,
        "squawk": "1000",
        "spi": false,
        "position_source": 0
      }
    },
    {
      "type": "Feature",
      "geometry": {
        "type": "Point",
        "coordinates": [
          18.9035,
          45.9385
        ]
      },
      "properties": {
        "icao24": "4bcde8",
        "callsign": "SXS4ZH",
        "origin_country": "Turkey",
        "time_position": 1786751608,
        "last_contact": 1786751608,
        "baro_altitude": 10668,
        "on_ground": false,
        "velocity": 236.64,
        "true_track": 144.82,
        "vertical_rate": 0,
        "geo_altitude": 11163.3,
        "squawk": "6035",
        "spi": false,
        "position_source": 0
      }
    },
    {
      "type": "Feature",
      "geometry": {
        "type": "Point",
        "coordinates": [
          18.8272,
          47.0533
        ]
      },
      "properties": {
        "icao24": "4bcdef",
        "callsign": "SXS5FR",
        "origin_country": "Turkey",
        "time_position": 1786751607,
        "last_contact": 1786751607,
        "baro_altitude": 11277.6,
        "on_ground": false,
        "velocity": 244.74,
        "true_track": 145.27,
        "vertical_rate": 0,
        "geo_altitude": 11795.76,
        "squawk": "7615",
        "spi": false,
        "position_source": 0
      }
    },
    {
      "type": "Feature",
      "geometry": {
        "type": "Point",
        "coordinates": [
          6.6824,
          43.6933
        ]
      },
      "properties": {
        "icao24": "4ca740",
        "callsign": "RYR119T",
        "origin_country": "Ireland",
        "time_position": 1786751608,
        "last_contact": 1786751608,
        "baro_altitude": 11277.6,
        "on_ground": false,
        "velocity": 236.17,
        "true_track": 245.28,
        "vertical_rate": 0,
        "geo_altitude": 11879.58,
        "squawk": "1000",
        "spi": false,
        "position_source": 0
      }
    },
    {
      "type": "Feature",
      "geometry": {
        "type": "Point",
        "coordinates": [
          10.3717,
          36.8029
        ]
      },
      "properties": {
        "icao24": "02a263",
        "callsign": "TAR515",
        "origin_country": "Tunisia",
        "time_position": 1786751590,
        "last_contact": 1786751590,
        "baro_altitude": 594.36,
        "on_ground": false,
        "velocity": 99.98,
        "true_track": 293.66,
        "vertical_rate": 0,
        "geo_altitude": null,
        "squawk": null,
        "spi": false,
        "position_source": 0
      }
    },
    {
      "type": "Feature",
      "geometry": {
        "type": "Point",
        "coordinates": [
          13.0034,
          47.5874
        ]
      },
      "properties": {
        "icao24": "4bcdb0",
        "callsign": "SXS2GA",
        "origin_country": "Turkey",
        "time_position": 1786751608,
        "last_contact": 1786751608,
        "baro_altitude": 11277.6,
        "on_ground": false,
        "velocity": 237.54,
        "true_track": 131.84,
        "vertical_rate": 0,
        "geo_altitude": 11818.62,
        "squawk": "7660",
        "spi": false,
        "position_source": 0
      }
    },
    {
      "type": "Feature",
      "geometry": {
        "type": "Point",
        "coordinates": [
          18.9541,
          45.9241
        ]
      },
      "properties": {
        "icao24": "4bcdb4",
        "callsign": "SXS14E",
        "origin_country": "Turkey",
        "time_position": 1786751608,
        "last_contact": 1786751608,
        "baro_altitude": 11277.6,
        "on_ground": false,
        "velocity": 243.1,
        "true_track": 121.94,
        "vertical_rate": 0,
        "geo_altitude": 11795.76,
        "squawk": "7713",
        "spi": false,
        "position_source": 0
      }
    },
    {
      "type": "Feature",
      "geometry": {
        "type": "Point",
        "coordinates": [
          18.6602,
          43.7483
        ]
      },
      "properties": {
        "icao24": "4bce0d",
        "callsign": "SXS6XD",
        "origin_country": "Turkey",
        "time_position": 1786751607,
        "last_contact": 1786751608,
        "baro_altitude": 11277.6,
        "on_ground": false,
        "velocity": 242.28,
        "true_track": 134.48,
        "vertical_rate": 0,
        "geo_altitude": 11803.38,
        "squawk": "7654",
        "spi": false,
        "position_source": 0
      }
    },
    {
      "type": "Feature",
      "geometry": {
        "type": "Point",
        "coordinates": [
          14.159,
          42.366
        ]
      },
      "properties": {
        "icao24": "46866b",
        "callsign": "AEZ2229",
        "origin_country": "Greece",
        "time_position": 1786751607,
        "last_contact": 1786751608,
        "baro_altitude": 6728.46,
        "on_ground": false,
        "velocity": 212.95,
        "true_track": 122.27,
        "vertical_rate": -7.8,
        "geo_altitude": 7124.7,
        "squawk": "6440",
        "spi": false,
        "position_source": 0
      }
    },
    {
      "type": "Feature",
      "geometry": {
        "type": "Point",
        "coordinates": [
          16.8803,
          43.0865
        ]
      },
      "properties": {
        "icao24": "40769a",
        "callsign": "TOM5NT",
        "origin_country": "United Kingdom",
        "time_position": 1786751523,
        "last_contact": 1786751524,
        "baro_altitude": 11887.2,
        "on_ground": false,
        "velocity": 242.32,
        "true_track": 133.8,
        "vertical_rate": 0,
        "geo_altitude": 12451.08,
        "squawk": "0537",
        "spi": false,
        "position_source": 0
      }
    },
    {
      "type": "Feature",
      "geometry": {
        "type": "Point",
        "coordinates": [
          14.6305,
          47.1833
        ]
      },
      "properties": {
        "icao24": "407630",
        "callsign": "EXS1BV",
        "origin_country": "United Kingdom",
        "time_position": 1786751607,
        "last_contact": 1786751608,
        "baro_altitude": 10972.8,
        "on_ground": false,
        "velocity": 217.28,
        "true_track": 313.18,
        "vertical_rate": 0,
        "geo_altitude": 11498.58,
        "squawk": "5327",
        "spi": false,
        "position_source": 0
      }
    },
    {
      "type": "Feature",
      "geometry": {
        "type": "Point",
        "coordinates": [
          15.7751,
          46.1791
        ]
      },
      "properties": {
        "icao24": "01024e",
        "callsign": "MSC2908",
        "origin_country": "Egypt",
        "time_position": 1786751608,
        "last_contact": 1786751608,
        "baro_altitude": 10972.8,
        "on_ground": false,
        "velocity": 226.4,
        "true_track": 329.71,
        "vertical_rate": 0.33,
        "geo_altitude": 11513.82,
        "squawk": "2075",
        "spi": false,
        "position_source": 0
      }
    },
    {
      "type": "Feature",
      "geometry": {
        "type": "Point",
        "coordinates": [
          8.7766,
          43.0261
        ]
      },
      "properties": {
        "icao24": "010283",
        "callsign": "MSR948",
        "origin_country": "Egypt",
        "time_position": 1786751607,
        "last_contact": 1786751608,
        "baro_altitude": 11887.2,
        "on_ground": false,
        "velocity": 255.97,
        "true_track": 123.69,
        "vertical_rate": 0,
        "geo_altitude": 12466.32,
        "squawk": "1155",
        "spi": false,
        "position_source": 0
      }
    },
    {
      "type": "Feature",
      "geometry": {
        "type": "Point",
        "coordinates": [
          14.245,
          46.3826
        ]
      },
      "properties": {
        "icao24": "010275",
        "callsign": "RSX8554",
        "origin_country": "Egypt",
        "time_position": 1786751608,
        "last_contact": 1786751608,
        "baro_altitude": 11277.6,
        "on_ground": false,
        "velocity": 238.99,
        "true_track": 138.14,
        "vertical_rate": 0,
        "geo_altitude": 11818.62,
        "squawk": "2563",
        "spi": false,
        "position_source": 0
      }
    },
    {
      "type": "Feature",
      "geometry": {
        "type": "Point",
        "coordinates": [
          16.4796,
          40.8825
        ]
      },
      "properties": {
        "icao24": "01028e",
        "callsign": "NMA301",
        "origin_country": "Egypt",
        "time_position": 1786751606,
        "last_contact": 1786751607,
        "baro_altitude": 10058.4,
        "on_ground": false,
        "velocity": 243.12,
        "true_track": 128.47,
        "vertical_rate": -0.33,
        "geo_altitude": 10568.94,
        "squawk": "3741",
        "spi": false,
        "position_source": 0
      }
    },
    {
      "type": "Feature",
      "geometry": {
        "type": "Point",
        "coordinates": [
          9.6811,
          40.0022
        ]
      },
      "properties": {
        "icao24": "4d24de",
        "callsign": "KMM455",
        "origin_country": "Malta",
        "time_position": 1786751608,
        "last_contact": 1786751608,
        "baro_altitude": 11269.98,
        "on_ground": false,
        "velocity": 238.32,
        "true_track": 140.61,
        "vertical_rate": 0,
        "geo_altitude": 11887.2,
        "squawk": "1256",
        "spi": false,
        "position_source": 0
      }
    },
    {
      "type": "Feature",
      "geometry": {
        "type": "Point",
        "coordinates": [
          12.8237,
          37.3862
        ]
      },
      "properties": {
        "icao24": "4d24ba",
        "callsign": "KMM103",
        "origin_country": "Malta",
        "time_position": 1786751608,
        "last_contact": 1786751608,
        "baro_altitude": 11102.34,
        "on_ground": false,
        "velocity": 246.36,
        "true_track": 139.66,
        "vertical_rate": -4.88,
        "geo_altitude": 11711.94,
        "squawk": "5236",
        "spi": false,
        "position_source": 0
      }
    },
    {
      "type": "Feature",
      "geometry": {
        "type": "Point",
        "coordinates": [
          10.0908,
          44.2433
        ]
      },
      "properties": {
        "icao24": "4d2535",
        "callsign": "WMT4545",
        "origin_country": "Malta",
        "time_position": 1786751608,
        "last_contact": 1786751608,
        "baro_altitude": 10660.38,
        "on_ground": false,
        "velocity": 233.08,
        "true_track": 102.1,
        "vertical_rate": 0.33,
        "geo_altitude": 11231.88,
        "squawk": "3744",
        "spi": false,
        "position_source": 0
      }
    },
    {
      "type": "Feature",
      "geometry": {
        "type": "Point",
        "coordinates": [
          9.7239,
          45.6647
        ]
      },
      "properties": {
        "icao24": "4d251a",
        "callsign": "RYR8ZZ",
        "origin_country": "Malta",
        "time_position": 1786751386,
        "last_contact": 1786751388,
        "baro_altitude": 213.36,
        "on_ground": false,
        "velocity": 78.87,
        "true_track": 285.12,
        "vertical_rate": -3.9,
        "geo_altitude": 304.8,
        "squawk": "2073",
        "spi": false,
        "position_source": 0
      }
    },
    {
      "type": "Feature",
      "geometry": {
        "type": "Point",
        "coordinates": [
          11.611,
          41.6884
        ]
      },
      "properties": {
        "icao24": "71ba06",
        "callsign": "KAL922",
        "origin_country": "Republic of Korea",
        "time_position": 1786751608,
        "last_contact": 1786751608,
        "baro_altitude": 10965.18,
        "on_ground": false,
        "velocity": 251.71,
        "true_track": 72.64,
        "vertical_rate": -0.33,
        "geo_altitude": 11529.06,
        "squawk": "1267",
        "spi": false,
        "position_source": 0
      }
    },
    {
      "type": "Feature",
      "geometry": {
        "type": "Point",
        "coordinates": [
          11.1036,
          43.7437
        ]
      },
      "properties": {
        "icao24": "30061c",
        "callsign": "VND003D",
        "origin_country": "Italy",
        "time_position": 1786751608,
        "last_contact": 1786751608,
        "baro_altitude": 586.74,
        "on_ground": false,
        "velocity": 74.59,
        "true_track": 46.4,
        "vertical_rate": -3.9,
        "geo_altitude": 670.56,
        "squawk": "1000",
        "spi": false,
        "position_source": 0
      }
    },
    {
      "type": "Feature",
      "geometry": {
        "type": "Point",
        "coordinates": [
          8.7185,
          45.6258
        ]
      },
      "properties": {
        "icao24": "4d2420",
        "callsign": "WMT8598",
        "origin_country": "Malta",
        "time_position": 1786751390,
        "last_contact": 1786751447,
        "baro_altitude": null,
        "on_ground": true,
        "velocity": 0,
        "true_track": 348.75,
        "vertical_rate": null,
        "geo_altitude": null,
        "squawk": "1000",
        "spi": false,
        "position_source": 0
      }
    },
    {
      "type": "Feature",
      "geometry": {
        "type": "Point",
        "coordinates": [
          12.2584,
          41.8534
        ]
      },
      "properties": {
        "icao24": "4cade8",
        "callsign": "ITY8016",
        "origin_country": "Ireland",
        "time_position": 1786751521,
        "last_contact": 1786751521,
        "baro_altitude": 60.96,
        "on_ground": false,
        "velocity": 64.75,
        "true_track": 162.43,
        "vertical_rate": -2.93,
        "geo_altitude": 129.54,
        "squawk": "5107",
        "spi": false,
        "position_source": 0
      }
    },
    {
      "type": "Feature",
      "geometry": {
        "type": "Point",
        "coordinates": [
          18.6205,
          41.266
        ]
      },
      "properties": {
        "icao24": "4d2490",
        "callsign": "WZZ66RG",
        "origin_country": "Malta",
        "time_position": 1786751445,
        "last_contact": 1786751447,
        "baro_altitude": 10652.76,
        "on_ground": false,
        "velocity": 226.72,
        "true_track": 86.75,
        "vertical_rate": -0.33,
        "geo_altitude": 11170.92,
        "squawk": "1273",
        "spi": false,
        "position_source": 0
      }
    },
    {
      "type": "Feature",
      "geometry": {
        "type": "Point",
        "coordinates": [
          9.7313,
          45.6633
        ]
      },
      "properties": {
        "icao24": "4cae93",
        "callsign": "RYR265",
        "origin_country": "Ireland",
        "time_position": 1786751608,
        "last_contact": 1786751608,
        "baro_altitude": 236.22,
        "on_ground": false,
        "velocity": 80.86,
        "true_track": 284.74,
        "vertical_rate": -3.58,
        "geo_altitude": 320.04,
        "squawk": "1000",
        "spi": false,
        "position_source": 0
      }
    },
    {
      "type": "Feature",
      "geometry": {
        "type": "Point",
        "coordinates": [
          7.2246,
          38.2884
        ]
      },
      "properties": {
        "icao24": "4d2338",
        "callsign": "TAR629",
        "origin_country": "Malta",
        "time_position": 1786751607,
        "last_contact": 1786751607,
        "baro_altitude": 11277.6,
        "on_ground": false,
        "velocity": 240.29,
        "true_track": 161.91,
        "vertical_rate": 0,
        "geo_altitude": 11917.68,
        "squawk": "2376",
        "spi": false,
        "position_source": 0
      }
    },
    {
      "type": "Feature",
      "geometry": {
        "type": "Point",
        "coordinates": [
          12.0102,
          47.5709
        ]
      },
      "properties": {
        "icao24": "4cad39",
        "callsign": "RYR7SF",
        "origin_country": "Ireland",
        "time_position": 1786751607,
        "last_contact": 1786751607,
        "baro_altitude": 10972.8,
        "on_ground": false,
        "velocity": 224.5,
        "true_track": 306.9,
        "vertical_rate": 0,
        "geo_altitude": 11513.82,
        "squawk": "7542",
        "spi": false,
        "position_source": 0
      }
    },
    {
      "type": "Feature",
      "geometry": {
        "type": "Point",
        "coordinates": [
          17.2179,
          45.3242
        ]
      },
      "properties": {
        "icao24": "4070ec",
        "callsign": "EXS39JW",
        "origin_country": "United Kingdom",
        "time_position": 1786751608,
        "last_contact": 1786751608,
        "baro_altitude": 10972.8,
        "on_ground": false,
        "velocity": 226,
        "true_track": 316.75,
        "vertical_rate": 0,
        "geo_altitude": 11490.96,
        "squawk": "5535",
        "spi": false,
        "position_source": 0
      }
    },
    {
      "type": "Feature",
      "geometry": {
        "type": "Point",
        "coordinates": [
          16.3692,
          45.5257
        ]
      },
      "properties": {
        "icao24": "4070ee",
        "callsign": "EXS5RT",
        "origin_country": "United Kingdom",
        "time_position": 1786751608,
        "last_contact": 1786751608,
        "baro_altitude": 10972.8,
        "on_ground": false,
        "velocity": 218.62,
        "true_track": 320.73,
        "vertical_rate": 0,
        "geo_altitude": 11498.58,
        "squawk": "5525",
        "spi": false,
        "position_source": 0
      }
    },
    {
      "type": "Feature",
      "geometry": {
        "type": "Point",
        "coordinates": [
          15.7319,
          39.6396
        ]
      },
      "properties": {
        "icao24": "4c01f5",
        "callsign": "ASL9975",
        "origin_country": "Serbia",
        "time_position": 1786751608,
        "last_contact": 1786751608,
        "baro_altitude": 10355.58,
        "on_ground": false,
        "velocity": 223.41,
        "true_track": 43.69,
        "vertical_rate": 0,
        "geo_altitude": 10896.6,
        "squawk": "6137",
        "spi": false,
        "position_source": 0
      }
    },
    {
      "type": "Feature",
      "geometry": {
        "type": "Point",
        "coordinates": [
          8.731,
          45.6324
        ]
      },
      "properties": {
        "icao24": "4d21fc",
        "callsign": "RYR64AL",
        "origin_country": "Malta",
        "time_position": 1786751603,
        "last_contact": 1786751604,
        "baro_altitude": null,
        "on_ground": true,
        "velocity": 20.58,
        "true_track": 306.56,
        "vertical_rate": null,
        "geo_altitude": null,
        "squawk": "6565",
        "spi": false,
        "position_source": 0
      }
    },
    {
      "type": "Feature",
      "geometry": {
        "type": "Point",
        "coordinates": [
          10.9237,
          41.632
        ]
      },
      "properties": {
        "icao24": "4d21fd",
        "callsign": "RYR28BZ",
        "origin_country": "Malta",
        "time_position": 1786751608,
        "last_contact": 1786751608,
        "baro_altitude": 6530.34,
        "on_ground": false,
        "velocity": 195.57,
        "true_track": 64.11,
        "vertical_rate": -11.7,
        "geo_altitude": 6941.82,
        "squawk": "1000",
        "spi": false,
        "position_source": 0
      }
    },
    {
      "type": "Feature",
      "geometry": {
        "type": "Point",
        "coordinates": [
          12.1454,
          41.3973
        ]
      },
      "properties": {
        "icao24": "4d221f",
        "callsign": "RYR8541",
        "origin_country": "Malta",
        "time_position": 1786751608,
        "last_contact": 1786751608,
        "baro_altitude": 10972.8,
        "on_ground": false,
        "velocity": 221.93,
        "true_track": 314.06,
        "vertical_rate": 0.33,
        "geo_altitude": 11544.3,
        "squawk": null,
        "spi": false,
        "position_source": 0
      }
    },
    {
      "type": "Feature",
      "geometry": {
        "type": "Point",
        "coordinates": [
          12.2574,
          41.8558
        ]
      },
      "properties": {
        "icao24": "4d2260",
        "callsign": "RYR25XX",
        "origin_country": "Malta",
        "time_position": 1786751374,
        "last_contact": 1786751377,
        "baro_altitude": 68.58,
        "on_ground": false,
        "velocity": 76.33,
        "true_track": 163.15,
        "vertical_rate": -3.25,
        "geo_altitude": 129.54,
        "squawk": "1000",
        "spi": false,
        "position_source": 0
      }
    },
    {
      "type": "Feature",
      "geometry": {
        "type": "Point",
        "coordinates": [
          11.7859,
          41.8059
        ]
      },
      "properties": {
        "icao24": "4d2186",
        "callsign": "WMT511",
        "origin_country": "Malta",
        "time_position": 1786751608,
        "last_contact": 1786751608,
        "baro_altitude": 2537.46,
        "on_ground": false,
        "velocity": 144.79,
        "true_track": 44.42,
        "vertical_rate": -7.8,
        "geo_altitude": 2750.82,
        "squawk": "5202",
        "spi": false,
        "position_source": 0
      }
    },
    {
      "type": "Feature",
      "geometry": {
        "type": "Point",
        "coordinates": [
          18.512,
          35.3143
        ]
      },
      "properties": {
        "icao24": "710054",
        "callsign": "SVA342",
        "origin_country": "Saudi Arabia",
        "time_position": 1786751607,
        "last_contact": 1786751607,
        "baro_altitude": 10668,
        "on_ground": false,
        "velocity": 275.71,
        "true_track": 99.23,
        "vertical_rate": 0,
        "geo_altitude": 11224.26,
        "squawk": "4104",
        "spi": false,
        "position_source": 0
      }
    },
    {
      "type": "Feature",
      "geometry": {
        "type": "Point",
        "coordinates": [
          13.0473,
          41.0397
        ]
      },
      "properties": {
        "icao24": "4d20db",
        "callsign": "AEZ2816",
        "origin_country": "Malta",
        "time_position": 1786751608,
        "last_contact": 1786751608,
        "baro_altitude": 6926.58,
        "on_ground": false,
        "velocity": 199.79,
        "true_track": 344.93,
        "vertical_rate": -12.68,
        "geo_altitude": 7322.82,
        "squawk": "5441",
        "spi": false,
        "position_source": 0
      }
    },
    {
      "type": "Feature",
      "geometry": {
        "type": "Point",
        "coordinates": [
          12.9453,
          47.0726
        ]
      },
      "properties": {
        "icao24": "40832b",
        "callsign": "TOM2MW",
        "origin_country": "United Kingdom",
        "time_position": 1786751608,
        "last_contact": 1786751608,
        "baro_altitude": 11582.4,
        "on_ground": false,
        "velocity": 226.28,
        "true_track": 307.7,
        "vertical_rate": 0,
        "geo_altitude": 12138.66,
        "squawk": "2063",
        "spi": false,
        "position_source": 0
      }
    },
    {
      "type": "Feature",
      "geometry": {
        "type": "Point",
        "coordinates": [
          6.3779,
          43.9536
        ]
      },
      "properties": {
        "icao24": "01013d",
        "callsign": "MSR996",
        "origin_country": "Egypt",
        "time_position": 1786751608,
        "last_contact": 1786751608,
        "baro_altitude": 10668,
        "on_ground": false,
        "velocity": 255.34,
        "true_track": 118.79,
        "vertical_rate": 0,
        "geo_altitude": 11254.74,
        "squawk": "3362",
        "spi": false,
        "position_source": 0
      }
    },
    {
      "type": "Feature",
      "geometry": {
        "type": "Point",
        "coordinates": [
          16.961,
          41.9236
        ]
      },
      "properties": {
        "icao24": "4d208f",
        "callsign": "WMT6084",
        "origin_country": "Malta",
        "time_position": 1786751608,
        "last_contact": 1786751608,
        "baro_altitude": 10378.44,
        "on_ground": false,
        "velocity": 232.37,
        "true_track": 307.99,
        "vertical_rate": -0.33,
        "geo_altitude": 10911.84,
        "squawk": null,
        "spi": false,
        "position_source": 0
      }
    },
    {
      "type": "Feature",
      "geometry": {
        "type": "Point",
        "coordinates": [
          8.7211,
          45.6302
        ]
      },
      "properties": {
        "icao24": "4d2090",
        "callsign": "WMT9SK",
        "origin_country": "Malta",
        "time_position": 1786751590,
        "last_contact": 1786751592,
        "baro_altitude": null,
        "on_ground": true,
        "velocity": 3.86,
        "true_track": 258.75,
        "vertical_rate": null,
        "geo_altitude": null,
        "squawk": "2233",
        "spi": false,
        "position_source": 0
      }
    },
    {
      "type": "Feature",
      "geometry": {
        "type": "Point",
        "coordinates": [
          14.6793,
          35.7632
        ]
      },
      "properties": {
        "icao24": "4d203a",
        "callsign": "KNE661",
        "origin_country": "Malta",
        "time_position": 1786751608,
        "last_contact": 1786751608,
        "baro_altitude": 11582.4,
        "on_ground": false,
        "velocity": 231.24,
        "true_track": 277.16,
        "vertical_rate": 0,
        "geo_altitude": 12230.1,
        "squawk": "7733",
        "spi": false,
        "position_source": 0
      }
    },
    {
      "type": "Feature",
      "geometry": {
        "type": "Point",
        "coordinates": [
          13.5839,
          46.3093
        ]
      },
      "properties": {
        "icao24": "4082e6",
        "callsign": "TOM11J",
        "origin_country": "United Kingdom",
        "time_position": 1786751608,
        "last_contact": 1786751608,
        "baro_altitude": 10972.8,
        "on_ground": false,
        "velocity": 224.8,
        "true_track": 308.5,
        "vertical_rate": 0,
        "geo_altitude": 11521.44,
        "squawk": "2064",
        "spi": false,
        "position_source": 0
      }
    },
    {
      "type": "Feature",
      "geometry": {
        "type": "Point",
        "coordinates": [
          8.3997,
          47.2936
        ]
      },
      "properties": {
        "icao24": "4082ab",
        "callsign": "EZY21FJ",
        "origin_country": "United Kingdom",
        "time_position": 1786751608,
        "last_contact": 1786751608,
        "baro_altitude": 10363.2,
        "on_ground": false,
        "velocity": 227.89,
        "true_track": 304.52,
        "vertical_rate": 0,
        "geo_altitude": 10919.46,
        "squawk": "7517",
        "spi": false,
        "position_source": 0
      }
    },
    {
      "type": "Feature",
      "geometry": {
        "type": "Point",
        "coordinates": [
          8.5667,
          47.4454
        ]
      },
      "properties": {
        "icao24": "4b17fe",
        "callsign": "SWR9EX",
        "origin_country": "Switzerland",
        "time_position": 1786751607,
        "last_contact": 1786751607,
        "baro_altitude": null,
        "on_ground": true,
        "velocity": 0,
        "true_track": 64.69,
        "vertical_rate": null,
        "geo_altitude": null,
        "squawk": "2000",
        "spi": false,
        "position_source": 0
      }
    }
  ]
}