{
  "type": "FeatureCollection",
  "source": "opensky",
  "dataset": "aircraft_italy",
  "generated_at": "2026-07-27T23:40:50.172509+00:00",
  "opensky_time": 1785195645,
  "count": 137,
  "features": [
    {
      "type": "Feature",
      "geometry": {
        "type": "Point",
        "coordinates": [
          8.6956,
          40.7981
        ]
      },
      "properties": {
        "icao24": "471efc",
        "callsign": "WMT4RQ",
        "origin_country": "Hungary",
        "time_position": 1785195644,
        "last_contact": 1785195644,
        "baro_altitude": 10972.8,
        "on_ground": false,
        "velocity": 222.44,
        "true_track": 72.78,
        "vertical_rate": 0,
        "geo_altitude": 11658.6,
        "squawk": "1425",
        "spi": false,
        "position_source": 0
      }
    },
    {
      "type": "Feature",
      "geometry": {
        "type": "Point",
        "coordinates": [
          13.7621,
          46.2654
        ]
      },
      "properties": {
        "icao24": "801666",
        "callsign": "AIC102",
        "origin_country": "India",
        "time_position": 1785195644,
        "last_contact": 1785195644,
        "baro_altitude": 11887.2,
        "on_ground": false,
        "velocity": 283.38,
        "true_track": 135.22,
        "vertical_rate": 0,
        "geo_altitude": 12473.94,
        "squawk": "1153",
        "spi": false,
        "position_source": 0
      }
    },
    {
      "type": "Feature",
      "geometry": {
        "type": "Point",
        "coordinates": [
          18.4328,
          42.7767
        ]
      },
      "properties": {
        "icao24": "46b826",
        "callsign": "AEE609",
        "origin_country": "Greece",
        "time_position": 1785195644,
        "last_contact": 1785195644,
        "baro_altitude": 10668,
        "on_ground": false,
        "velocity": 260.25,
        "true_track": 139.73,
        "vertical_rate": 0.33,
        "geo_altitude": 11300.46,
        "squawk": "4706",
        "spi": false,
        "position_source": 0
      }
    },
    {
      "type": "Feature",
      "geometry": {
        "type": "Point",
        "coordinates": [
          9.7553,
          43.4603
        ]
      },
      "properties": {
        "icao24": "440224",
        "callsign": "EJU3602",
        "origin_country": "Austria",
        "time_position": 1785195644,
        "last_contact": 1785195644,
        "baro_altitude": 10363.2,
        "on_ground": false,
        "velocity": 223.05,
        "true_track": 342.28,
        "vertical_rate": 0,
        "geo_altitude": 11033.76,
        "squawk": "5120",
        "spi": false,
        "position_source": 0
      }
    },
    {
      "type": "Feature",
      "geometry": {
        "type": "Point",
        "coordinates": [
          12.2584,
          41.8534
        ]
      },
      "properties": {
        "icao24": "471f7a",
        "callsign": "WMT303",
        "origin_country": "Hungary",
        "time_position": 1785195591,
        "last_contact": 1785195591,
        "baro_altitude": 38.1,
        "on_ground": false,
        "velocity": 75.99,
        "true_track": 162.67,
        "vertical_rate": -3.9,
        "geo_altitude": 137.16,
        "squawk": "1442",
        "spi": false,
        "position_source": 0
      }
    },
    {
      "type": "Feature",
      "geometry": {
        "type": "Point",
        "coordinates": [
          7.204,
          43.6478
        ]
      },
      "properties": {
        "icao24": "5003b8",
        "callsign": "T7CAT",
        "origin_country": "San Marino",
        "time_position": 1785195641,
        "last_contact": 1785195644,
        "baro_altitude": null,
        "on_ground": true,
        "velocity": 5.66,
        "true_track": 45,
        "vertical_rate": null,
        "geo_altitude": null,
        "squawk": null,
        "spi": false,
        "position_source": 0
      }
    },
    {
      "type": "Feature",
      "geometry": {
        "type": "Point",
        "coordinates": [
          17.2096,
          45.5182
        ]
      },
      "properties": {
        "icao24": "471fad",
        "callsign": "WZZ6579",
        "origin_country": "Hungary",
        "time_position": 1785195644,
        "last_contact": 1785195644,
        "baro_altitude": 10530.84,
        "on_ground": false,
        "velocity": 247.87,
        "true_track": 93.33,
        "vertical_rate": -5.53,
        "geo_altitude": 11087.1,
        "squawk": "0452",
        "spi": false,
        "position_source": 0
      }
    },
    {
      "type": "Feature",
      "geometry": {
        "type": "Point",
        "coordinates": [
          18.0707,
          45.5574
        ]
      },
      "properties": {
        "icao24": "4bb4e7",
        "callsign": "MGH102",
        "origin_country": "Turkey",
        "time_position": 1785195645,
        "last_contact": 1785195645,
        "baro_altitude": 11277.6,
        "on_ground": false,
        "velocity": 283.47,
        "true_track": 125.25,
        "vertical_rate": 0.33,
        "geo_altitude": 11841.48,
        "squawk": "7711",
        "spi": false,
        "position_source": 0
      }
    },
    {
      "type": "Feature",
      "geometry": {
        "type": "Point",
        "coordinates": [
          9.5672,
          44.1218
        ]
      },
      "properties": {
        "icao24": "4401e8",
        "callsign": "EJU39CR",
        "origin_country": "Austria",
        "time_position": 1785195644,
        "last_contact": 1785195644,
        "baro_altitude": 7642.86,
        "on_ground": false,
        "velocity": 181.51,
        "true_track": 336.27,
        "vertical_rate": -4.23,
        "geo_altitude": 8168.64,
        "squawk": "7031",
        "spi": false,
        "position_source": 0
      }
    },
    {
      "type": "Feature",
      "geometry": {
        "type": "Point",
        "coordinates": [
          8.9697,
          44.8438
        ]
      },
      "properties": {
        "icao24": "4401fa",
        "callsign": "EJU62EL",
        "origin_country": "Austria",
        "time_position": 1785195644,
        "last_contact": 1785195644,
        "baro_altitude": 6682.74,
        "on_ground": false,
        "velocity": 173.19,
        "true_track": 300.53,
        "vertical_rate": -5.2,
        "geo_altitude": 7162.8,
        "squawk": "1000",
        "spi": false,
        "position_source": 0
      }
    },
    {
      "type": "Feature",
      "geometry": {
        "type": "Point",
        "coordinates": [
          15.0654,
          39.4135
        ]
      },
      "properties": {
        "icao24": "73806d",
        "callsign": "ELY392",
        "origin_country": "Israel",
        "time_position": 1785195644,
        "last_contact": 1785195645,
        "baro_altitude": 10668,
        "on_ground": false,
        "velocity": 226.86,
        "true_track": 104.98,
        "vertical_rate": 0,
        "geo_altitude": 11269.98,
        "squawk": "1412",
        "spi": false,
        "position_source": 0
      }
    },
    {
      "type": "Feature",
      "geometry": {
        "type": "Point",
        "coordinates": [
          15.7524,
          45.4515
        ]
      },
      "properties": {
        "icao24": "738076",
        "callsign": "ELY318",
        "origin_country": "Israel",
        "time_position": 1785195644,
        "last_contact": 1785195644,
        "baro_altitude": 11277.6,
        "on_ground": false,
        "velocity": 278.69,
        "true_track": 129.83,
        "vertical_rate": 0,
        "geo_altitude": 11887.2,
        "squawk": "2211",
        "spi": false,
        "position_source": 0
      }
    },
    {
      "type": "Feature",
      "geometry": {
        "type": "Point",
        "coordinates": [
          10.7889,
          40.0963
        ]
      },
      "properties": {
        "icao24": "738052",
        "callsign": "ELY374",
        "origin_country": "Israel",
        "time_position": 1785195644,
        "last_contact": 1785195644,
        "baro_altitude": 10668,
        "on_ground": false,
        "velocity": 218.73,
        "true_track": 101.26,
        "vertical_rate": 0,
        "geo_altitude": 11323.32,
        "squawk": "1452",
        "spi": false,
        "position_source": 0
      }
    },
    {
      "type": "Feature",
      "geometry": {
        "type": "Point",
        "coordinates": [
          17.522,
          45.1452
        ]
      },
      "properties": {
        "icao24": "471d6f",
        "callsign": "WZZ9198",
        "origin_country": "Hungary",
        "time_position": 1785195644,
        "last_contact": 1785195644,
        "baro_altitude": 10355.58,
        "on_ground": false,
        "velocity": 255.69,
        "true_track": 103.14,
        "vertical_rate": 0,
        "geo_altitude": 10911.84,
        "squawk": "0415",
        "spi": false,
        "position_source": 0
      }
    },
    {
      "type": "Feature",
      "geometry": {
        "type": "Point",
        "coordinates": [
          16.722,
          43.3279
        ]
      },
      "properties": {
        "icao24": "471d67",
        "callsign": "WMT994",
        "origin_country": "Hungary",
        "time_position": 1785195644,
        "last_contact": 1785195644,
        "baro_altitude": 10668,
        "on_ground": false,
        "velocity": 246.41,
        "true_track": 123.59,
        "vertical_rate": 0,
        "geo_altitude": 11300.46,
        "squawk": "3756",
        "spi": false,
        "position_source": 0
      }
    },
    {
      "type": "Feature",
      "geometry": {
        "type": "Point",
        "coordinates": [
          15.7052,
          45.1759
        ]
      },
      "properties": {
        "icao24": "896264",
        "callsign": "AUH03",
        "origin_country": "United Arab Emirates",
        "time_position": 1785195644,
        "last_contact": 1785195644,
        "baro_altitude": 11887.2,
        "on_ground": false,
        "velocity": 278.71,
        "true_track": 140.99,
        "vertical_rate": 0,
        "geo_altitude": 12519.66,
        "squawk": "2261",
        "spi": false,
        "position_source": 0
      }
    },
    {
      "type": "Feature",
      "geometry": {
        "type": "Point",
        "coordinates": [
          11.1453,
          37.183
        ]
      },
      "properties": {
        "icao24": "4bb28e",
        "callsign": "THY5LY",
        "origin_country": "Turkey",
        "time_position": 1785195644,
        "last_contact": 1785195644,
        "baro_altitude": 10058.4,
        "on_ground": false,
        "velocity": 232.48,
        "true_track": 58.67,
        "vertical_rate": 0.33,
        "geo_altitude": 10607.04,
        "squawk": "1242",
        "spi": false,
        "position_source": 0
      }
    },
    {
      "type": "Feature",
      "geometry": {
        "type": "Point",
        "coordinates": [
          7.6625,
          43.773
        ]
      },
      "properties": {
        "icao24": "020175",
        "callsign": "MAC455",
        "origin_country": "Morocco",
        "time_position": 1785195645,
        "last_contact": 1785195645,
        "baro_altitude": 9144,
        "on_ground": false,
        "velocity": 235.51,
        "true_track": 47.04,
        "vertical_rate": 0,
        "geo_altitude": 9784.08,
        "squawk": "4675",
        "spi": false,
        "position_source": 0
      }
    },
    {
      "type": "Feature",
      "geometry": {
        "type": "Point",
        "coordinates": [
          8.1691,
          45.037
        ]
      },
      "properties": {
        "icao24": "506cb0",
        "callsign": "FIX004",
        "origin_country": "Slovenia",
        "time_position": 1785195644,
        "last_contact": 1785195644,
        "baro_altitude": 9738.36,
        "on_ground": false,
        "velocity": 237.8,
        "true_track": 196.59,
        "vertical_rate": -9.75,
        "geo_altitude": 10363.2,
        "squawk": "1000",
        "spi": false,
        "position_source": 0
      }
    },
    {
      "type": "Feature",
      "geometry": {
        "type": "Point",
        "coordinates": [
          12.8129,
          44.727
        ]
      },
      "properties": {
        "icao24": "406755",
        "callsign": "EZY89WU",
        "origin_country": "United Kingdom",
        "time_position": 1785195644,
        "last_contact": 1785195644,
        "baro_altitude": 11582.4,
        "on_ground": false,
        "velocity": 211.17,
        "true_track": 305.78,
        "vertical_rate": 0,
        "geo_altitude": 12245.34,
        "squawk": "3726",
        "spi": false,
        "position_source": 0
      }
    },
    {
      "type": "Feature",
      "geometry": {
        "type": "Point",
        "coordinates": [
          12.3289,
          45.4873
        ]
      },
      "properties": {
        "icao24": "34660f",
        "callsign": "VOE1491",
        "origin_country": "Spain",
        "time_position": 1785195585,
        "last_contact": 1785195585,
        "baro_altitude": 38.1,
        "on_ground": false,
        "velocity": 70.32,
        "true_track": 41.74,
        "vertical_rate": -3.58,
        "geo_altitude": 121.92,
        "squawk": "5515",
        "spi": false,
        "position_source": 0
      }
    },
    {
      "type": "Feature",
      "geometry": {
        "type": "Point",
        "coordinates": [
          11.5245,
          37.9559
        ]
      },
      "properties": {
        "icao24": "4bb204",
        "callsign": "THY658",
        "origin_country": "Turkey",
        "time_position": 1785195644,
        "last_contact": 1785195644,
        "baro_altitude": 8557.26,
        "on_ground": false,
        "velocity": 215.98,
        "true_track": 69.8,
        "vertical_rate": 7.8,
        "geo_altitude": 9060.18,
        "squawk": "6131",
        "spi": false,
        "position_source": 0
      }
    },
    {
      "type": "Feature",
      "geometry": {
        "type": "Point",
        "coordinates": [
          9.9186,
          47.5958
        ]
      },
      "properties": {
        "icao24": "48922b",
        "callsign": "ENT2FH",
        "origin_country": "Poland",
        "time_position": 1785195644,
        "last_contact": 1785195644,
        "baro_altitude": 11277.6,
        "on_ground": false,
        "velocity": 240.48,
        "true_track": 44.05,
        "vertical_rate": 0,
        "geo_altitude": 11879.58,
        "squawk": "1000",
        "spi": false,
        "position_source": 0
      }
    },
    {
      "type": "Feature",
      "geometry": {
        "type": "Point",
        "coordinates": [
          18.908,
          42.2994
        ]
      },
      "properties": {
        "icao24": "8963d8",
        "callsign": "UAE2504",
        "origin_country": "United Arab Emirates",
        "time_position": 1785195645,
        "last_contact": 1785195645,
        "baro_altitude": 10668,
        "on_ground": false,
        "velocity": 274.21,
        "true_track": 138.96,
        "vertical_rate": 0,
        "geo_altitude": 11292.84,
        "squawk": "5262",
        "spi": false,
        "position_source": 0
      }
    },
    {
      "type": "Feature",
      "geometry": {
        "type": "Point",
        "coordinates": [
          8.0743,
          47.1793
        ]
      },
      "properties": {
        "icao24": "4067f3",
        "callsign": "TOM7149",
        "origin_country": "United Kingdom",
        "time_position": 1785195645,
        "last_contact": 1785195645,
        "baro_altitude": 11582.4,
        "on_ground": false,
        "velocity": 204.65,
        "true_track": 309.49,
        "vertical_rate": 0,
        "geo_altitude": 12230.1,
        "squawk": "2754",
        "spi": false,
        "position_source": 0
      }
    },
    {
      "type": "Feature",
      "geometry": {
        "type": "Point",
        "coordinates": [
          15.1708,
          44.1741
        ]
      },
      "properties": {
        "icao24": "4067f0",
        "callsign": "TOM619",
        "origin_country": "United Kingdom",
        "time_position": 1785195644,
        "last_contact": 1785195644,
        "baro_altitude": 11582.4,
        "on_ground": false,
        "velocity": 208.47,
        "true_track": 299.41,
        "vertical_rate": 0,
        "geo_altitude": 12222.48,
        "squawk": "5322",
        "spi": false,
        "position_source": 0
      }
    },
    {
      "type": "Feature",
      "geometry": {
        "type": "Point",
        "coordinates": [
          8.7198,
          45.6111
        ]
      },
      "properties": {
        "icao24": "4ac98a",
        "callsign": "BCS7AG",
        "origin_country": "Sweden",
        "time_position": 1785195426,
        "last_contact": 1785195430,
        "baro_altitude": null,
        "on_ground": true,
        "velocity": 0,
        "true_track": 258.75,
        "vertical_rate": null,
        "geo_altitude": null,
        "squawk": "1000",
        "spi": false,
        "position_source": 0
      }
    },
    {
      "type": "Feature",
      "geometry": {
        "type": "Point",
        "coordinates": [
          8.5281,
          46.9354
        ]
      },
      "properties": {
        "icao24": "4064a4",
        "callsign": "TOM8KM",
        "origin_country": "United Kingdom",
        "time_position": 1785195644,
        "last_contact": 1785195644,
        "baro_altitude": 11582.4,
        "on_ground": false,
        "velocity": 206.03,
        "true_track": 309.73,
        "vertical_rate": 0,
        "geo_altitude": 12222.48,
        "squawk": "1155",
        "spi": false,
        "position_source": 0
      }
    },
    {
      "type": "Feature",
      "geometry": {
        "type": "Point",
        "coordinates": [
          16.5248,
          47.6831
        ]
      },
      "properties": {
        "icao24": "896621",
        "callsign": "UAE24",
        "origin_country": "United Arab Emirates",
        "time_position": 1785195645,
        "last_contact": 1785195645,
        "baro_altitude": 11902.44,
        "on_ground": false,
        "velocity": 302.69,
        "true_track": 135.83,
        "vertical_rate": -0.98,
        "geo_altitude": 12359.64,
        "squawk": "6017",
        "spi": false,
        "position_source": 0
      }
    },
    {
      "type": "Feature",
      "geometry": {
        "type": "Point",
        "coordinates": [
          10.5169,
          47.4776
        ]
      },
      "properties": {
        "icao24": "44cc45",
        "callsign": "BEL6LG",
        "origin_country": "Belgium",
        "time_position": 1785195645,
        "last_contact": 1785195645,
        "baro_altitude": 11582.4,
        "on_ground": false,
        "velocity": 201.19,
        "true_track": 315.93,
        "vertical_rate": 0,
        "geo_altitude": 12192,
        "squawk": "1000",
        "spi": false,
        "position_source": 0
      }
    },
    {
      "type": "Feature",
      "geometry": {
        "type": "Point",
        "coordinates": [
          8.4203,
          46.91
        ]
      },
      "properties": {
        "icao24": "40665e",
        "callsign": "TOM6LM",
        "origin_country": "United Kingdom",
        "time_position": 1785195644,
        "last_contact": 1785195644,
        "baro_altitude": 12192,
        "on_ground": false,
        "velocity": 205.57,
        "true_track": 306.55,
        "vertical_rate": 0,
        "geo_altitude": 12839.7,
        "squawk": "2774",
        "spi": false,
        "position_source": 0
      }
    },
    {
      "type": "Feature",
      "geometry": {
        "type": "Point",
        "coordinates": [
          16.1917,
          43.7323
        ]
      },
      "properties": {
        "icao24": "407914",
        "callsign": "EXS42KH",
        "origin_country": "United Kingdom",
        "time_position": 1785195644,
        "last_contact": 1785195644,
        "baro_altitude": 10972.8,
        "on_ground": false,
        "velocity": 215.37,
        "true_track": 300.42,
        "vertical_rate": 0,
        "geo_altitude": 11628.12,
        "squawk": "1140",
        "spi": false,
        "position_source": 0
      }
    },
    {
      "type": "Feature",
      "geometry": {
        "type": "Point",
        "coordinates": [
          13.019,
          44.6098
        ]
      },
      "properties": {
        "icao24": "40796b",
        "callsign": "TOM1TK",
        "origin_country": "United Kingdom",
        "time_position": 1785195644,
        "last_contact": 1785195645,
        "baro_altitude": 11582.4,
        "on_ground": false,
        "velocity": 212.1,
        "true_track": 301.11,
        "vertical_rate": 0,
        "geo_altitude": 12237.72,
        "squawk": "2047",
        "spi": false,
        "position_source": 0
      }
    },
    {
      "type": "Feature",
      "geometry": {
        "type": "Point",
        "coordinates": [
          14.8841,
          35.3644
        ]
      },
      "properties": {
        "icao24": "040187",
        "callsign": "ETH741",
        "origin_country": "Ethiopia",
        "time_position": 1785195644,
        "last_contact": 1785195644,
        "baro_altitude": 11269.98,
        "on_ground": false,
        "velocity": 278.96,
        "true_track": 93.91,
        "vertical_rate": 0.33,
        "geo_altitude": 11955.78,
        "squawk": "4112",
        "spi": false,
        "position_source": 0
      }
    },
    {
      "type": "Feature",
      "geometry": {
        "type": "Point",
        "coordinates": [
          18.0571,
          46.3997
        ]
      },
      "properties": {
        "icao24": "4bcd83",
        "callsign": "SXS1ZQ",
        "origin_country": "Turkey",
        "time_position": 1785195645,
        "last_contact": 1785195645,
        "baro_altitude": 11277.6,
        "on_ground": false,
        "velocity": 275.65,
        "true_track": 127.34,
        "vertical_rate": 0,
        "geo_altitude": 11803.38,
        "squawk": "4547",
        "spi": false,
        "position_source": 0
      }
    },
    {
      "type": "Feature",
      "geometry": {
        "type": "Point",
        "coordinates": [
          17.092,
          39.348
        ]
      },
      "properties": {
        "icao24": "49d3bb",
        "callsign": "ISR344",
        "origin_country": "Czech Republic",
        "time_position": 1785195644,
        "last_contact": 1785195644,
        "baro_altitude": 10675.62,
        "on_ground": false,
        "velocity": 228.36,
        "true_track": 118.53,
        "vertical_rate": -0.33,
        "geo_altitude": 11300.46,
        "squawk": "2661",
        "spi": false,
        "position_source": 0
      }
    },
    {
      "type": "Feature",
      "geometry": {
        "type": "Point",
        "coordinates": [
          16.2079,
          35.366
        ]
      },
      "properties": {
        "icao24": "06a2e9",
        "callsign": "QTR152",
        "origin_country": "Qatar",
        "time_position": 1785195644,
        "last_contact": 1785195644,
        "baro_altitude": 10660.38,
        "on_ground": false,
        "velocity": 281.74,
        "true_track": 95.66,
        "vertical_rate": 0,
        "geo_altitude": 11323.32,
        "squawk": "4116",
        "spi": false,
        "position_source": 0
      }
    },
    {
      "type": "Feature",
      "geometry": {
        "type": "Point",
        "coordinates": [
          18.1072,
          43.4695
        ]
      },
      "properties": {
        "icao24": "06a2e3",
        "callsign": "QTR8172",
        "origin_country": "Qatar",
        "time_position": 1785195644,
        "last_contact": 1785195644,
        "baro_altitude": 10972.8,
        "on_ground": false,
        "velocity": 224.1,
        "true_track": 314.26,
        "vertical_rate": 0,
        "geo_altitude": 11590.02,
        "squawk": null,
        "spi": false,
        "position_source": 0
      }
    },
    {
      "type": "Feature",
      "geometry": {
        "type": "Point",
        "coordinates": [
          11.966,
          40.9427
        ]
      },
      "properties": {
        "icao24": "06a2e1",
        "callsign": "QTR8264",
        "origin_country": "Qatar",
        "time_position": 1785195644,
        "last_contact": 1785195644,
        "baro_altitude": 12192,
        "on_ground": false,
        "velocity": 229.51,
        "true_track": 91.41,
        "vertical_rate": 0,
        "geo_altitude": 12885.42,
        "squawk": "1450",
        "spi": false,
        "position_source": 0
      }
    },
    {
      "type": "Feature",
      "geometry": {
        "type": "Point",
        "coordinates": [
          13.744,
          46.4859
        ]
      },
      "properties": {
        "icao24": "407fc1",
        "callsign": "WUK962",
        "origin_country": "United Kingdom",
        "time_position": 1785195644,
        "last_contact": 1785195645,
        "baro_altitude": 10972.8,
        "on_ground": false,
        "velocity": 195.89,
        "true_track": 309.46,
        "vertical_rate": 0,
        "geo_altitude": 11574.78,
        "squawk": "0502",
        "spi": false,
        "position_source": 0
      }
    },
    {
      "type": "Feature",
      "geometry": {
        "type": "Point",
        "coordinates": [
          10.349,
          39.0395
        ]
      },
      "properties": {
        "icao24": "49d1c6",
        "callsign": "EWG4PR",
        "origin_country": "Czech Republic",
        "time_position": 1785195621,
        "last_contact": 1785195621,
        "baro_altitude": 10576.56,
        "on_ground": false,
        "velocity": 250.84,
        "true_track": 182.82,
        "vertical_rate": -4.88,
        "geo_altitude": 11247.12,
        "squawk": "2564",
        "spi": false,
        "position_source": 0
      }
    },
    {
      "type": "Feature",
      "geometry": {
        "type": "Point",
        "coordinates": [
          14.5451,
          46.0002
        ]
      },
      "properties": {
        "icao24": "406d6f",
        "callsign": "TOM9YC",
        "origin_country": "United Kingdom",
        "time_position": 1785195645,
        "last_contact": 1785195645,
        "baro_altitude": 13098.78,
        "on_ground": false,
        "velocity": 214.19,
        "true_track": 304.53,
        "vertical_rate": 0,
        "geo_altitude": 13700.76,
        "squawk": "5352",
        "spi": false,
        "position_source": 0
      }
    },
    {
      "type": "Feature",
      "geometry": {
        "type": "Point",
        "coordinates": [
          12.0316,
          47.5769
        ]
      },
      "properties": {
        "icao24": "406e2e",
        "callsign": "EXS14JP",
        "origin_country": "United Kingdom",
        "time_position": 1785195644,
        "last_contact": 1785195644,
        "baro_altitude": 11582.4,
        "on_ground": false,
        "velocity": 191.37,
        "true_track": 307.02,
        "vertical_rate": 0,
        "geo_altitude": 12153.9,
        "squawk": "0623",
        "spi": false,
        "position_source": 0
      }
    },
    {
      "type": "Feature",
      "geometry": {
        "type": "Point",
        "coordinates": [
          8.7354,
          45.6229
        ]
      },
      "properties": {
        "icao24": "31d7a0",
        "callsign": "ECHO4",
        "origin_country": "Italy",
        "time_position": 1785195644,
        "last_contact": 1785195645,
        "baro_altitude": null,
        "on_ground": true,
        "velocity": 3.09,
        "true_track": 348.75,
        "vertical_rate": null,
        "geo_altitude": null,
        "squawk": null,
        "spi": false,
        "position_source": 0
      }
    },
    {
      "type": "Feature",
      "geometry": {
        "type": "Point",
        "coordinates": [
          11.6608,
          47.7666
        ]
      },
      "properties": {
        "icao24": "406caa",
        "callsign": "EXS55LD",
        "origin_country": "United Kingdom",
        "time_position": 1785195645,
        "last_contact": 1785195645,
        "baro_altitude": 11582.4,
        "on_ground": false,
        "velocity": 193.33,
        "true_track": 306.78,
        "vertical_rate": 0,
        "geo_altitude": 12169.14,
        "squawk": "6605",
        "spi": false,
        "position_source": 0
      }
    },
    {
      "type": "Feature",
      "geometry": {
        "type": "Point",
        "coordinates": [
          6.9354,
          46.5353
        ]
      },
      "properties": {
        "icao24": "407cb1",
        "callsign": "RUK3219",
        "origin_country": "United Kingdom",
        "time_position": 1785195644,
        "last_contact": 1785195644,
        "baro_altitude": 11582.4,
        "on_ground": false,
        "velocity": 210.86,
        "true_track": 300.82,
        "vertical_rate": 0,
        "geo_altitude": 12252.96,
        "squawk": "5725",
        "spi": false,
        "position_source": 0
      }
    },
    {
      "type": "Feature",
      "geometry": {
        "type": "Point",
        "coordinates": [
          14.9273,
          44.0176
        ]
      },
      "properties": {
        "icao24": "406c80",
        "callsign": "EXS37G",
        "origin_country": "United Kingdom",
        "time_position": 1785195645,
        "last_contact": 1785195645,
        "baro_altitude": 10972.8,
        "on_ground": false,
        "velocity": 211.95,
        "true_track": 307.01,
        "vertical_rate": 0,
        "geo_altitude": 11605.26,
        "squawk": "2050",
        "spi": false,
        "position_source": 0
      }
    },
    {
      "type": "Feature",
      "geometry": {
        "type": "Point",
        "coordinates": [
          17.9938,
          42.929
        ]
      },
      "properties": {
        "icao24": "406ade",
        "callsign": "EXS78PB",
        "origin_country": "United Kingdom",
        "time_position": 1785195645,
        "last_contact": 1785195645,
        "baro_altitude": 10363.2,
        "on_ground": false,
        "velocity": 216.31,
        "true_track": 304.14,
        "vertical_rate": 0.33,
        "geo_altitude": 10957.56,
        "squawk": "5333",
        "spi": false,
        "position_source": 0
      }
    },
    {
      "type": "Feature",
      "geometry": {
        "type": "Point",
        "coordinates": [
          15.5101,
          43.3192
        ]
      },
      "properties": {
        "icao24": "406ae8",
        "callsign": "TOM3TH",
        "origin_country": "United Kingdom",
        "time_position": 1785195643,
        "last_contact": 1785195643,
        "baro_altitude": 10972.8,
        "on_ground": false,
        "velocity": 210.72,
        "true_track": 307.26,
        "vertical_rate": 0,
        "geo_altitude": 11612.88,
        "squawk": "5506",
        "spi": false,
        "position_source": 0
      }
    },
    {
      "type": "Feature",
      "geometry": {
        "type": "Point",
        "coordinates": [
          11.955,
          45.2767
        ]
      },
      "properties": {
        "icao24": "406ac4",
        "callsign": "EXS12TY",
        "origin_country": "United Kingdom",
        "time_position": 1785195645,
        "last_contact": 1785195645,
        "baro_altitude": 11582.4,
        "on_ground": false,
        "velocity": 210.98,
        "true_track": 290.56,
        "vertical_rate": 0,
        "geo_altitude": 12230.1,
        "squawk": "5335",
        "spi": false,
        "position_source": 0
      }
    },
    {
      "type": "Feature",
      "geometry": {
        "type": "Point",
        "coordinates": [
          17.9081,
          47.5981
        ]
      },
      "properties": {
        "icao24": "4bb873",
        "callsign": "PGT19QN",
        "origin_country": "Turkey",
        "time_position": 1785195645,
        "last_contact": 1785195645,
        "baro_altitude": 11590.02,
        "on_ground": false,
        "velocity": 186.05,
        "true_track": 305.89,
        "vertical_rate": 0,
        "geo_altitude": 12070.08,
        "squawk": "5340",
        "spi": false,
        "position_source": 0
      }
    },
    {
      "type": "Feature",
      "geometry": {
        "type": "Point",
        "coordinates": [
          10.1978,
          47.575
        ]
      },
      "properties": {
        "icao24": "406a59",
        "callsign": "EXS14VP",
        "origin_country": "United Kingdom",
        "time_position": 1785195644,
        "last_contact": 1785195644,
        "baro_altitude": 11582.4,
        "on_ground": false,
        "velocity": 200.46,
        "true_track": 314.06,
        "vertical_rate": 0,
        "geo_altitude": 12199.62,
        "squawk": "7542",
        "spi": false,
        "position_source": 0
      }
    },
    {
      "type": "Feature",
      "geometry": {
        "type": "Point",
        "coordinates": [
          8.6086,
          45.0359
        ]
      },
      "properties": {
        "icao24": "4404e6",
        "callsign": "EJU73ZE",
        "origin_country": "Austria",
        "time_position": 1785195644,
        "last_contact": 1785195644,
        "baro_altitude": 3421.38,
        "on_ground": false,
        "velocity": 152.22,
        "true_track": 40.2,
        "vertical_rate": -7.15,
        "geo_altitude": 3703.32,
        "squawk": "4633",
        "spi": false,
        "position_source": 0
      }
    },
    {
      "type": "Feature",
      "geometry": {
        "type": "Point",
        "coordinates": [
          8.8184,
          47.3825
        ]
      },
      "properties": {
        "icao24": "407d5c",
        "callsign": "WUK597",
        "origin_country": "United Kingdom",
        "time_position": 1785195644,
        "last_contact": 1785195644,
        "baro_altitude": 10972.8,
        "on_ground": false,
        "velocity": 207.19,
        "true_track": 304.48,
        "vertical_rate": 0,
        "geo_altitude": 11597.64,
        "squawk": "3235",
        "spi": false,
        "position_source": 0
      }
    },
    {
      "type": "Feature",
      "geometry": {
        "type": "Point",
        "coordinates": [
          9.1399,
          45.9165
        ]
      },
      "properties": {
        "icao24": "39ce6e",
        "callsign": "FYG32T",
        "origin_country": "France",
        "time_position": 1785195644,
        "last_contact": 1785195644,
        "baro_altitude": 12192,
        "on_ground": false,
        "velocity": 225.32,
        "true_track": 282.26,
        "vertical_rate": -0.33,
        "geo_altitude": 12893.04,
        "squawk": "3244",
        "spi": false,
        "position_source": 0
      }
    },
    {
      "type": "Feature",
      "geometry": {
        "type": "Point",
        "coordinates": [
          9.2553,
          47.2679
        ]
      },
      "properties": {
        "icao24": "406a95",
        "callsign": "EZY75UQ",
        "origin_country": "United Kingdom",
        "time_position": 1785195644,
        "last_contact": 1785195644,
        "baro_altitude": 10972.8,
        "on_ground": false,
        "velocity": 209.74,
        "true_track": 304,
        "vertical_rate": 0,
        "geo_altitude": 11605.26,
        "squawk": "1160",
        "spi": false,
        "position_source": 0
      }
    },
    {
      "type": "Feature",
      "geometry": {
        "type": "Point",
        "coordinates": [
          12.7448,
          46.5872
        ]
      },
      "properties": {
        "icao24": "48c229",
        "callsign": "RYS6JZ",
        "origin_country": "Poland",
        "time_position": 1785195645,
        "last_contact": 1785195645,
        "baro_altitude": 10972.8,
        "on_ground": false,
        "velocity": 238.57,
        "true_track": 47.88,
        "vertical_rate": 0,
        "geo_altitude": 11574.78,
        "squawk": "1000",
        "spi": false,
        "position_source": 0
      }
    },
    {
      "type": "Feature",
      "geometry": {
        "type": "Point",
        "coordinates": [
          12.5295,
          38.734
        ]
      },
      "properties": {
        "icao24": "801593",
        "callsign": "VTPRI",
        "origin_country": "India",
        "time_position": 1785195486,
        "last_contact": 1785195644,
        "baro_altitude": 4282.44,
        "on_ground": false,
        "velocity": 143.15,
        "true_track": 154.91,
        "vertical_rate": -7.15,
        "geo_altitude": 4511.04,
        "squawk": "0535",
        "spi": false,
        "position_source": 0
      }
    },
    {
      "type": "Feature",
      "geometry": {
        "type": "Point",
        "coordinates": [
          8.5617,
          47.4412
        ]
      },
      "properties": {
        "icao24": "4b1801",
        "callsign": "SWR",
        "origin_country": "Switzerland",
        "time_position": 1785195643,
        "last_contact": 1785195643,
        "baro_altitude": null,
        "on_ground": true,
        "velocity": 0,
        "true_track": 244.69,
        "vertical_rate": null,
        "geo_altitude": null,
        "squawk": "2000",
        "spi": false,
        "position_source": 0
      }
    },
    {
      "type": "Feature",
      "geometry": {
        "type": "Point",
        "coordinates": [
          8.8356,
          45.3311
        ]
      },
      "properties": {
        "icao24": "408142",
        "callsign": "DHK524",
        "origin_country": "United Kingdom",
        "time_position": 1785195644,
        "last_contact": 1785195644,
        "baro_altitude": 1539.24,
        "on_ground": false,
        "velocity": 121.57,
        "true_track": 331.16,
        "vertical_rate": -1.3,
        "geo_altitude": 1691.64,
        "squawk": "2213",
        "spi": false,
        "position_source": 0
      }
    },
    {
      "type": "Feature",
      "geometry": {
        "type": "Point",
        "coordinates": [
          12.3595,
          47.3955
        ]
      },
      "properties": {
        "icao24": "408064",
        "callsign": "WUK451",
        "origin_country": "United Kingdom",
        "time_position": 1785195645,
        "last_contact": 1785195645,
        "baro_altitude": 10972.8,
        "on_ground": false,
        "velocity": 195.19,
        "true_track": 307.5,
        "vertical_rate": 0,
        "geo_altitude": 11567.16,
        "squawk": "6634",
        "spi": false,
        "position_source": 0
      }
    },
    {
      "type": "Feature",
      "geometry": {
        "type": "Point",
        "coordinates": [
          8.3755,
          40.5864
        ]
      },
      "properties": {
        "icao24": "02a1a3",
        "callsign": "LBT553",
        "origin_country": "Tunisia",
        "time_position": 1785195644,
        "last_contact": 1785195644,
        "baro_altitude": 11887.2,
        "on_ground": false,
        "velocity": 237.86,
        "true_track": 149.16,
        "vertical_rate": -0.33,
        "geo_altitude": 12603.48,
        "squawk": "4303",
        "spi": false,
        "position_source": 0
      }
    },
    {
      "type": "Feature",
      "geometry": {
        "type": "Point",
        "coordinates": [
          13.5217,
          44.7697
        ]
      },
      "properties": {
        "icao24": "408213",
        "callsign": "EXS75EV",
        "origin_country": "United Kingdom",
        "time_position": 1785195645,
        "last_contact": 1785195645,
        "baro_altitude": 10972.8,
        "on_ground": false,
        "velocity": 208.83,
        "true_track": 305.37,
        "vertical_rate": 0,
        "geo_altitude": 11628.12,
        "squawk": "2042",
        "spi": false,
        "position_source": 0
      }
    },
    {
      "type": "Feature",
      "geometry": {
        "type": "Point",
        "coordinates": [
          8.5573,
          47.4536
        ]
      },
      "properties": {
        "icao24": "4b5da2",
        "callsign": "TE21",
        "origin_country": "Switzerland",
        "time_position": 1785195587,
        "last_contact": 1785195617,
        "baro_altitude": null,
        "on_ground": true,
        "velocity": 3.86,
        "true_track": 351.56,
        "vertical_rate": null,
        "geo_altitude": null,
        "squawk": null,
        "spi": false,
        "position_source": 0
      }
    },
    {
      "type": "Feature",
      "geometry": {
        "type": "Point",
        "coordinates": [
          18.5104,
          42.0139
        ]
      },
      "properties": {
        "icao24": "40825f",
        "callsign": "EXS59WJ",
        "origin_country": "United Kingdom",
        "time_position": 1785195644,
        "last_contact": 1785195644,
        "baro_altitude": 10972.8,
        "on_ground": false,
        "velocity": 223.37,
        "true_track": 309.3,
        "vertical_rate": 0.33,
        "geo_altitude": 11628.12,
        "squawk": "2002",
        "spi": false,
        "position_source": 0
      }
    },
    {
      "type": "Feature",
      "geometry": {
        "type": "Point",
        "coordinates": [
          9.18,
          46.5819
        ]
      },
      "properties": {
        "icao24": "408262",
        "callsign": "EXS49TA",
        "origin_country": "United Kingdom",
        "time_position": 1785195645,
        "last_contact": 1785195645,
        "baro_altitude": 11582.4,
        "on_ground": false,
        "velocity": 207.81,
        "true_track": 311.19,
        "vertical_rate": 0,
        "geo_altitude": 12252.96,
        "squawk": "2742",
        "spi": false,
        "position_source": 0
      }
    },
    {
      "type": "Feature",
      "geometry": {
        "type": "Point",
        "coordinates": [
          16.5002,
          43.5895
        ]
      },
      "properties": {
        "icao24": "40823f",
        "callsign": "EXS85BE",
        "origin_country": "United Kingdom",
        "time_position": 1785195641,
        "last_contact": 1785195642,
        "baro_altitude": 10355.58,
        "on_ground": false,
        "velocity": 221.01,
        "true_track": 300.8,
        "vertical_rate": 0,
        "geo_altitude": 10972.8,
        "squawk": "7222",
        "spi": false,
        "position_source": 0
      }
    },
    {
      "type": "Feature",
      "geometry": {
        "type": "Point",
        "coordinates": [
          13.887,
          47.5881
        ]
      },
      "properties": {
        "icao24": "408183",
        "callsign": "EZY38CZ",
        "origin_country": "United Kingdom",
        "time_position": 1785195645,
        "last_contact": 1785195645,
        "baro_altitude": 10988.04,
        "on_ground": false,
        "velocity": 196.03,
        "true_track": 319.79,
        "vertical_rate": 0,
        "geo_altitude": 11536.68,
        "squawk": "2023",
        "spi": false,
        "position_source": 0
      }
    },
    {
      "type": "Feature",
      "geometry": {
        "type": "Point",
        "coordinates": [
          8.551,
          47.4454
        ]
      },
      "properties": {
        "icao24": "4b5c37",
        "callsign": "URSULA6",
        "origin_country": "Switzerland",
        "time_position": 1785195599,
        "last_contact": 1785195599,
        "baro_altitude": null,
        "on_ground": true,
        "velocity": 0.13,
        "true_track": 163.12,
        "vertical_rate": null,
        "geo_altitude": null,
        "squawk": null,
        "spi": false,
        "position_source": 0
      }
    },
    {
      "type": "Feature",
      "geometry": {
        "type": "Point",
        "coordinates": [
          16.7295,
          41.1297
        ]
      },
      "properties": {
        "icao24": "4ca907",
        "callsign": "MSA56B",
        "origin_country": "Ireland",
        "time_position": 1785195644,
        "last_contact": 1785195644,
        "baro_altitude": 106.68,
        "on_ground": false,
        "velocity": 72.92,
        "true_track": 69.78,
        "vertical_rate": -3.58,
        "geo_altitude": 175.26,
        "squawk": "1000",
        "spi": false,
        "position_source": 0
      }
    },
    {
      "type": "Feature",
      "geometry": {
        "type": "Point",
        "coordinates": [
          12.8114,
          44.0441
        ]
      },
      "properties": {
        "icao24": "490d82",
        "callsign": "NJE864A",
        "origin_country": "Portugal",
        "time_position": 1785195644,
        "last_contact": 1785195644,
        "baro_altitude": 12184.38,
        "on_ground": false,
        "velocity": 229.14,
        "true_track": 36.51,
        "vertical_rate": 0.33,
        "geo_altitude": 12854.94,
        "squawk": "1000",
        "spi": false,
        "position_source": 0
      }
    },
    {
      "type": "Feature",
      "geometry": {
        "type": "Point",
        "coordinates": [
          13.7096,
          40.4464
        ]
      },
      "properties": {
        "icao24": "4ca82b",
        "callsign": "MSA92C",
        "origin_country": "Ireland",
        "time_position": 1785195644,
        "last_contact": 1785195644,
        "baro_altitude": 10668,
        "on_ground": false,
        "velocity": 233.59,
        "true_track": 147.04,
        "vertical_rate": 0.33,
        "geo_altitude": 11323.32,
        "squawk": "4657",
        "spi": false,
        "position_source": 0
      }
    },
    {
      "type": "Feature",
      "geometry": {
        "type": "Point",
        "coordinates": [
          9.5775,
          39.4668
        ]
      },
      "properties": {
        "icao24": "4ca82c",
        "callsign": "MSA83E",
        "origin_country": "Ireland",
        "time_position": 1785195469,
        "last_contact": 1785195469,
        "baro_altitude": 3589.02,
        "on_ground": false,
        "velocity": 192.59,
        "true_track": 188.76,
        "vertical_rate": -11.38,
        "geo_altitude": 3863.34,
        "squawk": "6361",
        "spi": false,
        "position_source": 0
      }
    },
    {
      "type": "Feature",
      "geometry": {
        "type": "Point",
        "coordinates": [
          11.5325,
          43.1624
        ]
      },
      "properties": {
        "icao24": "4ca6a4",
        "callsign": "RYR19SV",
        "origin_country": "Ireland",
        "time_position": 1785195644,
        "last_contact": 1785195644,
        "baro_altitude": 11277.6,
        "on_ground": false,
        "velocity": 234.13,
        "true_track": 218.13,
        "vertical_rate": 0,
        "geo_altitude": 11955.78,
        "squawk": "1000",
        "spi": false,
        "position_source": 0
      }
    },
    {
      "type": "Feature",
      "geometry": {
        "type": "Point",
        "coordinates": [
          15.8707,
          46.9896
        ]
      },
      "properties": {
        "icao24": "4bce46",
        "callsign": "SXS3XA",
        "origin_country": "Turkey",
        "time_position": 1785195644,
        "last_contact": 1785195645,
        "baro_altitude": 11582.4,
        "on_ground": false,
        "velocity": 187.15,
        "true_track": 319.35,
        "vertical_rate": 0,
        "geo_altitude": 12115.8,
        "squawk": "3215",
        "spi": false,
        "position_source": 0
      }
    },
    {
      "type": "Feature",
      "geometry": {
        "type": "Point",
        "coordinates": [
          14.9829,
          47.687
        ]
      },
      "properties": {
        "icao24": "4bcdb0",
        "callsign": "SXS2PC",
        "origin_country": "Turkey",
        "time_position": 1785195644,
        "last_contact": 1785195644,
        "baro_altitude": 11582.4,
        "on_ground": false,
        "velocity": 188.11,
        "true_track": 318.77,
        "vertical_rate": 0,
        "geo_altitude": 12123.42,
        "squawk": "3243",
        "spi": false,
        "position_source": 0
      }
    },
    {
      "type": "Feature",
      "geometry": {
        "type": "Point",
        "coordinates": [
          14.3115,
          41.1788
        ]
      },
      "properties": {
        "icao24": "4ca701",
        "callsign": "RYR22MX",
        "origin_country": "Ireland",
        "time_position": 1785195644,
        "last_contact": 1785195644,
        "baro_altitude": 10965.18,
        "on_ground": false,
        "velocity": 231.45,
        "true_track": 296.39,
        "vertical_rate": 0,
        "geo_altitude": 11620.5,
        "squawk": "5533",
        "spi": false,
        "position_source": 0
      }
    },
    {
      "type": "Feature",
      "geometry": {
        "type": "Point",
        "coordinates": [
          14.8838,
          46.0655
        ]
      },
      "properties": {
        "icao24": "4bccb0",
        "callsign": "SXS93K",
        "origin_country": "Turkey",
        "time_position": 1785195644,
        "last_contact": 1785195644,
        "baro_altitude": 11582.4,
        "on_ground": false,
        "velocity": 197.58,
        "true_track": 307.91,
        "vertical_rate": 0,
        "geo_altitude": 12169.14,
        "squawk": "5355",
        "spi": false,
        "position_source": 0
      }
    },
    {
      "type": "Feature",
      "geometry": {
        "type": "Point",
        "coordinates": [
          17.5652,
          47.0479
        ]
      },
      "properties": {
        "icao24": "4bce06",
        "callsign": "SXS4ZH",
        "origin_country": "Turkey",
        "time_position": 1785195644,
        "last_contact": 1785195644,
        "baro_altitude": 8610.6,
        "on_ground": false,
        "velocity": 269.57,
        "true_track": 139.26,
        "vertical_rate": 6.18,
        "geo_altitude": 9029.7,
        "squawk": "6012",
        "spi": false,
        "position_source": 0
      }
    },
    {
      "type": "Feature",
      "geometry": {
        "type": "Point",
        "coordinates": [
          15.6098,
          43.6803
        ]
      },
      "properties": {
        "icao24": "4075af",
        "callsign": "EXS47MA",
        "origin_country": "United Kingdom",
        "time_position": 1785195644,
        "last_contact": 1785195644,
        "baro_altitude": 10972.8,
        "on_ground": false,
        "velocity": 217.61,
        "true_track": 306.73,
        "vertical_rate": 0,
        "geo_altitude": 11612.88,
        "squawk": "5306",
        "spi": false,
        "position_source": 0
      }
    },
    {
      "type": "Feature",
      "geometry": {
        "type": "Point",
        "coordinates": [
          11.5177,
          45.2926
        ]
      },
      "properties": {
        "icao24": "4d010a",
        "callsign": "ICV42U",
        "origin_country": "Luxembourg",
        "time_position": 1785195645,
        "last_contact": 1785195645,
        "baro_altitude": 9753.6,
        "on_ground": false,
        "velocity": 230.79,
        "true_track": 285.65,
        "vertical_rate": 0,
        "geo_altitude": 10325.1,
        "squawk": "0325",
        "spi": false,
        "position_source": 0
      }
    },
    {
      "type": "Feature",
      "geometry": {
        "type": "Point",
        "coordinates": [
          13.2117,
          44.5571
        ]
      },
      "properties": {
        "icao24": "407642",
        "callsign": "TOM285",
        "origin_country": "United Kingdom",
        "time_position": 1785195644,
        "last_contact": 1785195644,
        "baro_altitude": 11582.4,
        "on_ground": false,
        "velocity": 209.01,
        "true_track": 300.79,
        "vertical_rate": 0,
        "geo_altitude": 12237.72,
        "squawk": "2054",
        "spi": false,
        "position_source": 0
      }
    },
    {
      "type": "Feature",
      "geometry": {
        "type": "Point",
        "coordinates": [
          16.0614,
          43.4262
        ]
      },
      "properties": {
        "icao24": "40767a",
        "callsign": "TOM397",
        "origin_country": "United Kingdom",
        "time_position": 1785195643,
        "last_contact": 1785195643,
        "baro_altitude": 10972.8,
        "on_ground": false,
        "velocity": 217.82,
        "true_track": 307.03,
        "vertical_rate": 0,
        "geo_altitude": 11612.88,
        "squawk": "2017",
        "spi": false,
        "position_source": 0
      }
    },
    {
      "type": "Feature",
      "geometry": {
        "type": "Point",
        "coordinates": [
          8.6473,
          46.5548
        ]
      },
      "properties": {
        "icao24": "3474cb",
        "callsign": "BCS136",
        "origin_country": "Spain",
        "time_position": 1785195644,
        "last_contact": 1785195644,
        "baro_altitude": 8275.32,
        "on_ground": false,
        "velocity": 222.61,
        "true_track": 193.36,
        "vertical_rate": -10.4,
        "geo_altitude": 8831.58,
        "squawk": "1000",
        "spi": false,
        "position_source": 0
      }
    },
    {
      "type": "Feature",
      "geometry": {
        "type": "Point",
        "coordinates": [
          15.2338,
          39.7999
        ]
      },
      "properties": {
        "icao24": "4cafcb",
        "callsign": "MSA95S",
        "origin_country": "Ireland",
        "time_position": 1785195644,
        "last_contact": 1785195644,
        "baro_altitude": 7239,
        "on_ground": false,
        "velocity": 216.04,
        "true_track": 145.48,
        "vertical_rate": -12.68,
        "geo_altitude": 7665.72,
        "squawk": "1000",
        "spi": false,
        "position_source": 0
      }
    },
    {
      "type": "Feature",
      "geometry": {
        "type": "Point",
        "coordinates": [
          8.8568,
          44.8729
        ]
      },
      "properties": {
        "icao24": "4cafd0",
        "callsign": "RYR9UE",
        "origin_country": "Ireland",
        "time_position": 1785195644,
        "last_contact": 1785195645,
        "baro_altitude": 4899.66,
        "on_ground": false,
        "velocity": 153.41,
        "true_track": 309.83,
        "vertical_rate": -7.15,
        "geo_altitude": 5250.18,
        "squawk": "2060",
        "spi": false,
        "position_source": 0
      }
    },
    {
      "type": "Feature",
      "geometry": {
        "type": "Point",
        "coordinates": [
          18.5531,
          46.7138
        ]
      },
      "properties": {
        "icao24": "010263",
        "callsign": "MSC2932",
        "origin_country": "Egypt",
        "time_position": 1785195645,
        "last_contact": 1785195645,
        "baro_altitude": 11361.42,
        "on_ground": false,
        "velocity": 190.83,
        "true_track": 320.69,
        "vertical_rate": 2.93,
        "geo_altitude": 11879.58,
        "squawk": "7324",
        "spi": false,
        "position_source": 0
      }
    },
    {
      "type": "Feature",
      "geometry": {
        "type": "Point",
        "coordinates": [
          11.2447,
          44.4605
        ]
      },
      "properties": {
        "icao24": "3008b7",
        "callsign": "IATLS",
        "origin_country": "Italy",
        "time_position": 1785195645,
        "last_contact": 1785195645,
        "baro_altitude": 624.84,
        "on_ground": false,
        "velocity": 52.39,
        "true_track": 224.2,
        "vertical_rate": 3.25,
        "geo_altitude": 731.52,
        "squawk": null,
        "spi": false,
        "position_source": 0
      }
    },
    {
      "type": "Feature",
      "geometry": {
        "type": "Point",
        "coordinates": [
          17.9569,
          41.5051
        ]
      },
      "properties": {
        "icao24": "407757",
        "callsign": "VCG3UG",
        "origin_country": "United Kingdom",
        "time_position": 1785195644,
        "last_contact": 1785195644,
        "baro_altitude": 13106.4,
        "on_ground": false,
        "velocity": 242.96,
        "true_track": 308.81,
        "vertical_rate": 0.33,
        "geo_altitude": 13799.82,
        "squawk": "2064",
        "spi": false,
        "position_source": 0
      }
    },
    {
      "type": "Feature",
      "geometry": {
        "type": "Point",
        "coordinates": [
          11.8622,
          41.4128
        ]
      },
      "properties": {
        "icao24": "010285",
        "callsign": "PYR013",
        "origin_country": "Egypt",
        "time_position": 1785195645,
        "last_contact": 1785195645,
        "baro_altitude": 10058.4,
        "on_ground": false,
        "velocity": 257.98,
        "true_track": 186.76,
        "vertical_rate": 0,
        "geo_altitude": 10690.86,
        "squawk": "2245",
        "spi": false,
        "position_source": 0
      }
    },
    {
      "type": "Feature",
      "geometry": {
        "type": "Point",
        "coordinates": [
          14.5647,
          36.4935
        ]
      },
      "properties": {
        "icao24": "4d24ba",
        "callsign": "KMM455",
        "origin_country": "Malta",
        "time_position": 1785195644,
        "last_contact": 1785195644,
        "baro_altitude": 4587.24,
        "on_ground": false,
        "velocity": 186.71,
        "true_track": 167.27,
        "vertical_rate": -10.73,
        "geo_altitude": 4953,
        "squawk": "0471",
        "spi": false,
        "position_source": 0
      }
    },
    {
      "type": "Feature",
      "geometry": {
        "type": "Point",
        "coordinates": [
          17.0554,
          42.5662
        ]
      },
      "properties": {
        "icao24": "4075f4",
        "callsign": "TOM7CV",
        "origin_country": "United Kingdom",
        "time_position": 1785195645,
        "last_contact": 1785195645,
        "baro_altitude": 11582.4,
        "on_ground": false,
        "velocity": 217.44,
        "true_track": 297.47,
        "vertical_rate": 0,
        "geo_altitude": 12237.72,
        "squawk": "4134",
        "spi": false,
        "position_source": 0
      }
    },
    {
      "type": "Feature",
      "geometry": {
        "type": "Point",
        "coordinates": [
          7.5578,
          47.5305
        ]
      },
      "properties": {
        "icao24": "4075e0",
        "callsign": "EZY95YX",
        "origin_country": "United Kingdom",
        "time_position": 1785195644,
        "last_contact": 1785195644,
        "baro_altitude": 10972.8,
        "on_ground": false,
        "velocity": 207.94,
        "true_track": 312.29,
        "vertical_rate": 0,
        "geo_altitude": 11590.02,
        "squawk": "2756",
        "spi": false,
        "position_source": 0
      }
    },
    {
      "type": "Feature",
      "geometry": {
        "type": "Point",
        "coordinates": [
          14.4897,
          35.8503
        ]
      },
      "properties": {
        "icao24": "4d24ea",
        "callsign": "RYR272A",
        "origin_country": "Malta",
        "time_position": 1785195644,
        "last_contact": 1785195644,
        "baro_altitude": null,
        "on_ground": true,
        "velocity": 3.6,
        "true_track": 53.44,
        "vertical_rate": null,
        "geo_altitude": null,
        "squawk": "4302",
        "spi": false,
        "position_source": 0
      }
    },
    {
      "type": "Feature",
      "geometry": {
        "type": "Point",
        "coordinates": [
          18.7589,
          37.4745
        ]
      },
      "properties": {
        "icao24": "0101de",
        "callsign": "MSR981",
        "origin_country": "Egypt",
        "time_position": 1785195644,
        "last_contact": 1785195644,
        "baro_altitude": 10355.58,
        "on_ground": false,
        "velocity": 246.9,
        "true_track": 295.55,
        "vertical_rate": -0.33,
        "geo_altitude": 10995.66,
        "squawk": null,
        "spi": false,
        "position_source": 0
      }
    },
    {
      "type": "Feature",
      "geometry": {
        "type": "Point",
        "coordinates": [
          10.9479,
          44.6381
        ]
      },
      "properties": {
        "icao24": "4caeaf",
        "callsign": "NOS1446",
        "origin_country": "Ireland",
        "time_position": 1785195644,
        "last_contact": 1785195645,
        "baro_altitude": 1592.58,
        "on_ground": false,
        "velocity": 118.57,
        "true_track": 49.4,
        "vertical_rate": -3.58,
        "geo_altitude": 1744.98,
        "squawk": "1000",
        "spi": false,
        "position_source": 0
      }
    },
    {
      "type": "Feature",
      "geometry": {
        "type": "Point",
        "coordinates": [
          10.1109,
          47.5707
        ]
      },
      "properties": {
        "icao24": "4caee7",
        "callsign": "RYR14VV",
        "origin_country": "Ireland",
        "time_position": 1785195644,
        "last_contact": 1785195644,
        "baro_altitude": 10363.2,
        "on_ground": false,
        "velocity": 206.63,
        "true_track": 314.39,
        "vertical_rate": 0,
        "geo_altitude": 10942.32,
        "squawk": "3556",
        "spi": false,
        "position_source": 0
      }
    },
    {
      "type": "Feature",
      "geometry": {
        "type": "Point",
        "coordinates": [
          8.6433,
          45.2666
        ]
      },
      "properties": {
        "icao24": "4d251a",
        "callsign": "RYR5BQ",
        "origin_country": "Malta",
        "time_position": 1785195644,
        "last_contact": 1785195644,
        "baro_altitude": 2202.18,
        "on_ground": false,
        "velocity": 130.23,
        "true_track": 62.73,
        "vertical_rate": -2.93,
        "geo_altitude": 2400.3,
        "squawk": "1000",
        "spi": false,
        "position_source": 0
      }
    },
    {
      "type": "Feature",
      "geometry": {
        "type": "Point",
        "coordinates": [
          9.5258,
          46.3535
        ]
      },
      "properties": {
        "icao24": "4072dc",
        "callsign": "EXS7HG",
        "origin_country": "United Kingdom",
        "time_position": 1785195644,
        "last_contact": 1785195644,
        "baro_altitude": 11582.4,
        "on_ground": false,
        "velocity": 205.85,
        "true_track": 310.34,
        "vertical_rate": 0,
        "geo_altitude": 12230.1,
        "squawk": "2751",
        "spi": false,
        "position_source": 0
      }
    },
    {
      "type": "Feature",
      "geometry": {
        "type": "Point",
        "coordinates": [
          9.7547,
          46.0376
        ]
      },
      "properties": {
        "icao24": "300621",
        "callsign": "IBRXA",
        "origin_country": "Italy",
        "time_position": 1785195417,
        "last_contact": 1785195451,
        "baro_altitude": 11582.4,
        "on_ground": false,
        "velocity": 60.89,
        "true_track": 13.68,
        "vertical_rate": -0.65,
        "geo_altitude": 2423.16,
        "squawk": "4601",
        "spi": false,
        "position_source": 0
      }
    },
    {
      "type": "Feature",
      "geometry": {
        "type": "Point",
        "coordinates": [
          12.2337,
          41.9123
        ]
      },
      "properties": {
        "icao24": "4d241f",
        "callsign": "WMT9059",
        "origin_country": "Malta",
        "time_position": 1785195644,
        "last_contact": 1785195644,
        "baro_altitude": 388.62,
        "on_ground": false,
        "velocity": 76.63,
        "true_track": 162.42,
        "vertical_rate": -3.25,
        "geo_altitude": 480.06,
        "squawk": "2046",
        "spi": false,
        "position_source": 0
      }
    },
    {
      "type": "Feature",
      "geometry": {
        "type": "Point",
        "coordinates": [
          9.0691,
          46.1421
        ]
      },
      "properties": {
        "icao24": "4cada3",
        "callsign": "RYR56UH",
        "origin_country": "Ireland",
        "time_position": 1785195644,
        "last_contact": 1785195644,
        "baro_altitude": 10972.8,
        "on_ground": false,
        "velocity": 213.17,
        "true_track": 314.61,
        "vertical_rate": 0,
        "geo_altitude": 11620.5,
        "squawk": "7510",
        "spi": false,
        "position_source": 0
      }
    },
    {
      "type": "Feature",
      "geometry": {
        "type": "Point",
        "coordinates": [
          14.0473,
          44.6098
        ]
      },
      "properties": {
        "icao24": "40751c",
        "callsign": "EXS13DK",
        "origin_country": "United Kingdom",
        "time_position": 1785195644,
        "last_contact": 1785195644,
        "baro_altitude": 10972.8,
        "on_ground": false,
        "velocity": 207.51,
        "true_track": 299.23,
        "vertical_rate": 0,
        "geo_altitude": 11597.64,
        "squawk": "5346",
        "spi": false,
        "position_source": 0
      }
    },
    {
      "type": "Feature",
      "geometry": {
        "type": "Point",
        "coordinates": [
          14.5088,
          35.8323
        ]
      },
      "properties": {
        "icao24": "4cadf5",
        "callsign": "RYR1SK",
        "origin_country": "Ireland",
        "time_position": 1785195644,
        "last_contact": 1785195644,
        "baro_altitude": 99.06,
        "on_ground": false,
        "velocity": 77.48,
        "true_track": 314.73,
        "vertical_rate": -3.58,
        "geo_altitude": 152.4,
        "squawk": "6027",
        "spi": false,
        "position_source": 0
      }
    },
    {
      "type": "Feature",
      "geometry": {
        "type": "Point",
        "coordinates": [
          7.7913,
          47.4104
        ]
      },
      "properties": {
        "icao24": "40756f",
        "callsign": "EZY27RC",
        "origin_country": "United Kingdom",
        "time_position": 1785195644,
        "last_contact": 1785195645,
        "baro_altitude": 11582.4,
        "on_ground": false,
        "velocity": 199.6,
        "true_track": 312.08,
        "vertical_rate": 0,
        "geo_altitude": 12222.48,
        "squawk": "7522",
        "spi": false,
        "position_source": 0
      }
    },
    {
      "type": "Feature",
      "geometry": {
        "type": "Point",
        "coordinates": [
          9.9619,
          45.526
        ]
      },
      "properties": {
        "icao24": "4cae55",
        "callsign": "RYR13HB",
        "origin_country": "Ireland",
        "time_position": 1785195643,
        "last_contact": 1785195644,
        "baro_altitude": 1722.12,
        "on_ground": false,
        "velocity": 115.31,
        "true_track": 357.95,
        "vertical_rate": -5.85,
        "geo_altitude": 1889.76,
        "squawk": "6020",
        "spi": false,
        "position_source": 0
      }
    },
    {
      "type": "Feature",
      "geometry": {
        "type": "Point",
        "coordinates": [
          15.5761,
          46.5125
        ]
      },
      "properties": {
        "icao24": "4cae85",
        "callsign": "TFL2TY",
        "origin_country": "Ireland",
        "time_position": 1785195644,
        "last_contact": 1785195645,
        "baro_altitude": 12192,
        "on_ground": false,
        "velocity": 189.53,
        "true_track": 315.55,
        "vertical_rate": 0,
        "geo_altitude": 12763.5,
        "squawk": "5304",
        "spi": false,
        "position_source": 0
      }
    },
    {
      "type": "Feature",
      "geometry": {
        "type": "Point",
        "coordinates": [
          14.5144,
          36.6514
        ]
      },
      "properties": {
        "icao24": "3472c9",
        "callsign": "IBS1904",
        "origin_country": "Spain",
        "time_position": 1785195645,
        "last_contact": 1785195645,
        "baro_altitude": 10363.2,
        "on_ground": false,
        "velocity": 226.36,
        "true_track": 305.1,
        "vertical_rate": 0,
        "geo_altitude": 10972.8,
        "squawk": "5525",
        "spi": false,
        "position_source": 0
      }
    },
    {
      "type": "Feature",
      "geometry": {
        "type": "Point",
        "coordinates": [
          11.3043,
          46.4916
        ]
      },
      "properties": {
        "icao24": "4cae8f",
        "callsign": "RYR799",
        "origin_country": "Ireland",
        "time_position": 1785195644,
        "last_contact": 1785195644,
        "baro_altitude": 8663.94,
        "on_ground": false,
        "velocity": 211.13,
        "true_track": 335.68,
        "vertical_rate": 7.8,
        "geo_altitude": 9189.72,
        "squawk": "0256",
        "spi": false,
        "position_source": 0
      }
    },
    {
      "type": "Feature",
      "geometry": {
        "type": "Point",
        "coordinates": [
          8.3785,
          46.9814
        ]
      },
      "properties": {
        "icao24": "4caca2",
        "callsign": "ABR177",
        "origin_country": "Ireland",
        "time_position": 1785195645,
        "last_contact": 1785195645,
        "baro_altitude": 6088.38,
        "on_ground": false,
        "velocity": 122.23,
        "true_track": 331.6,
        "vertical_rate": 0.33,
        "geo_altitude": 6477,
        "squawk": "1000",
        "spi": false,
        "position_source": 0
      }
    },
    {
      "type": "Feature",
      "geometry": {
        "type": "Point",
        "coordinates": [
          11.2722,
          44.5414
        ]
      },
      "properties": {
        "icao24": "4d2290",
        "callsign": "RYR7HA",
        "origin_country": "Malta",
        "time_position": 1785195406,
        "last_contact": 1785195406,
        "baro_altitude": 45.72,
        "on_ground": false,
        "velocity": 71.32,
        "true_track": 116.57,
        "vertical_rate": -3.9,
        "geo_altitude": 121.92,
        "squawk": "2001",
        "spi": false,
        "position_source": 0
      }
    },
    {
      "type": "Feature",
      "geometry": {
        "type": "Point",
        "coordinates": [
          7.3464,
          47.6642
        ]
      },
      "properties": {
        "icao24": "4070ef",
        "callsign": "EXS4NJ",
        "origin_country": "United Kingdom",
        "time_position": 1785195644,
        "last_contact": 1785195644,
        "baro_altitude": 11582.4,
        "on_ground": false,
        "velocity": 202.93,
        "true_track": 311.81,
        "vertical_rate": 0,
        "geo_altitude": 12207.24,
        "squawk": "2766",
        "spi": false,
        "position_source": 0
      }
    },
    {
      "type": "Feature",
      "geometry": {
        "type": "Point",
        "coordinates": [
          18.8051,
          41.8342
        ]
      },
      "properties": {
        "icao24": "4070e2",
        "callsign": "EXS35MT",
        "origin_country": "United Kingdom",
        "time_position": 1785195644,
        "last_contact": 1785195644,
        "baro_altitude": 10972.8,
        "on_ground": false,
        "velocity": 216.52,
        "true_track": 311.34,
        "vertical_rate": 0,
        "geo_altitude": 11597.64,
        "squawk": "5350",
        "spi": false,
        "position_source": 0
      }
    },
    {
      "type": "Feature",
      "geometry": {
        "type": "Point",
        "coordinates": [
          8.3864,
          45.3469
        ]
      },
      "properties": {
        "icao24": "4cad4b",
        "callsign": "ABR420",
        "origin_country": "Ireland",
        "time_position": 1785195645,
        "last_contact": 1785195645,
        "baro_altitude": 4000.5,
        "on_ground": false,
        "velocity": 165.51,
        "true_track": 213.59,
        "vertical_rate": 14.31,
        "geo_altitude": 4282.44,
        "squawk": "1000",
        "spi": false,
        "position_source": 0
      }
    },
    {
      "type": "Feature",
      "geometry": {
        "type": "Point",
        "coordinates": [
          15.2709,
          37.4839
        ]
      },
      "properties": {
        "icao24": "4d20ff",
        "callsign": "WMT2610",
        "origin_country": "Malta",
        "time_position": 1785195422,
        "last_contact": 1785195422,
        "baro_altitude": 838.2,
        "on_ground": false,
        "velocity": 104.02,
        "true_track": 263.75,
        "vertical_rate": -4.23,
        "geo_altitude": 1028.7,
        "squawk": null,
        "spi": false,
        "position_source": 0
      }
    },
    {
      "type": "Feature",
      "geometry": {
        "type": "Point",
        "coordinates": [
          10.1412,
          45.3288
        ]
      },
      "properties": {
        "icao24": "4d2248",
        "callsign": "RYR90RC",
        "origin_country": "Malta",
        "time_position": 1785195644,
        "last_contact": 1785195644,
        "baro_altitude": 2933.7,
        "on_ground": false,
        "velocity": 119.49,
        "true_track": 357.29,
        "vertical_rate": -6.5,
        "geo_altitude": 3162.3,
        "squawk": "2656",
        "spi": false,
        "position_source": 0
      }
    },
    {
      "type": "Feature",
      "geometry": {
        "type": "Point",
        "coordinates": [
          16.468,
          41.0564
        ]
      },
      "properties": {
        "icao24": "4d2218",
        "callsign": "RYR3DE",
        "origin_country": "Malta",
        "time_position": 1785195644,
        "last_contact": 1785195644,
        "baro_altitude": 1310.64,
        "on_ground": false,
        "velocity": 112.7,
        "true_track": 78.95,
        "vertical_rate": -8.45,
        "geo_altitude": 1463.04,
        "squawk": "7436",
        "spi": false,
        "position_source": 0
      }
    },
    {
      "type": "Feature",
      "geometry": {
        "type": "Point",
        "coordinates": [
          6.449,
          45.9504
        ]
      },
      "properties": {
        "icao24": "4d2212",
        "callsign": "RYR200F",
        "origin_country": "Malta",
        "time_position": 1785195644,
        "last_contact": 1785195644,
        "baro_altitude": 11277.6,
        "on_ground": false,
        "velocity": 222.69,
        "true_track": 201.41,
        "vertical_rate": 0,
        "geo_altitude": 11948.16,
        "squawk": "1000",
        "spi": false,
        "position_source": 0
      }
    },
    {
      "type": "Feature",
      "geometry": {
        "type": "Point",
        "coordinates": [
          13.3393,
          39.7753
        ]
      },
      "properties": {
        "icao24": "4d2287",
        "callsign": "RYR8VE",
        "origin_country": "Malta",
        "time_position": 1785195644,
        "last_contact": 1785195644,
        "baro_altitude": 11277.6,
        "on_ground": false,
        "velocity": 230.1,
        "true_track": 132.64,
        "vertical_rate": 0,
        "geo_altitude": 11925.3,
        "squawk": "6444",
        "spi": false,
        "position_source": 0
      }
    },
    {
      "type": "Feature",
      "geometry": {
        "type": "Point",
        "coordinates": [
          15.656,
          35.3668
        ]
      },
      "properties": {
        "icao24": "710064",
        "callsign": "SVA342",
        "origin_country": "Saudi Arabia",
        "time_position": 1785195645,
        "last_contact": 1785195645,
        "baro_altitude": 10668,
        "on_ground": false,
        "velocity": 269.63,
        "true_track": 95.14,
        "vertical_rate": 0,
        "geo_altitude": 11308.08,
        "squawk": "4105",
        "spi": false,
        "position_source": 0
      }
    },
    {
      "type": "Feature",
      "geometry": {
        "type": "Point",
        "coordinates": [
          8.3617,
          44.3593
        ]
      },
      "properties": {
        "icao24": "4cac23",
        "callsign": "RYR7269",
        "origin_country": "Ireland",
        "time_position": 1785195645,
        "last_contact": 1785195645,
        "baro_altitude": 11277.6,
        "on_ground": false,
        "velocity": 249.18,
        "true_track": 134.92,
        "vertical_rate": 0,
        "geo_altitude": 11971.02,
        "squawk": "0543",
        "spi": false,
        "position_source": 0
      }
    },
    {
      "type": "Feature",
      "geometry": {
        "type": "Point",
        "coordinates": [
          17.2685,
          41.6795
        ]
      },
      "properties": {
        "icao24": "4cac36",
        "callsign": "NOS1702",
        "origin_country": "Ireland",
        "time_position": 1785195644,
        "last_contact": 1785195644,
        "baro_altitude": 12496.8,
        "on_ground": false,
        "velocity": 236.99,
        "true_track": 117.4,
        "vertical_rate": 0,
        "geo_altitude": 13167.36,
        "squawk": "0406",
        "spi": false,
        "position_source": 0
      }
    },
    {
      "type": "Feature",
      "geometry": {
        "type": "Point",
        "coordinates": [
          18.8498,
          42.4818
        ]
      },
      "properties": {
        "icao24": "408356",
        "callsign": "EXS47K",
        "origin_country": "United Kingdom",
        "time_position": 1785195634,
        "last_contact": 1785195642,
        "baro_altitude": 10965.18,
        "on_ground": false,
        "velocity": 220.5,
        "true_track": 305.02,
        "vertical_rate": 0,
        "geo_altitude": 11597.64,
        "squawk": "0545",
        "spi": false,
        "position_source": 0
      }
    },
    {
      "type": "Feature",
      "geometry": {
        "type": "Point",
        "coordinates": [
          12.9926,
          46.7125
        ]
      },
      "properties": {
        "icao24": "408357",
        "callsign": "EXS76RT",
        "origin_country": "United Kingdom",
        "time_position": 1785195645,
        "last_contact": 1785195645,
        "baro_altitude": 10972.8,
        "on_ground": false,
        "velocity": 200.04,
        "true_track": 304.1,
        "vertical_rate": 0,
        "geo_altitude": 11567.16,
        "squawk": "5326",
        "spi": false,
        "position_source": 0
      }
    },
    {
      "type": "Feature",
      "geometry": {
        "type": "Point",
        "coordinates": [
          11.448,
          45.263
        ]
      },
      "properties": {
        "icao24": "40832c",
        "callsign": "TOM771",
        "origin_country": "United Kingdom",
        "time_position": 1785195644,
        "last_contact": 1785195645,
        "baro_altitude": 11582.4,
        "on_ground": false,
        "velocity": 211.22,
        "true_track": 300.44,
        "vertical_rate": 0,
        "geo_altitude": 12237.72,
        "squawk": "0504",
        "spi": false,
        "position_source": 0
      }
    },
    {
      "type": "Feature",
      "geometry": {
        "type": "Point",
        "coordinates": [
          18.5033,
          44.6768
        ]
      },
      "properties": {
        "icao24": "40832a",
        "callsign": "TOM575",
        "origin_country": "United Kingdom",
        "time_position": 1785195643,
        "last_contact": 1785195644,
        "baro_altitude": 11582.4,
        "on_ground": false,
        "velocity": 201.32,
        "true_track": 299.38,
        "vertical_rate": 0,
        "geo_altitude": 12192,
        "squawk": "3227",
        "spi": false,
        "position_source": 0
      }
    },
    {
      "type": "Feature",
      "geometry": {
        "type": "Point",
        "coordinates": [
          18.4772,
          42.0424
        ]
      },
      "properties": {
        "icao24": "40832b",
        "callsign": "TOM451",
        "origin_country": "United Kingdom",
        "time_position": 1785195644,
        "last_contact": 1785195644,
        "baro_altitude": 11582.4,
        "on_ground": false,
        "velocity": 224.02,
        "true_track": 307.82,
        "vertical_rate": 0,
        "geo_altitude": 12237.72,
        "squawk": "2025",
        "spi": false,
        "position_source": 0
      }
    },
    {
      "type": "Feature",
      "geometry": {
        "type": "Point",
        "coordinates": [
          18.1432,
          42.2337
        ]
      },
      "properties": {
        "icao24": "40837b",
        "callsign": "EXS2VM",
        "origin_country": "United Kingdom",
        "time_position": 1785195645,
        "last_contact": 1785195645,
        "baro_altitude": 10972.8,
        "on_ground": false,
        "velocity": 218.93,
        "true_track": 308.51,
        "vertical_rate": -0.33,
        "geo_altitude": 11605.26,
        "squawk": "5532",
        "spi": false,
        "position_source": 0
      }
    },
    {
      "type": "Feature",
      "geometry": {
        "type": "Point",
        "coordinates": [
          7.8304,
          47.3401
        ]
      },
      "properties": {
        "icao24": "40836c",
        "callsign": "EZY85HY",
        "origin_country": "United Kingdom",
        "time_position": 1785195644,
        "last_contact": 1785195644,
        "baro_altitude": 10972.8,
        "on_ground": false,
        "velocity": 208.26,
        "true_track": 312.6,
        "vertical_rate": 0,
        "geo_altitude": 11597.64,
        "squawk": "7527",
        "spi": false,
        "position_source": 0
      }
    },
    {
      "type": "Feature",
      "geometry": {
        "type": "Point",
        "coordinates": [
          10.3875,
          41.2904
        ]
      },
      "properties": {
        "icao24": "4d2101",
        "callsign": "WMT1488",
        "origin_country": "Malta",
        "time_position": 1785195645,
        "last_contact": 1785195645,
        "baro_altitude": 10088.88,
        "on_ground": false,
        "velocity": 205.14,
        "true_track": 69.29,
        "vertical_rate": -4.88,
        "geo_altitude": 10751.82,
        "squawk": "1000",
        "spi": false,
        "position_source": 0
      }
    },
    {
      "type": "Feature",
      "geometry": {
        "type": "Point",
        "coordinates": [
          10.8744,
          41.4971
        ]
      },
      "properties": {
        "icao24": "4d2100",
        "callsign": "WMT728",
        "origin_country": "Malta",
        "time_position": 1785195644,
        "last_contact": 1785195644,
        "baro_altitude": 8107.68,
        "on_ground": false,
        "velocity": 213.99,
        "true_track": 78.77,
        "vertical_rate": -12.68,
        "geo_altitude": 8663.94,
        "squawk": "1000",
        "spi": false,
        "position_source": 0
      }
    },
    {
      "type": "Feature",
      "geometry": {
        "type": "Point",
        "coordinates": [
          17.6374,
          42.4477
        ]
      },
      "properties": {
        "icao24": "408329",
        "callsign": "TOM8XC",
        "origin_country": "United Kingdom",
        "time_position": 1785195644,
        "last_contact": 1785195644,
        "baro_altitude": 9753.6,
        "on_ground": false,
        "velocity": 233.58,
        "true_track": 304.32,
        "vertical_rate": 0,
        "geo_altitude": 10355.58,
        "squawk": "4563",
        "spi": false,
        "position_source": 0
      }
    },
    {
      "type": "Feature",
      "geometry": {
        "type": "Point",
        "coordinates": [
          9.3002,
          45.4086
        ]
      },
      "properties": {
        "icao24": "4caa5f",
        "callsign": "RYR8336",
        "origin_country": "Ireland",
        "time_position": 1785195645,
        "last_contact": 1785195645,
        "baro_altitude": 4351.02,
        "on_ground": false,
        "velocity": 188.14,
        "true_track": 125.43,
        "vertical_rate": 11.38,
        "geo_altitude": 4640.58,
        "squawk": "1000",
        "spi": false,
        "position_source": 0
      }
    },
    {
      "type": "Feature",
      "geometry": {
        "type": "Point",
        "coordinates": [
          12.371,
          44.8949
        ]
      },
      "properties": {
        "icao24": "40717e",
        "callsign": "EXS406",
        "origin_country": "United Kingdom",
        "time_position": 1785195644,
        "last_contact": 1785195644,
        "baro_altitude": 10972.8,
        "on_ground": false,
        "velocity": 210.78,
        "true_track": 300.51,
        "vertical_rate": 0,
        "geo_altitude": 11605.26,
        "squawk": "7355",
        "spi": false,
        "position_source": 0
      }
    },
    {
      "type": "Feature",
      "geometry": {
        "type": "Point",
        "coordinates": [
          10.4902,
          45.7571
        ]
      },
      "properties": {
        "icao24": "40717f",
        "callsign": "EXS8GN",
        "origin_country": "United Kingdom",
        "time_position": 1785195644,
        "last_contact": 1785195644,
        "baro_altitude": 10972.8,
        "on_ground": false,
        "velocity": 208.02,
        "true_track": 310.39,
        "vertical_rate": 0,
        "geo_altitude": 11605.26,
        "squawk": "4133",
        "spi": false,
        "position_source": 0
      }
    },
    {
      "type": "Feature",
      "geometry": {
        "type": "Point",
        "coordinates": [
          10.8595,
          45.5423
        ]
      },
      "properties": {
        "icao24": "407181",
        "callsign": "EXS4FC",
        "origin_country": "United Kingdom",
        "time_position": 1785195644,
        "last_contact": 1785195644,
        "baro_altitude": 10972.8,
        "on_ground": false,
        "velocity": 209.81,
        "true_track": 310.53,
        "vertical_rate": 0,
        "geo_altitude": 11605.26,
        "squawk": "5503",
        "spi": false,
        "position_source": 0
      }
    },
    {
      "type": "Feature",
      "geometry": {
        "type": "Point",
        "coordinates": [
          8.858,
          46.714
        ]
      },
      "properties": {
        "icao24": "407177",
        "callsign": "EXS34RY",
        "origin_country": "United Kingdom",
        "time_position": 1785195644,
        "last_contact": 1785195644,
        "baro_altitude": 10972.8,
        "on_ground": false,
        "velocity": 202.95,
        "true_track": 310.27,
        "vertical_rate": 0,
        "geo_altitude": 11605.26,
        "squawk": "2770",
        "spi": false,
        "position_source": 0
      }
    }
  ]
}