{
  "type": "FeatureCollection",
  "source": "opensky",
  "dataset": "aircraft_italy",
  "generated_at": "2026-08-09T02:37:27.143589+00:00",
  "opensky_time": 1786243046,
  "count": 89,
  "features": [
    {
      "type": "Feature",
      "geometry": {
        "type": "Point",
        "coordinates": [
          15.811,
          44.8162
        ]
      },
      "properties": {
        "icao24": "39de4f",
        "callsign": "TVF31LA",
        "origin_country": "France",
        "time_position": 1786243045,
        "last_contact": 1786243045,
        "baro_altitude": 11590.02,
        "on_ground": false,
        "velocity": 214.98,
        "true_track": 283.7,
        "vertical_rate": 0,
        "geo_altitude": 12207.24,
        "squawk": "3224",
        "spi": false,
        "position_source": 0
      }
    },
    {
      "type": "Feature",
      "geometry": {
        "type": "Point",
        "coordinates": [
          12.2456,
          44.7558
        ]
      },
      "properties": {
        "icao24": "39de55",
        "callsign": "TVF32WG",
        "origin_country": "France",
        "time_position": 1786243046,
        "last_contact": 1786243046,
        "baro_altitude": 11582.4,
        "on_ground": false,
        "velocity": 214.27,
        "true_track": 291.7,
        "vertical_rate": 0,
        "geo_altitude": 12207.24,
        "squawk": "0502",
        "spi": false,
        "position_source": 0
      }
    },
    {
      "type": "Feature",
      "geometry": {
        "type": "Point",
        "coordinates": [
          14.2407,
          39.4797
        ]
      },
      "properties": {
        "icao24": "46b832",
        "callsign": "AEE3EM",
        "origin_country": "Greece",
        "time_position": 1786243045,
        "last_contact": 1786243045,
        "baro_altitude": 11277.6,
        "on_ground": false,
        "velocity": 239.69,
        "true_track": 99.89,
        "vertical_rate": 0,
        "geo_altitude": 11963.4,
        "squawk": "1455",
        "spi": false,
        "position_source": 0
      }
    },
    {
      "type": "Feature",
      "geometry": {
        "type": "Point",
        "coordinates": [
          12.6722,
          39.2237
        ]
      },
      "properties": {
        "icao24": "46b833",
        "callsign": "AEE9PM",
        "origin_country": "Greece",
        "time_position": 1786243045,
        "last_contact": 1786243045,
        "baro_altitude": 10073.64,
        "on_ground": false,
        "velocity": 248.38,
        "true_track": 96.18,
        "vertical_rate": 0,
        "geo_altitude": 10698.48,
        "squawk": "1217",
        "spi": false,
        "position_source": 0
      }
    },
    {
      "type": "Feature",
      "geometry": {
        "type": "Point",
        "coordinates": [
          12.159,
          46.3594
        ]
      },
      "properties": {
        "icao24": "407b8b",
        "callsign": "WUK26NJ",
        "origin_country": "United Kingdom",
        "time_position": 1786243045,
        "last_contact": 1786243045,
        "baro_altitude": 10965.18,
        "on_ground": false,
        "velocity": 211.89,
        "true_track": 317.36,
        "vertical_rate": 0,
        "geo_altitude": 11551.92,
        "squawk": "0507",
        "spi": false,
        "position_source": 0
      }
    },
    {
      "type": "Feature",
      "geometry": {
        "type": "Point",
        "coordinates": [
          18.7156,
          39.492
        ]
      },
      "properties": {
        "icao24": "39cc8a",
        "callsign": "CRL911",
        "origin_country": "France",
        "time_position": 1786243046,
        "last_contact": 1786243046,
        "baro_altitude": 11582.4,
        "on_ground": false,
        "velocity": 241.17,
        "true_track": 311.89,
        "vertical_rate": 0,
        "geo_altitude": 12283.44,
        "squawk": "5521",
        "spi": false,
        "position_source": 0
      }
    },
    {
      "type": "Feature",
      "geometry": {
        "type": "Point",
        "coordinates": [
          9.083,
          47.0121
        ]
      },
      "properties": {
        "icao24": "3c4b2b",
        "callsign": "DLH573",
        "origin_country": "Germany",
        "time_position": 1786243045,
        "last_contact": 1786243045,
        "baro_altitude": 11582.4,
        "on_ground": false,
        "velocity": 254.6,
        "true_track": 3.48,
        "vertical_rate": 0,
        "geo_altitude": 12161.52,
        "squawk": "1000",
        "spi": false,
        "position_source": 0
      }
    },
    {
      "type": "Feature",
      "geometry": {
        "type": "Point",
        "coordinates": [
          11.9991,
          42.3613
        ]
      },
      "properties": {
        "icao24": "8015a5",
        "callsign": "AIC191",
        "origin_country": "India",
        "time_position": 1786243045,
        "last_contact": 1786243045,
        "baro_altitude": 4366.26,
        "on_ground": false,
        "velocity": 202.89,
        "true_track": 350.51,
        "vertical_rate": 13.66,
        "geo_altitude": 4678.68,
        "squawk": null,
        "spi": false,
        "position_source": 0
      }
    },
    {
      "type": "Feature",
      "geometry": {
        "type": "Point",
        "coordinates": [
          17.5077,
          44.5553
        ]
      },
      "properties": {
        "icao24": "4521c4",
        "callsign": "GPX24UL",
        "origin_country": "Bulgaria",
        "time_position": 1786243044,
        "last_contact": 1786243044,
        "baro_altitude": 10980.42,
        "on_ground": false,
        "velocity": 208.89,
        "true_track": 325.84,
        "vertical_rate": 0,
        "geo_altitude": 11559.54,
        "squawk": "0521",
        "spi": false,
        "position_source": 0
      }
    },
    {
      "type": "Feature",
      "geometry": {
        "type": "Point",
        "coordinates": [
          16.5883,
          47.0453
        ]
      },
      "properties": {
        "icao24": "4521b2",
        "callsign": "GPX3JX",
        "origin_country": "Bulgaria",
        "time_position": 1786243045,
        "last_contact": 1786243045,
        "baro_altitude": 10355.58,
        "on_ground": false,
        "velocity": 202.4,
        "true_track": 342.39,
        "vertical_rate": 0,
        "geo_altitude": null,
        "squawk": "0514",
        "spi": false,
        "position_source": 0
      }
    },
    {
      "type": "Feature",
      "geometry": {
        "type": "Point",
        "coordinates": [
          17.8086,
          45.6466
        ]
      },
      "properties": {
        "icao24": "4bb564",
        "callsign": "CAI76GG",
        "origin_country": "Turkey",
        "time_position": 1786243045,
        "last_contact": 1786243045,
        "baro_altitude": 11277.6,
        "on_ground": false,
        "velocity": 258.18,
        "true_track": 125.02,
        "vertical_rate": 0,
        "geo_altitude": 11849.1,
        "squawk": "7644",
        "spi": false,
        "position_source": 0
      }
    },
    {
      "type": "Feature",
      "geometry": {
        "type": "Point",
        "coordinates": [
          18.2817,
          47.1728
        ]
      },
      "properties": {
        "icao24": "3c4a10",
        "callsign": "DLH797",
        "origin_country": "Germany",
        "time_position": 1786243045,
        "last_contact": 1786243045,
        "baro_altitude": 11582.4,
        "on_ground": false,
        "velocity": 227.08,
        "true_track": 291.39,
        "vertical_rate": 0,
        "geo_altitude": 12131.04,
        "squawk": "3240",
        "spi": false,
        "position_source": 0
      }
    },
    {
      "type": "Feature",
      "geometry": {
        "type": "Point",
        "coordinates": [
          17.4863,
          43.7308
        ]
      },
      "properties": {
        "icao24": "3c4a04",
        "callsign": "DLH591",
        "origin_country": "Germany",
        "time_position": 1786243039,
        "last_contact": 1786243039,
        "baro_altitude": 11574.78,
        "on_ground": false,
        "velocity": 245.27,
        "true_track": 325.94,
        "vertical_rate": -0.33,
        "geo_altitude": 12230.1,
        "squawk": "6634",
        "spi": false,
        "position_source": 0
      }
    },
    {
      "type": "Feature",
      "geometry": {
        "type": "Point",
        "coordinates": [
          16.2846,
          47.6967
        ]
      },
      "properties": {
        "icao24": "4891ac",
        "callsign": "ENT4031",
        "origin_country": "Poland",
        "time_position": 1786243045,
        "last_contact": 1786243045,
        "baro_altitude": 11277.6,
        "on_ground": false,
        "velocity": 240.42,
        "true_track": 191.48,
        "vertical_rate": 0,
        "geo_altitude": 11826.24,
        "squawk": "6016",
        "spi": false,
        "position_source": 0
      }
    },
    {
      "type": "Feature",
      "geometry": {
        "type": "Point",
        "coordinates": [
          11.0864,
          47.424
        ]
      },
      "properties": {
        "icao24": "89616a",
        "callsign": "UAE4M",
        "origin_country": "United Arab Emirates",
        "time_position": 1786243046,
        "last_contact": 1786243046,
        "baro_altitude": 11277.6,
        "on_ground": false,
        "velocity": 269.48,
        "true_track": 117.89,
        "vertical_rate": 0,
        "geo_altitude": 11833.86,
        "squawk": "1143",
        "spi": false,
        "position_source": 0
      }
    },
    {
      "type": "Feature",
      "geometry": {
        "type": "Point",
        "coordinates": [
          17.9075,
          39.1145
        ]
      },
      "properties": {
        "icao24": "452134",
        "callsign": "DAH3015",
        "origin_country": "Bulgaria",
        "time_position": 1786243044,
        "last_contact": 1786243045,
        "baro_altitude": 10363.2,
        "on_ground": false,
        "velocity": 230.74,
        "true_track": 256.99,
        "vertical_rate": -0.33,
        "geo_altitude": 11003.28,
        "squawk": "2321",
        "spi": false,
        "position_source": 0
      }
    },
    {
      "type": "Feature",
      "geometry": {
        "type": "Point",
        "coordinates": [
          15.553,
          47.7777
        ]
      },
      "properties": {
        "icao24": "4892c2",
        "callsign": "ENT5UE",
        "origin_country": "Poland",
        "time_position": 1786243045,
        "last_contact": 1786243045,
        "baro_altitude": 11887.2,
        "on_ground": false,
        "velocity": 250.1,
        "true_track": 65.97,
        "vertical_rate": 0,
        "geo_altitude": 12435.84,
        "squawk": "1156",
        "spi": false,
        "position_source": 0
      }
    },
    {
      "type": "Feature",
      "geometry": {
        "type": "Point",
        "coordinates": [
          7.1381,
          42.2256
        ]
      },
      "properties": {
        "icao24": "4892c6",
        "callsign": "ENT4CU",
        "origin_country": "Poland",
        "time_position": 1786243045,
        "last_contact": 1786243045,
        "baro_altitude": 10668,
        "on_ground": false,
        "velocity": 222.3,
        "true_track": 226.03,
        "vertical_rate": 0,
        "geo_altitude": 11277.6,
        "squawk": "1000",
        "spi": false,
        "position_source": 0
      }
    },
    {
      "type": "Feature",
      "geometry": {
        "type": "Point",
        "coordinates": [
          8.7564,
          44.3215
        ]
      },
      "properties": {
        "icao24": "020175",
        "callsign": "MAC466C",
        "origin_country": "Morocco",
        "time_position": 1786243044,
        "last_contact": 1786243045,
        "baro_altitude": 9509.76,
        "on_ground": false,
        "velocity": 225.5,
        "true_track": 258.15,
        "vertical_rate": 5.2,
        "geo_altitude": 10073.64,
        "squawk": "0466",
        "spi": false,
        "position_source": 0
      }
    },
    {
      "type": "Feature",
      "geometry": {
        "type": "Point",
        "coordinates": [
          17.6262,
          35.9004
        ]
      },
      "properties": {
        "icao24": "0200cb",
        "callsign": "RAM217",
        "origin_country": "Morocco",
        "time_position": 1786243045,
        "last_contact": 1786243045,
        "baro_altitude": 12192,
        "on_ground": false,
        "velocity": 242.94,
        "true_track": 284.6,
        "vertical_rate": 0,
        "geo_altitude": 13007.34,
        "squawk": null,
        "spi": false,
        "position_source": 0
      }
    },
    {
      "type": "Feature",
      "geometry": {
        "type": "Point",
        "coordinates": [
          17.3105,
          40.4462
        ]
      },
      "properties": {
        "icao24": "399e86",
        "callsign": "CRL959",
        "origin_country": "France",
        "time_position": 1786243045,
        "last_contact": 1786243045,
        "baro_altitude": 12192,
        "on_ground": false,
        "velocity": 236.31,
        "true_track": 310.94,
        "vertical_rate": 0,
        "geo_altitude": 12915.9,
        "squawk": "7740",
        "spi": false,
        "position_source": 0
      }
    },
    {
      "type": "Feature",
      "geometry": {
        "type": "Point",
        "coordinates": [
          9.1825,
          39.0793
        ]
      },
      "properties": {
        "icao24": "020073",
        "callsign": "RAM272C",
        "origin_country": "Morocco",
        "time_position": 1786243044,
        "last_contact": 1786243045,
        "baro_altitude": 11277.6,
        "on_ground": false,
        "velocity": 240.35,
        "true_track": 118.65,
        "vertical_rate": 0,
        "geo_altitude": 11948.16,
        "squawk": "1414",
        "spi": false,
        "position_source": 0
      }
    },
    {
      "type": "Feature",
      "geometry": {
        "type": "Point",
        "coordinates": [
          16.3912,
          45.5369
        ]
      },
      "properties": {
        "icao24": "8963a3",
        "callsign": "UAE9977",
        "origin_country": "United Arab Emirates",
        "time_position": 1786243045,
        "last_contact": 1786243045,
        "baro_altitude": 10363.2,
        "on_ground": false,
        "velocity": 233.57,
        "true_track": 320.63,
        "vertical_rate": 0,
        "geo_altitude": 10896.6,
        "squawk": "7743",
        "spi": false,
        "position_source": 0
      }
    },
    {
      "type": "Feature",
      "geometry": {
        "type": "Point",
        "coordinates": [
          17.9798,
          36.1309
        ]
      },
      "properties": {
        "icao24": "39a2e0",
        "callsign": "DAH3031",
        "origin_country": "France",
        "time_position": 1786243045,
        "last_contact": 1786243045,
        "baro_altitude": 7315.2,
        "on_ground": false,
        "velocity": 209.68,
        "true_track": 275.07,
        "vertical_rate": 0,
        "geo_altitude": 7741.92,
        "squawk": "2353",
        "spi": false,
        "position_source": 0
      }
    },
    {
      "type": "Feature",
      "geometry": {
        "type": "Point",
        "coordinates": [
          7.0197,
          38.9693
        ]
      },
      "properties": {
        "icao24": "44ccc7",
        "callsign": "BEL4KE",
        "origin_country": "Belgium",
        "time_position": 1786243045,
        "last_contact": 1786243045,
        "baro_altitude": 11582.4,
        "on_ground": false,
        "velocity": 244.21,
        "true_track": 3.14,
        "vertical_rate": 0,
        "geo_altitude": 12260.58,
        "squawk": null,
        "spi": false,
        "position_source": 0
      }
    },
    {
      "type": "Feature",
      "geometry": {
        "type": "Point",
        "coordinates": [
          6.3078,
          46.1653
        ]
      },
      "properties": {
        "icao24": "44ccc5",
        "callsign": "BEL4TH",
        "origin_country": "Belgium",
        "time_position": 1786243045,
        "last_contact": 1786243046,
        "baro_altitude": 11590.02,
        "on_ground": false,
        "velocity": 253.65,
        "true_track": 351.02,
        "vertical_rate": 0,
        "geo_altitude": 12153.9,
        "squawk": "1000",
        "spi": false,
        "position_source": 0
      }
    },
    {
      "type": "Feature",
      "geometry": {
        "type": "Point",
        "coordinates": [
          6.6335,
          43.344
        ]
      },
      "properties": {
        "icao24": "44ccc4",
        "callsign": "BEL8VB",
        "origin_country": "Belgium",
        "time_position": 1786243044,
        "last_contact": 1786243045,
        "baro_altitude": 11590.02,
        "on_ground": false,
        "velocity": 254.74,
        "true_track": 356.06,
        "vertical_rate": 0,
        "geo_altitude": 12222.48,
        "squawk": "1000",
        "spi": false,
        "position_source": 0
      }
    },
    {
      "type": "Feature",
      "geometry": {
        "type": "Point",
        "coordinates": [
          10.7852,
          46.5189
        ]
      },
      "properties": {
        "icao24": "4078f0",
        "callsign": "EZY34PE",
        "origin_country": "United Kingdom",
        "time_position": 1786243045,
        "last_contact": 1786243046,
        "baro_altitude": 10972.8,
        "on_ground": false,
        "velocity": 213.02,
        "true_track": 305.76,
        "vertical_rate": 0,
        "geo_altitude": 11551.92,
        "squawk": "7530",
        "spi": false,
        "position_source": 0
      }
    },
    {
      "type": "Feature",
      "geometry": {
        "type": "Point",
        "coordinates": [
          16.5549,
          40.8803
        ]
      },
      "properties": {
        "icao24": "040173",
        "callsign": "ETH728",
        "origin_country": "Ethiopia",
        "time_position": 1786243044,
        "last_contact": 1786243044,
        "baro_altitude": 11582.4,
        "on_ground": false,
        "velocity": 249.79,
        "true_track": 309.07,
        "vertical_rate": 0,
        "geo_altitude": 12283.44,
        "squawk": "2046",
        "spi": false,
        "position_source": 0
      }
    },
    {
      "type": "Feature",
      "geometry": {
        "type": "Point",
        "coordinates": [
          14.5804,
          44.6505
        ]
      },
      "properties": {
        "icao24": "04014e",
        "callsign": "ETH706",
        "origin_country": "Ethiopia",
        "time_position": 1786243044,
        "last_contact": 1786243045,
        "baro_altitude": 12192,
        "on_ground": false,
        "velocity": 238.47,
        "true_track": 312.64,
        "vertical_rate": 0,
        "geo_altitude": 12832.08,
        "squawk": "2056",
        "spi": false,
        "position_source": 0
      }
    },
    {
      "type": "Feature",
      "geometry": {
        "type": "Point",
        "coordinates": [
          16.5545,
          42.4108
        ]
      },
      "properties": {
        "icao24": "040127",
        "callsign": "ETH718",
        "origin_country": "Ethiopia",
        "time_position": 1786243045,
        "last_contact": 1786243046,
        "baro_altitude": 12184.38,
        "on_ground": false,
        "velocity": 239.74,
        "true_track": 314.22,
        "vertical_rate": 0,
        "geo_altitude": 12877.8,
        "squawk": "6630",
        "spi": false,
        "position_source": 0
      }
    },
    {
      "type": "Feature",
      "geometry": {
        "type": "Point",
        "coordinates": [
          15.7305,
          40.3727
        ]
      },
      "properties": {
        "icao24": "040124",
        "callsign": "ETH712",
        "origin_country": "Ethiopia",
        "time_position": 1786243045,
        "last_contact": 1786243046,
        "baro_altitude": 12192,
        "on_ground": false,
        "velocity": 246.21,
        "true_track": 305.22,
        "vertical_rate": -0.33,
        "geo_altitude": 12923.52,
        "squawk": "5502",
        "spi": false,
        "position_source": 0
      }
    },
    {
      "type": "Feature",
      "geometry": {
        "type": "Point",
        "coordinates": [
          13.8611,
          41.6137
        ]
      },
      "properties": {
        "icao24": "040134",
        "callsign": "ETH736",
        "origin_country": "Ethiopia",
        "time_position": 1786243044,
        "last_contact": 1786243045,
        "baro_altitude": 12192,
        "on_ground": false,
        "velocity": 248.84,
        "true_track": 314.16,
        "vertical_rate": 0,
        "geo_altitude": 12885.42,
        "squawk": "5531",
        "spi": false,
        "position_source": 0
      }
    },
    {
      "type": "Feature",
      "geometry": {
        "type": "Point",
        "coordinates": [
          7.9112,
          45.5416
        ]
      },
      "properties": {
        "icao24": "3a4494",
        "callsign": "REU975",
        "origin_country": "France",
        "time_position": 1786243044,
        "last_contact": 1786243045,
        "baro_altitude": 10972.8,
        "on_ground": false,
        "velocity": 236.7,
        "true_track": 308.12,
        "vertical_rate": 0,
        "geo_altitude": 11551.92,
        "squawk": "1000",
        "spi": false,
        "position_source": 0
      }
    },
    {
      "type": "Feature",
      "geometry": {
        "type": "Point",
        "coordinates": [
          13.0392,
          42.9371
        ]
      },
      "properties": {
        "icao24": "040219",
        "callsign": "ETH734",
        "origin_country": "Ethiopia",
        "time_position": 1786243045,
        "last_contact": 1786243045,
        "baro_altitude": 12192,
        "on_ground": false,
        "velocity": 243.54,
        "true_track": 307.02,
        "vertical_rate": 0,
        "geo_altitude": 12862.56,
        "squawk": "2004",
        "spi": false,
        "position_source": 0
      }
    },
    {
      "type": "Feature",
      "geometry": {
        "type": "Point",
        "coordinates": [
          14.2072,
          42.4029
        ]
      },
      "properties": {
        "icao24": "48b206",
        "callsign": "IGA612",
        "origin_country": "Poland",
        "time_position": 1786243046,
        "last_contact": 1786243046,
        "baro_altitude": 10363.2,
        "on_ground": false,
        "velocity": 233,
        "true_track": 309,
        "vertical_rate": 0,
        "geo_altitude": 10934.7,
        "squawk": "2032",
        "spi": false,
        "position_source": 0
      }
    },
    {
      "type": "Feature",
      "geometry": {
        "type": "Point",
        "coordinates": [
          7.4243,
          46.9482
        ]
      },
      "properties": {
        "icao24": "4b330b",
        "callsign": "RGA14",
        "origin_country": "Switzerland",
        "time_position": 1786242838,
        "last_contact": 1786242840,
        "baro_altitude": 533.4,
        "on_ground": true,
        "velocity": 0,
        "true_track": 227.81,
        "vertical_rate": null,
        "geo_altitude": null,
        "squawk": "7100",
        "spi": false,
        "position_source": 0
      }
    },
    {
      "type": "Feature",
      "geometry": {
        "type": "Point",
        "coordinates": [
          12.9396,
          45.519
        ]
      },
      "properties": {
        "icao24": "4ca34e",
        "callsign": "SVA921",
        "origin_country": "Ireland",
        "time_position": 1786243045,
        "last_contact": 1786243045,
        "baro_altitude": 11582.4,
        "on_ground": false,
        "velocity": 228.51,
        "true_track": 324.81,
        "vertical_rate": -0.33,
        "geo_altitude": 12192,
        "squawk": "2074",
        "spi": false,
        "position_source": 0
      }
    },
    {
      "type": "Feature",
      "geometry": {
        "type": "Point",
        "coordinates": [
          10.2526,
          36.9429
        ]
      },
      "properties": {
        "icao24": "74482b",
        "callsign": "RJA554",
        "origin_country": "Jordan",
        "time_position": 1786242961,
        "last_contact": 1786242962,
        "baro_altitude": 861.06,
        "on_ground": false,
        "velocity": 127.45,
        "true_track": 12.35,
        "vertical_rate": 8.13,
        "geo_altitude": 952.5,
        "squawk": "6163",
        "spi": false,
        "position_source": 0
      }
    },
    {
      "type": "Feature",
      "geometry": {
        "type": "Point",
        "coordinates": [
          16.983,
          45.4964
        ]
      },
      "properties": {
        "icao24": "744821",
        "callsign": "RJA157",
        "origin_country": "Jordan",
        "time_position": 1786243045,
        "last_contact": 1786243045,
        "baro_altitude": 10972.8,
        "on_ground": false,
        "velocity": 211.79,
        "true_track": 316.57,
        "vertical_rate": 0.33,
        "geo_altitude": 11536.68,
        "squawk": "5647",
        "spi": false,
        "position_source": 0
      }
    },
    {
      "type": "Feature",
      "geometry": {
        "type": "Point",
        "coordinates": [
          8.7211,
          45.6144
        ]
      },
      "properties": {
        "icao24": "31d7bc",
        "callsign": "MIKE7",
        "origin_country": "Italy",
        "time_position": 1786243015,
        "last_contact": 1786243015,
        "baro_altitude": null,
        "on_ground": true,
        "velocity": 15.95,
        "true_track": 163.12,
        "vertical_rate": null,
        "geo_altitude": null,
        "squawk": null,
        "spi": false,
        "position_source": 0
      }
    },
    {
      "type": "Feature",
      "geometry": {
        "type": "Point",
        "coordinates": [
          13.3605,
          44.4694
        ]
      },
      "properties": {
        "icao24": "7448a3",
        "callsign": "RJA122",
        "origin_country": "Jordan",
        "time_position": 1786243045,
        "last_contact": 1786243045,
        "baro_altitude": 11277.6,
        "on_ground": false,
        "velocity": 252.52,
        "true_track": 114.69,
        "vertical_rate": 0,
        "geo_altitude": 11887.2,
        "squawk": "0233",
        "spi": false,
        "position_source": 0
      }
    },
    {
      "type": "Feature",
      "geometry": {
        "type": "Point",
        "coordinates": [
          14.9617,
          44.9519
        ]
      },
      "properties": {
        "icao24": "3949e0",
        "callsign": "AFR283",
        "origin_country": "France",
        "time_position": 1786243045,
        "last_contact": 1786243045,
        "baro_altitude": 11582.4,
        "on_ground": false,
        "velocity": 233.09,
        "true_track": 283.27,
        "vertical_rate": 0,
        "geo_altitude": 12199.62,
        "squawk": "3246",
        "spi": false,
        "position_source": 0
      }
    },
    {
      "type": "Feature",
      "geometry": {
        "type": "Point",
        "coordinates": [
          16.9435,
          40.6323
        ]
      },
      "properties": {
        "icao24": "39cf0d",
        "callsign": "AFR829",
        "origin_country": "France",
        "time_position": 1786243046,
        "last_contact": 1786243046,
        "baro_altitude": 11582.4,
        "on_ground": false,
        "velocity": 251.09,
        "true_track": 309.43,
        "vertical_rate": 0,
        "geo_altitude": 12260.58,
        "squawk": "2751",
        "spi": false,
        "position_source": 0
      }
    },
    {
      "type": "Feature",
      "geometry": {
        "type": "Point",
        "coordinates": [
          17.7615,
          47.6474
        ]
      },
      "properties": {
        "icao24": "49d034",
        "callsign": "TVQ6176",
        "origin_country": "Czech Republic",
        "time_position": 1786243045,
        "last_contact": 1786243045,
        "baro_altitude": 5684.52,
        "on_ground": false,
        "velocity": 208.02,
        "true_track": 154.51,
        "vertical_rate": 11.38,
        "geo_altitude": 5996.94,
        "squawk": "4424",
        "spi": false,
        "position_source": 0
      }
    },
    {
      "type": "Feature",
      "geometry": {
        "type": "Point",
        "coordinates": [
          7.6591,
          43.744
        ]
      },
      "properties": {
        "icao24": "48c123",
        "callsign": "RYS78R",
        "origin_country": "Poland",
        "time_position": 1786243045,
        "last_contact": 1786243045,
        "baro_altitude": 10972.8,
        "on_ground": false,
        "velocity": 242.68,
        "true_track": 46.12,
        "vertical_rate": 0,
        "geo_altitude": 11574.78,
        "squawk": "1000",
        "spi": false,
        "position_source": 0
      }
    },
    {
      "type": "Feature",
      "geometry": {
        "type": "Point",
        "coordinates": [
          18.5445,
          47.3669
        ]
      },
      "properties": {
        "icao24": "4bb84f",
        "callsign": "PGT83T",
        "origin_country": "Turkey",
        "time_position": 1786243045,
        "last_contact": 1786243045,
        "baro_altitude": 11277.6,
        "on_ground": false,
        "velocity": 255.42,
        "true_track": 145.67,
        "vertical_rate": -0.33,
        "geo_altitude": 11788.14,
        "squawk": "7611",
        "spi": false,
        "position_source": 0
      }
    },
    {
      "type": "Feature",
      "geometry": {
        "type": "Point",
        "coordinates": [
          17.1035,
          45.5268
        ]
      },
      "properties": {
        "icao24": "4bb84d",
        "callsign": "PGT15NN",
        "origin_country": "Turkey",
        "time_position": 1786243045,
        "last_contact": 1786243045,
        "baro_altitude": 10668,
        "on_ground": false,
        "velocity": 257.66,
        "true_track": 119.94,
        "vertical_rate": 0,
        "geo_altitude": 11216.64,
        "squawk": "7663",
        "spi": false,
        "position_source": 0
      }
    },
    {
      "type": "Feature",
      "geometry": {
        "type": "Point",
        "coordinates": [
          18.4609,
          38.6441
        ]
      },
      "properties": {
        "icao24": "46b8a2",
        "callsign": "AEE3LP",
        "origin_country": "Greece",
        "time_position": 1786243043,
        "last_contact": 1786243045,
        "baro_altitude": 11269.98,
        "on_ground": false,
        "velocity": 247.76,
        "true_track": 106.4,
        "vertical_rate": 0,
        "geo_altitude": 11971.02,
        "squawk": "2230",
        "spi": false,
        "position_source": 0
      }
    },
    {
      "type": "Feature",
      "geometry": {
        "type": "Point",
        "coordinates": [
          6.871,
          37.17
        ]
      },
      "properties": {
        "icao24": "4cc481",
        "callsign": "ABD2606",
        "origin_country": "Iceland",
        "time_position": 1786242888,
        "last_contact": 1786242890,
        "baro_altitude": 10972.8,
        "on_ground": false,
        "velocity": 253.71,
        "true_track": 3.95,
        "vertical_rate": 0,
        "geo_altitude": 11643.36,
        "squawk": null,
        "spi": false,
        "position_source": 0
      }
    },
    {
      "type": "Feature",
      "geometry": {
        "type": "Point",
        "coordinates": [
          8.2181,
          47.7127
        ]
      },
      "properties": {
        "icao24": "406a92",
        "callsign": "EZY8582",
        "origin_country": "United Kingdom",
        "time_position": 1786243045,
        "last_contact": 1786243045,
        "baro_altitude": 10965.18,
        "on_ground": false,
        "velocity": 219.02,
        "true_track": 303.5,
        "vertical_rate": 0,
        "geo_altitude": 11513.82,
        "squawk": "2764",
        "spi": false,
        "position_source": 0
      }
    },
    {
      "type": "Feature",
      "geometry": {
        "type": "Point",
        "coordinates": [
          12.7617,
          37.5965
        ]
      },
      "properties": {
        "icao24": "4bb721",
        "callsign": "DAH3201",
        "origin_country": "Turkey",
        "time_position": 1786243045,
        "last_contact": 1786243045,
        "baro_altitude": 9753.6,
        "on_ground": false,
        "velocity": 238.06,
        "true_track": 248.31,
        "vertical_rate": 0,
        "geo_altitude": 10347.96,
        "squawk": "2337",
        "spi": false,
        "position_source": 0
      }
    },
    {
      "type": "Feature",
      "geometry": {
        "type": "Point",
        "coordinates": [
          18.8216,
          41.7132
        ]
      },
      "properties": {
        "icao24": "4b1881",
        "callsign": "SWR155",
        "origin_country": "Switzerland",
        "time_position": 1786243045,
        "last_contact": 1786243045,
        "baro_altitude": 11582.4,
        "on_ground": false,
        "velocity": 233.54,
        "true_track": 314.64,
        "vertical_rate": 0,
        "geo_altitude": 12252.96,
        "squawk": "2065",
        "spi": false,
        "position_source": 0
      }
    },
    {
      "type": "Feature",
      "geometry": {
        "type": "Point",
        "coordinates": [
          14.203,
          47.6799
        ]
      },
      "properties": {
        "icao24": "3c65d0",
        "callsign": "DLH1743",
        "origin_country": "Germany",
        "time_position": 1786243045,
        "last_contact": 1786243045,
        "baro_altitude": 9654.54,
        "on_ground": false,
        "velocity": 210.99,
        "true_track": 295.88,
        "vertical_rate": -2.6,
        "geo_altitude": 10165.08,
        "squawk": "3264",
        "spi": false,
        "position_source": 0
      }
    },
    {
      "type": "Feature",
      "geometry": {
        "type": "Point",
        "coordinates": [
          17.6719,
          44.7513
        ]
      },
      "properties": {
        "icao24": "3c65d1",
        "callsign": "DLH2647",
        "origin_country": "Germany",
        "time_position": 1786243044,
        "last_contact": 1786243045,
        "baro_altitude": 11582.4,
        "on_ground": false,
        "velocity": 217.19,
        "true_track": 314.14,
        "vertical_rate": 0,
        "geo_altitude": 12199.62,
        "squawk": "1163",
        "spi": false,
        "position_source": 0
      }
    },
    {
      "type": "Feature",
      "geometry": {
        "type": "Point",
        "coordinates": [
          15.9858,
          47.274
        ]
      },
      "properties": {
        "icao24": "3c670f",
        "callsign": "DLH773",
        "origin_country": "Germany",
        "time_position": 1786243045,
        "last_contact": 1786243046,
        "baro_altitude": 12192,
        "on_ground": false,
        "velocity": 227.31,
        "true_track": 292.91,
        "vertical_rate": 0,
        "geo_altitude": 12786.36,
        "squawk": "1000",
        "spi": false,
        "position_source": 0
      }
    },
    {
      "type": "Feature",
      "geometry": {
        "type": "Point",
        "coordinates": [
          17.2543,
          41.9364
        ]
      },
      "properties": {
        "icao24": "02a1a5",
        "callsign": "LBT7763",
        "origin_country": "Tunisia",
        "time_position": 1786243045,
        "last_contact": 1786243045,
        "baro_altitude": 11285.22,
        "on_ground": false,
        "velocity": 229.45,
        "true_track": 214.4,
        "vertical_rate": -0.33,
        "geo_altitude": 11948.16,
        "squawk": "0504",
        "spi": false,
        "position_source": 0
      }
    },
    {
      "type": "Feature",
      "geometry": {
        "type": "Point",
        "coordinates": [
          15.8994,
          44.4074
        ]
      },
      "properties": {
        "icao24": "02a1a3",
        "callsign": "LBT7470",
        "origin_country": "Tunisia",
        "time_position": 1786243045,
        "last_contact": 1786243045,
        "baro_altitude": 11285.22,
        "on_ground": false,
        "velocity": 235,
        "true_track": 21.85,
        "vertical_rate": 0.33,
        "geo_altitude": 11887.2,
        "squawk": "1000",
        "spi": false,
        "position_source": 0
      }
    },
    {
      "type": "Feature",
      "geometry": {
        "type": "Point",
        "coordinates": [
          11.0145,
          40.0102
        ]
      },
      "properties": {
        "icao24": "3c656b",
        "callsign": "OCN143Y",
        "origin_country": "Germany",
        "time_position": 1786243045,
        "last_contact": 1786243045,
        "baro_altitude": 12192,
        "on_ground": false,
        "velocity": 245.56,
        "true_track": 2.16,
        "vertical_rate": 0,
        "geo_altitude": 12908.28,
        "squawk": "1000",
        "spi": false,
        "position_source": 0
      }
    },
    {
      "type": "Feature",
      "geometry": {
        "type": "Point",
        "coordinates": [
          9.1359,
          47.7854
        ]
      },
      "properties": {
        "icao24": "3c6573",
        "callsign": "DLH595",
        "origin_country": "Germany",
        "time_position": 1786243045,
        "last_contact": 1786243046,
        "baro_altitude": 12192,
        "on_ground": false,
        "velocity": 247.2,
        "true_track": 353.07,
        "vertical_rate": 0,
        "geo_altitude": 12740.64,
        "squawk": "1000",
        "spi": false,
        "position_source": 0
      }
    },
    {
      "type": "Feature",
      "geometry": {
        "type": "Point",
        "coordinates": [
          15.6013,
          45.9777
        ]
      },
      "properties": {
        "icao24": "3c64a2",
        "callsign": "DLH691",
        "origin_country": "Germany",
        "time_position": 1786243045,
        "last_contact": 1786243046,
        "baro_altitude": 10363.2,
        "on_ground": false,
        "velocity": 212.98,
        "true_track": 322.85,
        "vertical_rate": -0.33,
        "geo_altitude": 10919.46,
        "squawk": "2007",
        "spi": false,
        "position_source": 0
      }
    },
    {
      "type": "Feature",
      "geometry": {
        "type": "Point",
        "coordinates": [
          13.2239,
          39.8881
        ]
      },
      "properties": {
        "icao24": "02a1ab",
        "callsign": "LBT7492",
        "origin_country": "Tunisia",
        "time_position": 1786243045,
        "last_contact": 1786243045,
        "baro_altitude": 11574.78,
        "on_ground": false,
        "velocity": 238.04,
        "true_track": 24.52,
        "vertical_rate": 0,
        "geo_altitude": 12283.44,
        "squawk": "6160",
        "spi": false,
        "position_source": 0
      }
    },
    {
      "type": "Feature",
      "geometry": {
        "type": "Point",
        "coordinates": [
          12.8531,
          43.5447
        ]
      },
      "properties": {
        "icao24": "7105ab",
        "callsign": "SVA131",
        "origin_country": "Saudi Arabia",
        "time_position": 1786243045,
        "last_contact": 1786243045,
        "baro_altitude": 11582.4,
        "on_ground": false,
        "velocity": 246.3,
        "true_track": 304.62,
        "vertical_rate": -0.33,
        "geo_altitude": 12237.72,
        "squawk": "2077",
        "spi": false,
        "position_source": 0
      }
    },
    {
      "type": "Feature",
      "geometry": {
        "type": "Point",
        "coordinates": [
          8.5369,
          47.4769
        ]
      },
      "properties": {
        "icao24": "4b5c19",
        "callsign": "GUSTI1",
        "origin_country": "Switzerland",
        "time_position": 1786243045,
        "last_contact": 1786243045,
        "baro_altitude": null,
        "on_ground": true,
        "velocity": 14.92,
        "true_track": 239.06,
        "vertical_rate": null,
        "geo_altitude": null,
        "squawk": null,
        "spi": false,
        "position_source": 0
      }
    },
    {
      "type": "Feature",
      "geometry": {
        "type": "Point",
        "coordinates": [
          17.4089,
          44.847
        ]
      },
      "properties": {
        "icao24": "4a1921",
        "callsign": "NIA8604",
        "origin_country": "Romania",
        "time_position": 1786243045,
        "last_contact": 1786243045,
        "baro_altitude": 10066.02,
        "on_ground": false,
        "velocity": 266.07,
        "true_track": 144.68,
        "vertical_rate": 0,
        "geo_altitude": 10607.04,
        "squawk": "6001",
        "spi": false,
        "position_source": 0
      }
    },
    {
      "type": "Feature",
      "geometry": {
        "type": "Point",
        "coordinates": [
          18.999,
          47.1289
        ]
      },
      "properties": {
        "icao24": "888167",
        "callsign": "HVN11",
        "origin_country": "Viet Nam",
        "time_position": 1786243045,
        "last_contact": 1786243045,
        "baro_altitude": 12192,
        "on_ground": false,
        "velocity": 229.94,
        "true_track": 293.47,
        "vertical_rate": 0,
        "geo_altitude": 12748.26,
        "squawk": "3215",
        "spi": false,
        "position_source": 0
      }
    },
    {
      "type": "Feature",
      "geometry": {
        "type": "Point",
        "coordinates": [
          17.259,
          38.6264
        ]
      },
      "properties": {
        "icao24": "02a198",
        "callsign": "TAR217",
        "origin_country": "Tunisia",
        "time_position": 1786243045,
        "last_contact": 1786243045,
        "baro_altitude": 10370.82,
        "on_ground": false,
        "velocity": 233.52,
        "true_track": 243.43,
        "vertical_rate": 0,
        "geo_altitude": 11010.9,
        "squawk": "4663",
        "spi": true,
        "position_source": 0
      }
    },
    {
      "type": "Feature",
      "geometry": {
        "type": "Point",
        "coordinates": [
          15.5408,
          46.8509
        ]
      },
      "properties": {
        "icao24": "4bce49",
        "callsign": "SXS8KW",
        "origin_country": "Turkey",
        "time_position": 1786243046,
        "last_contact": 1786243046,
        "baro_altitude": 11887.2,
        "on_ground": false,
        "velocity": 256.12,
        "true_track": 134.19,
        "vertical_rate": 0,
        "geo_altitude": 12451.08,
        "squawk": "7654",
        "spi": false,
        "position_source": 0
      }
    },
    {
      "type": "Feature",
      "geometry": {
        "type": "Point",
        "coordinates": [
          17.6887,
          46.6305
        ]
      },
      "properties": {
        "icao24": "4bce0b",
        "callsign": "SXS4UV",
        "origin_country": "Turkey",
        "time_position": 1786243045,
        "last_contact": 1786243045,
        "baro_altitude": 10972.8,
        "on_ground": false,
        "velocity": 204.55,
        "true_track": 308.77,
        "vertical_rate": 0,
        "geo_altitude": 11513.82,
        "squawk": "3236",
        "spi": false,
        "position_source": 0
      }
    },
    {
      "type": "Feature",
      "geometry": {
        "type": "Point",
        "coordinates": [
          17.7525,
          44.14
        ]
      },
      "properties": {
        "icao24": "4d010c",
        "callsign": "ICV4096",
        "origin_country": "Luxembourg",
        "time_position": 1786243044,
        "last_contact": 1786243045,
        "baro_altitude": 9448.8,
        "on_ground": false,
        "velocity": 271.77,
        "true_track": 105.93,
        "vertical_rate": -0.33,
        "geo_altitude": 9936.48,
        "squawk": "0433",
        "spi": false,
        "position_source": 0
      }
    },
    {
      "type": "Feature",
      "geometry": {
        "type": "Point",
        "coordinates": [
          6.6074,
          47.5077
        ]
      },
      "properties": {
        "icao24": "ab2c0c",
        "callsign": "DAL202",
        "origin_country": "United States",
        "time_position": 1786243045,
        "last_contact": 1786243046,
        "baro_altitude": 11887.2,
        "on_ground": false,
        "velocity": 259.28,
        "true_track": 112.39,
        "vertical_rate": 0,
        "geo_altitude": 12428.22,
        "squawk": "1154",
        "spi": false,
        "position_source": 0
      }
    },
    {
      "type": "Feature",
      "geometry": {
        "type": "Point",
        "coordinates": [
          7.5232,
          47.6074
        ]
      },
      "properties": {
        "icao24": "389dff",
        "callsign": "COBRA02",
        "origin_country": "France",
        "time_position": 1786243045,
        "last_contact": 1786243045,
        "baro_altitude": null,
        "on_ground": true,
        "velocity": 6.94,
        "true_track": 95.62,
        "vertical_rate": null,
        "geo_altitude": null,
        "squawk": null,
        "spi": false,
        "position_source": 0
      }
    },
    {
      "type": "Feature",
      "geometry": {
        "type": "Point",
        "coordinates": [
          6.6139,
          36.6105
        ]
      },
      "properties": {
        "icao24": "396445",
        "callsign": "AFR971",
        "origin_country": "France",
        "time_position": 1786243020,
        "last_contact": 1786243020,
        "baro_altitude": 12199.62,
        "on_ground": false,
        "velocity": 238.5,
        "true_track": 350.31,
        "vertical_rate": 0,
        "geo_altitude": 12946.38,
        "squawk": null,
        "spi": false,
        "position_source": 0
      }
    },
    {
      "type": "Feature",
      "geometry": {
        "type": "Point",
        "coordinates": [
          16.5515,
          45.2416
        ]
      },
      "properties": {
        "icao24": "01024f",
        "callsign": "MSC2913",
        "origin_country": "Egypt",
        "time_position": 1786243046,
        "last_contact": 1786243046,
        "baro_altitude": 11277.6,
        "on_ground": false,
        "velocity": 255.43,
        "true_track": 133.69,
        "vertical_rate": 0,
        "geo_altitude": 11887.2,
        "squawk": "2513",
        "spi": false,
        "position_source": 0
      }
    },
    {
      "type": "Feature",
      "geometry": {
        "type": "Point",
        "coordinates": [
          15.9405,
          40.1024
        ]
      },
      "properties": {
        "icao24": "346316",
        "callsign": "IBE0848",
        "origin_country": "Spain",
        "time_position": 1786243045,
        "last_contact": 1786243045,
        "baro_altitude": 10972.8,
        "on_ground": false,
        "velocity": 232.09,
        "true_track": 275.6,
        "vertical_rate": 0,
        "geo_altitude": 11643.36,
        "squawk": "5532",
        "spi": false,
        "position_source": 0
      }
    },
    {
      "type": "Feature",
      "geometry": {
        "type": "Point",
        "coordinates": [
          18.9083,
          46.3973
        ]
      },
      "properties": {
        "icao24": "0101e0",
        "callsign": "MSR995",
        "origin_country": "Egypt",
        "time_position": 1786243046,
        "last_contact": 1786243046,
        "baro_altitude": 10355.58,
        "on_ground": false,
        "velocity": 241.41,
        "true_track": 320.1,
        "vertical_rate": 0,
        "geo_altitude": 10873.74,
        "squawk": "4512",
        "spi": false,
        "position_source": 0
      }
    },
    {
      "type": "Feature",
      "geometry": {
        "type": "Point",
        "coordinates": [
          7.2278,
          47.726
        ]
      },
      "properties": {
        "icao24": "4d2406",
        "callsign": "EWG55DU",
        "origin_country": "Malta",
        "time_position": 1786243045,
        "last_contact": 1786243045,
        "baro_altitude": 11277.6,
        "on_ground": false,
        "velocity": 213.8,
        "true_track": 201.75,
        "vertical_rate": -0.33,
        "geo_altitude": 11803.38,
        "squawk": "1000",
        "spi": false,
        "position_source": 0
      }
    },
    {
      "type": "Feature",
      "geometry": {
        "type": "Point",
        "coordinates": [
          6.0197,
          45.2112
        ]
      },
      "properties": {
        "icao24": "4d240f",
        "callsign": "EWG53L",
        "origin_country": "Malta",
        "time_position": 1786243045,
        "last_contact": 1786243045,
        "baro_altitude": 11277.6,
        "on_ground": false,
        "velocity": 204.13,
        "true_track": 205.21,
        "vertical_rate": 0,
        "geo_altitude": 11879.58,
        "squawk": "6653",
        "spi": false,
        "position_source": 0
      }
    },
    {
      "type": "Feature",
      "geometry": {
        "type": "Point",
        "coordinates": [
          13.5828,
          39.9315
        ]
      },
      "properties": {
        "icao24": "346047",
        "callsign": "VLG448P",
        "origin_country": "Spain",
        "time_position": 1786243045,
        "last_contact": 1786243045,
        "baro_altitude": 10972.8,
        "on_ground": false,
        "velocity": 226.96,
        "true_track": 284.04,
        "vertical_rate": 0,
        "geo_altitude": 11650.98,
        "squawk": "2042",
        "spi": false,
        "position_source": 0
      }
    },
    {
      "type": "Feature",
      "geometry": {
        "type": "Point",
        "coordinates": [
          16.4645,
          46.4495
        ]
      },
      "properties": {
        "icao24": "4d239c",
        "callsign": "CXI1P",
        "origin_country": "Malta",
        "time_position": 1786243045,
        "last_contact": 1786243046,
        "baro_altitude": 11277.6,
        "on_ground": false,
        "velocity": 254.97,
        "true_track": 137.94,
        "vertical_rate": 0,
        "geo_altitude": 11833.86,
        "squawk": "0516",
        "spi": false,
        "position_source": 0
      }
    },
    {
      "type": "Feature",
      "geometry": {
        "type": "Point",
        "coordinates": [
          16.3156,
          44.7198
        ]
      },
      "properties": {
        "icao24": "4d21b1",
        "callsign": "FHM5375",
        "origin_country": "Malta",
        "time_position": 1786243045,
        "last_contact": 1786243045,
        "baro_altitude": 10675.62,
        "on_ground": false,
        "velocity": 252.16,
        "true_track": 139.55,
        "vertical_rate": 0.33,
        "geo_altitude": 11247.12,
        "squawk": "6437",
        "spi": false,
        "position_source": 0
      }
    },
    {
      "type": "Feature",
      "geometry": {
        "type": "Point",
        "coordinates": [
          10.156,
          44.5914
        ]
      },
      "properties": {
        "icao24": "4d20bf",
        "callsign": "WZZ354",
        "origin_country": "Malta",
        "time_position": 1786243045,
        "last_contact": 1786243045,
        "baro_altitude": 8915.4,
        "on_ground": false,
        "velocity": 227.91,
        "true_track": 132.62,
        "vertical_rate": 5.2,
        "geo_altitude": 9456.42,
        "squawk": "0464",
        "spi": false,
        "position_source": 0
      }
    },
    {
      "type": "Feature",
      "geometry": {
        "type": "Point",
        "coordinates": [
          6.8728,
          37.6105
        ]
      },
      "properties": {
        "icao24": "4b18fd",
        "callsign": null,
        "origin_country": "Switzerland",
        "time_position": 1786243044,
        "last_contact": 1786243044,
        "baro_altitude": 11582.4,
        "on_ground": false,
        "velocity": 243.82,
        "true_track": 5.21,
        "vertical_rate": 0,
        "geo_altitude": 12298.68,
        "squawk": null,
        "spi": false,
        "position_source": 0
      }
    },
    {
      "type": "Feature",
      "geometry": {
        "type": "Point",
        "coordinates": [
          9.4245,
          42.6469
        ]
      },
      "properties": {
        "icao24": "392da4",
        "callsign": "TJT777B",
        "origin_country": "France",
        "time_position": 1786243045,
        "last_contact": 1786243045,
        "baro_altitude": 3048,
        "on_ground": false,
        "velocity": 96.6,
        "true_track": 228.67,
        "vertical_rate": 10.08,
        "geo_altitude": 3314.7,
        "squawk": null,
        "spi": false,
        "position_source": 0
      }
    },
    {
      "type": "Feature",
      "geometry": {
        "type": "Point",
        "coordinates": [
          18.0769,
          44.081
        ]
      },
      "properties": {
        "icao24": "3c5641",
        "callsign": "BOX631",
        "origin_country": "Germany",
        "time_position": 1786243044,
        "last_contact": 1786243045,
        "baro_altitude": 10363.2,
        "on_ground": false,
        "velocity": 239.68,
        "true_track": 321.97,
        "vertical_rate": 0,
        "geo_altitude": 10927.08,
        "squawk": "5504",
        "spi": false,
        "position_source": 0
      }
    },
    {
      "type": "Feature",
      "geometry": {
        "type": "Point",
        "coordinates": [
          18.649,
          35.2952
        ]
      },
      "properties": {
        "icao24": "4d203a",
        "callsign": "KNE672",
        "origin_country": "Malta",
        "time_position": 1786243045,
        "last_contact": 1786243045,
        "baro_altitude": 11277.6,
        "on_ground": false,
        "velocity": 270.55,
        "true_track": 99.3,
        "vertical_rate": 0,
        "geo_altitude": 12062.46,
        "squawk": "7745",
        "spi": false,
        "position_source": 0
      }
    },
    {
      "type": "Feature",
      "geometry": {
        "type": "Point",
        "coordinates": [
          18.5304,
          43.6153
        ]
      },
      "properties": {
        "icao24": "3c66b8",
        "callsign": "OCN3PH",
        "origin_country": "Germany",
        "time_position": 1786243045,
        "last_contact": 1786243045,
        "baro_altitude": 10980.42,
        "on_ground": false,
        "velocity": 220,
        "true_track": 322.22,
        "vertical_rate": 0,
        "geo_altitude": 11597.64,
        "squawk": "0505",
        "spi": false,
        "position_source": 0
      }
    },
    {
      "type": "Feature",
      "geometry": {
        "type": "Point",
        "coordinates": [
          10.2696,
          47.6821
        ]
      },
      "properties": {
        "icao24": "4082cb",
        "callsign": "TOM77K",
        "origin_country": "United Kingdom",
        "time_position": 1786243045,
        "last_contact": 1786243046,
        "baro_altitude": 11582.4,
        "on_ground": false,
        "velocity": 207.14,
        "true_track": 294.97,
        "vertical_rate": 0,
        "geo_altitude": 12131.04,
        "squawk": "6614",
        "spi": false,
        "position_source": 0
      }
    },
    {
      "type": "Feature",
      "geometry": {
        "type": "Point",
        "coordinates": [
          6.4246,
          37.3192
        ]
      },
      "properties": {
        "icao24": "4b17c4",
        "callsign": "HBJAA",
        "origin_country": "Switzerland",
        "time_position": 1786243028,
        "last_contact": 1786243030,
        "baro_altitude": 13106.4,
        "on_ground": false,
        "velocity": 248.33,
        "true_track": 351.18,
        "vertical_rate": -0.33,
        "geo_altitude": 13815.06,
        "squawk": null,
        "spi": false,
        "position_source": 0
      }
    }
  ]
}