{
  "type": "FeatureCollection",
  "source": "opensky",
  "dataset": "aircraft_italy",
  "generated_at": "2026-05-28T00:07:25.629498+00:00",
  "opensky_time": 1779926833,
  "count": 73,
  "features": [
    {
      "type": "Feature",
      "geometry": {
        "type": "Point",
        "coordinates": [
          12.7086,
          39.7938
        ]
      },
      "properties": {
        "icao24": "738068",
        "callsign": "ELY376",
        "origin_country": "Israel",
        "time_position": 1779926832,
        "last_contact": 1779926832,
        "baro_altitude": 10675.62,
        "on_ground": false,
        "velocity": 228.78,
        "true_track": 102.6,
        "vertical_rate": 0,
        "geo_altitude": 11117.58,
        "squawk": "5240",
        "spi": false,
        "position_source": 0
      }
    },
    {
      "type": "Feature",
      "geometry": {
        "type": "Point",
        "coordinates": [
          15.1216,
          44.3676
        ]
      },
      "properties": {
        "icao24": "738076",
        "callsign": "ELY003",
        "origin_country": "Israel",
        "time_position": 1779926833,
        "last_contact": 1779926833,
        "baro_altitude": 10363.2,
        "on_ground": false,
        "velocity": 226.48,
        "true_track": 301.34,
        "vertical_rate": 0,
        "geo_altitude": 10774.68,
        "squawk": "2260",
        "spi": false,
        "position_source": 0
      }
    },
    {
      "type": "Feature",
      "geometry": {
        "type": "Point",
        "coordinates": [
          10.3113,
          46.6732
        ]
      },
      "properties": {
        "icao24": "406900",
        "callsign": "EXS71FD",
        "origin_country": "United Kingdom",
        "time_position": 1779926832,
        "last_contact": 1779926832,
        "baro_altitude": 11582.4,
        "on_ground": false,
        "velocity": 220.55,
        "true_track": 309.04,
        "vertical_rate": 0,
        "geo_altitude": 12016.74,
        "squawk": "2754",
        "spi": false,
        "position_source": 0
      }
    },
    {
      "type": "Feature",
      "geometry": {
        "type": "Point",
        "coordinates": [
          6.8098,
          47.4379
        ]
      },
      "properties": {
        "icao24": "500194",
        "callsign": "ELY809",
        "origin_country": "San Marino",
        "time_position": 1779926832,
        "last_contact": 1779926832,
        "baro_altitude": 10972.8,
        "on_ground": false,
        "velocity": 233.67,
        "true_track": 349.09,
        "vertical_rate": 0,
        "geo_altitude": 11384.28,
        "squawk": "1000",
        "spi": false,
        "position_source": 0
      }
    },
    {
      "type": "Feature",
      "geometry": {
        "type": "Point",
        "coordinates": [
          6.6893,
          40.6537
        ]
      },
      "properties": {
        "icao24": "452124",
        "callsign": "LZB564",
        "origin_country": "Bulgaria",
        "time_position": 1779926833,
        "last_contact": 1779926833,
        "baro_altitude": 10972.8,
        "on_ground": false,
        "velocity": 229.68,
        "true_track": 98.11,
        "vertical_rate": -0.33,
        "geo_altitude": 11445.24,
        "squawk": "5244",
        "spi": false,
        "position_source": 0
      }
    },
    {
      "type": "Feature",
      "geometry": {
        "type": "Point",
        "coordinates": [
          17.0167,
          44.8286
        ]
      },
      "properties": {
        "icao24": "7380c1",
        "callsign": "ELY017",
        "origin_country": "Israel",
        "time_position": 1779926833,
        "last_contact": 1779926833,
        "baro_altitude": 10355.58,
        "on_ground": false,
        "velocity": 233.18,
        "true_track": 309.45,
        "vertical_rate": 0,
        "geo_altitude": 10744.2,
        "squawk": "1152",
        "spi": false,
        "position_source": 0
      }
    },
    {
      "type": "Feature",
      "geometry": {
        "type": "Point",
        "coordinates": [
          18.2554,
          44.1162
        ]
      },
      "properties": {
        "icao24": "7380ca",
        "callsign": "ELY027",
        "origin_country": "Israel",
        "time_position": 1779926832,
        "last_contact": 1779926832,
        "baro_altitude": 10972.8,
        "on_ground": false,
        "velocity": 234.49,
        "true_track": 309.84,
        "vertical_rate": 0,
        "geo_altitude": 11376.66,
        "squawk": "1170",
        "spi": false,
        "position_source": 0
      }
    },
    {
      "type": "Feature",
      "geometry": {
        "type": "Point",
        "coordinates": [
          6.4407,
          39.7693
        ]
      },
      "properties": {
        "icao24": "020140",
        "callsign": "MAC438",
        "origin_country": "Morocco",
        "time_position": 1779926832,
        "last_contact": 1779926832,
        "baro_altitude": 11277.6,
        "on_ground": false,
        "velocity": 237.43,
        "true_track": 262.91,
        "vertical_rate": 0,
        "geo_altitude": 11765.28,
        "squawk": "2303",
        "spi": false,
        "position_source": 0
      }
    },
    {
      "type": "Feature",
      "geometry": {
        "type": "Point",
        "coordinates": [
          7.9921,
          47.5294
        ]
      },
      "properties": {
        "icao24": "0200f8",
        "callsign": "RAM220M",
        "origin_country": "Morocco",
        "time_position": 1779926833,
        "last_contact": 1779926833,
        "baro_altitude": 10972.8,
        "on_ground": false,
        "velocity": 245.3,
        "true_track": 39.3,
        "vertical_rate": 0,
        "geo_altitude": 11384.28,
        "squawk": "2303",
        "spi": false,
        "position_source": 0
      }
    },
    {
      "type": "Feature",
      "geometry": {
        "type": "Point",
        "coordinates": [
          18.0653,
          43.8072
        ]
      },
      "properties": {
        "icao24": "4bb192",
        "callsign": "THY41J",
        "origin_country": "Turkey",
        "time_position": 1779926832,
        "last_contact": 1779926832,
        "baro_altitude": 11887.2,
        "on_ground": false,
        "velocity": 252.45,
        "true_track": 102,
        "vertical_rate": 0,
        "geo_altitude": 12283.44,
        "squawk": "0445",
        "spi": false,
        "position_source": 0
      }
    },
    {
      "type": "Feature",
      "geometry": {
        "type": "Point",
        "coordinates": [
          18.2756,
          46.6798
        ]
      },
      "properties": {
        "icao24": "3965a4",
        "callsign": "AFR256",
        "origin_country": "France",
        "time_position": 1779926833,
        "last_contact": 1779926833,
        "baro_altitude": 9448.8,
        "on_ground": false,
        "velocity": 269.38,
        "true_track": 101.01,
        "vertical_rate": 0,
        "geo_altitude": 9784.08,
        "squawk": "0663",
        "spi": false,
        "position_source": 0
      }
    },
    {
      "type": "Feature",
      "geometry": {
        "type": "Point",
        "coordinates": [
          14.3355,
          35.2348
        ]
      },
      "properties": {
        "icao24": "4bb064",
        "callsign": "THY3KA",
        "origin_country": "Turkey",
        "time_position": 1779926833,
        "last_contact": 1779926833,
        "baro_altitude": 10972.8,
        "on_ground": false,
        "velocity": 219.72,
        "true_track": 45.19,
        "vertical_rate": 0,
        "geo_altitude": 11376.66,
        "squawk": "3171",
        "spi": false,
        "position_source": 0
      }
    },
    {
      "type": "Feature",
      "geometry": {
        "type": "Point",
        "coordinates": [
          12.8525,
          47.0112
        ]
      },
      "properties": {
        "icao24": "40655b",
        "callsign": "EXS1190",
        "origin_country": "United Kingdom",
        "time_position": 1779926833,
        "last_contact": 1779926833,
        "baro_altitude": 11582.4,
        "on_ground": false,
        "velocity": 214.28,
        "true_track": 308.27,
        "vertical_rate": 0,
        "geo_altitude": 11993.88,
        "squawk": "2060",
        "spi": false,
        "position_source": 0
      }
    },
    {
      "type": "Feature",
      "geometry": {
        "type": "Point",
        "coordinates": [
          18.6012,
          43.8326
        ]
      },
      "properties": {
        "icao24": "4ac8da",
        "callsign": "TOM9CN",
        "origin_country": "Sweden",
        "time_position": 1779926832,
        "last_contact": 1779926832,
        "baro_altitude": 12192,
        "on_ground": false,
        "velocity": 236.03,
        "true_track": 307.29,
        "vertical_rate": 0,
        "geo_altitude": 12580.62,
        "squawk": "2003",
        "spi": false,
        "position_source": 0
      }
    },
    {
      "type": "Feature",
      "geometry": {
        "type": "Point",
        "coordinates": [
          12.2474,
          42.164
        ]
      },
      "properties": {
        "icao24": "3009bd",
        "callsign": "ARES33",
        "origin_country": "Italy",
        "time_position": 1779926566,
        "last_contact": 1779926592,
        "baro_altitude": 708.66,
        "on_ground": false,
        "velocity": 60.76,
        "true_track": 316.03,
        "vertical_rate": -0.33,
        "geo_altitude": 815.34,
        "squawk": null,
        "spi": false,
        "position_source": 0
      }
    },
    {
      "type": "Feature",
      "geometry": {
        "type": "Point",
        "coordinates": [
          13.9685,
          46.0816
        ]
      },
      "properties": {
        "icao24": "44cc44",
        "callsign": "BEL6LG",
        "origin_country": "Belgium",
        "time_position": 1779926833,
        "last_contact": 1779926833,
        "baro_altitude": 10972.8,
        "on_ground": false,
        "velocity": 218.4,
        "true_track": 327.99,
        "vertical_rate": 0,
        "geo_altitude": 11384.28,
        "squawk": "2044",
        "spi": false,
        "position_source": 0
      }
    },
    {
      "type": "Feature",
      "geometry": {
        "type": "Point",
        "coordinates": [
          15.7332,
          47.7293
        ]
      },
      "properties": {
        "icao24": "4b9907",
        "callsign": "FHY1204",
        "origin_country": "Turkey",
        "time_position": 1779926833,
        "last_contact": 1779926833,
        "baro_altitude": 10668,
        "on_ground": false,
        "velocity": 244.01,
        "true_track": 128.15,
        "vertical_rate": 0,
        "geo_altitude": 11026.14,
        "squawk": "4526",
        "spi": false,
        "position_source": 0
      }
    },
    {
      "type": "Feature",
      "geometry": {
        "type": "Point",
        "coordinates": [
          9.5805,
          46.9716
        ]
      },
      "properties": {
        "icao24": "4078ef",
        "callsign": "EZY37LE",
        "origin_country": "United Kingdom",
        "time_position": 1779926832,
        "last_contact": 1779926832,
        "baro_altitude": 10972.8,
        "on_ground": false,
        "velocity": 208.55,
        "true_track": 292.33,
        "vertical_rate": 0,
        "geo_altitude": 11399.52,
        "squawk": "7520",
        "spi": false,
        "position_source": 0
      }
    },
    {
      "type": "Feature",
      "geometry": {
        "type": "Point",
        "coordinates": [
          12.7906,
          45.5425
        ]
      },
      "properties": {
        "icao24": "40796a",
        "callsign": "TOM237",
        "origin_country": "United Kingdom",
        "time_position": 1779926833,
        "last_contact": 1779926833,
        "baro_altitude": 11582.4,
        "on_ground": false,
        "velocity": 213.32,
        "true_track": 303.19,
        "vertical_rate": -0.33,
        "geo_altitude": 12001.5,
        "squawk": "5350",
        "spi": false,
        "position_source": 0
      }
    },
    {
      "type": "Feature",
      "geometry": {
        "type": "Point",
        "coordinates": [
          14.2901,
          36.2303
        ]
      },
      "properties": {
        "icao24": "040199",
        "callsign": "ETH519",
        "origin_country": "Ethiopia",
        "time_position": 1779926833,
        "last_contact": 1779926833,
        "baro_altitude": 11277.6,
        "on_ground": false,
        "velocity": 243.36,
        "true_track": 98.39,
        "vertical_rate": -0.33,
        "geo_altitude": 11696.7,
        "squawk": "5202",
        "spi": false,
        "position_source": 0
      }
    },
    {
      "type": "Feature",
      "geometry": {
        "type": "Point",
        "coordinates": [
          16.8307,
          45.223
        ]
      },
      "properties": {
        "icao24": "49d3d5",
        "callsign": "TVS22H",
        "origin_country": "Czech Republic",
        "time_position": 1779926833,
        "last_contact": 1779926833,
        "baro_altitude": 10668,
        "on_ground": false,
        "velocity": 254.39,
        "true_track": 151.36,
        "vertical_rate": -0.33,
        "geo_altitude": 11041.38,
        "squawk": "6013",
        "spi": false,
        "position_source": 0
      }
    },
    {
      "type": "Feature",
      "geometry": {
        "type": "Point",
        "coordinates": [
          12.7989,
          38.9294
        ]
      },
      "properties": {
        "icao24": "4ca56b",
        "callsign": "RYR60",
        "origin_country": "Ireland",
        "time_position": 1779926832,
        "last_contact": 1779926832,
        "baro_altitude": 12192,
        "on_ground": false,
        "velocity": 219.84,
        "true_track": 344.11,
        "vertical_rate": 0,
        "geo_altitude": 12626.34,
        "squawk": "6577",
        "spi": false,
        "position_source": 0
      }
    },
    {
      "type": "Feature",
      "geometry": {
        "type": "Point",
        "coordinates": [
          18.6545,
          37.0963
        ]
      },
      "properties": {
        "icao24": "040219",
        "callsign": "ETH501",
        "origin_country": "Ethiopia",
        "time_position": 1779926832,
        "last_contact": 1779926832,
        "baro_altitude": 11887.2,
        "on_ground": false,
        "velocity": 244.43,
        "true_track": 114.89,
        "vertical_rate": 0,
        "geo_altitude": 12237.72,
        "squawk": "0524",
        "spi": false,
        "position_source": 0
      }
    },
    {
      "type": "Feature",
      "geometry": {
        "type": "Point",
        "coordinates": [
          14.1438,
          35.0786
        ]
      },
      "properties": {
        "icao24": "4ba9ce",
        "callsign": "THY43H",
        "origin_country": "Turkey",
        "time_position": 1779926833,
        "last_contact": 1779926833,
        "baro_altitude": 11582.4,
        "on_ground": false,
        "velocity": 228.08,
        "true_track": 45.09,
        "vertical_rate": 0,
        "geo_altitude": 11993.88,
        "squawk": "4116",
        "spi": false,
        "position_source": 0
      }
    },
    {
      "type": "Feature",
      "geometry": {
        "type": "Point",
        "coordinates": [
          17.5398,
          47.1616
        ]
      },
      "properties": {
        "icao24": "49d418",
        "callsign": "TVS2518",
        "origin_country": "Czech Republic",
        "time_position": 1779926832,
        "last_contact": 1779926833,
        "baro_altitude": 10668,
        "on_ground": false,
        "velocity": 253.4,
        "true_track": 141.59,
        "vertical_rate": -0.33,
        "geo_altitude": 11010.9,
        "squawk": "6014",
        "spi": false,
        "position_source": 0
      }
    },
    {
      "type": "Feature",
      "geometry": {
        "type": "Point",
        "coordinates": [
          18.2965,
          43.326
        ]
      },
      "properties": {
        "icao24": "49d414",
        "callsign": "TVS3210",
        "origin_country": "Czech Republic",
        "time_position": 1779926833,
        "last_contact": 1779926833,
        "baro_altitude": 10668,
        "on_ground": false,
        "velocity": 245.19,
        "true_track": 151.28,
        "vertical_rate": 0,
        "geo_altitude": 11049,
        "squawk": "6021",
        "spi": false,
        "position_source": 0
      }
    },
    {
      "type": "Feature",
      "geometry": {
        "type": "Point",
        "coordinates": [
          11.8449,
          45.771
        ]
      },
      "properties": {
        "icao24": "49d420",
        "callsign": "TVL5171",
        "origin_country": "Czech Republic",
        "time_position": 1779926833,
        "last_contact": 1779926833,
        "baro_altitude": 10972.8,
        "on_ground": false,
        "velocity": 235.85,
        "true_track": 69.71,
        "vertical_rate": 0.33,
        "geo_altitude": 11399.52,
        "squawk": "1000",
        "spi": false,
        "position_source": 0
      }
    },
    {
      "type": "Feature",
      "geometry": {
        "type": "Point",
        "coordinates": [
          15.2928,
          36.0029
        ]
      },
      "properties": {
        "icao24": "4ba9c2",
        "callsign": "THY8DL",
        "origin_country": "Turkey",
        "time_position": 1779926833,
        "last_contact": 1779926833,
        "baro_altitude": 12192,
        "on_ground": false,
        "velocity": 225.92,
        "true_track": 45.83,
        "vertical_rate": 0,
        "geo_altitude": 12611.1,
        "squawk": "4103",
        "spi": false,
        "position_source": 0
      }
    },
    {
      "type": "Feature",
      "geometry": {
        "type": "Point",
        "coordinates": [
          12.2677,
          45.6055
        ]
      },
      "properties": {
        "icao24": "407fad",
        "callsign": "TOM699",
        "origin_country": "United Kingdom",
        "time_position": 1779926832,
        "last_contact": 1779926832,
        "baro_altitude": 11582.4,
        "on_ground": false,
        "velocity": 212.83,
        "true_track": 301.96,
        "vertical_rate": 0,
        "geo_altitude": 12001.5,
        "squawk": "2032",
        "spi": false,
        "position_source": 0
      }
    },
    {
      "type": "Feature",
      "geometry": {
        "type": "Point",
        "coordinates": [
          14.1148,
          44.1233
        ]
      },
      "properties": {
        "icao24": "407fac",
        "callsign": "TOM373",
        "origin_country": "United Kingdom",
        "time_position": 1779926833,
        "last_contact": 1779926833,
        "baro_altitude": 10972.8,
        "on_ground": false,
        "velocity": 222.38,
        "true_track": 302.15,
        "vertical_rate": 0,
        "geo_altitude": 11399.52,
        "squawk": "2046",
        "spi": false,
        "position_source": 0
      }
    },
    {
      "type": "Feature",
      "geometry": {
        "type": "Point",
        "coordinates": [
          8.4463,
          47.1844
        ]
      },
      "properties": {
        "icao24": "4b3305",
        "callsign": "RGA01",
        "origin_country": "Switzerland",
        "time_position": 1779926829,
        "last_contact": 1779926829,
        "baro_altitude": null,
        "on_ground": true,
        "velocity": 0,
        "true_track": 171.56,
        "vertical_rate": null,
        "geo_altitude": null,
        "squawk": "7100",
        "spi": false,
        "position_source": 0
      }
    },
    {
      "type": "Feature",
      "geometry": {
        "type": "Point",
        "coordinates": [
          15.2422,
          35.7061
        ]
      },
      "properties": {
        "icao24": "4ba930",
        "callsign": "THY523",
        "origin_country": "Turkey",
        "time_position": 1779926832,
        "last_contact": 1779926833,
        "baro_altitude": 11582.4,
        "on_ground": false,
        "velocity": 221.52,
        "true_track": 50.65,
        "vertical_rate": 0,
        "geo_altitude": 12001.5,
        "squawk": "4104",
        "spi": false,
        "position_source": 0
      }
    },
    {
      "type": "Feature",
      "geometry": {
        "type": "Point",
        "coordinates": [
          16.8594,
          45.3327
        ]
      },
      "properties": {
        "icao24": "040249",
        "callsign": "ETH3706",
        "origin_country": "Ethiopia",
        "time_position": 1779926833,
        "last_contact": 1779926833,
        "baro_altitude": 10972.8,
        "on_ground": false,
        "velocity": 210.63,
        "true_track": 314.51,
        "vertical_rate": 0,
        "geo_altitude": 11346.18,
        "squawk": "5531",
        "spi": false,
        "position_source": 0
      }
    },
    {
      "type": "Feature",
      "geometry": {
        "type": "Point",
        "coordinates": [
          8.4521,
          47.5195
        ]
      },
      "properties": {
        "icao24": "406caa",
        "callsign": "EXS64RT",
        "origin_country": "United Kingdom",
        "time_position": 1779926833,
        "last_contact": 1779926833,
        "baro_altitude": 11582.4,
        "on_ground": false,
        "velocity": 216.88,
        "true_track": 303.88,
        "vertical_rate": 0,
        "geo_altitude": 12001.5,
        "squawk": "7510",
        "spi": false,
        "position_source": 0
      }
    },
    {
      "type": "Feature",
      "geometry": {
        "type": "Point",
        "coordinates": [
          12.6277,
          45.5212
        ]
      },
      "properties": {
        "icao24": "407e7b",
        "callsign": "TOM503",
        "origin_country": "United Kingdom",
        "time_position": 1779926833,
        "last_contact": 1779926833,
        "baro_altitude": 11887.2,
        "on_ground": false,
        "velocity": 216.51,
        "true_track": 301.2,
        "vertical_rate": 0,
        "geo_altitude": 12306.3,
        "squawk": "2065",
        "spi": false,
        "position_source": 0
      }
    },
    {
      "type": "Feature",
      "geometry": {
        "type": "Point",
        "coordinates": [
          12.9429,
          42.1243
        ]
      },
      "properties": {
        "icao24": "71c391",
        "callsign": "KAL922",
        "origin_country": "Republic of Korea",
        "time_position": 1779926833,
        "last_contact": 1779926833,
        "baro_altitude": 10965.18,
        "on_ground": false,
        "velocity": 250.3,
        "true_track": 75.48,
        "vertical_rate": -0.33,
        "geo_altitude": 11422.38,
        "squawk": "1160",
        "spi": false,
        "position_source": 0
      }
    },
    {
      "type": "Feature",
      "geometry": {
        "type": "Point",
        "coordinates": [
          12.6714,
          45.4368
        ]
      },
      "properties": {
        "icao24": "407f96",
        "callsign": "TOM3CB",
        "origin_country": "United Kingdom",
        "time_position": 1779926833,
        "last_contact": 1779926833,
        "baro_altitude": 12192,
        "on_ground": false,
        "velocity": 218.03,
        "true_track": 307.33,
        "vertical_rate": -0.33,
        "geo_altitude": 12603.48,
        "squawk": "2076",
        "spi": false,
        "position_source": 0
      }
    },
    {
      "type": "Feature",
      "geometry": {
        "type": "Point",
        "coordinates": [
          13.3062,
          39.3905
        ]
      },
      "properties": {
        "icao24": "3444cc",
        "callsign": "VLG1595",
        "origin_country": "Spain",
        "time_position": 1779926833,
        "last_contact": 1779926833,
        "baro_altitude": 10965.18,
        "on_ground": false,
        "velocity": 224.5,
        "true_track": 291.51,
        "vertical_rate": 0,
        "geo_altitude": 11414.76,
        "squawk": "5510",
        "spi": false,
        "position_source": 0
      }
    },
    {
      "type": "Feature",
      "geometry": {
        "type": "Point",
        "coordinates": [
          14.5573,
          46.0162
        ]
      },
      "properties": {
        "icao24": "407c0a",
        "callsign": "TOM223",
        "origin_country": "United Kingdom",
        "time_position": 1779926833,
        "last_contact": 1779926833,
        "baro_altitude": 10972.8,
        "on_ground": false,
        "velocity": 215.66,
        "true_track": 310.45,
        "vertical_rate": 0,
        "geo_altitude": 11376.66,
        "squawk": "5361",
        "spi": false,
        "position_source": 0
      }
    },
    {
      "type": "Feature",
      "geometry": {
        "type": "Point",
        "coordinates": [
          11.9759,
          45.9013
        ]
      },
      "properties": {
        "icao24": "407ac6",
        "callsign": "TOM565",
        "origin_country": "United Kingdom",
        "time_position": 1779926833,
        "last_contact": 1779926833,
        "baro_altitude": 10972.8,
        "on_ground": false,
        "velocity": 216.03,
        "true_track": 303.05,
        "vertical_rate": 0,
        "geo_altitude": 11384.28,
        "squawk": "5354",
        "spi": false,
        "position_source": 0
      }
    },
    {
      "type": "Feature",
      "geometry": {
        "type": "Point",
        "coordinates": [
          10.4004,
          40.3087
        ]
      },
      "properties": {
        "icao24": "4bb867",
        "callsign": "PGT1562",
        "origin_country": "Turkey",
        "time_position": 1779926833,
        "last_contact": 1779926833,
        "baro_altitude": 11582.4,
        "on_ground": false,
        "velocity": 230.85,
        "true_track": 100.66,
        "vertical_rate": 0,
        "geo_altitude": 12054.84,
        "squawk": "1171",
        "spi": false,
        "position_source": 0
      }
    },
    {
      "type": "Feature",
      "geometry": {
        "type": "Point",
        "coordinates": [
          8.5656,
          47.4552
        ]
      },
      "properties": {
        "icao24": "4b1805",
        "callsign": "SWR",
        "origin_country": "Switzerland",
        "time_position": 1779926819,
        "last_contact": 1779926830,
        "baro_altitude": null,
        "on_ground": true,
        "velocity": 0,
        "true_track": 129.38,
        "vertical_rate": null,
        "geo_altitude": null,
        "squawk": "2000",
        "spi": false,
        "position_source": 0
      }
    },
    {
      "type": "Feature",
      "geometry": {
        "type": "Point",
        "coordinates": [
          10.836,
          46.3857
        ]
      },
      "properties": {
        "icao24": "40820e",
        "callsign": "EXS59WJ",
        "origin_country": "United Kingdom",
        "time_position": 1779926832,
        "last_contact": 1779926833,
        "baro_altitude": 10988.04,
        "on_ground": false,
        "velocity": 216.01,
        "true_track": 305.7,
        "vertical_rate": 0.33,
        "geo_altitude": 11422.38,
        "squawk": "2026",
        "spi": false,
        "position_source": 0
      }
    },
    {
      "type": "Feature",
      "geometry": {
        "type": "Point",
        "coordinates": [
          8.2579,
          47.1533
        ]
      },
      "properties": {
        "icao24": "4080e2",
        "callsign": "EXS60P",
        "origin_country": "United Kingdom",
        "time_position": 1779926833,
        "last_contact": 1779926833,
        "baro_altitude": 10972.8,
        "on_ground": false,
        "velocity": 209.68,
        "true_track": 299.71,
        "vertical_rate": 0,
        "geo_altitude": 11384.28,
        "squawk": "2740",
        "spi": false,
        "position_source": 0
      }
    },
    {
      "type": "Feature",
      "geometry": {
        "type": "Point",
        "coordinates": [
          18.2593,
          40.9705
        ]
      },
      "properties": {
        "icao24": "408183",
        "callsign": "EZY54ZP",
        "origin_country": "United Kingdom",
        "time_position": 1779926833,
        "last_contact": 1779926833,
        "baro_altitude": 11582.4,
        "on_ground": false,
        "velocity": 220.64,
        "true_track": 322.01,
        "vertical_rate": 0.33,
        "geo_altitude": 11978.64,
        "squawk": "5521",
        "spi": false,
        "position_source": 0
      }
    },
    {
      "type": "Feature",
      "geometry": {
        "type": "Point",
        "coordinates": [
          6.6336,
          44.7228
        ]
      },
      "properties": {
        "icao24": "40815c",
        "callsign": "EZY93NQ",
        "origin_country": "United Kingdom",
        "time_position": 1779926832,
        "last_contact": 1779926833,
        "baro_altitude": 11582.4,
        "on_ground": false,
        "velocity": 222.24,
        "true_track": 323,
        "vertical_rate": -0.33,
        "geo_altitude": 12054.84,
        "squawk": "4017",
        "spi": false,
        "position_source": 0
      }
    },
    {
      "type": "Feature",
      "geometry": {
        "type": "Point",
        "coordinates": [
          12.5139,
          40.8985
        ]
      },
      "properties": {
        "icao24": "4246b3",
        "callsign": "AZG6117",
        "origin_country": "United Kingdom",
        "time_position": 1779926833,
        "last_contact": 1779926833,
        "baro_altitude": 10363.2,
        "on_ground": false,
        "velocity": 251.59,
        "true_track": 270.82,
        "vertical_rate": 0,
        "geo_altitude": 10797.54,
        "squawk": "5525",
        "spi": false,
        "position_source": 0
      }
    },
    {
      "type": "Feature",
      "geometry": {
        "type": "Point",
        "coordinates": [
          13.8742,
          46.4459
        ]
      },
      "properties": {
        "icao24": "408034",
        "callsign": "EXS3868",
        "origin_country": "United Kingdom",
        "time_position": 1779926833,
        "last_contact": 1779926833,
        "baro_altitude": 11582.4,
        "on_ground": false,
        "velocity": 204.65,
        "true_track": 309.49,
        "vertical_rate": -0.33,
        "geo_altitude": 11993.88,
        "squawk": "5524",
        "spi": false,
        "position_source": 0
      }
    },
    {
      "type": "Feature",
      "geometry": {
        "type": "Point",
        "coordinates": [
          8.5347,
          47.483
        ]
      },
      "properties": {
        "icao24": "4b5c18",
        "callsign": "GUIDO13",
        "origin_country": "Switzerland",
        "time_position": 1779926832,
        "last_contact": 1779926832,
        "baro_altitude": null,
        "on_ground": true,
        "velocity": 4.89,
        "true_track": 213.75,
        "vertical_rate": null,
        "geo_altitude": null,
        "squawk": null,
        "spi": false,
        "position_source": 0
      }
    },
    {
      "type": "Feature",
      "geometry": {
        "type": "Point",
        "coordinates": [
          8.5525,
          47.4454
        ]
      },
      "properties": {
        "icao24": "4b5c51",
        "callsign": "FLORI512",
        "origin_country": "Switzerland",
        "time_position": 1779926827,
        "last_contact": 1779926833,
        "baro_altitude": null,
        "on_ground": true,
        "velocity": 0.06,
        "true_track": 331.88,
        "vertical_rate": null,
        "geo_altitude": null,
        "squawk": "7776",
        "spi": false,
        "position_source": 0
      }
    },
    {
      "type": "Feature",
      "geometry": {
        "type": "Point",
        "coordinates": [
          16.6574,
          45.0308
        ]
      },
      "properties": {
        "icao24": "495065",
        "callsign": "AIZ991",
        "origin_country": "Portugal",
        "time_position": 1779926832,
        "last_contact": 1779926832,
        "baro_altitude": 10972.8,
        "on_ground": false,
        "velocity": 220.4,
        "true_track": 309.41,
        "vertical_rate": 0,
        "geo_altitude": 11361.42,
        "squawk": "2247",
        "spi": false,
        "position_source": 0
      }
    },
    {
      "type": "Feature",
      "geometry": {
        "type": "Point",
        "coordinates": [
          14.6286,
          37.6112
        ]
      },
      "properties": {
        "icao24": "4ca82b",
        "callsign": "MSA92C",
        "origin_country": "Ireland",
        "time_position": 1779926831,
        "last_contact": 1779926832,
        "baro_altitude": 2468.88,
        "on_ground": false,
        "velocity": 154.89,
        "true_track": 171.79,
        "vertical_rate": -11.7,
        "geo_altitude": 2667,
        "squawk": "7467",
        "spi": false,
        "position_source": 0
      }
    },
    {
      "type": "Feature",
      "geometry": {
        "type": "Point",
        "coordinates": [
          18.2384,
          46.3233
        ]
      },
      "properties": {
        "icao24": "4bce09",
        "callsign": "SXS2GA",
        "origin_country": "Turkey",
        "time_position": 1779926833,
        "last_contact": 1779926833,
        "baro_altitude": 11277.6,
        "on_ground": false,
        "velocity": 254.61,
        "true_track": 128.93,
        "vertical_rate": 0,
        "geo_altitude": 11628.12,
        "squawk": "7665",
        "spi": false,
        "position_source": 0
      }
    },
    {
      "type": "Feature",
      "geometry": {
        "type": "Point",
        "coordinates": [
          9.0709,
          47.2345
        ]
      },
      "properties": {
        "icao24": "4075af",
        "callsign": "EXS14JP",
        "origin_country": "United Kingdom",
        "time_position": 1779926832,
        "last_contact": 1779926832,
        "baro_altitude": 11582.4,
        "on_ground": false,
        "velocity": 214.46,
        "true_track": 304.15,
        "vertical_rate": 0.33,
        "geo_altitude": 11993.88,
        "squawk": "2755",
        "spi": false,
        "position_source": 0
      }
    },
    {
      "type": "Feature",
      "geometry": {
        "type": "Point",
        "coordinates": [
          7.7355,
          47.5864
        ]
      },
      "properties": {
        "icao24": "407687",
        "callsign": "EZY98FB",
        "origin_country": "United Kingdom",
        "time_position": 1779926832,
        "last_contact": 1779926833,
        "baro_altitude": 11567.16,
        "on_ground": false,
        "velocity": 214.17,
        "true_track": 304.03,
        "vertical_rate": 0,
        "geo_altitude": 11986.26,
        "squawk": "7523",
        "spi": false,
        "position_source": 0
      }
    },
    {
      "type": "Feature",
      "geometry": {
        "type": "Point",
        "coordinates": [
          12.2193,
          38.8977
        ]
      },
      "properties": {
        "icao24": "4cafca",
        "callsign": "MSA61P",
        "origin_country": "Ireland",
        "time_position": 1779926822,
        "last_contact": 1779926831,
        "baro_altitude": 6781.8,
        "on_ground": false,
        "velocity": 210.12,
        "true_track": 140.46,
        "vertical_rate": -13.33,
        "geo_altitude": 7086.6,
        "squawk": null,
        "spi": false,
        "position_source": 0
      }
    },
    {
      "type": "Feature",
      "geometry": {
        "type": "Point",
        "coordinates": [
          14.3951,
          46.2091
        ]
      },
      "properties": {
        "icao24": "01024b",
        "callsign": "MSC2918",
        "origin_country": "Egypt",
        "time_position": 1779926832,
        "last_contact": 1779926833,
        "baro_altitude": 10988.04,
        "on_ground": false,
        "velocity": 215.35,
        "true_track": 314.81,
        "vertical_rate": 0,
        "geo_altitude": 11399.52,
        "squawk": "1133",
        "spi": false,
        "position_source": 0
      }
    },
    {
      "type": "Feature",
      "geometry": {
        "type": "Point",
        "coordinates": [
          8.2876,
          47.6462
        ]
      },
      "properties": {
        "icao24": "407795",
        "callsign": "EZY21FJ",
        "origin_country": "United Kingdom",
        "time_position": 1779926833,
        "last_contact": 1779926833,
        "baro_altitude": 11590.02,
        "on_ground": false,
        "velocity": 216.34,
        "true_track": 301.38,
        "vertical_rate": 0,
        "geo_altitude": 12001.5,
        "squawk": "2276",
        "spi": false,
        "position_source": 0
      }
    },
    {
      "type": "Feature",
      "geometry": {
        "type": "Point",
        "coordinates": [
          9.7127,
          45.1856
        ]
      },
      "properties": {
        "icao24": "3007e2",
        "callsign": "IRJAH",
        "origin_country": "Italy",
        "time_position": 1779926833,
        "last_contact": 1779926833,
        "baro_altitude": 579.12,
        "on_ground": false,
        "velocity": 67.31,
        "true_track": 44.07,
        "vertical_rate": 0,
        "geo_altitude": 678.18,
        "squawk": "4605",
        "spi": false,
        "position_source": 0
      }
    },
    {
      "type": "Feature",
      "geometry": {
        "type": "Point",
        "coordinates": [
          12.7991,
          44.4224
        ]
      },
      "properties": {
        "icao24": "0101e0",
        "callsign": "MSR981",
        "origin_country": "Egypt",
        "time_position": 1779926833,
        "last_contact": 1779926833,
        "baro_altitude": 10965.18,
        "on_ground": false,
        "velocity": 234.14,
        "true_track": 319.1,
        "vertical_rate": -0.65,
        "geo_altitude": 11399.52,
        "squawk": "2010",
        "spi": false,
        "position_source": 0
      }
    },
    {
      "type": "Feature",
      "geometry": {
        "type": "Point",
        "coordinates": [
          13.3363,
          38.1226
        ]
      },
      "properties": {
        "icao24": "4caeca",
        "callsign": "RYR6JX",
        "origin_country": "Ireland",
        "time_position": 1779926833,
        "last_contact": 1779926833,
        "baro_altitude": 11887.2,
        "on_ground": false,
        "velocity": 235.69,
        "true_track": 165.72,
        "vertical_rate": 0,
        "geo_altitude": 12321.54,
        "squawk": "0270",
        "spi": false,
        "position_source": 0
      }
    },
    {
      "type": "Feature",
      "geometry": {
        "type": "Point",
        "coordinates": [
          10.4488,
          47.1133
        ]
      },
      "properties": {
        "icao24": "347257",
        "callsign": "VOE735",
        "origin_country": "Spain",
        "time_position": 1779926832,
        "last_contact": 1779926832,
        "baro_altitude": 10995.66,
        "on_ground": false,
        "velocity": 232.79,
        "true_track": 139.48,
        "vertical_rate": -3.58,
        "geo_altitude": 11422.38,
        "squawk": "5647",
        "spi": false,
        "position_source": 0
      }
    },
    {
      "type": "Feature",
      "geometry": {
        "type": "Point",
        "coordinates": [
          7.2147,
          43.6636
        ]
      },
      "properties": {
        "icao24": "3961e4",
        "callsign": "EUP007",
        "origin_country": "France",
        "time_position": 1779926833,
        "last_contact": 1779926833,
        "baro_altitude": null,
        "on_ground": true,
        "velocity": 6.43,
        "true_track": 241.88,
        "vertical_rate": null,
        "geo_altitude": null,
        "squawk": "1000",
        "spi": false,
        "position_source": 0
      }
    },
    {
      "type": "Feature",
      "geometry": {
        "type": "Point",
        "coordinates": [
          8.8759,
          45.7852
        ]
      },
      "properties": {
        "icao24": "4caca2",
        "callsign": "ABR177",
        "origin_country": "Ireland",
        "time_position": 1779926833,
        "last_contact": 1779926833,
        "baro_altitude": 3619.5,
        "on_ground": false,
        "velocity": 96.64,
        "true_track": 17.66,
        "vertical_rate": 6.5,
        "geo_altitude": 3863.34,
        "squawk": "1000",
        "spi": false,
        "position_source": 0
      }
    },
    {
      "type": "Feature",
      "geometry": {
        "type": "Point",
        "coordinates": [
          8.7206,
          45.609
        ]
      },
      "properties": {
        "icao24": "348358",
        "callsign": "BCS136",
        "origin_country": "Spain",
        "time_position": 1779926661,
        "last_contact": 1779926661,
        "baro_altitude": null,
        "on_ground": true,
        "velocity": 0,
        "true_track": 258.75,
        "vertical_rate": null,
        "geo_altitude": null,
        "squawk": "1000",
        "spi": false,
        "position_source": 0
      }
    },
    {
      "type": "Feature",
      "geometry": {
        "type": "Point",
        "coordinates": [
          18.5904,
          42.1083
        ]
      },
      "properties": {
        "icao24": "4d21d7",
        "callsign": "ULC10",
        "origin_country": "Malta",
        "time_position": 1779926833,
        "last_contact": 1779926833,
        "baro_altitude": 13708.38,
        "on_ground": false,
        "velocity": 233.13,
        "true_track": 282.75,
        "vertical_rate": -0.33,
        "geo_altitude": 14081.76,
        "squawk": "3203",
        "spi": false,
        "position_source": 0
      }
    },
    {
      "type": "Feature",
      "geometry": {
        "type": "Point",
        "coordinates": [
          17.272,
          38.9269
        ]
      },
      "properties": {
        "icao24": "4d21e6",
        "callsign": "BBG253",
        "origin_country": "Malta",
        "time_position": 1779926833,
        "last_contact": 1779926833,
        "baro_altitude": 11277.6,
        "on_ground": false,
        "velocity": 227.75,
        "true_track": 106.27,
        "vertical_rate": 0,
        "geo_altitude": 11681.46,
        "squawk": "4316",
        "spi": false,
        "position_source": 0
      }
    },
    {
      "type": "Feature",
      "geometry": {
        "type": "Point",
        "coordinates": [
          15.6221,
          46.2295
        ]
      },
      "properties": {
        "icao24": "408346",
        "callsign": "EXS18QH",
        "origin_country": "United Kingdom",
        "time_position": 1779926833,
        "last_contact": 1779926833,
        "baro_altitude": 11582.4,
        "on_ground": false,
        "velocity": 207.23,
        "true_track": 306.22,
        "vertical_rate": 0.33,
        "geo_altitude": 11971.02,
        "squawk": "5327",
        "spi": false,
        "position_source": 0
      }
    },
    {
      "type": "Feature",
      "geometry": {
        "type": "Point",
        "coordinates": [
          7.2284,
          43.6718
        ]
      },
      "properties": {
        "icao24": "4d207f",
        "callsign": "VJT732",
        "origin_country": "Malta",
        "time_position": 1779926825,
        "last_contact": 1779926830,
        "baro_altitude": null,
        "on_ground": true,
        "velocity": 0,
        "true_track": 45,
        "vertical_rate": null,
        "geo_altitude": null,
        "squawk": "1000",
        "spi": false,
        "position_source": 0
      }
    },
    {
      "type": "Feature",
      "geometry": {
        "type": "Point",
        "coordinates": [
          15.2131,
          44.685
        ]
      },
      "properties": {
        "icao24": "4081aa",
        "callsign": "EXS6V",
        "origin_country": "United Kingdom",
        "time_position": 1779926833,
        "last_contact": 1779926833,
        "baro_altitude": 10965.18,
        "on_ground": false,
        "velocity": 209.47,
        "true_track": 294.68,
        "vertical_rate": -0.33,
        "geo_altitude": 11376.66,
        "squawk": "1142",
        "spi": false,
        "position_source": 0
      }
    },
    {
      "type": "Feature",
      "geometry": {
        "type": "Point",
        "coordinates": [
          14.0553,
          47.3667
        ]
      },
      "properties": {
        "icao24": "407179",
        "callsign": "EXS57MA",
        "origin_country": "United Kingdom",
        "time_position": 1779926833,
        "last_contact": 1779926833,
        "baro_altitude": 10972.8,
        "on_ground": false,
        "velocity": 207.71,
        "true_track": 315.3,
        "vertical_rate": 0,
        "geo_altitude": 11353.8,
        "squawk": "5603",
        "spi": false,
        "position_source": 0
      }
    },
    {
      "type": "Feature",
      "geometry": {
        "type": "Point",
        "coordinates": [
          8.5594,
          47.4533
        ]
      },
      "properties": {
        "icao24": "4b17e3",
        "callsign": "SWR",
        "origin_country": "Switzerland",
        "time_position": 1779926772,
        "last_contact": 1779926786,
        "baro_altitude": null,
        "on_ground": true,
        "velocity": 0,
        "true_track": 5.62,
        "vertical_rate": null,
        "geo_altitude": null,
        "squawk": null,
        "spi": false,
        "position_source": 0
      }
    },
    {
      "type": "Feature",
      "geometry": {
        "type": "Point",
        "coordinates": [
          8.5612,
          47.442
        ]
      },
      "properties": {
        "icao24": "4b17fa",
        "callsign": "SWR",
        "origin_country": "Switzerland",
        "time_position": 1779926831,
        "last_contact": 1779926831,
        "baro_altitude": null,
        "on_ground": true,
        "velocity": 0,
        "true_track": 244.69,
        "vertical_rate": null,
        "geo_altitude": null,
        "squawk": "2000",
        "spi": false,
        "position_source": 0
      }
    }
  ]
}