{
  "type": "FeatureCollection",
  "source": "opensky",
  "dataset": "aircraft_italy",
  "generated_at": "2026-07-13T01:08:20.872113+00:00",
  "opensky_time": 1783904900,
  "count": 96,
  "features": [
    {
      "type": "Feature",
      "geometry": {
        "type": "Point",
        "coordinates": [
          6.3858,
          40.7008
        ]
      },
      "properties": {
        "icao24": "46b82c",
        "callsign": "AEE713",
        "origin_country": "Greece",
        "time_position": 1783904899,
        "last_contact": 1783904899,
        "baro_altitude": 10980.42,
        "on_ground": false,
        "velocity": 253.33,
        "true_track": 98.53,
        "vertical_rate": 0,
        "geo_altitude": 11650.98,
        "squawk": "1421",
        "spi": false,
        "position_source": 0
      }
    },
    {
      "type": "Feature",
      "geometry": {
        "type": "Point",
        "coordinates": [
          7.9406,
          40.5464
        ]
      },
      "properties": {
        "icao24": "46b827",
        "callsign": "AEE3EM",
        "origin_country": "Greece",
        "time_position": 1783904899,
        "last_contact": 1783904899,
        "baro_altitude": 10972.8,
        "on_ground": false,
        "velocity": 250.2,
        "true_track": 98.51,
        "vertical_rate": 0,
        "geo_altitude": 11635.74,
        "squawk": "1440",
        "spi": false,
        "position_source": 0
      }
    },
    {
      "type": "Feature",
      "geometry": {
        "type": "Point",
        "coordinates": [
          11.4973,
          43.9999
        ]
      },
      "properties": {
        "icao24": "471f6a",
        "callsign": "WZZ299",
        "origin_country": "Hungary",
        "time_position": 1783904900,
        "last_contact": 1783904900,
        "baro_altitude": 10355.58,
        "on_ground": false,
        "velocity": 261.92,
        "true_track": 88.65,
        "vertical_rate": 0,
        "geo_altitude": 10904.22,
        "squawk": "0404",
        "spi": false,
        "position_source": 0
      }
    },
    {
      "type": "Feature",
      "geometry": {
        "type": "Point",
        "coordinates": [
          7.0631,
          37.2715
        ]
      },
      "properties": {
        "icao24": "344446",
        "callsign": "AEA1116",
        "origin_country": "Spain",
        "time_position": 1783904897,
        "last_contact": 1783904897,
        "baro_altitude": 11277.6,
        "on_ground": false,
        "velocity": 219.47,
        "true_track": 289.16,
        "vertical_rate": 0,
        "geo_altitude": 11993.88,
        "squawk": null,
        "spi": false,
        "position_source": 0
      }
    },
    {
      "type": "Feature",
      "geometry": {
        "type": "Point",
        "coordinates": [
          18.9046,
          39.3629
        ]
      },
      "properties": {
        "icao24": "801612",
        "callsign": "AIC101",
        "origin_country": "India",
        "time_position": 1783904900,
        "last_contact": 1783904900,
        "baro_altitude": 12192,
        "on_ground": false,
        "velocity": 239.47,
        "true_track": 313.26,
        "vertical_rate": 0,
        "geo_altitude": 12801.6,
        "squawk": "7731",
        "spi": false,
        "position_source": 0
      }
    },
    {
      "type": "Feature",
      "geometry": {
        "type": "Point",
        "coordinates": [
          18.8894,
          41.9221
        ]
      },
      "properties": {
        "icao24": "471f02",
        "callsign": "WMT3318",
        "origin_country": "Hungary",
        "time_position": 1783904745,
        "last_contact": 1783904750,
        "baro_altitude": 4084.32,
        "on_ground": false,
        "velocity": 160.68,
        "true_track": 114.6,
        "vertical_rate": -4.88,
        "geo_altitude": 4312.92,
        "squawk": "0467",
        "spi": false,
        "position_source": 0
      }
    },
    {
      "type": "Feature",
      "geometry": {
        "type": "Point",
        "coordinates": [
          8.7808,
          45.4597
        ]
      },
      "properties": {
        "icao24": "4401e9",
        "callsign": "EJU19FC",
        "origin_country": "Austria",
        "time_position": 1783904899,
        "last_contact": 1783904899,
        "baro_altitude": 1082.04,
        "on_ground": false,
        "velocity": 102.69,
        "true_track": 346.38,
        "vertical_rate": -4.88,
        "geo_altitude": 1226.82,
        "squawk": "6624",
        "spi": false,
        "position_source": 0
      }
    },
    {
      "type": "Feature",
      "geometry": {
        "type": "Point",
        "coordinates": [
          10.9173,
          36.6694
        ]
      },
      "properties": {
        "icao24": "4bc887",
        "callsign": "PGT652",
        "origin_country": "Turkey",
        "time_position": 1783904900,
        "last_contact": 1783904900,
        "baro_altitude": 10668,
        "on_ground": false,
        "velocity": 256,
        "true_track": 95.88,
        "vertical_rate": 0,
        "geo_altitude": 11369.04,
        "squawk": null,
        "spi": false,
        "position_source": 0
      }
    },
    {
      "type": "Feature",
      "geometry": {
        "type": "Point",
        "coordinates": [
          17.0323,
          38.9555
        ]
      },
      "properties": {
        "icao24": "738061",
        "callsign": "ELY376",
        "origin_country": "Israel",
        "time_position": 1783904899,
        "last_contact": 1783904900,
        "baro_altitude": 11140.44,
        "on_ground": false,
        "velocity": 254.7,
        "true_track": 105.1,
        "vertical_rate": 5.85,
        "geo_altitude": 11696.7,
        "squawk": "1174",
        "spi": false,
        "position_source": 0
      }
    },
    {
      "type": "Feature",
      "geometry": {
        "type": "Point",
        "coordinates": [
          16.7248,
          46.8977
        ]
      },
      "properties": {
        "icao24": "440058",
        "callsign": "BCS7836",
        "origin_country": "Austria",
        "time_position": 1783904899,
        "last_contact": 1783904900,
        "baro_altitude": 9448.8,
        "on_ground": false,
        "velocity": 243.93,
        "true_track": 156.25,
        "vertical_rate": 0,
        "geo_altitude": 9845.04,
        "squawk": "4351",
        "spi": false,
        "position_source": 0
      }
    },
    {
      "type": "Feature",
      "geometry": {
        "type": "Point",
        "coordinates": [
          15.7264,
          43.3942
        ]
      },
      "properties": {
        "icao24": "440072",
        "callsign": "EJU67TU",
        "origin_country": "Austria",
        "time_position": 1783904898,
        "last_contact": 1783904899,
        "baro_altitude": 10980.42,
        "on_ground": false,
        "velocity": 202.92,
        "true_track": 302.68,
        "vertical_rate": -0.33,
        "geo_altitude": 11490.96,
        "squawk": "2050",
        "spi": false,
        "position_source": 0
      }
    },
    {
      "type": "Feature",
      "geometry": {
        "type": "Point",
        "coordinates": [
          14.8582,
          43.5554
        ]
      },
      "properties": {
        "icao24": "4891a6",
        "callsign": "ENT1341",
        "origin_country": "Poland",
        "time_position": 1783904899,
        "last_contact": 1783904900,
        "baro_altitude": 11887.2,
        "on_ground": false,
        "velocity": 238.38,
        "true_track": 205.57,
        "vertical_rate": -0.33,
        "geo_altitude": 12428.22,
        "squawk": "6037",
        "spi": false,
        "position_source": 0
      }
    },
    {
      "type": "Feature",
      "geometry": {
        "type": "Point",
        "coordinates": [
          15.8724,
          43.1172
        ]
      },
      "properties": {
        "icao24": "738102",
        "callsign": "ELY016",
        "origin_country": "Israel",
        "time_position": 1783904900,
        "last_contact": 1783904900,
        "baro_altitude": 12184.38,
        "on_ground": false,
        "velocity": 273.57,
        "true_track": 119.02,
        "vertical_rate": 0,
        "geo_altitude": 12733.02,
        "squawk": "0417",
        "spi": false,
        "position_source": 0
      }
    },
    {
      "type": "Feature",
      "geometry": {
        "type": "Point",
        "coordinates": [
          6.8785,
          40.973
        ]
      },
      "properties": {
        "icao24": "738100",
        "callsign": "ELY017",
        "origin_country": "Israel",
        "time_position": 1783904899,
        "last_contact": 1783904899,
        "baro_altitude": 10972.8,
        "on_ground": false,
        "velocity": 234.69,
        "true_track": 276.8,
        "vertical_rate": 0,
        "geo_altitude": 11628.12,
        "squawk": "4154",
        "spi": false,
        "position_source": 0
      }
    },
    {
      "type": "Feature",
      "geometry": {
        "type": "Point",
        "coordinates": [
          18.3903,
          47.5616
        ]
      },
      "properties": {
        "icao24": "452101",
        "callsign": "ADZ5868",
        "origin_country": "Bulgaria",
        "time_position": 1783904899,
        "last_contact": 1783904900,
        "baro_altitude": 10058.4,
        "on_ground": false,
        "velocity": 230.7,
        "true_track": 107.79,
        "vertical_rate": 0,
        "geo_altitude": 10439.4,
        "squawk": "1000",
        "spi": false,
        "position_source": 0
      }
    },
    {
      "type": "Feature",
      "geometry": {
        "type": "Point",
        "coordinates": [
          15.5284,
          45.2089
        ]
      },
      "properties": {
        "icao24": "4892c8",
        "callsign": "ENT4009",
        "origin_country": "Poland",
        "time_position": 1783904900,
        "last_contact": 1783904900,
        "baro_altitude": 11887.2,
        "on_ground": false,
        "velocity": 245.77,
        "true_track": 195.67,
        "vertical_rate": 0,
        "geo_altitude": 12397.74,
        "squawk": "6023",
        "spi": false,
        "position_source": 0
      }
    },
    {
      "type": "Feature",
      "geometry": {
        "type": "Point",
        "coordinates": [
          9.5783,
          44.7191
        ]
      },
      "properties": {
        "icao24": "7380c2",
        "callsign": "ELY028",
        "origin_country": "Israel",
        "time_position": 1783904899,
        "last_contact": 1783904900,
        "baro_altitude": 11879.58,
        "on_ground": false,
        "velocity": 273.64,
        "true_track": 100.51,
        "vertical_rate": 0,
        "geo_altitude": 12473.94,
        "squawk": "0412",
        "spi": false,
        "position_source": 0
      }
    },
    {
      "type": "Feature",
      "geometry": {
        "type": "Point",
        "coordinates": [
          15.6311,
          45.6529
        ]
      },
      "properties": {
        "icao24": "7380c3",
        "callsign": "ELY001",
        "origin_country": "Israel",
        "time_position": 1783904899,
        "last_contact": 1783904899,
        "baro_altitude": 10965.18,
        "on_ground": false,
        "velocity": 232.92,
        "true_track": 308.36,
        "vertical_rate": -0.33,
        "geo_altitude": 11437.62,
        "squawk": "2226",
        "spi": false,
        "position_source": 0
      }
    },
    {
      "type": "Feature",
      "geometry": {
        "type": "Point",
        "coordinates": [
          11.4596,
          40.0235
        ]
      },
      "properties": {
        "icao24": "7380c8",
        "callsign": "ELY010",
        "origin_country": "Israel",
        "time_position": 1783904900,
        "last_contact": 1783904900,
        "baro_altitude": 11887.2,
        "on_ground": false,
        "velocity": 274.44,
        "true_track": 101.9,
        "vertical_rate": -0.33,
        "geo_altitude": 12550.14,
        "squawk": "4312",
        "spi": false,
        "position_source": 0
      }
    },
    {
      "type": "Feature",
      "geometry": {
        "type": "Point",
        "coordinates": [
          18.937,
          47.2054
        ]
      },
      "properties": {
        "icao24": "7380ca",
        "callsign": "ELY005",
        "origin_country": "Israel",
        "time_position": 1783904900,
        "last_contact": 1783904900,
        "baro_altitude": 10355.58,
        "on_ground": false,
        "velocity": 235.94,
        "true_track": 322.53,
        "vertical_rate": 0.33,
        "geo_altitude": 10736.58,
        "squawk": "2236",
        "spi": false,
        "position_source": 0
      }
    },
    {
      "type": "Feature",
      "geometry": {
        "type": "Point",
        "coordinates": [
          11.1914,
          38.479
        ]
      },
      "properties": {
        "icao24": "739572",
        "callsign": "4XCMC",
        "origin_country": "Israel",
        "time_position": 1783904899,
        "last_contact": 1783904900,
        "baro_altitude": 11574.78,
        "on_ground": false,
        "velocity": 226.33,
        "true_track": 107.32,
        "vertical_rate": 0,
        "geo_altitude": 12260.58,
        "squawk": "1415",
        "spi": false,
        "position_source": 0
      }
    },
    {
      "type": "Feature",
      "geometry": {
        "type": "Point",
        "coordinates": [
          17.0354,
          38.8044
        ]
      },
      "properties": {
        "icao24": "4bb262",
        "callsign": "THY5LY",
        "origin_country": "Turkey",
        "time_position": 1783904899,
        "last_contact": 1783904899,
        "baro_altitude": 10668,
        "on_ground": false,
        "velocity": 238.98,
        "true_track": 71.68,
        "vertical_rate": 0,
        "geo_altitude": 11216.64,
        "squawk": "1267",
        "spi": false,
        "position_source": 0
      }
    },
    {
      "type": "Feature",
      "geometry": {
        "type": "Point",
        "coordinates": [
          12.3983,
          46.9947
        ]
      },
      "properties": {
        "icao24": "4066ce",
        "callsign": "TOM35M",
        "origin_country": "United Kingdom",
        "time_position": 1783904900,
        "last_contact": 1783904900,
        "baro_altitude": 11582.4,
        "on_ground": false,
        "velocity": 214.88,
        "true_track": 303.58,
        "vertical_rate": 0.33,
        "geo_altitude": 12085.32,
        "squawk": "5501",
        "spi": false,
        "position_source": 0
      }
    },
    {
      "type": "Feature",
      "geometry": {
        "type": "Point",
        "coordinates": [
          9.3209,
          39.9628
        ]
      },
      "properties": {
        "icao24": "02012b",
        "callsign": "MAC438",
        "origin_country": "Morocco",
        "time_position": 1783904899,
        "last_contact": 1783904899,
        "baro_altitude": 10668,
        "on_ground": false,
        "velocity": 217.76,
        "true_track": 265.53,
        "vertical_rate": 0,
        "geo_altitude": 11330.94,
        "squawk": "2332",
        "spi": false,
        "position_source": 0
      }
    },
    {
      "type": "Feature",
      "geometry": {
        "type": "Point",
        "coordinates": [
          9.9936,
          46.5622
        ]
      },
      "properties": {
        "icao24": "a49ae3",
        "callsign": "UPS260",
        "origin_country": "United States",
        "time_position": 1783904899,
        "last_contact": 1783904900,
        "baro_altitude": 8846.82,
        "on_ground": false,
        "velocity": 254.11,
        "true_track": 151.72,
        "vertical_rate": -0.33,
        "geo_altitude": 9296.4,
        "squawk": "0637",
        "spi": false,
        "position_source": 0
      }
    },
    {
      "type": "Feature",
      "geometry": {
        "type": "Point",
        "coordinates": [
          11.9605,
          46.3362
        ]
      },
      "properties": {
        "icao24": "4bb193",
        "callsign": "THY9LC",
        "origin_country": "Turkey",
        "time_position": 1783904900,
        "last_contact": 1783904900,
        "baro_altitude": 11277.6,
        "on_ground": false,
        "velocity": 270.59,
        "true_track": 107.37,
        "vertical_rate": -0.33,
        "geo_altitude": 11788.14,
        "squawk": "0266",
        "spi": false,
        "position_source": 0
      }
    },
    {
      "type": "Feature",
      "geometry": {
        "type": "Point",
        "coordinates": [
          10.2708,
          46.5597
        ]
      },
      "properties": {
        "icao24": "406666",
        "callsign": "EZY79TV",
        "origin_country": "United Kingdom",
        "time_position": 1783904899,
        "last_contact": 1783904899,
        "baro_altitude": 10972.8,
        "on_ground": false,
        "velocity": 201.2,
        "true_track": 304.58,
        "vertical_rate": 0,
        "geo_altitude": 11513.82,
        "squawk": "7513",
        "spi": false,
        "position_source": 0
      }
    },
    {
      "type": "Feature",
      "geometry": {
        "type": "Point",
        "coordinates": [
          12.1817,
          42.0363
        ]
      },
      "properties": {
        "icao24": "040188",
        "callsign": "ETH518",
        "origin_country": "Ethiopia",
        "time_position": 1783904899,
        "last_contact": 1783904899,
        "baro_altitude": 944.88,
        "on_ground": false,
        "velocity": 103.93,
        "true_track": 165.96,
        "vertical_rate": -1.95,
        "geo_altitude": 1074.42,
        "squawk": "2045",
        "spi": false,
        "position_source": 0
      }
    },
    {
      "type": "Feature",
      "geometry": {
        "type": "Point",
        "coordinates": [
          15.8869,
          40.5558
        ]
      },
      "properties": {
        "icao24": "040198",
        "callsign": "ETH500",
        "origin_country": "Ethiopia",
        "time_position": 1783904899,
        "last_contact": 1783904899,
        "baro_altitude": 12192,
        "on_ground": false,
        "velocity": 238.16,
        "true_track": 297.67,
        "vertical_rate": 0,
        "geo_altitude": 12786.36,
        "squawk": "6630",
        "spi": false,
        "position_source": 0
      }
    },
    {
      "type": "Feature",
      "geometry": {
        "type": "Point",
        "coordinates": [
          18.6555,
          46.0886
        ]
      },
      "properties": {
        "icao24": "4bcd84",
        "callsign": "SXS7GP",
        "origin_country": "Turkey",
        "time_position": 1783904899,
        "last_contact": 1783904899,
        "baro_altitude": 12192,
        "on_ground": false,
        "velocity": 215.66,
        "true_track": 309.39,
        "vertical_rate": -0.33,
        "geo_altitude": 12633.96,
        "squawk": "3216",
        "spi": false,
        "position_source": 0
      }
    },
    {
      "type": "Feature",
      "geometry": {
        "type": "Point",
        "coordinates": [
          16.761,
          35.8105
        ]
      },
      "properties": {
        "icao24": "040141",
        "callsign": "ETH740",
        "origin_country": "Ethiopia",
        "time_position": 1783904900,
        "last_contact": 1783904900,
        "baro_altitude": 11574.78,
        "on_ground": false,
        "velocity": 234.37,
        "true_track": 281.14,
        "vertical_rate": 0,
        "geo_altitude": 12252.96,
        "squawk": "5505",
        "spi": false,
        "position_source": 0
      }
    },
    {
      "type": "Feature",
      "geometry": {
        "type": "Point",
        "coordinates": [
          14.9452,
          40.8407
        ]
      },
      "properties": {
        "icao24": "71c083",
        "callsign": "KAL922",
        "origin_country": "Republic of Korea",
        "time_position": 1783904899,
        "last_contact": 1783904900,
        "baro_altitude": 10660.38,
        "on_ground": false,
        "velocity": 266.84,
        "true_track": 92.98,
        "vertical_rate": 0.33,
        "geo_altitude": 11224.26,
        "squawk": "2220",
        "spi": false,
        "position_source": 0
      }
    },
    {
      "type": "Feature",
      "geometry": {
        "type": "Point",
        "coordinates": [
          14.7111,
          41.1698
        ]
      },
      "properties": {
        "icao24": "040102",
        "callsign": "ETH574",
        "origin_country": "Ethiopia",
        "time_position": 1783904899,
        "last_contact": 1783904900,
        "baro_altitude": 11567.16,
        "on_ground": false,
        "velocity": 206.64,
        "true_track": 293.63,
        "vertical_rate": -8.45,
        "geo_altitude": 12146.28,
        "squawk": "2073",
        "spi": false,
        "position_source": 0
      }
    },
    {
      "type": "Feature",
      "geometry": {
        "type": "Point",
        "coordinates": [
          17.3733,
          39.7727
        ]
      },
      "properties": {
        "icao24": "040101",
        "callsign": "ETH552",
        "origin_country": "Ethiopia",
        "time_position": 1783904900,
        "last_contact": 1783904900,
        "baro_altitude": 11574.78,
        "on_ground": false,
        "velocity": 232.6,
        "true_track": 309.08,
        "vertical_rate": -0.33,
        "geo_altitude": 12153.9,
        "squawk": "5525",
        "spi": false,
        "position_source": 0
      }
    },
    {
      "type": "Feature",
      "geometry": {
        "type": "Point",
        "coordinates": [
          13.3955,
          46.5339
        ]
      },
      "properties": {
        "icao24": "407fac",
        "callsign": "TOM3TW",
        "origin_country": "United Kingdom",
        "time_position": 1783904899,
        "last_contact": 1783904899,
        "baro_altitude": 11582.4,
        "on_ground": false,
        "velocity": 215.89,
        "true_track": 304.22,
        "vertical_rate": 0,
        "geo_altitude": 12092.94,
        "squawk": "1151",
        "spi": false,
        "position_source": 0
      }
    },
    {
      "type": "Feature",
      "geometry": {
        "type": "Point",
        "coordinates": [
          15.2434,
          44.9128
        ]
      },
      "properties": {
        "icao24": "4ba94c",
        "callsign": "THY4JD",
        "origin_country": "Turkey",
        "time_position": 1783904899,
        "last_contact": 1783904899,
        "baro_altitude": 9144,
        "on_ground": false,
        "velocity": 231.97,
        "true_track": 283.2,
        "vertical_rate": 0,
        "geo_altitude": 9578.34,
        "squawk": "3263",
        "spi": false,
        "position_source": 0
      }
    },
    {
      "type": "Feature",
      "geometry": {
        "type": "Point",
        "coordinates": [
          18.4517,
          35.7402
        ]
      },
      "properties": {
        "icao24": "74482f",
        "callsign": "RJA517",
        "origin_country": "Jordan",
        "time_position": 1783904899,
        "last_contact": 1783904899,
        "baro_altitude": 9753.6,
        "on_ground": false,
        "velocity": 229.85,
        "true_track": 275.14,
        "vertical_rate": 0,
        "geo_altitude": 10332.72,
        "squawk": "5642",
        "spi": false,
        "position_source": 0
      }
    },
    {
      "type": "Feature",
      "geometry": {
        "type": "Point",
        "coordinates": [
          9.6357,
          38.7363
        ]
      },
      "properties": {
        "icao24": "49d13d",
        "callsign": "EWG8LZ",
        "origin_country": "Czech Republic",
        "time_position": 1783904900,
        "last_contact": 1783904900,
        "baro_altitude": 10393.68,
        "on_ground": false,
        "velocity": 216.86,
        "true_track": 346.56,
        "vertical_rate": 9.43,
        "geo_altitude": 11041.38,
        "squawk": "6131",
        "spi": false,
        "position_source": 0
      }
    },
    {
      "type": "Feature",
      "geometry": {
        "type": "Point",
        "coordinates": [
          10.3637,
          46.5005
        ]
      },
      "properties": {
        "icao24": "407f60",
        "callsign": "EZY8576",
        "origin_country": "United Kingdom",
        "time_position": 1783904899,
        "last_contact": 1783904899,
        "baro_altitude": 11582.4,
        "on_ground": false,
        "velocity": 202.12,
        "true_track": 298.59,
        "vertical_rate": 0.33,
        "geo_altitude": 12100.56,
        "squawk": "7530",
        "spi": false,
        "position_source": 0
      }
    },
    {
      "type": "Feature",
      "geometry": {
        "type": "Point",
        "coordinates": [
          13.4131,
          39.5687
        ]
      },
      "properties": {
        "icao24": "469dc1",
        "callsign": "SEH923",
        "origin_country": "Greece",
        "time_position": 1783904899,
        "last_contact": 1783904900,
        "baro_altitude": 11582.4,
        "on_ground": false,
        "velocity": 246.99,
        "true_track": 101.78,
        "vertical_rate": 0,
        "geo_altitude": 12222.48,
        "squawk": "2231",
        "spi": false,
        "position_source": 0
      }
    },
    {
      "type": "Feature",
      "geometry": {
        "type": "Point",
        "coordinates": [
          16.7581,
          45.7781
        ]
      },
      "properties": {
        "icao24": "440409",
        "callsign": "BCS7552",
        "origin_country": "Austria",
        "time_position": 1783904899,
        "last_contact": 1783904899,
        "baro_altitude": 11277.6,
        "on_ground": false,
        "velocity": 260.4,
        "true_track": 146.69,
        "vertical_rate": 0,
        "geo_altitude": 11750.04,
        "squawk": "6011",
        "spi": false,
        "position_source": 0
      }
    },
    {
      "type": "Feature",
      "geometry": {
        "type": "Point",
        "coordinates": [
          14.3593,
          47.2036
        ]
      },
      "properties": {
        "icao24": "4bb849",
        "callsign": "PGT23AG",
        "origin_country": "Turkey",
        "time_position": 1783904899,
        "last_contact": 1783904900,
        "baro_altitude": 11269.98,
        "on_ground": false,
        "velocity": 250.44,
        "true_track": 131.25,
        "vertical_rate": 0,
        "geo_altitude": 11750.04,
        "squawk": "7652",
        "spi": false,
        "position_source": 0
      }
    },
    {
      "type": "Feature",
      "geometry": {
        "type": "Point",
        "coordinates": [
          12.844,
          46.9815
        ]
      },
      "properties": {
        "icao24": "406a62",
        "callsign": "EXS1BL",
        "origin_country": "United Kingdom",
        "time_position": 1783904899,
        "last_contact": 1783904900,
        "baro_altitude": 11582.4,
        "on_ground": false,
        "velocity": 208.26,
        "true_track": 312.6,
        "vertical_rate": 0,
        "geo_altitude": 12085.32,
        "squawk": "2060",
        "spi": false,
        "position_source": 0
      }
    },
    {
      "type": "Feature",
      "geometry": {
        "type": "Point",
        "coordinates": [
          10.3012,
          39.5856
        ]
      },
      "properties": {
        "icao24": "80159f",
        "callsign": "AIC144",
        "origin_country": "India",
        "time_position": 1783904885,
        "last_contact": 1783904885,
        "baro_altitude": 10363.2,
        "on_ground": false,
        "velocity": 269.57,
        "true_track": 108.12,
        "vertical_rate": 0,
        "geo_altitude": 10995.66,
        "squawk": "1427",
        "spi": false,
        "position_source": 0
      }
    },
    {
      "type": "Feature",
      "geometry": {
        "type": "Point",
        "coordinates": [
          18.3908,
          36.4849
        ]
      },
      "properties": {
        "icao24": "407d22",
        "callsign": "EZY63MD",
        "origin_country": "United Kingdom",
        "time_position": 1783904899,
        "last_contact": 1783904899,
        "baro_altitude": 10386.06,
        "on_ground": false,
        "velocity": 220.02,
        "true_track": 304.14,
        "vertical_rate": -0.65,
        "geo_altitude": 10957.56,
        "squawk": null,
        "spi": false,
        "position_source": 0
      }
    },
    {
      "type": "Feature",
      "geometry": {
        "type": "Point",
        "coordinates": [
          15.6117,
          35.9655
        ]
      },
      "properties": {
        "icao24": "06a0b1",
        "callsign": "QTR99L",
        "origin_country": "Qatar",
        "time_position": 1783904899,
        "last_contact": 1783904899,
        "baro_altitude": 11887.2,
        "on_ground": false,
        "velocity": 281.29,
        "true_track": 100.86,
        "vertical_rate": -0.33,
        "geo_altitude": 12580.62,
        "squawk": "2235",
        "spi": false,
        "position_source": 0
      }
    },
    {
      "type": "Feature",
      "geometry": {
        "type": "Point",
        "coordinates": [
          17.8468,
          44.2474
        ]
      },
      "properties": {
        "icao24": "4a2182",
        "callsign": "HLJ3DF",
        "origin_country": "Romania",
        "time_position": 1783904900,
        "last_contact": 1783904900,
        "baro_altitude": 10668,
        "on_ground": false,
        "velocity": 257.67,
        "true_track": 155.84,
        "vertical_rate": 0,
        "geo_altitude": 11109.96,
        "squawk": "4133",
        "spi": false,
        "position_source": 0
      }
    },
    {
      "type": "Feature",
      "geometry": {
        "type": "Point",
        "coordinates": [
          9.8065,
          38.2112
        ]
      },
      "properties": {
        "icao24": "3c65d8",
        "callsign": "DLH1327",
        "origin_country": "Germany",
        "time_position": 1783904896,
        "last_contact": 1783904899,
        "baro_altitude": 9448.8,
        "on_ground": false,
        "velocity": 227.87,
        "true_track": 353.39,
        "vertical_rate": 7.8,
        "geo_altitude": 10088.88,
        "squawk": null,
        "spi": false,
        "position_source": 0
      }
    },
    {
      "type": "Feature",
      "geometry": {
        "type": "Point",
        "coordinates": [
          14.5446,
          36.9528
        ]
      },
      "properties": {
        "icao24": "4a09b2",
        "callsign": "AEZ2127",
        "origin_country": "Romania",
        "time_position": 1783904898,
        "last_contact": 1783904899,
        "baro_altitude": 510.54,
        "on_ground": false,
        "velocity": 65.8,
        "true_track": 50.71,
        "vertical_rate": -3.25,
        "geo_altitude": 586.74,
        "squawk": "5404",
        "spi": false,
        "position_source": 0
      }
    },
    {
      "type": "Feature",
      "geometry": {
        "type": "Point",
        "coordinates": [
          13.5182,
          39.2823
        ]
      },
      "properties": {
        "icao24": "3c5421",
        "callsign": "BCS230P",
        "origin_country": "Germany",
        "time_position": 1783904900,
        "last_contact": 1783904900,
        "baro_altitude": 10980.42,
        "on_ground": false,
        "velocity": 215.8,
        "true_track": 277.4,
        "vertical_rate": -0.33,
        "geo_altitude": 11612.88,
        "squawk": "2051",
        "spi": false,
        "position_source": 0
      }
    },
    {
      "type": "Feature",
      "geometry": {
        "type": "Point",
        "coordinates": [
          6.8866,
          37.4662
        ]
      },
      "properties": {
        "icao24": "3c6564",
        "callsign": "OCN133",
        "origin_country": "Germany",
        "time_position": 1783904899,
        "last_contact": 1783904899,
        "baro_altitude": 12192,
        "on_ground": false,
        "velocity": 239.89,
        "true_track": 4.3,
        "vertical_rate": 0,
        "geo_altitude": 12908.28,
        "squawk": null,
        "spi": false,
        "position_source": 0
      }
    },
    {
      "type": "Feature",
      "geometry": {
        "type": "Point",
        "coordinates": [
          17.3977,
          42.154
        ]
      },
      "properties": {
        "icao24": "02a1b0",
        "callsign": "LBT7678",
        "origin_country": "Tunisia",
        "time_position": 1783904899,
        "last_contact": 1783904899,
        "baro_altitude": 11224.26,
        "on_ground": false,
        "velocity": 231.45,
        "true_track": 26.39,
        "vertical_rate": 0.33,
        "geo_altitude": 11734.8,
        "squawk": "6142",
        "spi": false,
        "position_source": 0
      }
    },
    {
      "type": "Feature",
      "geometry": {
        "type": "Point",
        "coordinates": [
          16.639,
          38.7033
        ]
      },
      "properties": {
        "icao24": "0a0021",
        "callsign": "DAH3023",
        "origin_country": "Algeria",
        "time_position": 1783904899,
        "last_contact": 1783904899,
        "baro_altitude": 10972.8,
        "on_ground": false,
        "velocity": 225.48,
        "true_track": 251.65,
        "vertical_rate": 0,
        "geo_altitude": 11536.68,
        "squawk": "2301",
        "spi": false,
        "position_source": 0
      }
    },
    {
      "type": "Feature",
      "geometry": {
        "type": "Point",
        "coordinates": [
          8.5566,
          47.4519
        ]
      },
      "properties": {
        "icao24": "4b5d9b",
        "callsign": "ATL781",
        "origin_country": "Switzerland",
        "time_position": 1783904900,
        "last_contact": 1783904900,
        "baro_altitude": null,
        "on_ground": true,
        "velocity": 8.23,
        "true_track": 334.69,
        "vertical_rate": null,
        "geo_altitude": null,
        "squawk": null,
        "spi": false,
        "position_source": 0
      }
    },
    {
      "type": "Feature",
      "geometry": {
        "type": "Point",
        "coordinates": [
          8.9688,
          44.4564
        ]
      },
      "properties": {
        "icao24": "440c83",
        "callsign": "EJU3618",
        "origin_country": "Austria",
        "time_position": 1783904900,
        "last_contact": 1783904900,
        "baro_altitude": 6248.4,
        "on_ground": false,
        "velocity": 157.84,
        "true_track": 334.1,
        "vertical_rate": -2.6,
        "geo_altitude": 6659.88,
        "squawk": "1000",
        "spi": false,
        "position_source": 0
      }
    },
    {
      "type": "Feature",
      "geometry": {
        "type": "Point",
        "coordinates": [
          11.5384,
          36.4705
        ]
      },
      "properties": {
        "icao24": "05e054",
        "callsign": "MAI301",
        "origin_country": "Mauritania",
        "time_position": 1783904900,
        "last_contact": 1783904900,
        "baro_altitude": 7772.4,
        "on_ground": false,
        "velocity": 193.62,
        "true_track": 303.73,
        "vertical_rate": -7.15,
        "geo_altitude": 8282.94,
        "squawk": "6623",
        "spi": false,
        "position_source": 0
      }
    },
    {
      "type": "Feature",
      "geometry": {
        "type": "Point",
        "coordinates": [
          8.5462,
          47.452
        ]
      },
      "properties": {
        "icao24": "4b5d55",
        "callsign": "GALA7",
        "origin_country": "Switzerland",
        "time_position": 1783904890,
        "last_contact": 1783904894,
        "baro_altitude": null,
        "on_ground": true,
        "velocity": 0.06,
        "true_track": 168.75,
        "vertical_rate": null,
        "geo_altitude": null,
        "squawk": null,
        "spi": false,
        "position_source": 0
      }
    },
    {
      "type": "Feature",
      "geometry": {
        "type": "Point",
        "coordinates": [
          16.3202,
          45.0679
        ]
      },
      "properties": {
        "icao24": "408040",
        "callsign": "TOM805",
        "origin_country": "United Kingdom",
        "time_position": 1783904899,
        "last_contact": 1783904899,
        "baro_altitude": 11582.4,
        "on_ground": false,
        "velocity": 207.84,
        "true_track": 307.15,
        "vertical_rate": 0,
        "geo_altitude": 12062.46,
        "squawk": "5366",
        "spi": false,
        "position_source": 0
      }
    },
    {
      "type": "Feature",
      "geometry": {
        "type": "Point",
        "coordinates": [
          18.6806,
          42.7517
        ]
      },
      "properties": {
        "icao24": "408027",
        "callsign": "TOM203",
        "origin_country": "United Kingdom",
        "time_position": 1783904899,
        "last_contact": 1783904899,
        "baro_altitude": 11582.4,
        "on_ground": false,
        "velocity": 217.12,
        "true_track": 310.48,
        "vertical_rate": 0.33,
        "geo_altitude": 12077.7,
        "squawk": "5303",
        "spi": false,
        "position_source": 0
      }
    },
    {
      "type": "Feature",
      "geometry": {
        "type": "Point",
        "coordinates": [
          8.5587,
          47.453
        ]
      },
      "properties": {
        "icao24": "4b5c1c",
        "callsign": "URSULA9",
        "origin_country": "Switzerland",
        "time_position": 1783904895,
        "last_contact": 1783904895,
        "baro_altitude": null,
        "on_ground": true,
        "velocity": 2.83,
        "true_track": 272.81,
        "vertical_rate": null,
        "geo_altitude": null,
        "squawk": null,
        "spi": false,
        "position_source": 0
      }
    },
    {
      "type": "Feature",
      "geometry": {
        "type": "Point",
        "coordinates": [
          8.5538,
          47.4557
        ]
      },
      "properties": {
        "icao24": "4b5c1a",
        "callsign": "GUSTI2",
        "origin_country": "Switzerland",
        "time_position": 1783904899,
        "last_contact": 1783904899,
        "baro_altitude": null,
        "on_ground": true,
        "velocity": 15.95,
        "true_track": 149.06,
        "vertical_rate": null,
        "geo_altitude": null,
        "squawk": null,
        "spi": false,
        "position_source": 0
      }
    },
    {
      "type": "Feature",
      "geometry": {
        "type": "Point",
        "coordinates": [
          8.5522,
          47.4454
        ]
      },
      "properties": {
        "icao24": "4b5c66",
        "callsign": "EUGEN6",
        "origin_country": "Switzerland",
        "time_position": 1783904899,
        "last_contact": 1783904899,
        "baro_altitude": null,
        "on_ground": true,
        "velocity": 0.06,
        "true_track": 222.19,
        "vertical_rate": null,
        "geo_altitude": null,
        "squawk": null,
        "spi": false,
        "position_source": 0
      }
    },
    {
      "type": "Feature",
      "geometry": {
        "type": "Point",
        "coordinates": [
          8.5528,
          47.4458
        ]
      },
      "properties": {
        "icao24": "4b5c67",
        "callsign": "FLORIAN6",
        "origin_country": "Switzerland",
        "time_position": 1783904725,
        "last_contact": 1783904749,
        "baro_altitude": null,
        "on_ground": true,
        "velocity": 1.54,
        "true_track": 222.19,
        "vertical_rate": null,
        "geo_altitude": null,
        "squawk": null,
        "spi": false,
        "position_source": 0
      }
    },
    {
      "type": "Feature",
      "geometry": {
        "type": "Point",
        "coordinates": [
          8.5537,
          47.4463
        ]
      },
      "properties": {
        "icao24": "4b5c53",
        "callsign": "FLORIAN8",
        "origin_country": "Switzerland",
        "time_position": 1783904685,
        "last_contact": 1783904687,
        "baro_altitude": null,
        "on_ground": true,
        "velocity": 0.06,
        "true_track": 70.31,
        "vertical_rate": null,
        "geo_altitude": null,
        "squawk": null,
        "spi": false,
        "position_source": 0
      }
    },
    {
      "type": "Feature",
      "geometry": {
        "type": "Point",
        "coordinates": [
          8.5505,
          47.4545
        ]
      },
      "properties": {
        "icao24": "4b5c48",
        "callsign": "EUGEN15",
        "origin_country": "Switzerland",
        "time_position": 1783904897,
        "last_contact": 1783904897,
        "baro_altitude": null,
        "on_ground": true,
        "velocity": 0,
        "true_track": 199.69,
        "vertical_rate": null,
        "geo_altitude": null,
        "squawk": "2433",
        "spi": true,
        "position_source": 0
      }
    },
    {
      "type": "Feature",
      "geometry": {
        "type": "Point",
        "coordinates": [
          16.6505,
          46.2473
        ]
      },
      "properties": {
        "icao24": "4bcdf0",
        "callsign": "SXS79Y",
        "origin_country": "Turkey",
        "time_position": 1783904899,
        "last_contact": 1783904900,
        "baro_altitude": 11277.6,
        "on_ground": false,
        "velocity": 255.95,
        "true_track": 137.36,
        "vertical_rate": 0,
        "geo_altitude": 11727.18,
        "squawk": "4512",
        "spi": false,
        "position_source": 0
      }
    },
    {
      "type": "Feature",
      "geometry": {
        "type": "Point",
        "coordinates": [
          18.1001,
          44.9062
        ]
      },
      "properties": {
        "icao24": "4bcdf9",
        "callsign": "SXS9WA",
        "origin_country": "Turkey",
        "time_position": 1783904900,
        "last_contact": 1783904900,
        "baro_altitude": 11277.6,
        "on_ground": false,
        "velocity": 263.38,
        "true_track": 135.47,
        "vertical_rate": -0.33,
        "geo_altitude": 11719.56,
        "squawk": "7713",
        "spi": false,
        "position_source": 0
      }
    },
    {
      "type": "Feature",
      "geometry": {
        "type": "Point",
        "coordinates": [
          18.4313,
          46.3788
        ]
      },
      "properties": {
        "icao24": "4bcdce",
        "callsign": "SXS75K",
        "origin_country": "Turkey",
        "time_position": 1783904900,
        "last_contact": 1783904900,
        "baro_altitude": 11277.6,
        "on_ground": false,
        "velocity": 258.81,
        "true_track": 142.11,
        "vertical_rate": -0.33,
        "geo_altitude": 11681.46,
        "squawk": "7607",
        "spi": false,
        "position_source": 0
      }
    },
    {
      "type": "Feature",
      "geometry": {
        "type": "Point",
        "coordinates": [
          18.9867,
          47.6722
        ]
      },
      "properties": {
        "icao24": "4a29f9",
        "callsign": "HYS258",
        "origin_country": "Romania",
        "time_position": 1783904900,
        "last_contact": 1783904900,
        "baro_altitude": 11269.98,
        "on_ground": false,
        "velocity": 249.62,
        "true_track": 128.64,
        "vertical_rate": 0,
        "geo_altitude": 11673.84,
        "squawk": "5213",
        "spi": false,
        "position_source": 0
      }
    },
    {
      "type": "Feature",
      "geometry": {
        "type": "Point",
        "coordinates": [
          6.0844,
          45.4916
        ]
      },
      "properties": {
        "icao24": "3c1bae",
        "callsign": "BCS3LR",
        "origin_country": "Germany",
        "time_position": 1783904899,
        "last_contact": 1783904899,
        "baro_altitude": 10668,
        "on_ground": false,
        "velocity": 223.06,
        "true_track": 208.52,
        "vertical_rate": -0.33,
        "geo_altitude": 11247.12,
        "squawk": "1000",
        "spi": false,
        "position_source": 0
      }
    },
    {
      "type": "Feature",
      "geometry": {
        "type": "Point",
        "coordinates": [
          8.3637,
          44.5351
        ]
      },
      "properties": {
        "icao24": "42450f",
        "callsign": "RJA29N",
        "origin_country": "United Kingdom",
        "time_position": 1783904899,
        "last_contact": 1783904899,
        "baro_altitude": 13716,
        "on_ground": false,
        "velocity": 268.02,
        "true_track": 118.93,
        "vertical_rate": -0.33,
        "geo_altitude": 14310.36,
        "squawk": "2216",
        "spi": false,
        "position_source": 0
      }
    },
    {
      "type": "Feature",
      "geometry": {
        "type": "Point",
        "coordinates": [
          15.6964,
          46.6608
        ]
      },
      "properties": {
        "icao24": "4bcdaa",
        "callsign": "SXS6XR",
        "origin_country": "Turkey",
        "time_position": 1783904900,
        "last_contact": 1783904900,
        "baro_altitude": 11277.6,
        "on_ground": false,
        "velocity": 255.01,
        "true_track": 134.43,
        "vertical_rate": 0,
        "geo_altitude": 11734.8,
        "squawk": "7711",
        "spi": false,
        "position_source": 0
      }
    },
    {
      "type": "Feature",
      "geometry": {
        "type": "Point",
        "coordinates": [
          15.4065,
          46.7329
        ]
      },
      "properties": {
        "icao24": "4bce13",
        "callsign": "SXS3QZ",
        "origin_country": "Turkey",
        "time_position": 1783904899,
        "last_contact": 1783904900,
        "baro_altitude": 11277.6,
        "on_ground": false,
        "velocity": 248.66,
        "true_track": 128.36,
        "vertical_rate": 0,
        "geo_altitude": 11734.8,
        "squawk": "6427",
        "spi": false,
        "position_source": 0
      }
    },
    {
      "type": "Feature",
      "geometry": {
        "type": "Point",
        "coordinates": [
          12.4635,
          45.4098
        ]
      },
      "properties": {
        "icao24": "4d010b",
        "callsign": "ICV513",
        "origin_country": "Luxembourg",
        "time_position": 1783904899,
        "last_contact": 1783904899,
        "baro_altitude": 10363.2,
        "on_ground": false,
        "velocity": 223.94,
        "true_track": 278.06,
        "vertical_rate": 0,
        "geo_altitude": 10828.02,
        "squawk": "0323",
        "spi": false,
        "position_source": 0
      }
    },
    {
      "type": "Feature",
      "geometry": {
        "type": "Point",
        "coordinates": [
          11.2465,
          44.5507
        ]
      },
      "properties": {
        "icao24": "8940bb",
        "callsign": "BCS7916",
        "origin_country": "Bahrain",
        "time_position": 1783904899,
        "last_contact": 1783904899,
        "baro_altitude": 152.4,
        "on_ground": false,
        "velocity": 69.71,
        "true_track": 116.75,
        "vertical_rate": -3.58,
        "geo_altitude": 236.22,
        "squawk": "1000",
        "spi": false,
        "position_source": 0
      }
    },
    {
      "type": "Feature",
      "geometry": {
        "type": "Point",
        "coordinates": [
          7.406,
          47.1943
        ]
      },
      "properties": {
        "icao24": "424cbf",
        "callsign": "MACOR",
        "origin_country": "United Kingdom",
        "time_position": 1783904899,
        "last_contact": 1783904900,
        "baro_altitude": 12496.8,
        "on_ground": false,
        "velocity": 246.57,
        "true_track": 141.1,
        "vertical_rate": -0.33,
        "geo_altitude": 13045.44,
        "squawk": "1162",
        "spi": false,
        "position_source": 0
      }
    },
    {
      "type": "Feature",
      "geometry": {
        "type": "Point",
        "coordinates": [
          15.3614,
          37.9876
        ]
      },
      "properties": {
        "icao24": "4cafcb",
        "callsign": "MSA9798",
        "origin_country": "Ireland",
        "time_position": 1783904899,
        "last_contact": 1783904899,
        "baro_altitude": 5455.92,
        "on_ground": false,
        "velocity": 199.34,
        "true_track": 23.26,
        "vertical_rate": -5.85,
        "geo_altitude": 5775.96,
        "squawk": null,
        "spi": false,
        "position_source": 0
      }
    },
    {
      "type": "Feature",
      "geometry": {
        "type": "Point",
        "coordinates": [
          10.6497,
          47.5754
        ]
      },
      "properties": {
        "icao24": "010248",
        "callsign": "NIA8703",
        "origin_country": "Egypt",
        "time_position": 1783904900,
        "last_contact": 1783904900,
        "baro_altitude": 10355.58,
        "on_ground": false,
        "velocity": 216.13,
        "true_track": 331.73,
        "vertical_rate": 0,
        "geo_altitude": 10873.74,
        "squawk": "7547",
        "spi": false,
        "position_source": 0
      }
    },
    {
      "type": "Feature",
      "geometry": {
        "type": "Point",
        "coordinates": [
          17.3187,
          35.9136
        ]
      },
      "properties": {
        "icao24": "010283",
        "callsign": "MSR948",
        "origin_country": "Egypt",
        "time_position": 1783904899,
        "last_contact": 1783904899,
        "baro_altitude": 11887.2,
        "on_ground": false,
        "velocity": 277.09,
        "true_track": 100.27,
        "vertical_rate": -0.33,
        "geo_altitude": 12573,
        "squawk": "4107",
        "spi": false,
        "position_source": 0
      }
    },
    {
      "type": "Feature",
      "geometry": {
        "type": "Point",
        "coordinates": [
          8.5698,
          47.455
        ]
      },
      "properties": {
        "icao24": "4b1a02",
        "callsign": "SAZ76",
        "origin_country": "Switzerland",
        "time_position": 1783904632,
        "last_contact": 1783904632,
        "baro_altitude": null,
        "on_ground": true,
        "velocity": 0,
        "true_track": 95.62,
        "vertical_rate": null,
        "geo_altitude": null,
        "squawk": "6002",
        "spi": false,
        "position_source": 0
      }
    },
    {
      "type": "Feature",
      "geometry": {
        "type": "Point",
        "coordinates": [
          16.6397,
          42.4037
        ]
      },
      "properties": {
        "icao24": "4075f3",
        "callsign": "TOM71H",
        "origin_country": "United Kingdom",
        "time_position": 1783904900,
        "last_contact": 1783904900,
        "baro_altitude": 11277.6,
        "on_ground": false,
        "velocity": 256.51,
        "true_track": 136.22,
        "vertical_rate": 0,
        "geo_altitude": 11803.38,
        "squawk": "0503",
        "spi": false,
        "position_source": 0
      }
    },
    {
      "type": "Feature",
      "geometry": {
        "type": "Point",
        "coordinates": [
          12.4815,
          41.6527
        ]
      },
      "properties": {
        "icao24": "33fd43",
        "callsign": "RILA",
        "origin_country": "Italy",
        "time_position": 1783904899,
        "last_contact": 1783904899,
        "baro_altitude": 274.32,
        "on_ground": false,
        "velocity": 56.87,
        "true_track": 275.71,
        "vertical_rate": -0.98,
        "geo_altitude": 358.14,
        "squawk": null,
        "spi": false,
        "position_source": 0
      }
    },
    {
      "type": "Feature",
      "geometry": {
        "type": "Point",
        "coordinates": [
          16.3871,
          43.082
        ]
      },
      "properties": {
        "icao24": "4caeaf",
        "callsign": "NOS55FM",
        "origin_country": "Ireland",
        "time_position": 1783904899,
        "last_contact": 1783904899,
        "baro_altitude": 11582.4,
        "on_ground": false,
        "velocity": 212.6,
        "true_track": 303.15,
        "vertical_rate": 0,
        "geo_altitude": 12100.56,
        "squawk": "0562",
        "spi": true,
        "position_source": 0
      }
    },
    {
      "type": "Feature",
      "geometry": {
        "type": "Point",
        "coordinates": [
          13.7006,
          39.6088
        ]
      },
      "properties": {
        "icao24": "4d2530",
        "callsign": "VJT537",
        "origin_country": "Malta",
        "time_position": 1783904898,
        "last_contact": 1783904899,
        "baro_altitude": 11887.2,
        "on_ground": false,
        "velocity": 246.2,
        "true_track": 103.17,
        "vertical_rate": 0,
        "geo_altitude": 12519.66,
        "squawk": "5207",
        "spi": false,
        "position_source": 0
      }
    },
    {
      "type": "Feature",
      "geometry": {
        "type": "Point",
        "coordinates": [
          15.2263,
          45.6708
        ]
      },
      "properties": {
        "icao24": "4d23c3",
        "callsign": "CXI1YQ",
        "origin_country": "Malta",
        "time_position": 1783904900,
        "last_contact": 1783904900,
        "baro_altitude": 11277.6,
        "on_ground": false,
        "velocity": 257.8,
        "true_track": 138.96,
        "vertical_rate": 0.33,
        "geo_altitude": 11757.66,
        "squawk": "6030",
        "spi": false,
        "position_source": 0
      }
    },
    {
      "type": "Feature",
      "geometry": {
        "type": "Point",
        "coordinates": [
          18.0524,
          38.8624
        ]
      },
      "properties": {
        "icao24": "346082",
        "callsign": "AEA35SY",
        "origin_country": "Spain",
        "time_position": 1783904899,
        "last_contact": 1783904899,
        "baro_altitude": 10972.8,
        "on_ground": false,
        "velocity": 218.29,
        "true_track": 279.08,
        "vertical_rate": 0,
        "geo_altitude": 11521.44,
        "squawk": "2042",
        "spi": false,
        "position_source": 0
      }
    },
    {
      "type": "Feature",
      "geometry": {
        "type": "Point",
        "coordinates": [
          12.9154,
          36.8708
        ]
      },
      "properties": {
        "icao24": "3005c5",
        "callsign": "ISRNT",
        "origin_country": "Italy",
        "time_position": 1783904899,
        "last_contact": 1783904899,
        "baro_altitude": 1981.2,
        "on_ground": false,
        "velocity": 86.78,
        "true_track": 190.24,
        "vertical_rate": 0,
        "geo_altitude": 2156.46,
        "squawk": "2000",
        "spi": false,
        "position_source": 0
      }
    },
    {
      "type": "Feature",
      "geometry": {
        "type": "Point",
        "coordinates": [
          12.8954,
          43.9302
        ]
      },
      "properties": {
        "icao24": "4cae05",
        "callsign": "NOS7027",
        "origin_country": "Ireland",
        "time_position": 1783904899,
        "last_contact": 1783904899,
        "baro_altitude": 11582.4,
        "on_ground": false,
        "velocity": 200.94,
        "true_track": 308.66,
        "vertical_rate": 0,
        "geo_altitude": 12131.04,
        "squawk": "2055",
        "spi": false,
        "position_source": 0
      }
    },
    {
      "type": "Feature",
      "geometry": {
        "type": "Point",
        "coordinates": [
          17.4131,
          47.5372
        ]
      },
      "properties": {
        "icao24": "3c458f",
        "callsign": "BOX726",
        "origin_country": "Germany",
        "time_position": 1783904900,
        "last_contact": 1783904900,
        "baro_altitude": 10058.4,
        "on_ground": false,
        "velocity": 260.13,
        "true_track": 145.56,
        "vertical_rate": 0,
        "geo_altitude": 10462.26,
        "squawk": "4373",
        "spi": false,
        "position_source": 0
      }
    },
    {
      "type": "Feature",
      "geometry": {
        "type": "Point",
        "coordinates": [
          9.0399,
          45.3464
        ]
      },
      "properties": {
        "icao24": "4cac36",
        "callsign": "NOS7547",
        "origin_country": "Ireland",
        "time_position": 1783904899,
        "last_contact": 1783904899,
        "baro_altitude": 2400.3,
        "on_ground": false,
        "velocity": 141.22,
        "true_track": 277.75,
        "vertical_rate": -6.5,
        "geo_altitude": 2613.66,
        "squawk": "2053",
        "spi": false,
        "position_source": 0
      }
    },
    {
      "type": "Feature",
      "geometry": {
        "type": "Point",
        "coordinates": [
          13.6217,
          46.4089
        ]
      },
      "properties": {
        "icao24": "40832c",
        "callsign": "TOM407",
        "origin_country": "United Kingdom",
        "time_position": 1783904899,
        "last_contact": 1783904899,
        "baro_altitude": 11582.4,
        "on_ground": false,
        "velocity": 214.04,
        "true_track": 312.86,
        "vertical_rate": 0,
        "geo_altitude": 12092.94,
        "squawk": "6636",
        "spi": false,
        "position_source": 0
      }
    },
    {
      "type": "Feature",
      "geometry": {
        "type": "Point",
        "coordinates": [
          16.1207,
          35.9961
        ]
      },
      "properties": {
        "icao24": "010154",
        "callsign": "MSR996",
        "origin_country": "Egypt",
        "time_position": 1783904899,
        "last_contact": 1783904900,
        "baro_altitude": 10668,
        "on_ground": false,
        "velocity": 267.59,
        "true_track": 99.52,
        "vertical_rate": -0.33,
        "geo_altitude": 11285.22,
        "squawk": "5224",
        "spi": false,
        "position_source": 0
      }
    },
    {
      "type": "Feature",
      "geometry": {
        "type": "Point",
        "coordinates": [
          10.568,
          47.6654
        ]
      },
      "properties": {
        "icao24": "408314",
        "callsign": "TOM7LV",
        "origin_country": "United Kingdom",
        "time_position": 1783904899,
        "last_contact": 1783904900,
        "baro_altitude": 11582.4,
        "on_ground": false,
        "velocity": 212.24,
        "true_track": 293.27,
        "vertical_rate": 0,
        "geo_altitude": 12085.32,
        "squawk": "3114",
        "spi": false,
        "position_source": 0
      }
    },
    {
      "type": "Feature",
      "geometry": {
        "type": "Point",
        "coordinates": [
          15.1741,
          46.591
        ]
      },
      "properties": {
        "icao24": "4d206e",
        "callsign": "AIZ991",
        "origin_country": "Malta",
        "time_position": 1783904899,
        "last_contact": 1783904899,
        "baro_altitude": 10972.8,
        "on_ground": false,
        "velocity": 222.81,
        "true_track": 319.03,
        "vertical_rate": 0,
        "geo_altitude": 11445.24,
        "squawk": "5604",
        "spi": false,
        "position_source": 0
      }
    },
    {
      "type": "Feature",
      "geometry": {
        "type": "Point",
        "coordinates": [
          7.9264,
          45.0952
        ]
      },
      "properties": {
        "icao24": "4d2090",
        "callsign": "WMT7359",
        "origin_country": "Malta",
        "time_position": 1783904899,
        "last_contact": 1783904899,
        "baro_altitude": 4808.22,
        "on_ground": false,
        "velocity": 177.54,
        "true_track": 72.98,
        "vertical_rate": -4.55,
        "geo_altitude": 5151.12,
        "squawk": "1000",
        "spi": false,
        "position_source": 0
      }
    },
    {
      "type": "Feature",
      "geometry": {
        "type": "Point",
        "coordinates": [
          16.4854,
          42.5577
        ]
      },
      "properties": {
        "icao24": "4082cb",
        "callsign": "TOM4BJ",
        "origin_country": "United Kingdom",
        "time_position": 1783904899,
        "last_contact": 1783904899,
        "baro_altitude": 11582.4,
        "on_ground": false,
        "velocity": 213.14,
        "true_track": 318.23,
        "vertical_rate": -0.33,
        "geo_altitude": 12115.8,
        "squawk": null,
        "spi": false,
        "position_source": 0
      }
    }
  ]
}