{
  "type": "FeatureCollection",
  "source": "opensky",
  "dataset": "aircraft_italy",
  "generated_at": "2026-09-02T00:03:36.187259+00:00",
  "opensky_time": 1788307407,
  "count": 100,
  "features": [
    {
      "type": "Feature",
      "geometry": {
        "type": "Point",
        "coordinates": [
          13.8872,
          40.0603
        ]
      },
      "properties": {
        "icao24": "407a06",
        "callsign": "EZY63MD",
        "origin_country": "United Kingdom",
        "time_position": 1788307407,
        "last_contact": 1788307407,
        "baro_altitude": 10980.42,
        "on_ground": false,
        "velocity": 222.33,
        "true_track": 313.59,
        "vertical_rate": 0,
        "geo_altitude": 11605.26,
        "squawk": "5532",
        "spi": false,
        "position_source": 0
      }
    },
    {
      "type": "Feature",
      "geometry": {
        "type": "Point",
        "coordinates": [
          14.9918,
          45.5951
        ]
      },
      "properties": {
        "icao24": "51118a",
        "callsign": "MBU3EL",
        "origin_country": "Estonia",
        "time_position": 1788307406,
        "last_contact": 1788307406,
        "baro_altitude": 10965.18,
        "on_ground": false,
        "velocity": 227.54,
        "true_track": 333.55,
        "vertical_rate": 0,
        "geo_altitude": 11437.62,
        "squawk": "2033",
        "spi": false,
        "position_source": 0
      }
    },
    {
      "type": "Feature",
      "geometry": {
        "type": "Point",
        "coordinates": [
          7.4196,
          39.6495
        ]
      },
      "properties": {
        "icao24": "4520d0",
        "callsign": "LZB9932",
        "origin_country": "Bulgaria",
        "time_position": 1788307406,
        "last_contact": 1788307406,
        "baro_altitude": 11582.4,
        "on_ground": false,
        "velocity": 255.14,
        "true_track": 83.75,
        "vertical_rate": 0,
        "geo_altitude": 12222.48,
        "squawk": "1421",
        "spi": false,
        "position_source": 0
      }
    },
    {
      "type": "Feature",
      "geometry": {
        "type": "Point",
        "coordinates": [
          17.1466,
          43.0586
        ]
      },
      "properties": {
        "icao24": "801600",
        "callsign": "AIC2016",
        "origin_country": "India",
        "time_position": 1788307395,
        "last_contact": 1788307406,
        "baro_altitude": 11887.2,
        "on_ground": false,
        "velocity": 266.61,
        "true_track": 130.85,
        "vertical_rate": 0,
        "geo_altitude": 12443.46,
        "squawk": "5207",
        "spi": false,
        "position_source": 0
      }
    },
    {
      "type": "Feature",
      "geometry": {
        "type": "Point",
        "coordinates": [
          11.2061,
          45.5348
        ]
      },
      "properties": {
        "icao24": "440389",
        "callsign": "EJU15ZP",
        "origin_country": "Austria",
        "time_position": 1788307406,
        "last_contact": 1788307407,
        "baro_altitude": 10927.08,
        "on_ground": false,
        "velocity": 204.13,
        "true_track": 276.8,
        "vertical_rate": -5.2,
        "geo_altitude": 11384.28,
        "squawk": "4136",
        "spi": false,
        "position_source": 0
      }
    },
    {
      "type": "Feature",
      "geometry": {
        "type": "Point",
        "coordinates": [
          16.0823,
          40.4892
        ]
      },
      "properties": {
        "icao24": "8015a7",
        "callsign": "AIC119",
        "origin_country": "India",
        "time_position": 1788307406,
        "last_contact": 1788307407,
        "baro_altitude": 10972.8,
        "on_ground": false,
        "velocity": 238.14,
        "true_track": 297.4,
        "vertical_rate": 0,
        "geo_altitude": 11590.02,
        "squawk": null,
        "spi": false,
        "position_source": 0
      }
    },
    {
      "type": "Feature",
      "geometry": {
        "type": "Point",
        "coordinates": [
          17.4139,
          39.6817
        ]
      },
      "properties": {
        "icao24": "8015a5",
        "callsign": "AIC116",
        "origin_country": "India",
        "time_position": 1788307406,
        "last_contact": 1788307406,
        "baro_altitude": 10058.4,
        "on_ground": false,
        "velocity": 256.61,
        "true_track": 127.26,
        "vertical_rate": 0,
        "geo_altitude": 10660.38,
        "squawk": "2262",
        "spi": false,
        "position_source": 0
      }
    },
    {
      "type": "Feature",
      "geometry": {
        "type": "Point",
        "coordinates": [
          11.7621,
          44.7741
        ]
      },
      "properties": {
        "icao24": "73806d",
        "callsign": "ELY388",
        "origin_country": "Israel",
        "time_position": 1788307406,
        "last_contact": 1788307407,
        "baro_altitude": 10668,
        "on_ground": false,
        "velocity": 251.93,
        "true_track": 111.06,
        "vertical_rate": 0,
        "geo_altitude": 11125.2,
        "squawk": "0470",
        "spi": false,
        "position_source": 0
      }
    },
    {
      "type": "Feature",
      "geometry": {
        "type": "Point",
        "coordinates": [
          6.1713,
          40.8091
        ]
      },
      "properties": {
        "icao24": "738068",
        "callsign": "ELY376",
        "origin_country": "Israel",
        "time_position": 1788307407,
        "last_contact": 1788307407,
        "baro_altitude": 10972.8,
        "on_ground": false,
        "velocity": 255.95,
        "true_track": 95.77,
        "vertical_rate": 0,
        "geo_altitude": 11559.54,
        "squawk": "1417",
        "spi": false,
        "position_source": 0
      }
    },
    {
      "type": "Feature",
      "geometry": {
        "type": "Point",
        "coordinates": [
          14.8974,
          39.4829
        ]
      },
      "properties": {
        "icao24": "738053",
        "callsign": "ELY398",
        "origin_country": "Israel",
        "time_position": 1788307404,
        "last_contact": 1788307405,
        "baro_altitude": 10668,
        "on_ground": false,
        "velocity": 241.75,
        "true_track": 105.43,
        "vertical_rate": 0.33,
        "geo_altitude": 11285.22,
        "squawk": "1442",
        "spi": false,
        "position_source": 0
      }
    },
    {
      "type": "Feature",
      "geometry": {
        "type": "Point",
        "coordinates": [
          18.5834,
          46.2051
        ]
      },
      "properties": {
        "icao24": "44006d",
        "callsign": "AUA1083",
        "origin_country": "Austria",
        "time_position": 1788307407,
        "last_contact": 1788307407,
        "baro_altitude": 10668,
        "on_ground": false,
        "velocity": 246.81,
        "true_track": 138.8,
        "vertical_rate": 0,
        "geo_altitude": 11109.96,
        "squawk": "6026",
        "spi": false,
        "position_source": 0
      }
    },
    {
      "type": "Feature",
      "geometry": {
        "type": "Point",
        "coordinates": [
          10.6436,
          42.2148
        ]
      },
      "properties": {
        "icao24": "80189d",
        "callsign": "AIC188",
        "origin_country": "India",
        "time_position": 1788307406,
        "last_contact": 1788307407,
        "baro_altitude": 11277.6,
        "on_ground": false,
        "velocity": 266.66,
        "true_track": 115.97,
        "vertical_rate": 0,
        "geo_altitude": 11864.34,
        "squawk": "2204",
        "spi": false,
        "position_source": 0
      }
    },
    {
      "type": "Feature",
      "geometry": {
        "type": "Point",
        "coordinates": [
          17.4728,
          47.1204
        ]
      },
      "properties": {
        "icao24": "738103",
        "callsign": "ELY003",
        "origin_country": "Israel",
        "time_position": 1788307406,
        "last_contact": 1788307406,
        "baro_altitude": 11574.78,
        "on_ground": false,
        "velocity": 225.38,
        "true_track": 319.07,
        "vertical_rate": -0.33,
        "geo_altitude": 12009.12,
        "squawk": "5217",
        "spi": false,
        "position_source": 0
      }
    },
    {
      "type": "Feature",
      "geometry": {
        "type": "Point",
        "coordinates": [
          15.2428,
          44.0076
        ]
      },
      "properties": {
        "icao24": "440195",
        "callsign": "EJU18NT",
        "origin_country": "Austria",
        "time_position": 1788307406,
        "last_contact": 1788307406,
        "baro_altitude": 11590.02,
        "on_ground": false,
        "velocity": 214.84,
        "true_track": 308.68,
        "vertical_rate": 0,
        "geo_altitude": 12123.42,
        "squawk": "2062",
        "spi": false,
        "position_source": 0
      }
    },
    {
      "type": "Feature",
      "geometry": {
        "type": "Point",
        "coordinates": [
          12.9088,
          36.9846
        ]
      },
      "properties": {
        "icao24": "4bd8ac",
        "callsign": "THY6557",
        "origin_country": "Turkey",
        "time_position": 1788307406,
        "last_contact": 1788307407,
        "baro_altitude": 10363.2,
        "on_ground": false,
        "velocity": 226.8,
        "true_track": 252.3,
        "vertical_rate": 0,
        "geo_altitude": 10965.18,
        "squawk": "2323",
        "spi": false,
        "position_source": 0
      }
    },
    {
      "type": "Feature",
      "geometry": {
        "type": "Point",
        "coordinates": [
          15.6136,
          36.5048
        ]
      },
      "properties": {
        "icao24": "4bb1c4",
        "callsign": "THY1CT",
        "origin_country": "Turkey",
        "time_position": 1788307407,
        "last_contact": 1788307407,
        "baro_altitude": 11582.4,
        "on_ground": false,
        "velocity": 235.4,
        "true_track": 239.68,
        "vertical_rate": 0,
        "geo_altitude": 12252.96,
        "squawk": "2310",
        "spi": false,
        "position_source": 0
      }
    },
    {
      "type": "Feature",
      "geometry": {
        "type": "Point",
        "coordinates": [
          7.2213,
          47.6122
        ]
      },
      "properties": {
        "icao24": "7380c6",
        "callsign": "ELY010",
        "origin_country": "Israel",
        "time_position": 1788307406,
        "last_contact": 1788307406,
        "baro_altitude": 11269.98,
        "on_ground": false,
        "velocity": 268.95,
        "true_track": 116.47,
        "vertical_rate": 0,
        "geo_altitude": 11650.98,
        "squawk": "2211",
        "spi": false,
        "position_source": 0
      }
    },
    {
      "type": "Feature",
      "geometry": {
        "type": "Point",
        "coordinates": [
          18.7987,
          42.4343
        ]
      },
      "properties": {
        "icao24": "7380c5",
        "callsign": "ELY027",
        "origin_country": "Israel",
        "time_position": 1788307405,
        "last_contact": 1788307406,
        "baro_altitude": 10965.18,
        "on_ground": false,
        "velocity": 243.86,
        "true_track": 325.57,
        "vertical_rate": 0,
        "geo_altitude": 11536.68,
        "squawk": "6412",
        "spi": false,
        "position_source": 0
      }
    },
    {
      "type": "Feature",
      "geometry": {
        "type": "Point",
        "coordinates": [
          15.5052,
          39.3987
        ]
      },
      "properties": {
        "icao24": "7380ca",
        "callsign": "ELY017",
        "origin_country": "Israel",
        "time_position": 1788307406,
        "last_contact": 1788307407,
        "baro_altitude": 10363.2,
        "on_ground": false,
        "velocity": 248.2,
        "true_track": 286.74,
        "vertical_rate": 0,
        "geo_altitude": 10995.66,
        "squawk": null,
        "spi": false,
        "position_source": 0
      }
    },
    {
      "type": "Feature",
      "geometry": {
        "type": "Point",
        "coordinates": [
          17.3425,
          39.0415
        ]
      },
      "properties": {
        "icao24": "4bb245",
        "callsign": "THY658",
        "origin_country": "Turkey",
        "time_position": 1788307406,
        "last_contact": 1788307407,
        "baro_altitude": 10058.4,
        "on_ground": false,
        "velocity": 243.05,
        "true_track": 78.52,
        "vertical_rate": 0,
        "geo_altitude": 10683.24,
        "squawk": "6152",
        "spi": false,
        "position_source": 0
      }
    },
    {
      "type": "Feature",
      "geometry": {
        "type": "Point",
        "coordinates": [
          15.1607,
          43.9086
        ]
      },
      "properties": {
        "icao24": "4066d0",
        "callsign": "TOM2PY",
        "origin_country": "United Kingdom",
        "time_position": 1788307406,
        "last_contact": 1788307406,
        "baro_altitude": 10972.8,
        "on_ground": false,
        "velocity": 218.71,
        "true_track": 316.62,
        "vertical_rate": 0,
        "geo_altitude": 11483.34,
        "squawk": "6623",
        "spi": false,
        "position_source": 0
      }
    },
    {
      "type": "Feature",
      "geometry": {
        "type": "Point",
        "coordinates": [
          7.5039,
          43.6684
        ]
      },
      "properties": {
        "icao24": "020124",
        "callsign": "MAC466C",
        "origin_country": "Morocco",
        "time_position": 1788307406,
        "last_contact": 1788307406,
        "baro_altitude": 11277.6,
        "on_ground": false,
        "velocity": 215.67,
        "true_track": 237.86,
        "vertical_rate": 0,
        "geo_altitude": 11803.38,
        "squawk": "4056",
        "spi": false,
        "position_source": 0
      }
    },
    {
      "type": "Feature",
      "geometry": {
        "type": "Point",
        "coordinates": [
          7.6626,
          43.8346
        ]
      },
      "properties": {
        "icao24": "0200f8",
        "callsign": "RAM220M",
        "origin_country": "Morocco",
        "time_position": 1788307407,
        "last_contact": 1788307407,
        "baro_altitude": 10972.8,
        "on_ground": false,
        "velocity": 249.54,
        "true_track": 45,
        "vertical_rate": 0.33,
        "geo_altitude": 11475.72,
        "squawk": "0477",
        "spi": false,
        "position_source": 0
      }
    },
    {
      "type": "Feature",
      "geometry": {
        "type": "Point",
        "coordinates": [
          17.1627,
          43.7355
        ]
      },
      "properties": {
        "icao24": "80073c",
        "callsign": "AIC132",
        "origin_country": "India",
        "time_position": 1788307406,
        "last_contact": 1788307406,
        "baro_altitude": 11277.6,
        "on_ground": false,
        "velocity": 262.58,
        "true_track": 137.78,
        "vertical_rate": -0.33,
        "geo_altitude": 11818.62,
        "squawk": "1143",
        "spi": false,
        "position_source": 0
      }
    },
    {
      "type": "Feature",
      "geometry": {
        "type": "Point",
        "coordinates": [
          17.2894,
          44.9776
        ]
      },
      "properties": {
        "icao24": "489228",
        "callsign": "ENT1GT",
        "origin_country": "Poland",
        "time_position": 1788307406,
        "last_contact": 1788307406,
        "baro_altitude": 11277.6,
        "on_ground": false,
        "velocity": 218.14,
        "true_track": 180.68,
        "vertical_rate": 0.33,
        "geo_altitude": 11765.28,
        "squawk": "1000",
        "spi": false,
        "position_source": 0
      }
    },
    {
      "type": "Feature",
      "geometry": {
        "type": "Point",
        "coordinates": [
          7.3642,
          43.5039
        ]
      },
      "properties": {
        "icao24": "4067ee",
        "callsign": "TOM307",
        "origin_country": "United Kingdom",
        "time_position": 1788307406,
        "last_contact": 1788307406,
        "baro_altitude": 10363.2,
        "on_ground": false,
        "velocity": 211.39,
        "true_track": 328.94,
        "vertical_rate": 0,
        "geo_altitude": 10866.12,
        "squawk": "4001",
        "spi": false,
        "position_source": 0
      }
    },
    {
      "type": "Feature",
      "geometry": {
        "type": "Point",
        "coordinates": [
          18.9885,
          46.6786
        ]
      },
      "properties": {
        "icao24": "89645b",
        "callsign": "UAE4",
        "origin_country": "United Arab Emirates",
        "time_position": 1788307406,
        "last_contact": 1788307407,
        "baro_altitude": 11887.2,
        "on_ground": false,
        "velocity": 277.27,
        "true_track": 117.52,
        "vertical_rate": -0.33,
        "geo_altitude": 12313.92,
        "squawk": "1146",
        "spi": false,
        "position_source": 0
      }
    },
    {
      "type": "Feature",
      "geometry": {
        "type": "Point",
        "coordinates": [
          6.5349,
          36.7625
        ]
      },
      "properties": {
        "icao24": "40688b",
        "callsign": "BAW57K",
        "origin_country": "United Kingdom",
        "time_position": 1788307404,
        "last_contact": 1788307404,
        "baro_altitude": 11277.6,
        "on_ground": false,
        "velocity": 259.11,
        "true_track": 169.36,
        "vertical_rate": -0.33,
        "geo_altitude": 11955.78,
        "squawk": "6303",
        "spi": false,
        "position_source": 0
      }
    },
    {
      "type": "Feature",
      "geometry": {
        "type": "Point",
        "coordinates": [
          10.7847,
          39.9333
        ]
      },
      "properties": {
        "icao24": "a19203",
        "callsign": "N200A",
        "origin_country": "United States",
        "time_position": 1788307406,
        "last_contact": 1788307406,
        "baro_altitude": 13106.4,
        "on_ground": false,
        "velocity": 243.02,
        "true_track": 285.6,
        "vertical_rate": 0.33,
        "geo_altitude": 13716,
        "squawk": "2072",
        "spi": false,
        "position_source": 0
      }
    },
    {
      "type": "Feature",
      "geometry": {
        "type": "Point",
        "coordinates": [
          18.5816,
          41.9858
        ]
      },
      "properties": {
        "icao24": "3965ad",
        "callsign": "AFR672",
        "origin_country": "France",
        "time_position": 1788307255,
        "last_contact": 1788307255,
        "baro_altitude": 9448.8,
        "on_ground": false,
        "velocity": 272.38,
        "true_track": 129.25,
        "vertical_rate": 0,
        "geo_altitude": 9997.44,
        "squawk": "7550",
        "spi": false,
        "position_source": 0
      }
    },
    {
      "type": "Feature",
      "geometry": {
        "type": "Point",
        "coordinates": [
          9.7846,
          38.1024
        ]
      },
      "properties": {
        "icao24": "345107",
        "callsign": "VLG2691",
        "origin_country": "Spain",
        "time_position": 1788307407,
        "last_contact": 1788307407,
        "baro_altitude": 8580.12,
        "on_ground": false,
        "velocity": 218.11,
        "true_track": 333.98,
        "vertical_rate": 8.78,
        "geo_altitude": 9159.24,
        "squawk": "6135",
        "spi": false,
        "position_source": 0
      }
    },
    {
      "type": "Feature",
      "geometry": {
        "type": "Point",
        "coordinates": [
          17.559,
          45.2346
        ]
      },
      "properties": {
        "icao24": "8964b2",
        "callsign": "UAE6",
        "origin_country": "United Arab Emirates",
        "time_position": 1788307407,
        "last_contact": 1788307407,
        "baro_altitude": 11887.2,
        "on_ground": false,
        "velocity": 279.15,
        "true_track": 112.31,
        "vertical_rate": 0,
        "geo_altitude": 12367.26,
        "squawk": "2263",
        "spi": false,
        "position_source": 0
      }
    },
    {
      "type": "Feature",
      "geometry": {
        "type": "Point",
        "coordinates": [
          12.265,
          41.7683
        ]
      },
      "properties": {
        "icao24": "8964bb",
        "callsign": "ETD11Y",
        "origin_country": "United Arab Emirates",
        "time_position": 1788307406,
        "last_contact": 1788307406,
        "baro_altitude": 525.78,
        "on_ground": false,
        "velocity": 106.59,
        "true_track": 235.62,
        "vertical_rate": 10.08,
        "geo_altitude": 632.46,
        "squawk": null,
        "spi": false,
        "position_source": 0
      }
    },
    {
      "type": "Feature",
      "geometry": {
        "type": "Point",
        "coordinates": [
          8.5883,
          47.4714
        ]
      },
      "properties": {
        "icao24": "40796b",
        "callsign": "TOM639",
        "origin_country": "United Kingdom",
        "time_position": 1788307407,
        "last_contact": 1788307407,
        "baro_altitude": 9753.6,
        "on_ground": false,
        "velocity": 222.45,
        "true_track": 304.35,
        "vertical_rate": 0,
        "geo_altitude": 10126.98,
        "squawk": "7530",
        "spi": false,
        "position_source": 0
      }
    },
    {
      "type": "Feature",
      "geometry": {
        "type": "Point",
        "coordinates": [
          15.2054,
          36.0289
        ]
      },
      "properties": {
        "icao24": "040199",
        "callsign": "ETH741",
        "origin_country": "Ethiopia",
        "time_position": 1788307406,
        "last_contact": 1788307406,
        "baro_altitude": 10668,
        "on_ground": false,
        "velocity": 258.7,
        "true_track": 100.77,
        "vertical_rate": -0.33,
        "geo_altitude": 11315.7,
        "squawk": "4112",
        "spi": false,
        "position_source": 0
      }
    },
    {
      "type": "Feature",
      "geometry": {
        "type": "Point",
        "coordinates": [
          14.5121,
          44.298
        ]
      },
      "properties": {
        "icao24": "04015c",
        "callsign": "ETH3714",
        "origin_country": "Ethiopia",
        "time_position": 1788307406,
        "last_contact": 1788307406,
        "baro_altitude": 10363.2,
        "on_ground": false,
        "velocity": 231.52,
        "true_track": 318.87,
        "vertical_rate": 0,
        "geo_altitude": 10858.5,
        "squawk": "5534",
        "spi": false,
        "position_source": 0
      }
    },
    {
      "type": "Feature",
      "geometry": {
        "type": "Point",
        "coordinates": [
          17.6121,
          46.2092
        ]
      },
      "properties": {
        "icao24": "4bcd82",
        "callsign": "SXS2GA",
        "origin_country": "Turkey",
        "time_position": 1788307406,
        "last_contact": 1788307406,
        "baro_altitude": 11887.2,
        "on_ground": false,
        "velocity": 249.32,
        "true_track": 129.31,
        "vertical_rate": -0.33,
        "geo_altitude": 12344.4,
        "squawk": "6423",
        "spi": false,
        "position_source": 0
      }
    },
    {
      "type": "Feature",
      "geometry": {
        "type": "Point",
        "coordinates": [
          17.2239,
          39.345
        ]
      },
      "properties": {
        "icao24": "49d3bb",
        "callsign": "ISR348",
        "origin_country": "Czech Republic",
        "time_position": 1788307407,
        "last_contact": 1788307407,
        "baro_altitude": 11277.6,
        "on_ground": false,
        "velocity": 235.85,
        "true_track": 120.26,
        "vertical_rate": 0.33,
        "geo_altitude": 11910.06,
        "squawk": null,
        "spi": false,
        "position_source": 0
      }
    },
    {
      "type": "Feature",
      "geometry": {
        "type": "Point",
        "coordinates": [
          16.9619,
          38.0801
        ]
      },
      "properties": {
        "icao24": "3a4494",
        "callsign": "REU984",
        "origin_country": "France",
        "time_position": 1788307406,
        "last_contact": 1788307406,
        "baro_altitude": 8839.2,
        "on_ground": false,
        "velocity": 263.77,
        "true_track": 136.03,
        "vertical_rate": 0,
        "geo_altitude": 9395.46,
        "squawk": "7672",
        "spi": false,
        "position_source": 0
      }
    },
    {
      "type": "Feature",
      "geometry": {
        "type": "Point",
        "coordinates": [
          11.7746,
          35.1504
        ]
      },
      "properties": {
        "icao24": "4ba9e9",
        "callsign": "THY571",
        "origin_country": "Turkey",
        "time_position": 1788307406,
        "last_contact": 1788307406,
        "baro_altitude": 10972.8,
        "on_ground": false,
        "velocity": 236.21,
        "true_track": 245.56,
        "vertical_rate": 0,
        "geo_altitude": 11635.74,
        "squawk": "2347",
        "spi": false,
        "position_source": 0
      }
    },
    {
      "type": "Feature",
      "geometry": {
        "type": "Point",
        "coordinates": [
          18.9716,
          38.5383
        ]
      },
      "properties": {
        "icao24": "04004b",
        "callsign": "ETH518",
        "origin_country": "Ethiopia",
        "time_position": 1788307331,
        "last_contact": 1788307359,
        "baro_altitude": 12184.38,
        "on_ground": false,
        "velocity": 247.95,
        "true_track": 312.56,
        "vertical_rate": 0,
        "geo_altitude": 12854.94,
        "squawk": "4623",
        "spi": false,
        "position_source": 0
      }
    },
    {
      "type": "Feature",
      "geometry": {
        "type": "Point",
        "coordinates": [
          18.3647,
          42.9737
        ]
      },
      "properties": {
        "icao24": "407fac",
        "callsign": "TOM871",
        "origin_country": "United Kingdom",
        "time_position": 1788307406,
        "last_contact": 1788307406,
        "baro_altitude": 11582.4,
        "on_ground": false,
        "velocity": 228.52,
        "true_track": 329.57,
        "vertical_rate": 0,
        "geo_altitude": 12153.9,
        "squawk": "2067",
        "spi": false,
        "position_source": 0
      }
    },
    {
      "type": "Feature",
      "geometry": {
        "type": "Point",
        "coordinates": [
          16.1078,
          46.0115
        ]
      },
      "properties": {
        "icao24": "4ba949",
        "callsign": "THY4",
        "origin_country": "Turkey",
        "time_position": 1788307406,
        "last_contact": 1788307406,
        "baro_altitude": 11277.6,
        "on_ground": false,
        "velocity": 266.97,
        "true_track": 115.08,
        "vertical_rate": 0,
        "geo_altitude": 11734.8,
        "squawk": "1175",
        "spi": false,
        "position_source": 0
      }
    },
    {
      "type": "Feature",
      "geometry": {
        "type": "Point",
        "coordinates": [
          11.2587,
          46.4637
        ]
      },
      "properties": {
        "icao24": "48e9b9",
        "callsign": "ENT1PN",
        "origin_country": "Poland",
        "time_position": 1788307406,
        "last_contact": 1788307406,
        "baro_altitude": 11711.94,
        "on_ground": false,
        "velocity": 258.92,
        "true_track": 42.34,
        "vertical_rate": 2.28,
        "geo_altitude": 12153.9,
        "squawk": "1000",
        "spi": false,
        "position_source": 0
      }
    },
    {
      "type": "Feature",
      "geometry": {
        "type": "Point",
        "coordinates": [
          11.9378,
          45.7132
        ]
      },
      "properties": {
        "icao24": "744843",
        "callsign": "RJA266",
        "origin_country": "Jordan",
        "time_position": 1788307406,
        "last_contact": 1788307406,
        "baro_altitude": 11887.2,
        "on_ground": false,
        "velocity": 270.59,
        "true_track": 120.76,
        "vertical_rate": -0.33,
        "geo_altitude": 12359.64,
        "squawk": "2241",
        "spi": false,
        "position_source": 0
      }
    },
    {
      "type": "Feature",
      "geometry": {
        "type": "Point",
        "coordinates": [
          18.72,
          42.4564
        ]
      },
      "properties": {
        "icao24": "406e65",
        "callsign": "EZY41FQ",
        "origin_country": "United Kingdom",
        "time_position": 1788307406,
        "last_contact": 1788307406,
        "baro_altitude": 10363.2,
        "on_ground": false,
        "velocity": 225.18,
        "true_track": 325.33,
        "vertical_rate": 0,
        "geo_altitude": 10919.46,
        "squawk": null,
        "spi": false,
        "position_source": 0
      }
    },
    {
      "type": "Feature",
      "geometry": {
        "type": "Point",
        "coordinates": [
          14.5111,
          44.7029
        ]
      },
      "properties": {
        "icao24": "407ff4",
        "callsign": "WUK5302",
        "origin_country": "United Kingdom",
        "time_position": 1788307406,
        "last_contact": 1788307406,
        "baro_altitude": 10370.82,
        "on_ground": false,
        "velocity": 224.31,
        "true_track": 312.4,
        "vertical_rate": 0.33,
        "geo_altitude": 10873.74,
        "squawk": "0506",
        "spi": false,
        "position_source": 0
      }
    },
    {
      "type": "Feature",
      "geometry": {
        "type": "Point",
        "coordinates": [
          13.7571,
          46.4503
        ]
      },
      "properties": {
        "icao24": "407e54",
        "callsign": "EXS15QY",
        "origin_country": "United Kingdom",
        "time_position": 1788307406,
        "last_contact": 1788307406,
        "baro_altitude": 10972.8,
        "on_ground": false,
        "velocity": 216.58,
        "true_track": 312.98,
        "vertical_rate": 0,
        "geo_altitude": 11445.24,
        "squawk": "5205",
        "spi": false,
        "position_source": 0
      }
    },
    {
      "type": "Feature",
      "geometry": {
        "type": "Point",
        "coordinates": [
          14.9528,
          45.2711
        ]
      },
      "properties": {
        "icao24": "406b13",
        "callsign": "TOM50W",
        "origin_country": "United Kingdom",
        "time_position": 1788307407,
        "last_contact": 1788307407,
        "baro_altitude": 13098.78,
        "on_ground": false,
        "velocity": 233.02,
        "true_track": 319.03,
        "vertical_rate": -0.33,
        "geo_altitude": 13601.7,
        "squawk": "6627",
        "spi": false,
        "position_source": 0
      }
    },
    {
      "type": "Feature",
      "geometry": {
        "type": "Point",
        "coordinates": [
          17.0358,
          44.1673
        ]
      },
      "properties": {
        "icao24": "407f7c",
        "callsign": "EXS3TJ",
        "origin_country": "United Kingdom",
        "time_position": 1788307406,
        "last_contact": 1788307406,
        "baro_altitude": 11582.4,
        "on_ground": false,
        "velocity": 216.91,
        "true_track": 323.97,
        "vertical_rate": 0,
        "geo_altitude": 12108.18,
        "squawk": "7733",
        "spi": false,
        "position_source": 0
      }
    },
    {
      "type": "Feature",
      "geometry": {
        "type": "Point",
        "coordinates": [
          12.0533,
          37.8211
        ]
      },
      "properties": {
        "icao24": "49d00d",
        "callsign": "TVS2855",
        "origin_country": "Czech Republic",
        "time_position": 1788307406,
        "last_contact": 1788307406,
        "baro_altitude": 10972.8,
        "on_ground": false,
        "velocity": 229.71,
        "true_track": 9.02,
        "vertical_rate": 0,
        "geo_altitude": 11635.74,
        "squawk": "6177",
        "spi": false,
        "position_source": 0
      }
    },
    {
      "type": "Feature",
      "geometry": {
        "type": "Point",
        "coordinates": [
          12.824,
          46.7525
        ]
      },
      "properties": {
        "icao24": "407c26",
        "callsign": "TOM627",
        "origin_country": "United Kingdom",
        "time_position": 1788307407,
        "last_contact": 1788307407,
        "baro_altitude": 11582.4,
        "on_ground": false,
        "velocity": 206.04,
        "true_track": 299.96,
        "vertical_rate": -0.33,
        "geo_altitude": 12024.36,
        "squawk": "5326",
        "spi": false,
        "position_source": 0
      }
    },
    {
      "type": "Feature",
      "geometry": {
        "type": "Point",
        "coordinates": [
          16.9251,
          44.8544
        ]
      },
      "properties": {
        "icao24": "407c0a",
        "callsign": "TOM8FL",
        "origin_country": "United Kingdom",
        "time_position": 1788307406,
        "last_contact": 1788307406,
        "baro_altitude": 10965.18,
        "on_ground": false,
        "velocity": 218.77,
        "true_track": 323.99,
        "vertical_rate": 0,
        "geo_altitude": 11468.1,
        "squawk": "5501",
        "spi": false,
        "position_source": 0
      }
    },
    {
      "type": "Feature",
      "geometry": {
        "type": "Point",
        "coordinates": [
          11.5161,
          40.7689
        ]
      },
      "properties": {
        "icao24": "4bb847",
        "callsign": "PGT1742",
        "origin_country": "Turkey",
        "time_position": 1788307407,
        "last_contact": 1788307407,
        "baro_altitude": 11597.64,
        "on_ground": false,
        "velocity": 249.02,
        "true_track": 89.17,
        "vertical_rate": 0,
        "geo_altitude": 12214.86,
        "squawk": "2224",
        "spi": false,
        "position_source": 0
      }
    },
    {
      "type": "Feature",
      "geometry": {
        "type": "Point",
        "coordinates": [
          6.0434,
          44.3763
        ]
      },
      "properties": {
        "icao24": "4cc54b",
        "callsign": "ABD2610",
        "origin_country": "Iceland",
        "time_position": 1788307406,
        "last_contact": 1788307406,
        "baro_altitude": 10668,
        "on_ground": false,
        "velocity": 241.28,
        "true_track": 179.63,
        "vertical_rate": 0,
        "geo_altitude": 11132.82,
        "squawk": "0107",
        "spi": false,
        "position_source": 0
      }
    },
    {
      "type": "Feature",
      "geometry": {
        "type": "Point",
        "coordinates": [
          12.6326,
          41.7864
        ]
      },
      "properties": {
        "icao24": "80159f",
        "callsign": "AIC191",
        "origin_country": "India",
        "time_position": 1788307406,
        "last_contact": 1788307406,
        "baro_altitude": 3200.4,
        "on_ground": false,
        "velocity": 137.28,
        "true_track": 312.42,
        "vertical_rate": -10.08,
        "geo_altitude": 3467.1,
        "squawk": null,
        "spi": false,
        "position_source": 0
      }
    },
    {
      "type": "Feature",
      "geometry": {
        "type": "Point",
        "coordinates": [
          6.0316,
          44.9411
        ]
      },
      "properties": {
        "icao24": "40812d",
        "callsign": "EZY68YJ",
        "origin_country": "United Kingdom",
        "time_position": 1788307406,
        "last_contact": 1788307406,
        "baro_altitude": 10980.42,
        "on_ground": false,
        "velocity": 218.61,
        "true_track": 330.54,
        "vertical_rate": 0,
        "geo_altitude": 11460.48,
        "squawk": "4024",
        "spi": false,
        "position_source": 0
      }
    },
    {
      "type": "Feature",
      "geometry": {
        "type": "Point",
        "coordinates": [
          14.1481,
          35.3009
        ]
      },
      "properties": {
        "icao24": "43ee55",
        "callsign": "EAGLE3",
        "origin_country": "United Kingdom",
        "time_position": 1788307406,
        "last_contact": 1788307406,
        "baro_altitude": 2727.96,
        "on_ground": false,
        "velocity": 85.41,
        "true_track": 1.04,
        "vertical_rate": 0,
        "geo_altitude": 2979.42,
        "squawk": null,
        "spi": false,
        "position_source": 0
      }
    },
    {
      "type": "Feature",
      "geometry": {
        "type": "Point",
        "coordinates": [
          12.0469,
          46.2699
        ]
      },
      "properties": {
        "icao24": "408086",
        "callsign": "TOM225",
        "origin_country": "United Kingdom",
        "time_position": 1788307407,
        "last_contact": 1788307407,
        "baro_altitude": 11582.4,
        "on_ground": false,
        "velocity": 215.41,
        "true_track": 313.65,
        "vertical_rate": 0,
        "geo_altitude": 12039.6,
        "squawk": "2014",
        "spi": false,
        "position_source": 0
      }
    },
    {
      "type": "Feature",
      "geometry": {
        "type": "Point",
        "coordinates": [
          18.1486,
          42.1922
        ]
      },
      "properties": {
        "icao24": "40805d",
        "callsign": "WUK8QH",
        "origin_country": "United Kingdom",
        "time_position": 1788307395,
        "last_contact": 1788307406,
        "baro_altitude": 9814.56,
        "on_ground": false,
        "velocity": 218.63,
        "true_track": 314.71,
        "vertical_rate": 3.9,
        "geo_altitude": 10363.2,
        "squawk": null,
        "spi": false,
        "position_source": 0
      }
    },
    {
      "type": "Feature",
      "geometry": {
        "type": "Point",
        "coordinates": [
          15.5871,
          46.6412
        ]
      },
      "properties": {
        "icao24": "40803c",
        "callsign": "EXS5M",
        "origin_country": "United Kingdom",
        "time_position": 1788307406,
        "last_contact": 1788307407,
        "baro_altitude": 10972.8,
        "on_ground": false,
        "velocity": 216,
        "true_track": 329.83,
        "vertical_rate": 0,
        "geo_altitude": 11407.14,
        "squawk": "5522",
        "spi": false,
        "position_source": 0
      }
    },
    {
      "type": "Feature",
      "geometry": {
        "type": "Point",
        "coordinates": [
          9.8486,
          47.7917
        ]
      },
      "properties": {
        "icao24": "408213",
        "callsign": "EXS66Q",
        "origin_country": "United Kingdom",
        "time_position": 1788307406,
        "last_contact": 1788307406,
        "baro_altitude": 10972.8,
        "on_ground": false,
        "velocity": 212.47,
        "true_track": 298.49,
        "vertical_rate": 0,
        "geo_altitude": 11361.42,
        "squawk": "7540",
        "spi": false,
        "position_source": 0
      }
    },
    {
      "type": "Feature",
      "geometry": {
        "type": "Point",
        "coordinates": [
          13.7841,
          45.0302
        ]
      },
      "properties": {
        "icao24": "4a2aac",
        "callsign": "DNA412",
        "origin_country": "Romania",
        "time_position": 1788307407,
        "last_contact": 1788307407,
        "baro_altitude": 11277.6,
        "on_ground": false,
        "velocity": 248.39,
        "true_track": 85.01,
        "vertical_rate": 0,
        "geo_altitude": 11772.9,
        "squawk": "6024",
        "spi": false,
        "position_source": 0
      }
    },
    {
      "type": "Feature",
      "geometry": {
        "type": "Point",
        "coordinates": [
          10.2682,
          36.8375
        ]
      },
      "properties": {
        "icao24": "02a1ac",
        "callsign": "LBT587",
        "origin_country": "Tunisia",
        "time_position": 1788307104,
        "last_contact": 1788307115,
        "baro_altitude": 91.44,
        "on_ground": false,
        "velocity": 68.3,
        "true_track": 292.12,
        "vertical_rate": -3.25,
        "geo_altitude": 182.88,
        "squawk": null,
        "spi": false,
        "position_source": 0
      }
    },
    {
      "type": "Feature",
      "geometry": {
        "type": "Point",
        "coordinates": [
          10.3144,
          37.2472
        ]
      },
      "properties": {
        "icao24": "02a1ab",
        "callsign": "LBT521",
        "origin_country": "Tunisia",
        "time_position": 1788307390,
        "last_contact": 1788307391,
        "baro_altitude": 1836.42,
        "on_ground": false,
        "velocity": 146.96,
        "true_track": 187.85,
        "vertical_rate": -7.15,
        "geo_altitude": 2049.78,
        "squawk": "7671",
        "spi": false,
        "position_source": 0
      }
    },
    {
      "type": "Feature",
      "geometry": {
        "type": "Point",
        "coordinates": [
          9.8409,
          46.6412
        ]
      },
      "properties": {
        "icao24": "408183",
        "callsign": "EZY89KT",
        "origin_country": "United Kingdom",
        "time_position": 1788307406,
        "last_contact": 1788307406,
        "baro_altitude": 11582.4,
        "on_ground": false,
        "velocity": 203.93,
        "true_track": 306.9,
        "vertical_rate": 0.33,
        "geo_altitude": 12009.12,
        "squawk": "7526",
        "spi": false,
        "position_source": 0
      }
    },
    {
      "type": "Feature",
      "geometry": {
        "type": "Point",
        "coordinates": [
          14.4918,
          46.1769
        ]
      },
      "properties": {
        "icao24": "738c0a",
        "callsign": "ICL612",
        "origin_country": "Israel",
        "time_position": 1788307406,
        "last_contact": 1788307406,
        "baro_altitude": 11285.22,
        "on_ground": false,
        "velocity": 244.8,
        "true_track": 138.07,
        "vertical_rate": 0,
        "geo_altitude": 11704.32,
        "squawk": "6032",
        "spi": false,
        "position_source": 0
      }
    },
    {
      "type": "Feature",
      "geometry": {
        "type": "Point",
        "coordinates": [
          14.6079,
          44.0572
        ]
      },
      "properties": {
        "icao24": "408000",
        "callsign": "EZY75EJ",
        "origin_country": "United Kingdom",
        "time_position": 1788307407,
        "last_contact": 1788307407,
        "baro_altitude": 11574.78,
        "on_ground": false,
        "velocity": 211.84,
        "true_track": 316.97,
        "vertical_rate": 0,
        "geo_altitude": 12108.18,
        "squawk": "5513",
        "spi": false,
        "position_source": 0
      }
    },
    {
      "type": "Feature",
      "geometry": {
        "type": "Point",
        "coordinates": [
          6.3481,
          43.5502
        ]
      },
      "properties": {
        "icao24": "ace61a",
        "callsign": "TWY930",
        "origin_country": "United States",
        "time_position": 1788307406,
        "last_contact": 1788307406,
        "baro_altitude": 3169.92,
        "on_ground": false,
        "velocity": 164.72,
        "true_track": 102.99,
        "vertical_rate": -6.18,
        "geo_altitude": 3413.76,
        "squawk": "1000",
        "spi": false,
        "position_source": 0
      }
    },
    {
      "type": "Feature",
      "geometry": {
        "type": "Point",
        "coordinates": [
          8.5626,
          47.456
        ]
      },
      "properties": {
        "icao24": "4b5c37",
        "callsign": "URSULA6",
        "origin_country": "Switzerland",
        "time_position": 1788307406,
        "last_contact": 1788307406,
        "baro_altitude": null,
        "on_ground": true,
        "velocity": 0.06,
        "true_track": 258.75,
        "vertical_rate": null,
        "geo_altitude": null,
        "squawk": null,
        "spi": false,
        "position_source": 0
      }
    },
    {
      "type": "Feature",
      "geometry": {
        "type": "Point",
        "coordinates": [
          6.9992,
          41.5378
        ]
      },
      "properties": {
        "icao24": "4841c5",
        "callsign": "MPH8321",
        "origin_country": "Kingdom of the Netherlands",
        "time_position": 1788307406,
        "last_contact": 1788307406,
        "baro_altitude": 10073.64,
        "on_ground": false,
        "velocity": 241.8,
        "true_track": 179.39,
        "vertical_rate": 0,
        "geo_altitude": 10591.8,
        "squawk": "3132",
        "spi": false,
        "position_source": 0
      }
    },
    {
      "type": "Feature",
      "geometry": {
        "type": "Point",
        "coordinates": [
          13.9559,
          38.2815
        ]
      },
      "properties": {
        "icao24": "02a197",
        "callsign": "TAR216",
        "origin_country": "Tunisia",
        "time_position": 1788307406,
        "last_contact": 1788307406,
        "baro_altitude": 10675.62,
        "on_ground": false,
        "velocity": 248.17,
        "true_track": 74.12,
        "vertical_rate": 0,
        "geo_altitude": 11323.32,
        "squawk": "6160",
        "spi": false,
        "position_source": 0
      }
    },
    {
      "type": "Feature",
      "geometry": {
        "type": "Point",
        "coordinates": [
          9.5315,
          47.0766
        ]
      },
      "properties": {
        "icao24": "405e24",
        "callsign": "TOM4TG",
        "origin_country": "United Kingdom",
        "time_position": 1788307407,
        "last_contact": 1788307407,
        "baro_altitude": 12496.8,
        "on_ground": false,
        "velocity": 239.15,
        "true_track": 125.81,
        "vertical_rate": 0.33,
        "geo_altitude": 12885.42,
        "squawk": "5233",
        "spi": false,
        "position_source": 0
      }
    },
    {
      "type": "Feature",
      "geometry": {
        "type": "Point",
        "coordinates": [
          6.3816,
          43.1654
        ]
      },
      "properties": {
        "icao24": "501c4a",
        "callsign": "CTN8701",
        "origin_country": "Croatia",
        "time_position": 1788307407,
        "last_contact": 1788307407,
        "baro_altitude": 10972.8,
        "on_ground": false,
        "velocity": 249.26,
        "true_track": 56.28,
        "vertical_rate": 0,
        "geo_altitude": 11483.34,
        "squawk": "1000",
        "spi": false,
        "position_source": 0
      }
    },
    {
      "type": "Feature",
      "geometry": {
        "type": "Point",
        "coordinates": [
          13.4894,
          46.3331
        ]
      },
      "properties": {
        "icao24": "448466",
        "callsign": "CHG501",
        "origin_country": "Belgium",
        "time_position": 1788307406,
        "last_contact": 1788307407,
        "baro_altitude": 11582.4,
        "on_ground": false,
        "velocity": 229.81,
        "true_track": 320.36,
        "vertical_rate": 0,
        "geo_altitude": 11993.88,
        "squawk": "1142",
        "spi": false,
        "position_source": 0
      }
    },
    {
      "type": "Feature",
      "geometry": {
        "type": "Point",
        "coordinates": [
          11.0496,
          36.6617
        ]
      },
      "properties": {
        "icao24": "4bcced",
        "callsign": "THY6114",
        "origin_country": "Turkey",
        "time_position": 1788307405,
        "last_contact": 1788307406,
        "baro_altitude": 3246.12,
        "on_ground": false,
        "velocity": 177.02,
        "true_track": 276.34,
        "vertical_rate": -3.58,
        "geo_altitude": 3535.68,
        "squawk": "2301",
        "spi": false,
        "position_source": 0
      }
    },
    {
      "type": "Feature",
      "geometry": {
        "type": "Point",
        "coordinates": [
          18.4379,
          42.7696
        ]
      },
      "properties": {
        "icao24": "407666",
        "callsign": "EZY41GE",
        "origin_country": "United Kingdom",
        "time_position": 1788307403,
        "last_contact": 1788307403,
        "baro_altitude": 10363.2,
        "on_ground": false,
        "velocity": 226.24,
        "true_track": 324.72,
        "vertical_rate": 0.33,
        "geo_altitude": 10911.84,
        "squawk": null,
        "spi": false,
        "position_source": 0
      }
    },
    {
      "type": "Feature",
      "geometry": {
        "type": "Point",
        "coordinates": [
          10.444,
          47.3211
        ]
      },
      "properties": {
        "icao24": "407667",
        "callsign": "EZY15JF",
        "origin_country": "United Kingdom",
        "time_position": 1788307406,
        "last_contact": 1788307407,
        "baro_altitude": 10965.18,
        "on_ground": false,
        "velocity": 205.75,
        "true_track": 300.67,
        "vertical_rate": 0,
        "geo_altitude": 11361.42,
        "squawk": "2254",
        "spi": false,
        "position_source": 0
      }
    },
    {
      "type": "Feature",
      "geometry": {
        "type": "Point",
        "coordinates": [
          13.8651,
          44.9568
        ]
      },
      "properties": {
        "icao24": "40768a",
        "callsign": "EZY98FB",
        "origin_country": "United Kingdom",
        "time_position": 1788307406,
        "last_contact": 1788307407,
        "baro_altitude": 10972.8,
        "on_ground": false,
        "velocity": 219.35,
        "true_track": 309.29,
        "vertical_rate": 0,
        "geo_altitude": 11460.48,
        "squawk": "2017",
        "spi": false,
        "position_source": 0
      }
    },
    {
      "type": "Feature",
      "geometry": {
        "type": "Point",
        "coordinates": [
          10.3306,
          46.6348
        ]
      },
      "properties": {
        "icao24": "40767a",
        "callsign": "TOM30A",
        "origin_country": "United Kingdom",
        "time_position": 1788307406,
        "last_contact": 1788307406,
        "baro_altitude": 10363.2,
        "on_ground": false,
        "velocity": 217.09,
        "true_track": 305.16,
        "vertical_rate": 0,
        "geo_altitude": 10782.3,
        "squawk": "0517",
        "spi": false,
        "position_source": 0
      }
    },
    {
      "type": "Feature",
      "geometry": {
        "type": "Point",
        "coordinates": [
          11.5276,
          39.5538
        ]
      },
      "properties": {
        "icao24": "4cafcb",
        "callsign": "MSA61P",
        "origin_country": "Ireland",
        "time_position": 1788307406,
        "last_contact": 1788307406,
        "baro_altitude": 8884.92,
        "on_ground": false,
        "velocity": 238.95,
        "true_track": 142,
        "vertical_rate": -4.55,
        "geo_altitude": 9387.84,
        "squawk": null,
        "spi": false,
        "position_source": 0
      }
    },
    {
      "type": "Feature",
      "geometry": {
        "type": "Point",
        "coordinates": [
          17.3051,
          44.2696
        ]
      },
      "properties": {
        "icao24": "01024e",
        "callsign": "MSC2918",
        "origin_country": "Egypt",
        "time_position": 1788307407,
        "last_contact": 1788307407,
        "baro_altitude": 10972.8,
        "on_ground": false,
        "velocity": 220.04,
        "true_track": 328.58,
        "vertical_rate": 0,
        "geo_altitude": 11513.82,
        "squawk": "2034",
        "spi": false,
        "position_source": 0
      }
    },
    {
      "type": "Feature",
      "geometry": {
        "type": "Point",
        "coordinates": [
          17.9254,
          43.3599
        ]
      },
      "properties": {
        "icao24": "01026b",
        "callsign": "NIA8404",
        "origin_country": "Egypt",
        "time_position": 1788307406,
        "last_contact": 1788307406,
        "baro_altitude": 10668,
        "on_ground": false,
        "velocity": 245.7,
        "true_track": 140.78,
        "vertical_rate": 0,
        "geo_altitude": 11201.4,
        "squawk": "0630",
        "spi": false,
        "position_source": 0
      }
    },
    {
      "type": "Feature",
      "geometry": {
        "type": "Point",
        "coordinates": [
          6.8316,
          45.0716
        ]
      },
      "properties": {
        "icao24": "01028a",
        "callsign": "MSR986",
        "origin_country": "Egypt",
        "time_position": 1788307407,
        "last_contact": 1788307407,
        "baro_altitude": 11887.2,
        "on_ground": false,
        "velocity": 274.47,
        "true_track": 105.55,
        "vertical_rate": 0,
        "geo_altitude": 12329.16,
        "squawk": "0413",
        "spi": false,
        "position_source": 0
      }
    },
    {
      "type": "Feature",
      "geometry": {
        "type": "Point",
        "coordinates": [
          11.9776,
          46.4241
        ]
      },
      "properties": {
        "icao24": "4075f4",
        "callsign": "TOM2EB",
        "origin_country": "United Kingdom",
        "time_position": 1788307406,
        "last_contact": 1788307406,
        "baro_altitude": 11277.6,
        "on_ground": false,
        "velocity": 215.36,
        "true_track": 314.42,
        "vertical_rate": 0.33,
        "geo_altitude": 11719.56,
        "squawk": "0501",
        "spi": false,
        "position_source": 0
      }
    },
    {
      "type": "Feature",
      "geometry": {
        "type": "Point",
        "coordinates": [
          17.7601,
          40.6902
        ]
      },
      "properties": {
        "icao24": "4d24f7",
        "callsign": "HYP011",
        "origin_country": "Malta",
        "time_position": 1788307401,
        "last_contact": 1788307406,
        "baro_altitude": 12192,
        "on_ground": false,
        "velocity": 232.41,
        "true_track": 275.08,
        "vertical_rate": -0.33,
        "geo_altitude": 12847.32,
        "squawk": "2340",
        "spi": false,
        "position_source": 0
      }
    },
    {
      "type": "Feature",
      "geometry": {
        "type": "Point",
        "coordinates": [
          11.5319,
          44.2933
        ]
      },
      "properties": {
        "icao24": "0101db",
        "callsign": "MSR996",
        "origin_country": "Egypt",
        "time_position": 1788307406,
        "last_contact": 1788307406,
        "baro_altitude": 11887.2,
        "on_ground": false,
        "velocity": 273.87,
        "true_track": 103.8,
        "vertical_rate": 0,
        "geo_altitude": 12397.74,
        "squawk": "1144",
        "spi": false,
        "position_source": 0
      }
    },
    {
      "type": "Feature",
      "geometry": {
        "type": "Point",
        "coordinates": [
          13.8947,
          41.2477
        ]
      },
      "properties": {
        "icao24": "4cae05",
        "callsign": "NOS2875",
        "origin_country": "Ireland",
        "time_position": 1788307406,
        "last_contact": 1788307406,
        "baro_altitude": 9326.88,
        "on_ground": false,
        "velocity": 223.83,
        "true_track": 292.14,
        "vertical_rate": -17.56,
        "geo_altitude": 9906,
        "squawk": null,
        "spi": false,
        "position_source": 0
      }
    },
    {
      "type": "Feature",
      "geometry": {
        "type": "Point",
        "coordinates": [
          16.6132,
          47.7859
        ]
      },
      "properties": {
        "icao24": "4d22ae",
        "callsign": "RYR9771",
        "origin_country": "Malta",
        "time_position": 1788307407,
        "last_contact": 1788307407,
        "baro_altitude": 2004.06,
        "on_ground": false,
        "velocity": 138.7,
        "true_track": 42.75,
        "vertical_rate": -3.58,
        "geo_altitude": 2186.94,
        "squawk": "1000",
        "spi": false,
        "position_source": 0
      }
    },
    {
      "type": "Feature",
      "geometry": {
        "type": "Point",
        "coordinates": [
          11.3909,
          40.9171
        ]
      },
      "properties": {
        "icao24": "4d2384",
        "callsign": "RYR4CJ",
        "origin_country": "Malta",
        "time_position": 1788307406,
        "last_contact": 1788307406,
        "baro_altitude": 11887.2,
        "on_ground": false,
        "velocity": 235.2,
        "true_track": 158.04,
        "vertical_rate": 0,
        "geo_altitude": 12504.42,
        "squawk": "1267",
        "spi": false,
        "position_source": 0
      }
    },
    {
      "type": "Feature",
      "geometry": {
        "type": "Point",
        "coordinates": [
          18.2239,
          44.1719
        ]
      },
      "properties": {
        "icao24": "4070f0",
        "callsign": "EXS87ET",
        "origin_country": "United Kingdom",
        "time_position": 1788307406,
        "last_contact": 1788307407,
        "baro_altitude": 10972.8,
        "on_ground": false,
        "velocity": 209.24,
        "true_track": 313.51,
        "vertical_rate": 0,
        "geo_altitude": 11483.34,
        "squawk": "6637",
        "spi": false,
        "position_source": 0
      }
    },
    {
      "type": "Feature",
      "geometry": {
        "type": "Point",
        "coordinates": [
          14.7108,
          35.5583
        ]
      },
      "properties": {
        "icao24": "4d20ea",
        "callsign": "AS2633",
        "origin_country": "Malta",
        "time_position": 1788307406,
        "last_contact": 1788307407,
        "baro_altitude": 1463.04,
        "on_ground": false,
        "velocity": 40.46,
        "true_track": 131.39,
        "vertical_rate": 0,
        "geo_altitude": 1600.2,
        "squawk": "3632",
        "spi": false,
        "position_source": 0
      }
    },
    {
      "type": "Feature",
      "geometry": {
        "type": "Point",
        "coordinates": [
          15.4357,
          37.6088
        ]
      },
      "properties": {
        "icao24": "4cabf8",
        "callsign": "MSA92C",
        "origin_country": "Ireland",
        "time_position": 1788307405,
        "last_contact": 1788307407,
        "baro_altitude": 1722.12,
        "on_ground": false,
        "velocity": 144.95,
        "true_track": 197.98,
        "vertical_rate": -8.13,
        "geo_altitude": 1897.38,
        "squawk": "4663",
        "spi": false,
        "position_source": 0
      }
    },
    {
      "type": "Feature",
      "geometry": {
        "type": "Point",
        "coordinates": [
          15.8837,
          35.6513
        ]
      },
      "properties": {
        "icao24": "710055",
        "callsign": "SVA342",
        "origin_country": "Saudi Arabia",
        "time_position": 1788307407,
        "last_contact": 1788307407,
        "baro_altitude": 10668,
        "on_ground": false,
        "velocity": 254.49,
        "true_track": 97.9,
        "vertical_rate": 0,
        "geo_altitude": 11308.08,
        "squawk": "4107",
        "spi": false,
        "position_source": 0
      }
    },
    {
      "type": "Feature",
      "geometry": {
        "type": "Point",
        "coordinates": [
          18.942,
          38.5195
        ]
      },
      "properties": {
        "icao24": "4cac36",
        "callsign": "NOS9030",
        "origin_country": "Ireland",
        "time_position": 1788307386,
        "last_contact": 1788307386,
        "baro_altitude": 10668,
        "on_ground": false,
        "velocity": 241.13,
        "true_track": 109.44,
        "vertical_rate": 0,
        "geo_altitude": 11300.46,
        "squawk": "1245",
        "spi": false,
        "position_source": 0
      }
    },
    {
      "type": "Feature",
      "geometry": {
        "type": "Point",
        "coordinates": [
          12.7261,
          47.1208
        ]
      },
      "properties": {
        "icao24": "408347",
        "callsign": "EXS4SL",
        "origin_country": "United Kingdom",
        "time_position": 1788307406,
        "last_contact": 1788307407,
        "baro_altitude": 10972.8,
        "on_ground": false,
        "velocity": 208.18,
        "true_track": 307.97,
        "vertical_rate": -0.33,
        "geo_altitude": 11399.52,
        "squawk": "5357",
        "spi": false,
        "position_source": 0
      }
    },
    {
      "type": "Feature",
      "geometry": {
        "type": "Point",
        "coordinates": [
          12.6361,
          47.3433
        ]
      },
      "properties": {
        "icao24": "408386",
        "callsign": "EZY9001",
        "origin_country": "United Kingdom",
        "time_position": 1788307406,
        "last_contact": 1788307406,
        "baro_altitude": 11567.16,
        "on_ground": false,
        "velocity": 191.88,
        "true_track": 297.11,
        "vertical_rate": 0,
        "geo_altitude": 11963.4,
        "squawk": "5212",
        "spi": false,
        "position_source": 0
      }
    },
    {
      "type": "Feature",
      "geometry": {
        "type": "Point",
        "coordinates": [
          14.8208,
          38.5526
        ]
      },
      "properties": {
        "icao24": "710112",
        "callsign": "SVA022",
        "origin_country": "Saudi Arabia",
        "time_position": 1788307407,
        "last_contact": 1788307407,
        "baro_altitude": 10972.8,
        "on_ground": false,
        "velocity": 257.41,
        "true_track": 114.31,
        "vertical_rate": 0,
        "geo_altitude": 11620.5,
        "squawk": "1275",
        "spi": false,
        "position_source": 0
      }
    },
    {
      "type": "Feature",
      "geometry": {
        "type": "Point",
        "coordinates": [
          12.5848,
          46.8473
        ]
      },
      "properties": {
        "icao24": "408314",
        "callsign": "TOM9WJ",
        "origin_country": "United Kingdom",
        "time_position": 1788307407,
        "last_contact": 1788307407,
        "baro_altitude": 11582.4,
        "on_ground": false,
        "velocity": 206.74,
        "true_track": 300.01,
        "vertical_rate": 0,
        "geo_altitude": 12016.74,
        "squawk": "1331",
        "spi": false,
        "position_source": 0
      }
    },
    {
      "type": "Feature",
      "geometry": {
        "type": "Point",
        "coordinates": [
          7.5248,
          47.5967
        ]
      },
      "properties": {
        "icao24": "38c7ff",
        "callsign": "TECH18",
        "origin_country": "France",
        "time_position": 1788307406,
        "last_contact": 1788307406,
        "baro_altitude": null,
        "on_ground": true,
        "velocity": 11.32,
        "true_track": 334.69,
        "vertical_rate": null,
        "geo_altitude": null,
        "squawk": null,
        "spi": false,
        "position_source": 0
      }
    }
  ]
}