{
  "type": "FeatureCollection",
  "source": "opensky",
  "dataset": "aircraft_italy",
  "generated_at": "2026-07-21T01:12:14.315312+00:00",
  "opensky_time": 1784596329,
  "count": 99,
  "features": [
    {
      "type": "Feature",
      "geometry": {
        "type": "Point",
        "coordinates": [
          12.7591,
          41.6574
        ]
      },
      "properties": {
        "icao24": "471efc",
        "callsign": "WMT4RQ",
        "origin_country": "Hungary",
        "time_position": 1784596329,
        "last_contact": 1784596329,
        "baro_altitude": 10980.42,
        "on_ground": false,
        "velocity": 260.93,
        "true_track": 75.03,
        "vertical_rate": -0.33,
        "geo_altitude": 11574.78,
        "squawk": "5575",
        "spi": false,
        "position_source": 0
      }
    },
    {
      "type": "Feature",
      "geometry": {
        "type": "Point",
        "coordinates": [
          11.8554,
          40.102
        ]
      },
      "properties": {
        "icao24": "46b835",
        "callsign": "AEE713",
        "origin_country": "Greece",
        "time_position": 1784596329,
        "last_contact": 1784596329,
        "baro_altitude": 11285.22,
        "on_ground": false,
        "velocity": 266.25,
        "true_track": 101.59,
        "vertical_rate": 0,
        "geo_altitude": 11940.54,
        "squawk": "1412",
        "spi": false,
        "position_source": 0
      }
    },
    {
      "type": "Feature",
      "geometry": {
        "type": "Point",
        "coordinates": [
          7.504,
          44.6174
        ]
      },
      "properties": {
        "icao24": "34310d",
        "callsign": "BCS7CK",
        "origin_country": "Spain",
        "time_position": 1784596329,
        "last_contact": 1784596329,
        "baro_altitude": 10256.52,
        "on_ground": false,
        "velocity": 192.38,
        "true_track": 240.35,
        "vertical_rate": 7.8,
        "geo_altitude": 10721.34,
        "squawk": "1000",
        "spi": false,
        "position_source": 0
      }
    },
    {
      "type": "Feature",
      "geometry": {
        "type": "Point",
        "coordinates": [
          8.6031,
          39.9977
        ]
      },
      "properties": {
        "icao24": "34440b",
        "callsign": "VLG2693",
        "origin_country": "Spain",
        "time_position": 1784596329,
        "last_contact": 1784596329,
        "baro_altitude": 10957.56,
        "on_ground": false,
        "velocity": 225.75,
        "true_track": 332.15,
        "vertical_rate": 0.33,
        "geo_altitude": 11628.12,
        "squawk": "6150",
        "spi": false,
        "position_source": 0
      }
    },
    {
      "type": "Feature",
      "geometry": {
        "type": "Point",
        "coordinates": [
          17.0866,
          40.0837
        ]
      },
      "properties": {
        "icao24": "801600",
        "callsign": "AIC101",
        "origin_country": "India",
        "time_position": 1784596328,
        "last_contact": 1784596329,
        "baro_altitude": 12192,
        "on_ground": false,
        "velocity": 229.23,
        "true_track": 298.12,
        "vertical_rate": 0.33,
        "geo_altitude": 12870.18,
        "squawk": "2020",
        "spi": false,
        "position_source": 0
      }
    },
    {
      "type": "Feature",
      "geometry": {
        "type": "Point",
        "coordinates": [
          16.6079,
          47.3933
        ]
      },
      "properties": {
        "icao24": "4aca13",
        "callsign": "NSZ3353",
        "origin_country": "Sweden",
        "time_position": 1784596329,
        "last_contact": 1784596329,
        "baro_altitude": 10972.8,
        "on_ground": false,
        "velocity": 220.48,
        "true_track": 338.22,
        "vertical_rate": 0,
        "geo_altitude": 11308.08,
        "squawk": "2072",
        "spi": false,
        "position_source": 0
      }
    },
    {
      "type": "Feature",
      "geometry": {
        "type": "Point",
        "coordinates": [
          17.1416,
          47.7183
        ]
      },
      "properties": {
        "icao24": "4bc896",
        "callsign": "PGT80PT",
        "origin_country": "Turkey",
        "time_position": 1784596329,
        "last_contact": 1784596329,
        "baro_altitude": 10668,
        "on_ground": false,
        "velocity": 268.81,
        "true_track": 123.84,
        "vertical_rate": -0.33,
        "geo_altitude": 11010.9,
        "squawk": "2226",
        "spi": false,
        "position_source": 0
      }
    },
    {
      "type": "Feature",
      "geometry": {
        "type": "Point",
        "coordinates": [
          10.4348,
          42.7721
        ]
      },
      "properties": {
        "icao24": "738075",
        "callsign": "ELY001",
        "origin_country": "Israel",
        "time_position": 1784596329,
        "last_contact": 1784596329,
        "baro_altitude": 10363.2,
        "on_ground": false,
        "velocity": 215.8,
        "true_track": 290.08,
        "vertical_rate": 0,
        "geo_altitude": 10911.84,
        "squawk": "4147",
        "spi": false,
        "position_source": 0
      }
    },
    {
      "type": "Feature",
      "geometry": {
        "type": "Point",
        "coordinates": [
          16.658,
          44.041
        ]
      },
      "properties": {
        "icao24": "8960e7",
        "callsign": "UAE28Y",
        "origin_country": "United Arab Emirates",
        "time_position": 1784596328,
        "last_contact": 1784596328,
        "baro_altitude": 11277.6,
        "on_ground": false,
        "velocity": 289.32,
        "true_track": 136.66,
        "vertical_rate": 0,
        "geo_altitude": 11788.14,
        "squawk": "5230",
        "spi": false,
        "position_source": 0
      }
    },
    {
      "type": "Feature",
      "geometry": {
        "type": "Point",
        "coordinates": [
          17.6025,
          45.0575
        ]
      },
      "properties": {
        "icao24": "471d69",
        "callsign": "WZZ9198",
        "origin_country": "Hungary",
        "time_position": 1784596329,
        "last_contact": 1784596329,
        "baro_altitude": 10187.94,
        "on_ground": false,
        "velocity": 255.95,
        "true_track": 73.9,
        "vertical_rate": -5.2,
        "geo_altitude": 10622.28,
        "squawk": "0474",
        "spi": false,
        "position_source": 0
      }
    },
    {
      "type": "Feature",
      "geometry": {
        "type": "Point",
        "coordinates": [
          16.8443,
          44.6297
        ]
      },
      "properties": {
        "icao24": "738101",
        "callsign": "ELY018",
        "origin_country": "Israel",
        "time_position": 1784596329,
        "last_contact": 1784596329,
        "baro_altitude": 11879.58,
        "on_ground": false,
        "velocity": 288.36,
        "true_track": 128.12,
        "vertical_rate": 0,
        "geo_altitude": 12397.74,
        "squawk": "2203",
        "spi": false,
        "position_source": 0
      }
    },
    {
      "type": "Feature",
      "geometry": {
        "type": "Point",
        "coordinates": [
          18.9781,
          43.6061
        ]
      },
      "properties": {
        "icao24": "452198",
        "callsign": "EAF9155",
        "origin_country": "Bulgaria",
        "time_position": 1784596329,
        "last_contact": 1784596329,
        "baro_altitude": 10347.96,
        "on_ground": false,
        "velocity": 211.89,
        "true_track": 349.51,
        "vertical_rate": 0,
        "geo_altitude": 10843.26,
        "squawk": "5625",
        "spi": false,
        "position_source": 0
      }
    },
    {
      "type": "Feature",
      "geometry": {
        "type": "Point",
        "coordinates": [
          7.9502,
          46.9117
        ]
      },
      "properties": {
        "icao24": "471dbf",
        "callsign": "WZZ168",
        "origin_country": "Hungary",
        "time_position": 1784596328,
        "last_contact": 1784596328,
        "baro_altitude": 10980.42,
        "on_ground": false,
        "velocity": 268.12,
        "true_track": 66.24,
        "vertical_rate": 0.33,
        "geo_altitude": 11391.9,
        "squawk": null,
        "spi": false,
        "position_source": 0
      }
    },
    {
      "type": "Feature",
      "geometry": {
        "type": "Point",
        "coordinates": [
          17.8254,
          41.1363
        ]
      },
      "properties": {
        "icao24": "300a44",
        "callsign": "LSI192",
        "origin_country": "Italy",
        "time_position": 1784596329,
        "last_contact": 1784596329,
        "baro_altitude": 10363.2,
        "on_ground": false,
        "velocity": 228.57,
        "true_track": 274.39,
        "vertical_rate": 0,
        "geo_altitude": 10949.94,
        "squawk": "2312",
        "spi": false,
        "position_source": 0
      }
    },
    {
      "type": "Feature",
      "geometry": {
        "type": "Point",
        "coordinates": [
          6.8002,
          43.6464
        ]
      },
      "properties": {
        "icao24": "7380c3",
        "callsign": "ELY027",
        "origin_country": "Israel",
        "time_position": 1784596329,
        "last_contact": 1784596329,
        "baro_altitude": 10363.2,
        "on_ground": false,
        "velocity": 215.33,
        "true_track": 279.35,
        "vertical_rate": -0.33,
        "geo_altitude": 10881.36,
        "squawk": "4013",
        "spi": false,
        "position_source": 0
      }
    },
    {
      "type": "Feature",
      "geometry": {
        "type": "Point",
        "coordinates": [
          18.292,
          44.0889
        ]
      },
      "properties": {
        "icao24": "7380ca",
        "callsign": "ELY028",
        "origin_country": "Israel",
        "time_position": 1784596329,
        "last_contact": 1784596329,
        "baro_altitude": 11879.58,
        "on_ground": false,
        "velocity": 281.99,
        "true_track": 136.26,
        "vertical_rate": 0.33,
        "geo_altitude": 12420.6,
        "squawk": "5226",
        "spi": false,
        "position_source": 0
      }
    },
    {
      "type": "Feature",
      "geometry": {
        "type": "Point",
        "coordinates": [
          8.5392,
          44.9175
        ]
      },
      "properties": {
        "icao24": "020145",
        "callsign": "MAC456Y",
        "origin_country": "Morocco",
        "time_position": 1784596329,
        "last_contact": 1784596329,
        "baro_altitude": 8702.04,
        "on_ground": false,
        "velocity": 186.77,
        "true_track": 250.87,
        "vertical_rate": 6.5,
        "geo_altitude": 9128.76,
        "squawk": "0406",
        "spi": false,
        "position_source": 0
      }
    },
    {
      "type": "Feature",
      "geometry": {
        "type": "Point",
        "coordinates": [
          6.4465,
          40.9811
        ]
      },
      "properties": {
        "icao24": "345359",
        "callsign": "VLG2KQ",
        "origin_country": "Spain",
        "time_position": 1784596329,
        "last_contact": 1784596329,
        "baro_altitude": 10058.4,
        "on_ground": false,
        "velocity": 207.21,
        "true_track": 273.56,
        "vertical_rate": 0,
        "geo_altitude": 10645.14,
        "squawk": "1000",
        "spi": false,
        "position_source": 0
      }
    },
    {
      "type": "Feature",
      "geometry": {
        "type": "Point",
        "coordinates": [
          16.1656,
          37.2448
        ]
      },
      "properties": {
        "icao24": "8963d2",
        "callsign": "UAE2X",
        "origin_country": "United Arab Emirates",
        "time_position": 1784596329,
        "last_contact": 1784596329,
        "baro_altitude": 10668,
        "on_ground": false,
        "velocity": 275.53,
        "true_track": 119.53,
        "vertical_rate": 0,
        "geo_altitude": 11353.8,
        "squawk": "4303",
        "spi": false,
        "position_source": 0
      }
    },
    {
      "type": "Feature",
      "geometry": {
        "type": "Point",
        "coordinates": [
          9.8939,
          46.7508
        ]
      },
      "properties": {
        "icao24": "4bb185",
        "callsign": "THY84U",
        "origin_country": "Turkey",
        "time_position": 1784596329,
        "last_contact": 1784596329,
        "baro_altitude": 11879.58,
        "on_ground": false,
        "velocity": 280.8,
        "true_track": 114.92,
        "vertical_rate": 0.33,
        "geo_altitude": 12291.06,
        "squawk": "0251",
        "spi": false,
        "position_source": 0
      }
    },
    {
      "type": "Feature",
      "geometry": {
        "type": "Point",
        "coordinates": [
          17.2974,
          37.2557
        ]
      },
      "properties": {
        "icao24": "4bb155",
        "callsign": "THY6198",
        "origin_country": "Turkey",
        "time_position": 1784596329,
        "last_contact": 1784596329,
        "baro_altitude": 12496.8,
        "on_ground": false,
        "velocity": 261.17,
        "true_track": 42.05,
        "vertical_rate": 0,
        "geo_altitude": 13251.18,
        "squawk": "4107",
        "spi": false,
        "position_source": 0
      }
    },
    {
      "type": "Feature",
      "geometry": {
        "type": "Point",
        "coordinates": [
          17.3814,
          47.3243
        ]
      },
      "properties": {
        "icao24": "4bb19a",
        "callsign": "THY182",
        "origin_country": "Turkey",
        "time_position": 1784596329,
        "last_contact": 1784596329,
        "baro_altitude": 10355.58,
        "on_ground": false,
        "velocity": 218.06,
        "true_track": 298.92,
        "vertical_rate": -0.33,
        "geo_altitude": 10683.24,
        "squawk": "5325",
        "spi": false,
        "position_source": 0
      }
    },
    {
      "type": "Feature",
      "geometry": {
        "type": "Point",
        "coordinates": [
          11.0305,
          47.4191
        ]
      },
      "properties": {
        "icao24": "896462",
        "callsign": "ETD8MY",
        "origin_country": "United Arab Emirates",
        "time_position": 1784596329,
        "last_contact": 1784596329,
        "baro_altitude": 11277.6,
        "on_ground": false,
        "velocity": 276.32,
        "true_track": 117.14,
        "vertical_rate": 0,
        "geo_altitude": 11635.74,
        "squawk": "2212",
        "spi": false,
        "position_source": 0
      }
    },
    {
      "type": "Feature",
      "geometry": {
        "type": "Point",
        "coordinates": [
          17.5144,
          37.5588
        ]
      },
      "properties": {
        "icao24": "4bb066",
        "callsign": "THY3KA",
        "origin_country": "Turkey",
        "time_position": 1784596329,
        "last_contact": 1784596329,
        "baro_altitude": 11277.6,
        "on_ground": false,
        "velocity": 250.23,
        "true_track": 50.25,
        "vertical_rate": -0.33,
        "geo_altitude": 11986.26,
        "squawk": "3177",
        "spi": false,
        "position_source": 0
      }
    },
    {
      "type": "Feature",
      "geometry": {
        "type": "Point",
        "coordinates": [
          6.6132,
          42.7534
        ]
      },
      "properties": {
        "icao24": "461f63",
        "callsign": "FIN24Q",
        "origin_country": "Finland",
        "time_position": 1784596329,
        "last_contact": 1784596329,
        "baro_altitude": 10965.18,
        "on_ground": false,
        "velocity": 255.1,
        "true_track": 58.1,
        "vertical_rate": 0,
        "geo_altitude": 11513.82,
        "squawk": "5526",
        "spi": false,
        "position_source": 0
      }
    },
    {
      "type": "Feature",
      "geometry": {
        "type": "Point",
        "coordinates": [
          10.8355,
          47.7457
        ]
      },
      "properties": {
        "icao24": "40796c",
        "callsign": "TOM843",
        "origin_country": "United Kingdom",
        "time_position": 1784596329,
        "last_contact": 1784596329,
        "baro_altitude": 11582.4,
        "on_ground": false,
        "velocity": 214.61,
        "true_track": 304.45,
        "vertical_rate": 0,
        "geo_altitude": 11948.16,
        "squawk": "6606",
        "spi": false,
        "position_source": 0
      }
    },
    {
      "type": "Feature",
      "geometry": {
        "type": "Point",
        "coordinates": [
          14.9017,
          36.1228
        ]
      },
      "properties": {
        "icao24": "040141",
        "callsign": "ETH740",
        "origin_country": "Ethiopia",
        "time_position": 1784596329,
        "last_contact": 1784596329,
        "baro_altitude": 11582.4,
        "on_ground": false,
        "velocity": 238.44,
        "true_track": 280.32,
        "vertical_rate": 0,
        "geo_altitude": 12336.78,
        "squawk": "2023",
        "spi": false,
        "position_source": 0
      }
    },
    {
      "type": "Feature",
      "geometry": {
        "type": "Point",
        "coordinates": [
          11.4563,
          36.5533
        ]
      },
      "properties": {
        "icao24": "040156",
        "callsign": "ETH3483",
        "origin_country": "Ethiopia",
        "time_position": 1784596329,
        "last_contact": 1784596329,
        "baro_altitude": 9753.6,
        "on_ground": false,
        "velocity": 237.49,
        "true_track": 278.97,
        "vertical_rate": 0,
        "geo_altitude": 10408.92,
        "squawk": "2012",
        "spi": false,
        "position_source": 0
      }
    },
    {
      "type": "Feature",
      "geometry": {
        "type": "Point",
        "coordinates": [
          17.5148,
          40.1995
        ]
      },
      "properties": {
        "icao24": "3a4494",
        "callsign": "REU975",
        "origin_country": "France",
        "time_position": 1784596329,
        "last_contact": 1784596329,
        "baro_altitude": 11582.4,
        "on_ground": false,
        "velocity": 228.09,
        "true_track": 308.5,
        "vertical_rate": 0,
        "geo_altitude": 12245.34,
        "squawk": "2021",
        "spi": false,
        "position_source": 0
      }
    },
    {
      "type": "Feature",
      "geometry": {
        "type": "Point",
        "coordinates": [
          18.3371,
          38.7957
        ]
      },
      "properties": {
        "icao24": "040048",
        "callsign": "ETH552",
        "origin_country": "Ethiopia",
        "time_position": 1784596320,
        "last_contact": 1784596326,
        "baro_altitude": 12192,
        "on_ground": false,
        "velocity": 229.48,
        "true_track": 301.34,
        "vertical_rate": 0,
        "geo_altitude": 12908.28,
        "squawk": "2266",
        "spi": false,
        "position_source": 0
      }
    },
    {
      "type": "Feature",
      "geometry": {
        "type": "Point",
        "coordinates": [
          15.1454,
          44.2305
        ]
      },
      "properties": {
        "icao24": "49d423",
        "callsign": "TVQ6460",
        "origin_country": "Czech Republic",
        "time_position": 1784596329,
        "last_contact": 1784596329,
        "baro_altitude": 10668,
        "on_ground": false,
        "velocity": 223.66,
        "true_track": 195.47,
        "vertical_rate": 0,
        "geo_altitude": 11148.06,
        "squawk": "7371",
        "spi": false,
        "position_source": 0
      }
    },
    {
      "type": "Feature",
      "geometry": {
        "type": "Point",
        "coordinates": [
          14.7133,
          40.838
        ]
      },
      "properties": {
        "icao24": "040102",
        "callsign": "ETH574",
        "origin_country": "Ethiopia",
        "time_position": 1784596329,
        "last_contact": 1784596329,
        "baro_altitude": 9395.46,
        "on_ground": false,
        "velocity": 202.86,
        "true_track": 301.84,
        "vertical_rate": -4.88,
        "geo_altitude": 9959.34,
        "squawk": "2013",
        "spi": false,
        "position_source": 0
      }
    },
    {
      "type": "Feature",
      "geometry": {
        "type": "Point",
        "coordinates": [
          16.104,
          47.3883
        ]
      },
      "properties": {
        "icao24": "4b8e45",
        "callsign": "PGT96T",
        "origin_country": "Turkey",
        "time_position": 1784596329,
        "last_contact": 1784596329,
        "baro_altitude": 11277.6,
        "on_ground": false,
        "velocity": 258.83,
        "true_track": 125.62,
        "vertical_rate": 0,
        "geo_altitude": 11620.5,
        "squawk": "7653",
        "spi": false,
        "position_source": 0
      }
    },
    {
      "type": "Feature",
      "geometry": {
        "type": "Point",
        "coordinates": [
          15.5192,
          46.4476
        ]
      },
      "properties": {
        "icao24": "4ba946",
        "callsign": "THY4",
        "origin_country": "Turkey",
        "time_position": 1784596329,
        "last_contact": 1784596329,
        "baro_altitude": 10668,
        "on_ground": false,
        "velocity": 292.89,
        "true_track": 117.06,
        "vertical_rate": 0,
        "geo_altitude": 11041.38,
        "squawk": "2224",
        "spi": false,
        "position_source": 0
      }
    },
    {
      "type": "Feature",
      "geometry": {
        "type": "Point",
        "coordinates": [
          11.1151,
          46.0393
        ]
      },
      "properties": {
        "icao24": "744843",
        "callsign": "RJA272",
        "origin_country": "Jordan",
        "time_position": 1784596329,
        "last_contact": 1784596329,
        "baro_altitude": 11277.6,
        "on_ground": false,
        "velocity": 294.76,
        "true_track": 119.03,
        "vertical_rate": 0,
        "geo_altitude": 11704.32,
        "squawk": "2265",
        "spi": false,
        "position_source": 0
      }
    },
    {
      "type": "Feature",
      "geometry": {
        "type": "Point",
        "coordinates": [
          16.7305,
          39.5577
        ]
      },
      "properties": {
        "icao24": "040242",
        "callsign": "ETH500",
        "origin_country": "Ethiopia",
        "time_position": 1784596329,
        "last_contact": 1784596329,
        "baro_altitude": 11582.4,
        "on_ground": false,
        "velocity": 229.4,
        "true_track": 299.27,
        "vertical_rate": -0.33,
        "geo_altitude": 12260.58,
        "squawk": "2022",
        "spi": false,
        "position_source": 0
      }
    },
    {
      "type": "Feature",
      "geometry": {
        "type": "Point",
        "coordinates": [
          12.4176,
          44.8624
        ]
      },
      "properties": {
        "icao24": "406cd2",
        "callsign": "EZY27RC",
        "origin_country": "United Kingdom",
        "time_position": 1784596329,
        "last_contact": 1784596329,
        "baro_altitude": 10972.8,
        "on_ground": false,
        "velocity": 200.23,
        "true_track": 312.71,
        "vertical_rate": 0,
        "geo_altitude": 11445.24,
        "squawk": "3715",
        "spi": false,
        "position_source": 0
      }
    },
    {
      "type": "Feature",
      "geometry": {
        "type": "Point",
        "coordinates": [
          9.7327,
          47.5068
        ]
      },
      "properties": {
        "icao24": "39ceb2",
        "callsign": "TVF27AH",
        "origin_country": "France",
        "time_position": 1784596328,
        "last_contact": 1784596328,
        "baro_altitude": 11277.6,
        "on_ground": false,
        "velocity": 258.28,
        "true_track": 105.84,
        "vertical_rate": 0,
        "geo_altitude": 11666.22,
        "squawk": null,
        "spi": false,
        "position_source": 0
      }
    },
    {
      "type": "Feature",
      "geometry": {
        "type": "Point",
        "coordinates": [
          16.0354,
          46.2544
        ]
      },
      "properties": {
        "icao24": "406b13",
        "callsign": "TOM8MW",
        "origin_country": "United Kingdom",
        "time_position": 1784596329,
        "last_contact": 1784596329,
        "baro_altitude": 13106.4,
        "on_ground": false,
        "velocity": 233.11,
        "true_track": 309.63,
        "vertical_rate": -0.33,
        "geo_altitude": 13601.7,
        "squawk": "2004",
        "spi": false,
        "position_source": 0
      }
    },
    {
      "type": "Feature",
      "geometry": {
        "type": "Point",
        "coordinates": [
          15.9709,
          46.1646
        ]
      },
      "properties": {
        "icao24": "407e45",
        "callsign": "EXS59WJ",
        "origin_country": "United Kingdom",
        "time_position": 1784596329,
        "last_contact": 1784596329,
        "baro_altitude": 10972.8,
        "on_ground": false,
        "velocity": 201.17,
        "true_track": 315.52,
        "vertical_rate": 0,
        "geo_altitude": 11391.9,
        "squawk": "2640",
        "spi": false,
        "position_source": 0
      }
    },
    {
      "type": "Feature",
      "geometry": {
        "type": "Point",
        "coordinates": [
          16.154,
          47.0619
        ]
      },
      "properties": {
        "icao24": "ab6afa",
        "callsign": "AAL293",
        "origin_country": "United States",
        "time_position": 1784596329,
        "last_contact": 1784596329,
        "baro_altitude": 11582.4,
        "on_ground": false,
        "velocity": 228.68,
        "true_track": 286.6,
        "vertical_rate": -0.65,
        "geo_altitude": 11948.16,
        "squawk": "3277",
        "spi": false,
        "position_source": 0
      }
    },
    {
      "type": "Feature",
      "geometry": {
        "type": "Point",
        "coordinates": [
          6.8533,
          47.5187
        ]
      },
      "properties": {
        "icao24": "407f63",
        "callsign": "EZY56EJ",
        "origin_country": "United Kingdom",
        "time_position": 1784596328,
        "last_contact": 1784596328,
        "baro_altitude": 10965.18,
        "on_ground": false,
        "velocity": 207.12,
        "true_track": 308.75,
        "vertical_rate": 0,
        "geo_altitude": 11353.8,
        "squawk": null,
        "spi": false,
        "position_source": 0
      }
    },
    {
      "type": "Feature",
      "geometry": {
        "type": "Point",
        "coordinates": [
          9.4269,
          44.9098
        ]
      },
      "properties": {
        "icao24": "4402f1",
        "callsign": "EJU91BN",
        "origin_country": "Austria",
        "time_position": 1784596329,
        "last_contact": 1784596329,
        "baro_altitude": 3672.84,
        "on_ground": false,
        "velocity": 157.19,
        "true_track": 319.11,
        "vertical_rate": -5.2,
        "geo_altitude": 3931.92,
        "squawk": "2006",
        "spi": false,
        "position_source": 0
      }
    },
    {
      "type": "Feature",
      "geometry": {
        "type": "Point",
        "coordinates": [
          16.9092,
          47.717
        ]
      },
      "properties": {
        "icao24": "4bb872",
        "callsign": "PGT83T",
        "origin_country": "Turkey",
        "time_position": 1784596329,
        "last_contact": 1784596329,
        "baro_altitude": 11277.6,
        "on_ground": false,
        "velocity": 259.41,
        "true_track": 136.04,
        "vertical_rate": -0.33,
        "geo_altitude": 11628.12,
        "squawk": "7631",
        "spi": false,
        "position_source": 0
      }
    },
    {
      "type": "Feature",
      "geometry": {
        "type": "Point",
        "coordinates": [
          13.8868,
          47.4857
        ]
      },
      "properties": {
        "icao24": "4bb86a",
        "callsign": "PGT23AG",
        "origin_country": "Turkey",
        "time_position": 1784596329,
        "last_contact": 1784596329,
        "baro_altitude": 10668,
        "on_ground": false,
        "velocity": 265.89,
        "true_track": 130.84,
        "vertical_rate": 0,
        "geo_altitude": 11026.14,
        "squawk": "6421",
        "spi": false,
        "position_source": 0
      }
    },
    {
      "type": "Feature",
      "geometry": {
        "type": "Point",
        "coordinates": [
          18.6771,
          46.1696
        ]
      },
      "properties": {
        "icao24": "504e86",
        "callsign": "FIA5812",
        "origin_country": "Republic of Moldova",
        "time_position": 1784596329,
        "last_contact": 1784596329,
        "baro_altitude": 10972.8,
        "on_ground": false,
        "velocity": 261.45,
        "true_track": 79.69,
        "vertical_rate": 0.33,
        "geo_altitude": 11361.42,
        "squawk": "1165",
        "spi": false,
        "position_source": 0
      }
    },
    {
      "type": "Feature",
      "geometry": {
        "type": "Point",
        "coordinates": [
          15.5992,
          38.181
        ]
      },
      "properties": {
        "icao24": "46b8a9",
        "callsign": "AEE735",
        "origin_country": "Greece",
        "time_position": 1784596329,
        "last_contact": 1784596329,
        "baro_altitude": 11887.2,
        "on_ground": false,
        "velocity": 255.73,
        "true_track": 81.79,
        "vertical_rate": 0,
        "geo_altitude": 12626.34,
        "squawk": "6155",
        "spi": false,
        "position_source": 0
      }
    },
    {
      "type": "Feature",
      "geometry": {
        "type": "Point",
        "coordinates": [
          11.9823,
          35.7634
        ]
      },
      "properties": {
        "icao24": "48e87f",
        "callsign": "ENT7132",
        "origin_country": "Poland",
        "time_position": 1784596329,
        "last_contact": 1784596329,
        "baro_altitude": 10515.6,
        "on_ground": false,
        "velocity": 244.04,
        "true_track": 17.67,
        "vertical_rate": 4.88,
        "geo_altitude": 11209.02,
        "squawk": "6144",
        "spi": false,
        "position_source": 0
      }
    },
    {
      "type": "Feature",
      "geometry": {
        "type": "Point",
        "coordinates": [
          14.7989,
          39.5163
        ]
      },
      "properties": {
        "icao24": "407d22",
        "callsign": "EZY63MD",
        "origin_country": "United Kingdom",
        "time_position": 1784596329,
        "last_contact": 1784596329,
        "baro_altitude": 10980.42,
        "on_ground": false,
        "velocity": 221.21,
        "true_track": 313.87,
        "vertical_rate": 0,
        "geo_altitude": 11635.74,
        "squawk": "2015",
        "spi": false,
        "position_source": 0
      }
    },
    {
      "type": "Feature",
      "geometry": {
        "type": "Point",
        "coordinates": [
          8.5602,
          47.4462
        ]
      },
      "properties": {
        "icao24": "4b1803",
        "callsign": "SWR105W",
        "origin_country": "Switzerland",
        "time_position": 1784596315,
        "last_contact": 1784596319,
        "baro_altitude": null,
        "on_ground": true,
        "velocity": 0,
        "true_track": 244.69,
        "vertical_rate": null,
        "geo_altitude": null,
        "squawk": "2000",
        "spi": false,
        "position_source": 0
      }
    },
    {
      "type": "Feature",
      "geometry": {
        "type": "Point",
        "coordinates": [
          8.552,
          47.4634
        ]
      },
      "properties": {
        "icao24": "4b1805",
        "callsign": "SWR",
        "origin_country": "Switzerland",
        "time_position": 1784596137,
        "last_contact": 1784596142,
        "baro_altitude": 358.14,
        "on_ground": true,
        "velocity": 0,
        "true_track": 5.62,
        "vertical_rate": null,
        "geo_altitude": null,
        "squawk": "2000",
        "spi": false,
        "position_source": 0
      }
    },
    {
      "type": "Feature",
      "geometry": {
        "type": "Point",
        "coordinates": [
          8.5651,
          47.4419
        ]
      },
      "properties": {
        "icao24": "4b1807",
        "callsign": "SWR9EX",
        "origin_country": "Switzerland",
        "time_position": 1784596329,
        "last_contact": 1784596329,
        "baro_altitude": null,
        "on_ground": true,
        "velocity": 0,
        "true_track": 146.25,
        "vertical_rate": null,
        "geo_altitude": null,
        "squawk": null,
        "spi": false,
        "position_source": 0
      }
    },
    {
      "type": "Feature",
      "geometry": {
        "type": "Point",
        "coordinates": [
          7.6397,
          47.0746
        ]
      },
      "properties": {
        "icao24": "4b180c",
        "callsign": "SWR96B",
        "origin_country": "Switzerland",
        "time_position": 1784596173,
        "last_contact": 1784596328,
        "baro_altitude": 6400.8,
        "on_ground": false,
        "velocity": 180.95,
        "true_track": 227.42,
        "vertical_rate": 0,
        "geo_altitude": 6705.6,
        "squawk": null,
        "spi": false,
        "position_source": 0
      }
    },
    {
      "type": "Feature",
      "geometry": {
        "type": "Point",
        "coordinates": [
          8.7229,
          45.6417
        ]
      },
      "properties": {
        "icao24": "440cc1",
        "callsign": "EJU96FZ",
        "origin_country": "Austria",
        "time_position": 1784596329,
        "last_contact": 1784596329,
        "baro_altitude": null,
        "on_ground": true,
        "velocity": 6.94,
        "true_track": 348.75,
        "vertical_rate": null,
        "geo_altitude": null,
        "squawk": "1157",
        "spi": false,
        "position_source": 0
      }
    },
    {
      "type": "Feature",
      "geometry": {
        "type": "Point",
        "coordinates": [
          13.7344,
          40.036
        ]
      },
      "properties": {
        "icao24": "02a1a7",
        "callsign": "LBT809",
        "origin_country": "Tunisia",
        "time_position": 1784596329,
        "last_contact": 1784596329,
        "baro_altitude": 11277.6,
        "on_ground": false,
        "velocity": 228.06,
        "true_track": 203.67,
        "vertical_rate": -0.33,
        "geo_altitude": 11940.54,
        "squawk": "6013",
        "spi": false,
        "position_source": 0
      }
    },
    {
      "type": "Feature",
      "geometry": {
        "type": "Point",
        "coordinates": [
          7.2265,
          47.2339
        ]
      },
      "properties": {
        "icao24": "408260",
        "callsign": "EXS34A",
        "origin_country": "United Kingdom",
        "time_position": 1784596328,
        "last_contact": 1784596328,
        "baro_altitude": 10980.42,
        "on_ground": false,
        "velocity": 208.67,
        "true_track": 309.5,
        "vertical_rate": -0.33,
        "geo_altitude": 11376.66,
        "squawk": null,
        "spi": false,
        "position_source": 0
      }
    },
    {
      "type": "Feature",
      "geometry": {
        "type": "Point",
        "coordinates": [
          7.0013,
          38.6366
        ]
      },
      "properties": {
        "icao24": "3c6570",
        "callsign": "OCN133",
        "origin_country": "Germany",
        "time_position": 1784596329,
        "last_contact": 1784596329,
        "baro_altitude": 11582.4,
        "on_ground": false,
        "velocity": 245.46,
        "true_track": 3.97,
        "vertical_rate": 0,
        "geo_altitude": 12275.82,
        "squawk": null,
        "spi": false,
        "position_source": 0
      }
    },
    {
      "type": "Feature",
      "geometry": {
        "type": "Point",
        "coordinates": [
          16.911,
          38.3263
        ]
      },
      "properties": {
        "icao24": "0a0078",
        "callsign": "DAH3015",
        "origin_country": "Algeria",
        "time_position": 1784596329,
        "last_contact": 1784596329,
        "baro_altitude": 10972.8,
        "on_ground": false,
        "velocity": 219.13,
        "true_track": 256.98,
        "vertical_rate": 0,
        "geo_altitude": 11650.98,
        "squawk": "2325",
        "spi": false,
        "position_source": 0
      }
    },
    {
      "type": "Feature",
      "geometry": {
        "type": "Point",
        "coordinates": [
          16.3222,
          38.6148
        ]
      },
      "properties": {
        "icao24": "0a0019",
        "callsign": "DAH3023",
        "origin_country": "Algeria",
        "time_position": 1784596329,
        "last_contact": 1784596329,
        "baro_altitude": 10972.8,
        "on_ground": false,
        "velocity": 216.37,
        "true_track": 251.13,
        "vertical_rate": 0,
        "geo_altitude": 11650.98,
        "squawk": "2322",
        "spi": false,
        "position_source": 0
      }
    },
    {
      "type": "Feature",
      "geometry": {
        "type": "Point",
        "coordinates": [
          6.8882,
          36.9228
        ]
      },
      "properties": {
        "icao24": "3c64f6",
        "callsign": "DLH595",
        "origin_country": "Germany",
        "time_position": 1784596265,
        "last_contact": 1784596265,
        "baro_altitude": 12039.6,
        "on_ground": false,
        "velocity": 244.73,
        "true_track": 3.13,
        "vertical_rate": 2.6,
        "geo_altitude": 12778.74,
        "squawk": null,
        "spi": false,
        "position_source": 0
      }
    },
    {
      "type": "Feature",
      "geometry": {
        "type": "Point",
        "coordinates": [
          15.9291,
          45.9162
        ]
      },
      "properties": {
        "icao24": "408183",
        "callsign": "EZY38CZ",
        "origin_country": "United Kingdom",
        "time_position": 1784596329,
        "last_contact": 1784596329,
        "baro_altitude": 11574.78,
        "on_ground": false,
        "velocity": 210.19,
        "true_track": 320.66,
        "vertical_rate": 0.33,
        "geo_altitude": 12001.5,
        "squawk": "2053",
        "spi": false,
        "position_source": 0
      }
    },
    {
      "type": "Feature",
      "geometry": {
        "type": "Point",
        "coordinates": [
          8.3311,
          45.8221
        ]
      },
      "properties": {
        "icao24": "440c1b",
        "callsign": "TAY1LA",
        "origin_country": "Austria",
        "time_position": 1784596328,
        "last_contact": 1784596328,
        "baro_altitude": 12192,
        "on_ground": false,
        "velocity": 207.12,
        "true_track": 299.62,
        "vertical_rate": 0.33,
        "geo_altitude": 12679.68,
        "squawk": null,
        "spi": false,
        "position_source": 0
      }
    },
    {
      "type": "Feature",
      "geometry": {
        "type": "Point",
        "coordinates": [
          15.2218,
          45.7993
        ]
      },
      "properties": {
        "icao24": "408027",
        "callsign": "TOM8XC",
        "origin_country": "United Kingdom",
        "time_position": 1784596329,
        "last_contact": 1784596329,
        "baro_altitude": 12192,
        "on_ground": false,
        "velocity": 208.44,
        "true_track": 314.7,
        "vertical_rate": 0,
        "geo_altitude": 12649.2,
        "squawk": "5617",
        "spi": false,
        "position_source": 0
      }
    },
    {
      "type": "Feature",
      "geometry": {
        "type": "Point",
        "coordinates": [
          8.5581,
          47.4461
        ]
      },
      "properties": {
        "icao24": "4b5c27",
        "callsign": "EUGEN11",
        "origin_country": "Switzerland",
        "time_position": 1784596268,
        "last_contact": 1784596268,
        "baro_altitude": null,
        "on_ground": true,
        "velocity": 6.17,
        "true_track": 250.31,
        "vertical_rate": null,
        "geo_altitude": null,
        "squawk": null,
        "spi": false,
        "position_source": 0
      }
    },
    {
      "type": "Feature",
      "geometry": {
        "type": "Point",
        "coordinates": [
          11.6696,
          45.4015
        ]
      },
      "properties": {
        "icao24": "70c122",
        "callsign": "OMA144",
        "origin_country": "Oman",
        "time_position": 1784596329,
        "last_contact": 1784596329,
        "baro_altitude": 9784.08,
        "on_ground": false,
        "velocity": 290.88,
        "true_track": 94.06,
        "vertical_rate": 7.15,
        "geo_altitude": 10218.42,
        "squawk": "0414",
        "spi": false,
        "position_source": 0
      }
    },
    {
      "type": "Feature",
      "geometry": {
        "type": "Point",
        "coordinates": [
          16.6343,
          47.1213
        ]
      },
      "properties": {
        "icao24": "4bab30",
        "callsign": "THY3357",
        "origin_country": "Turkey",
        "time_position": 1784596328,
        "last_contact": 1784596328,
        "baro_altitude": 10668,
        "on_ground": false,
        "velocity": 266.84,
        "true_track": 125.74,
        "vertical_rate": 0,
        "geo_altitude": 11010.9,
        "squawk": "6436",
        "spi": false,
        "position_source": 0
      }
    },
    {
      "type": "Feature",
      "geometry": {
        "type": "Point",
        "coordinates": [
          12.1842,
          41.9809
        ]
      },
      "properties": {
        "icao24": "4ca8d4",
        "callsign": "RYR7881",
        "origin_country": "Ireland",
        "time_position": 1784596329,
        "last_contact": 1784596329,
        "baro_altitude": 822.96,
        "on_ground": false,
        "velocity": 98.21,
        "true_track": 220.11,
        "vertical_rate": -0.98,
        "geo_altitude": 929.64,
        "squawk": "1000",
        "spi": false,
        "position_source": 0
      }
    },
    {
      "type": "Feature",
      "geometry": {
        "type": "Point",
        "coordinates": [
          11.7541,
          41.6626
        ]
      },
      "properties": {
        "icao24": "4ca82c",
        "callsign": "MSA9784",
        "origin_country": "Ireland",
        "time_position": 1784596329,
        "last_contact": 1784596329,
        "baro_altitude": 3215.64,
        "on_ground": false,
        "velocity": 189.79,
        "true_track": 34.51,
        "vertical_rate": -13.33,
        "geo_altitude": 3497.58,
        "squawk": null,
        "spi": false,
        "position_source": 0
      }
    },
    {
      "type": "Feature",
      "geometry": {
        "type": "Point",
        "coordinates": [
          18.3136,
          46.3318
        ]
      },
      "properties": {
        "icao24": "48ea01",
        "callsign": "ENT4FZ",
        "origin_country": "Poland",
        "time_position": 1784596329,
        "last_contact": 1784596329,
        "baro_altitude": 10668,
        "on_ground": false,
        "velocity": 244.64,
        "true_track": 172.99,
        "vertical_rate": 0,
        "geo_altitude": 11049,
        "squawk": "6035",
        "spi": false,
        "position_source": 0
      }
    },
    {
      "type": "Feature",
      "geometry": {
        "type": "Point",
        "coordinates": [
          18.8934,
          44.1963
        ]
      },
      "properties": {
        "icao24": "4bce47",
        "callsign": "SXS3FP",
        "origin_country": "Turkey",
        "time_position": 1784596329,
        "last_contact": 1784596329,
        "baro_altitude": 11277.6,
        "on_ground": false,
        "velocity": 264.26,
        "true_track": 132.95,
        "vertical_rate": 0,
        "geo_altitude": 11772.9,
        "squawk": "7651",
        "spi": false,
        "position_source": 0
      }
    },
    {
      "type": "Feature",
      "geometry": {
        "type": "Point",
        "coordinates": [
          17.3787,
          45.6464
        ]
      },
      "properties": {
        "icao24": "4bcdb4",
        "callsign": "SXS9WA",
        "origin_country": "Turkey",
        "time_position": 1784596329,
        "last_contact": 1784596329,
        "baro_altitude": 11277.6,
        "on_ground": false,
        "velocity": 258.88,
        "true_track": 137.5,
        "vertical_rate": 0,
        "geo_altitude": 11704.32,
        "squawk": "7642",
        "spi": false,
        "position_source": 0
      }
    },
    {
      "type": "Feature",
      "geometry": {
        "type": "Point",
        "coordinates": [
          17.0605,
          45.7317
        ]
      },
      "properties": {
        "icao24": "4bce16",
        "callsign": "SXS6XR",
        "origin_country": "Turkey",
        "time_position": 1784596329,
        "last_contact": 1784596329,
        "baro_altitude": 11277.6,
        "on_ground": false,
        "velocity": 263.74,
        "true_track": 135.55,
        "vertical_rate": 0,
        "geo_altitude": 11704.32,
        "squawk": "7702",
        "spi": false,
        "position_source": 0
      }
    },
    {
      "type": "Feature",
      "geometry": {
        "type": "Point",
        "coordinates": [
          15.9769,
          46.16
        ]
      },
      "properties": {
        "icao24": "347488",
        "callsign": "CND22BT",
        "origin_country": "Spain",
        "time_position": 1784596329,
        "last_contact": 1784596329,
        "baro_altitude": 12192,
        "on_ground": false,
        "velocity": 231.73,
        "true_track": 315.45,
        "vertical_rate": 0,
        "geo_altitude": 12603.48,
        "squawk": "2005",
        "spi": false,
        "position_source": 0
      }
    },
    {
      "type": "Feature",
      "geometry": {
        "type": "Point",
        "coordinates": [
          10.877,
          36.1151
        ]
      },
      "properties": {
        "icao24": "010245",
        "callsign": "MSR892",
        "origin_country": "Egypt",
        "time_position": 1784596329,
        "last_contact": 1784596329,
        "baro_altitude": 10668,
        "on_ground": false,
        "velocity": 263,
        "true_track": 98.21,
        "vertical_rate": 0,
        "geo_altitude": 11407.14,
        "squawk": null,
        "spi": false,
        "position_source": 0
      }
    },
    {
      "type": "Feature",
      "geometry": {
        "type": "Point",
        "coordinates": [
          15.8671,
          43.1901
        ]
      },
      "properties": {
        "icao24": "010283",
        "callsign": "MSR986",
        "origin_country": "Egypt",
        "time_position": 1784596328,
        "last_contact": 1784596328,
        "baro_altitude": 11887.2,
        "on_ground": false,
        "velocity": 286.4,
        "true_track": 120.43,
        "vertical_rate": 0,
        "geo_altitude": 12428.22,
        "squawk": "5222",
        "spi": false,
        "position_source": 0
      }
    },
    {
      "type": "Feature",
      "geometry": {
        "type": "Point",
        "coordinates": [
          16.4685,
          36.9691
        ]
      },
      "properties": {
        "icao24": "010275",
        "callsign": "RSX6082",
        "origin_country": "Egypt",
        "time_position": 1784596329,
        "last_contact": 1784596329,
        "baro_altitude": 11269.98,
        "on_ground": false,
        "velocity": 254.54,
        "true_track": 113.72,
        "vertical_rate": 0,
        "geo_altitude": 11986.26,
        "squawk": "1150",
        "spi": false,
        "position_source": 0
      }
    },
    {
      "type": "Feature",
      "geometry": {
        "type": "Point",
        "coordinates": [
          18.448,
          42.019
        ]
      },
      "properties": {
        "icao24": "01025e",
        "callsign": "MSR988",
        "origin_country": "Egypt",
        "time_position": 1784596329,
        "last_contact": 1784596329,
        "baro_altitude": 11269.98,
        "on_ground": false,
        "velocity": 277.38,
        "true_track": 119.56,
        "vertical_rate": -0.33,
        "geo_altitude": 11864.34,
        "squawk": "2262",
        "spi": false,
        "position_source": 0
      }
    },
    {
      "type": "Feature",
      "geometry": {
        "type": "Point",
        "coordinates": [
          6.5693,
          46.4744
        ]
      },
      "properties": {
        "icao24": "39a202",
        "callsign": null,
        "origin_country": "France",
        "time_position": 1784596173,
        "last_contact": 1784596328,
        "baro_altitude": 11582.4,
        "on_ground": false,
        "velocity": 214.86,
        "true_track": 317.72,
        "vertical_rate": 0.33,
        "geo_altitude": 11986.26,
        "squawk": null,
        "spi": false,
        "position_source": 0
      }
    },
    {
      "type": "Feature",
      "geometry": {
        "type": "Point",
        "coordinates": [
          8.243,
          45.6698
        ]
      },
      "properties": {
        "icao24": "39a201",
        "callsign": "FPO7LQ",
        "origin_country": "France",
        "time_position": 1784596328,
        "last_contact": 1784596328,
        "baro_altitude": 11582.4,
        "on_ground": false,
        "velocity": 194.48,
        "true_track": 304.11,
        "vertical_rate": -0.33,
        "geo_altitude": null,
        "squawk": null,
        "spi": false,
        "position_source": 0
      }
    },
    {
      "type": "Feature",
      "geometry": {
        "type": "Point",
        "coordinates": [
          9.4987,
          47.2839
        ]
      },
      "properties": {
        "icao24": "4d24ea",
        "callsign": "RYR9ET",
        "origin_country": "Malta",
        "time_position": 1784596328,
        "last_contact": 1784596328,
        "baro_altitude": 11582.4,
        "on_ground": false,
        "velocity": 220.01,
        "true_track": 326.35,
        "vertical_rate": 0,
        "geo_altitude": 11978.64,
        "squawk": null,
        "spi": false,
        "position_source": 0
      }
    },
    {
      "type": "Feature",
      "geometry": {
        "type": "Point",
        "coordinates": [
          10.2166,
          42.317
        ]
      },
      "properties": {
        "icao24": "4d24fe",
        "callsign": "AIZ996",
        "origin_country": "Malta",
        "time_position": 1784596329,
        "last_contact": 1784596329,
        "baro_altitude": 11887.2,
        "on_ground": false,
        "velocity": 264.81,
        "true_track": 116.66,
        "vertical_rate": -0.33,
        "geo_altitude": 12489.18,
        "squawk": "1173",
        "spi": false,
        "position_source": 0
      }
    },
    {
      "type": "Feature",
      "geometry": {
        "type": "Point",
        "coordinates": [
          6.1093,
          43.2447
        ]
      },
      "properties": {
        "icao24": "4caeaf",
        "callsign": "NOS1460",
        "origin_country": "Ireland",
        "time_position": 1784596329,
        "last_contact": 1784596329,
        "baro_altitude": 10980.42,
        "on_ground": false,
        "velocity": 261.38,
        "true_track": 41.25,
        "vertical_rate": 0,
        "geo_altitude": 11521.44,
        "squawk": "1000",
        "spi": false,
        "position_source": 0
      }
    },
    {
      "type": "Feature",
      "geometry": {
        "type": "Point",
        "coordinates": [
          12.6285,
          35.4994
        ]
      },
      "properties": {
        "icao24": "3005c5",
        "callsign": "ISRNT",
        "origin_country": "Italy",
        "time_position": 1784596327,
        "last_contact": 1784596327,
        "baro_altitude": 83.82,
        "on_ground": false,
        "velocity": 17.49,
        "true_track": 270,
        "vertical_rate": -1.95,
        "geo_altitude": 152.4,
        "squawk": "0060",
        "spi": false,
        "position_source": 0
      }
    },
    {
      "type": "Feature",
      "geometry": {
        "type": "Point",
        "coordinates": [
          15.8293,
          45.5073
        ]
      },
      "properties": {
        "icao24": "424c8c",
        "callsign": "MABSU",
        "origin_country": "United Kingdom",
        "time_position": 1784596329,
        "last_contact": 1784596329,
        "baro_altitude": 13098.78,
        "on_ground": false,
        "velocity": 213.23,
        "true_track": 309.03,
        "vertical_rate": -0.33,
        "geo_altitude": 13586.46,
        "squawk": "0505",
        "spi": false,
        "position_source": 0
      }
    },
    {
      "type": "Feature",
      "geometry": {
        "type": "Point",
        "coordinates": [
          11.5882,
          46.1697
        ]
      },
      "properties": {
        "icao24": "424c9d",
        "callsign": "MASBA",
        "origin_country": "United Kingdom",
        "time_position": 1784596329,
        "last_contact": 1784596329,
        "baro_altitude": 13716,
        "on_ground": false,
        "velocity": 218.75,
        "true_track": 235.64,
        "vertical_rate": 0,
        "geo_altitude": 14211.3,
        "squawk": "1000",
        "spi": false,
        "position_source": 0
      }
    },
    {
      "type": "Feature",
      "geometry": {
        "type": "Point",
        "coordinates": [
          9.9612,
          45.5936
        ]
      },
      "properties": {
        "icao24": "30074f",
        "callsign": "ITIKE",
        "origin_country": "Italy",
        "time_position": 1784596031,
        "last_contact": 1784596036,
        "baro_altitude": 441.96,
        "on_ground": false,
        "velocity": 71.93,
        "true_track": 122.44,
        "vertical_rate": 0.33,
        "geo_altitude": 518.16,
        "squawk": null,
        "spi": false,
        "position_source": 0
      }
    },
    {
      "type": "Feature",
      "geometry": {
        "type": "Point",
        "coordinates": [
          14.0548,
          43.0571
        ]
      },
      "properties": {
        "icao24": "4cae65",
        "callsign": "RYR90RC",
        "origin_country": "Ireland",
        "time_position": 1784596329,
        "last_contact": 1784596329,
        "baro_altitude": 11582.4,
        "on_ground": false,
        "velocity": 201.47,
        "true_track": 304.18,
        "vertical_rate": 0,
        "geo_altitude": 12153.9,
        "squawk": "4433",
        "spi": false,
        "position_source": 0
      }
    },
    {
      "type": "Feature",
      "geometry": {
        "type": "Point",
        "coordinates": [
          7.1497,
          46.4646
        ]
      },
      "properties": {
        "icao24": "4d234b",
        "callsign": "RYR1JG",
        "origin_country": "Malta",
        "time_position": 1784596328,
        "last_contact": 1784596328,
        "baro_altitude": 11506.2,
        "on_ground": false,
        "velocity": 205.75,
        "true_track": 300.67,
        "vertical_rate": 2.28,
        "geo_altitude": 11932.92,
        "squawk": null,
        "spi": false,
        "position_source": 0
      }
    },
    {
      "type": "Feature",
      "geometry": {
        "type": "Point",
        "coordinates": [
          8.9158,
          46.7107
        ]
      },
      "properties": {
        "icao24": "4d2385",
        "callsign": "RYR4JL",
        "origin_country": "Malta",
        "time_position": 1784596328,
        "last_contact": 1784596328,
        "baro_altitude": 10972.8,
        "on_ground": false,
        "velocity": 204.13,
        "true_track": 299.6,
        "vertical_rate": 0,
        "geo_altitude": 11391.9,
        "squawk": null,
        "spi": false,
        "position_source": 0
      }
    },
    {
      "type": "Feature",
      "geometry": {
        "type": "Point",
        "coordinates": [
          10.3111,
          47.5863
        ]
      },
      "properties": {
        "icao24": "4d226c",
        "callsign": null,
        "origin_country": "Malta",
        "time_position": 1784596173,
        "last_contact": 1784596328,
        "baro_altitude": 11277.6,
        "on_ground": false,
        "velocity": 246.96,
        "true_track": 149.59,
        "vertical_rate": 0,
        "geo_altitude": 11658.6,
        "squawk": null,
        "spi": false,
        "position_source": 0
      }
    },
    {
      "type": "Feature",
      "geometry": {
        "type": "Point",
        "coordinates": [
          14.4834,
          35.8549
        ]
      },
      "properties": {
        "icao24": "4cac1e",
        "callsign": "RYR12EE",
        "origin_country": "Ireland",
        "time_position": 1784596329,
        "last_contact": 1784596329,
        "baro_altitude": null,
        "on_ground": true,
        "velocity": 7.2,
        "true_track": 135,
        "vertical_rate": null,
        "geo_altitude": null,
        "squawk": "3745",
        "spi": false,
        "position_source": 0
      }
    },
    {
      "type": "Feature",
      "geometry": {
        "type": "Point",
        "coordinates": [
          8.841,
          47.6662
        ]
      },
      "properties": {
        "icao24": "39c422",
        "callsign": "AFR202",
        "origin_country": "France",
        "time_position": 1784596328,
        "last_contact": 1784596328,
        "baro_altitude": 10668,
        "on_ground": false,
        "velocity": 281.64,
        "true_track": 104.92,
        "vertical_rate": 0,
        "geo_altitude": 11049,
        "squawk": null,
        "spi": false,
        "position_source": 0
      }
    },
    {
      "type": "Feature",
      "geometry": {
        "type": "Point",
        "coordinates": [
          10.9036,
          40.2572
        ]
      },
      "properties": {
        "icao24": "4691c7",
        "callsign": "AEE3EM",
        "origin_country": "Greece",
        "time_position": 1784596329,
        "last_contact": 1784596329,
        "baro_altitude": 10972.8,
        "on_ground": false,
        "velocity": 258.89,
        "true_track": 101,
        "vertical_rate": -0.33,
        "geo_altitude": 11605.26,
        "squawk": "1454",
        "spi": false,
        "position_source": 0
      }
    },
    {
      "type": "Feature",
      "geometry": {
        "type": "Point",
        "coordinates": [
          16.3652,
          42.6589
        ]
      },
      "properties": {
        "icao24": "408329",
        "callsign": "TOM16H",
        "origin_country": "United Kingdom",
        "time_position": 1784596329,
        "last_contact": 1784596329,
        "baro_altitude": 11582.4,
        "on_ground": false,
        "velocity": 211.69,
        "true_track": 318.25,
        "vertical_rate": 0.33,
        "geo_altitude": 12169.14,
        "squawk": null,
        "spi": false,
        "position_source": 0
      }
    },
    {
      "type": "Feature",
      "geometry": {
        "type": "Point",
        "coordinates": [
          12.6341,
          47.1168
        ]
      },
      "properties": {
        "icao24": "408314",
        "callsign": "TOM451",
        "origin_country": "United Kingdom",
        "time_position": 1784596329,
        "last_contact": 1784596329,
        "baro_altitude": 11582.4,
        "on_ground": false,
        "velocity": 209.14,
        "true_track": 308.31,
        "vertical_rate": 0,
        "geo_altitude": 11963.4,
        "squawk": "5516",
        "spi": false,
        "position_source": 0
      }
    },
    {
      "type": "Feature",
      "geometry": {
        "type": "Point",
        "coordinates": [
          18.75,
          46.9709
        ]
      },
      "properties": {
        "icao24": "4d204a",
        "callsign": "WZZ1JS",
        "origin_country": "Malta",
        "time_position": 1784596329,
        "last_contact": 1784596329,
        "baro_altitude": 3573.78,
        "on_ground": false,
        "velocity": 202.98,
        "true_track": 60.38,
        "vertical_rate": -13.33,
        "geo_altitude": 3771.9,
        "squawk": "1000",
        "spi": false,
        "position_source": 0
      }
    },
    {
      "type": "Feature",
      "geometry": {
        "type": "Point",
        "coordinates": [
          13.4083,
          47.6467
        ]
      },
      "properties": {
        "icao24": "4081a9",
        "callsign": "EXS85BE",
        "origin_country": "United Kingdom",
        "time_position": 1784596329,
        "last_contact": 1784596329,
        "baro_altitude": 10972.8,
        "on_ground": false,
        "velocity": 205.52,
        "true_track": 308.19,
        "vertical_rate": 0,
        "geo_altitude": 11330.94,
        "squawk": "5615",
        "spi": false,
        "position_source": 0
      }
    },
    {
      "type": "Feature",
      "geometry": {
        "type": "Point",
        "coordinates": [
          7.9893,
          44.6254
        ]
      },
      "properties": {
        "icao24": "451dad",
        "callsign": "BCS460",
        "origin_country": "Bulgaria",
        "time_position": 1784596329,
        "last_contact": 1784596329,
        "baro_altitude": 9601.2,
        "on_ground": false,
        "velocity": 184.28,
        "true_track": 233.51,
        "vertical_rate": 9.43,
        "geo_altitude": 10035.54,
        "squawk": "1000",
        "spi": false,
        "position_source": 0
      }
    },
    {
      "type": "Feature",
      "geometry": {
        "type": "Point",
        "coordinates": [
          8.5654,
          47.4439
        ]
      },
      "properties": {
        "icao24": "4b17e6",
        "callsign": "SWISS",
        "origin_country": "Switzerland",
        "time_position": 1784596326,
        "last_contact": 1784596329,
        "baro_altitude": null,
        "on_ground": true,
        "velocity": 0.06,
        "true_track": 104.06,
        "vertical_rate": null,
        "geo_altitude": null,
        "squawk": "2000",
        "spi": false,
        "position_source": 0
      }
    }
  ]
}