{
  "type": "FeatureCollection",
  "source": "opensky",
  "dataset": "aircraft_italy",
  "generated_at": "2026-06-26T23:38:01.764092+00:00",
  "opensky_time": 1782517080,
  "count": 137,
  "features": [
    {
      "type": "Feature",
      "geometry": {
        "type": "Point",
        "coordinates": [
          18.7551,
          42.1671
        ]
      },
      "properties": {
        "icao24": "471eff",
        "callsign": "WMT1BF",
        "origin_country": "Hungary",
        "time_position": 1782517078,
        "last_contact": 1782517078,
        "baro_altitude": 5684.52,
        "on_ground": false,
        "velocity": 164.5,
        "true_track": 133.23,
        "vertical_rate": -9.75,
        "geo_altitude": 6065.52,
        "squawk": "0221",
        "spi": false,
        "position_source": 0
      }
    },
    {
      "type": "Feature",
      "geometry": {
        "type": "Point",
        "coordinates": [
          16.0771,
          43.7376
        ]
      },
      "properties": {
        "icao24": "801666",
        "callsign": "AIC102",
        "origin_country": "India",
        "time_position": 1782517080,
        "last_contact": 1782517080,
        "baro_altitude": 11277.6,
        "on_ground": false,
        "velocity": 255.25,
        "true_track": 128.37,
        "vertical_rate": 0,
        "geo_altitude": 11864.34,
        "squawk": "2230",
        "spi": false,
        "position_source": 0
      }
    },
    {
      "type": "Feature",
      "geometry": {
        "type": "Point",
        "coordinates": [
          12.5601,
          45.4726
        ]
      },
      "properties": {
        "icao24": "407a3f",
        "callsign": "EFW6RQ",
        "origin_country": "United Kingdom",
        "time_position": 1782517080,
        "last_contact": 1782517080,
        "baro_altitude": 10965.18,
        "on_ground": false,
        "velocity": 226.09,
        "true_track": 302.17,
        "vertical_rate": 0,
        "geo_altitude": 11582.4,
        "squawk": "5522",
        "spi": false,
        "position_source": 0
      }
    },
    {
      "type": "Feature",
      "geometry": {
        "type": "Point",
        "coordinates": [
          16.3143,
          44.5681
        ]
      },
      "properties": {
        "icao24": "46b826",
        "callsign": "AEE609",
        "origin_country": "Greece",
        "time_position": 1782517080,
        "last_contact": 1782517080,
        "baro_altitude": 10668,
        "on_ground": false,
        "velocity": 236.46,
        "true_track": 135.53,
        "vertical_rate": 0,
        "geo_altitude": 11262.36,
        "squawk": "5244",
        "spi": false,
        "position_source": 0
      }
    },
    {
      "type": "Feature",
      "geometry": {
        "type": "Point",
        "coordinates": [
          9.5142,
          40.8825
        ]
      },
      "properties": {
        "icao24": "5003a7",
        "callsign": "AXS777",
        "origin_country": "San Marino",
        "time_position": 1782517080,
        "last_contact": 1782517080,
        "baro_altitude": 12192,
        "on_ground": false,
        "velocity": 209.92,
        "true_track": 269.16,
        "vertical_rate": 0.33,
        "geo_altitude": 12832.08,
        "squawk": "2312",
        "spi": false,
        "position_source": 0
      }
    },
    {
      "type": "Feature",
      "geometry": {
        "type": "Point",
        "coordinates": [
          16.8416,
          46.1508
        ]
      },
      "properties": {
        "icao24": "4bb4f0",
        "callsign": "MGH560",
        "origin_country": "Turkey",
        "time_position": 1782517080,
        "last_contact": 1782517080,
        "baro_altitude": 11277.6,
        "on_ground": false,
        "velocity": 231.89,
        "true_track": 124.61,
        "vertical_rate": 0,
        "geo_altitude": 11849.1,
        "squawk": "7664",
        "spi": false,
        "position_source": 0
      }
    },
    {
      "type": "Feature",
      "geometry": {
        "type": "Point",
        "coordinates": [
          9.1631,
          41.9914
        ]
      },
      "properties": {
        "icao24": "440352",
        "callsign": "EJU3614",
        "origin_country": "Austria",
        "time_position": 1782517080,
        "last_contact": 1782517080,
        "baro_altitude": 9806.94,
        "on_ground": false,
        "velocity": 211.96,
        "true_track": 0.42,
        "vertical_rate": 10.4,
        "geo_altitude": 10424.16,
        "squawk": null,
        "spi": false,
        "position_source": 0
      }
    },
    {
      "type": "Feature",
      "geometry": {
        "type": "Point",
        "coordinates": [
          8.4704,
          44.0853
        ]
      },
      "properties": {
        "icao24": "440053",
        "callsign": "EJU72TV",
        "origin_country": "Austria",
        "time_position": 1782517080,
        "last_contact": 1782517080,
        "baro_altitude": 9281.16,
        "on_ground": false,
        "velocity": 202.53,
        "true_track": 57.76,
        "vertical_rate": -5.2,
        "geo_altitude": 9883.14,
        "squawk": "1000",
        "spi": false,
        "position_source": 0
      }
    },
    {
      "type": "Feature",
      "geometry": {
        "type": "Point",
        "coordinates": [
          9.5557,
          44.6797
        ]
      },
      "properties": {
        "icao24": "471d69",
        "callsign": "WMT9GW",
        "origin_country": "Hungary",
        "time_position": 1782517080,
        "last_contact": 1782517080,
        "baro_altitude": 11269.98,
        "on_ground": false,
        "velocity": 225.37,
        "true_track": 141.95,
        "vertical_rate": 0,
        "geo_altitude": 11902.44,
        "squawk": "2242",
        "spi": false,
        "position_source": 0
      }
    },
    {
      "type": "Feature",
      "geometry": {
        "type": "Point",
        "coordinates": [
          9.0859,
          40.9958
        ]
      },
      "properties": {
        "icao24": "471d5e",
        "callsign": "WMT49BD",
        "origin_country": "Hungary",
        "time_position": 1782517080,
        "last_contact": 1782517080,
        "baro_altitude": 10972.8,
        "on_ground": false,
        "velocity": 218.65,
        "true_track": 71.05,
        "vertical_rate": 0,
        "geo_altitude": 11597.64,
        "squawk": "1000",
        "spi": false,
        "position_source": 0
      }
    },
    {
      "type": "Feature",
      "geometry": {
        "type": "Point",
        "coordinates": [
          12.2928,
          42.0231
        ]
      },
      "properties": {
        "icao24": "8003e3",
        "callsign": "AIC191",
        "origin_country": "India",
        "time_position": 1782517080,
        "last_contact": 1782517080,
        "baro_altitude": 1333.5,
        "on_ground": false,
        "velocity": 123.68,
        "true_track": 315,
        "vertical_rate": -5.53,
        "geo_altitude": 1516.38,
        "squawk": "5514",
        "spi": false,
        "position_source": 0
      }
    },
    {
      "type": "Feature",
      "geometry": {
        "type": "Point",
        "coordinates": [
          10.1033,
          46.274
        ]
      },
      "properties": {
        "icao24": "406909",
        "callsign": "EZY89WU",
        "origin_country": "United Kingdom",
        "time_position": 1782517079,
        "last_contact": 1782517080,
        "baro_altitude": 11590.02,
        "on_ground": false,
        "velocity": 221.35,
        "true_track": 308.87,
        "vertical_rate": 0,
        "geo_altitude": 12237.72,
        "squawk": "7525",
        "spi": false,
        "position_source": 0
      }
    },
    {
      "type": "Feature",
      "geometry": {
        "type": "Point",
        "coordinates": [
          11.9142,
          42.3512
        ]
      },
      "properties": {
        "icao24": "44017c",
        "callsign": "EJU89DL",
        "origin_country": "Austria",
        "time_position": 1782517079,
        "last_contact": 1782517080,
        "baro_altitude": 11582.4,
        "on_ground": false,
        "velocity": 228.41,
        "true_track": 291.54,
        "vertical_rate": 0,
        "geo_altitude": 12222.48,
        "squawk": "1000",
        "spi": false,
        "position_source": 0
      }
    },
    {
      "type": "Feature",
      "geometry": {
        "type": "Point",
        "coordinates": [
          18.1741,
          41.0484
        ]
      },
      "properties": {
        "icao24": "471db9",
        "callsign": "WZZ66RG",
        "origin_country": "Hungary",
        "time_position": 1782517080,
        "last_contact": 1782517080,
        "baro_altitude": 11285.22,
        "on_ground": false,
        "velocity": 225.36,
        "true_track": 88.95,
        "vertical_rate": 0,
        "geo_altitude": 11856.72,
        "squawk": "1453",
        "spi": false,
        "position_source": 0
      }
    },
    {
      "type": "Feature",
      "geometry": {
        "type": "Point",
        "coordinates": [
          17.3697,
          47.3434
        ]
      },
      "properties": {
        "icao24": "4bb2b2",
        "callsign": "TKJ3MQ",
        "origin_country": "Turkey",
        "time_position": 1782517080,
        "last_contact": 1782517080,
        "baro_altitude": 10066.02,
        "on_ground": false,
        "velocity": 234.81,
        "true_track": 118.53,
        "vertical_rate": -0.33,
        "geo_altitude": 10629.9,
        "squawk": "1170",
        "spi": false,
        "position_source": 0
      }
    },
    {
      "type": "Feature",
      "geometry": {
        "type": "Point",
        "coordinates": [
          18.2613,
          47.0127
        ]
      },
      "properties": {
        "icao24": "4bb1e2",
        "callsign": "THY4RN",
        "origin_country": "Turkey",
        "time_position": 1782517080,
        "last_contact": 1782517080,
        "baro_altitude": 11887.2,
        "on_ground": false,
        "velocity": 250.34,
        "true_track": 119.15,
        "vertical_rate": 0,
        "geo_altitude": 12489.18,
        "squawk": "2216",
        "spi": false,
        "position_source": 0
      }
    },
    {
      "type": "Feature",
      "geometry": {
        "type": "Point",
        "coordinates": [
          16.9137,
          47.6135
        ]
      },
      "properties": {
        "icao24": "4bb21a",
        "callsign": "THY3EZ",
        "origin_country": "Turkey",
        "time_position": 1782517080,
        "last_contact": 1782517080,
        "baro_altitude": 10058.4,
        "on_ground": false,
        "velocity": 234.26,
        "true_track": 120.34,
        "vertical_rate": 0,
        "geo_altitude": 10629.9,
        "squawk": "0140",
        "spi": false,
        "position_source": 0
      }
    },
    {
      "type": "Feature",
      "geometry": {
        "type": "Point",
        "coordinates": [
          18.6582,
          47.2432
        ]
      },
      "properties": {
        "icao24": "4bb1a5",
        "callsign": "THY4KG",
        "origin_country": "Turkey",
        "time_position": 1782517079,
        "last_contact": 1782517080,
        "baro_altitude": 10965.18,
        "on_ground": false,
        "velocity": 245.92,
        "true_track": 306.15,
        "vertical_rate": 0.33,
        "geo_altitude": 11544.3,
        "squawk": "5355",
        "spi": false,
        "position_source": 0
      }
    },
    {
      "type": "Feature",
      "geometry": {
        "type": "Point",
        "coordinates": [
          17.7131,
          47.6475
        ]
      },
      "properties": {
        "icao24": "780a61",
        "callsign": "CPA254",
        "origin_country": "China",
        "time_position": 1782517080,
        "last_contact": 1782517080,
        "baro_altitude": 10058.4,
        "on_ground": false,
        "velocity": 253.54,
        "true_track": 114.07,
        "vertical_rate": 0,
        "geo_altitude": 10614.66,
        "squawk": "1156",
        "spi": false,
        "position_source": 0
      }
    },
    {
      "type": "Feature",
      "geometry": {
        "type": "Point",
        "coordinates": [
          13.8538,
          45.1385
        ]
      },
      "properties": {
        "icao24": "406755",
        "callsign": "EZY76TP",
        "origin_country": "United Kingdom",
        "time_position": 1782517080,
        "last_contact": 1782517080,
        "baro_altitude": 10972.8,
        "on_ground": false,
        "velocity": 222.47,
        "true_track": 310.87,
        "vertical_rate": 0,
        "geo_altitude": 11574.78,
        "squawk": "2052",
        "spi": false,
        "position_source": 0
      }
    },
    {
      "type": "Feature",
      "geometry": {
        "type": "Point",
        "coordinates": [
          14.2121,
          42.4481
        ]
      },
      "properties": {
        "icao24": "32001c",
        "callsign": "GCI1892",
        "origin_country": "Italy",
        "time_position": 1782517080,
        "last_contact": 1782517080,
        "baro_altitude": 220.98,
        "on_ground": false,
        "velocity": 31.98,
        "true_track": 295.74,
        "vertical_rate": -3.25,
        "geo_altitude": 335.28,
        "squawk": null,
        "spi": false,
        "position_source": 0
      }
    },
    {
      "type": "Feature",
      "geometry": {
        "type": "Point",
        "coordinates": [
          11.2743,
          46.1237
        ]
      },
      "properties": {
        "icao24": "4067ee",
        "callsign": "TOM5EH",
        "origin_country": "United Kingdom",
        "time_position": 1782517080,
        "last_contact": 1782517080,
        "baro_altitude": 11582.4,
        "on_ground": false,
        "velocity": 223.71,
        "true_track": 299.63,
        "vertical_rate": 0.33,
        "geo_altitude": 12222.48,
        "squawk": "5327",
        "spi": false,
        "position_source": 0
      }
    },
    {
      "type": "Feature",
      "geometry": {
        "type": "Point",
        "coordinates": [
          9.2594,
          41.4646
        ]
      },
      "properties": {
        "icao24": "3465c9",
        "callsign": "VOE2993",
        "origin_country": "Spain",
        "time_position": 1782517080,
        "last_contact": 1782517080,
        "baro_altitude": 11574.78,
        "on_ground": false,
        "velocity": 231.87,
        "true_track": 328.43,
        "vertical_rate": 0.33,
        "geo_altitude": 12207.24,
        "squawk": null,
        "spi": false,
        "position_source": 0
      }
    },
    {
      "type": "Feature",
      "geometry": {
        "type": "Point",
        "coordinates": [
          7.1029,
          47.6694
        ]
      },
      "properties": {
        "icao24": "4bb18d",
        "callsign": "THY41J",
        "origin_country": "Turkey",
        "time_position": 1782517080,
        "last_contact": 1782517080,
        "baro_altitude": 11277.6,
        "on_ground": false,
        "velocity": 256.03,
        "true_track": 98.67,
        "vertical_rate": 0,
        "geo_altitude": 11925.3,
        "squawk": "2227",
        "spi": false,
        "position_source": 0
      }
    },
    {
      "type": "Feature",
      "geometry": {
        "type": "Point",
        "coordinates": [
          17.9417,
          44.2656
        ]
      },
      "properties": {
        "icao24": "4077ba",
        "callsign": "EXS56UV",
        "origin_country": "United Kingdom",
        "time_position": 1782517080,
        "last_contact": 1782517080,
        "baro_altitude": 11582.4,
        "on_ground": false,
        "velocity": 228.66,
        "true_track": 308.88,
        "vertical_rate": 0,
        "geo_altitude": 12169.14,
        "squawk": "5354",
        "spi": false,
        "position_source": 0
      }
    },
    {
      "type": "Feature",
      "geometry": {
        "type": "Point",
        "coordinates": [
          10.9697,
          44.5068
        ]
      },
      "properties": {
        "icao24": "346390",
        "callsign": "EVE846",
        "origin_country": "Spain",
        "time_position": 1782517080,
        "last_contact": 1782517080,
        "baro_altitude": 12192,
        "on_ground": false,
        "velocity": 250.39,
        "true_track": 262.92,
        "vertical_rate": -0.33,
        "geo_altitude": 12694.92,
        "squawk": "4152",
        "spi": false,
        "position_source": 0
      }
    },
    {
      "type": "Feature",
      "geometry": {
        "type": "Point",
        "coordinates": [
          16.6012,
          35.9293
        ]
      },
      "properties": {
        "icao24": "896618",
        "callsign": "UAE9389",
        "origin_country": "United Arab Emirates",
        "time_position": 1782517080,
        "last_contact": 1782517080,
        "baro_altitude": 10363.2,
        "on_ground": false,
        "velocity": 255.75,
        "true_track": 279.73,
        "vertical_rate": 0,
        "geo_altitude": 10866.12,
        "squawk": null,
        "spi": false,
        "position_source": 0
      }
    },
    {
      "type": "Feature",
      "geometry": {
        "type": "Point",
        "coordinates": [
          17.9849,
          43.5646
        ]
      },
      "properties": {
        "icao24": "8964b5",
        "callsign": "UAE6",
        "origin_country": "United Arab Emirates",
        "time_position": 1782517080,
        "last_contact": 1782517080,
        "baro_altitude": 11887.2,
        "on_ground": false,
        "velocity": 260.11,
        "true_track": 134.44,
        "vertical_rate": -0.33,
        "geo_altitude": 12473.94,
        "squawk": "5246",
        "spi": false,
        "position_source": 0
      }
    },
    {
      "type": "Feature",
      "geometry": {
        "type": "Point",
        "coordinates": [
          16.8735,
          44.9076
        ]
      },
      "properties": {
        "icao24": "4076ed",
        "callsign": "EXS78NL",
        "origin_country": "United Kingdom",
        "time_position": 1782517080,
        "last_contact": 1782517080,
        "baro_altitude": 10972.8,
        "on_ground": false,
        "velocity": 226.12,
        "true_track": 309.74,
        "vertical_rate": 0,
        "geo_altitude": 11567.16,
        "squawk": "7213",
        "spi": false,
        "position_source": 0
      }
    },
    {
      "type": "Feature",
      "geometry": {
        "type": "Point",
        "coordinates": [
          7.3828,
          45.7818
        ]
      },
      "properties": {
        "icao24": "406673",
        "callsign": "EZY72GK",
        "origin_country": "United Kingdom",
        "time_position": 1782517080,
        "last_contact": 1782517080,
        "baro_altitude": 7604.76,
        "on_ground": false,
        "velocity": 217.85,
        "true_track": 300.2,
        "vertical_rate": 7.15,
        "geo_altitude": 8145.78,
        "squawk": "5707",
        "spi": false,
        "position_source": 0
      }
    },
    {
      "type": "Feature",
      "geometry": {
        "type": "Point",
        "coordinates": [
          15.6179,
          44.0113
        ]
      },
      "properties": {
        "icao24": "406668",
        "callsign": "EZY72WY",
        "origin_country": "United Kingdom",
        "time_position": 1782517080,
        "last_contact": 1782517080,
        "baro_altitude": 10972.8,
        "on_ground": false,
        "velocity": 222.48,
        "true_track": 312.47,
        "vertical_rate": 0,
        "geo_altitude": 11574.78,
        "squawk": "5506",
        "spi": false,
        "position_source": 0
      }
    },
    {
      "type": "Feature",
      "geometry": {
        "type": "Point",
        "coordinates": [
          13.1137,
          46.9899
        ]
      },
      "properties": {
        "icao24": "40796c",
        "callsign": "TOM2MW",
        "origin_country": "United Kingdom",
        "time_position": 1782517080,
        "last_contact": 1782517080,
        "baro_altitude": 11582.4,
        "on_ground": false,
        "velocity": 225.24,
        "true_track": 307.58,
        "vertical_rate": 0,
        "geo_altitude": 12214.86,
        "squawk": "6622",
        "spi": false,
        "position_source": 0
      }
    },
    {
      "type": "Feature",
      "geometry": {
        "type": "Point",
        "coordinates": [
          17.7554,
          46.5596
        ]
      },
      "properties": {
        "icao24": "4bcd81",
        "callsign": "SXS1ZQ",
        "origin_country": "Turkey",
        "time_position": 1782517080,
        "last_contact": 1782517080,
        "baro_altitude": 11277.6,
        "on_ground": false,
        "velocity": 238.29,
        "true_track": 127.19,
        "vertical_rate": 0,
        "geo_altitude": 11871.96,
        "squawk": "6405",
        "spi": false,
        "position_source": 0
      }
    },
    {
      "type": "Feature",
      "geometry": {
        "type": "Point",
        "coordinates": [
          12.3721,
          41.0747
        ]
      },
      "properties": {
        "icao24": "040049",
        "callsign": "ETH575",
        "origin_country": "Ethiopia",
        "time_position": 1782517080,
        "last_contact": 1782517080,
        "baro_altitude": 11887.2,
        "on_ground": false,
        "velocity": 243.24,
        "true_track": 126.31,
        "vertical_rate": 0,
        "geo_altitude": 12512.04,
        "squawk": "4310",
        "spi": false,
        "position_source": 0
      }
    },
    {
      "type": "Feature",
      "geometry": {
        "type": "Point",
        "coordinates": [
          14.9236,
          39.5832
        ]
      },
      "properties": {
        "icao24": "040045",
        "callsign": "ETH519",
        "origin_country": "Ethiopia",
        "time_position": 1782517080,
        "last_contact": 1782517080,
        "baro_altitude": 12489.18,
        "on_ground": false,
        "velocity": 244.19,
        "true_track": 127.81,
        "vertical_rate": -0.33,
        "geo_altitude": 13083.54,
        "squawk": "4311",
        "spi": false,
        "position_source": 0
      }
    },
    {
      "type": "Feature",
      "geometry": {
        "type": "Point",
        "coordinates": [
          15.2297,
          46.6253
        ]
      },
      "properties": {
        "icao24": "48520c",
        "callsign": "TRA36Q",
        "origin_country": "Kingdom of the Netherlands",
        "time_position": 1782517080,
        "last_contact": 1782517080,
        "baro_altitude": 11582.4,
        "on_ground": false,
        "velocity": 228.33,
        "true_track": 319.2,
        "vertical_rate": 0,
        "geo_altitude": 12192,
        "squawk": "2262",
        "spi": false,
        "position_source": 0
      }
    },
    {
      "type": "Feature",
      "geometry": {
        "type": "Point",
        "coordinates": [
          18.8462,
          47.0594
        ]
      },
      "properties": {
        "icao24": "49d420",
        "callsign": "TVS44T",
        "origin_country": "Czech Republic",
        "time_position": 1782517079,
        "last_contact": 1782517080,
        "baro_altitude": 10668,
        "on_ground": false,
        "velocity": 236.71,
        "true_track": 145.9,
        "vertical_rate": 0,
        "geo_altitude": 11231.88,
        "squawk": "1465",
        "spi": false,
        "position_source": 0
      }
    },
    {
      "type": "Feature",
      "geometry": {
        "type": "Point",
        "coordinates": [
          17.853,
          46.8873
        ]
      },
      "properties": {
        "icao24": "49d1cd",
        "callsign": "TVS7KQ",
        "origin_country": "Czech Republic",
        "time_position": 1782517080,
        "last_contact": 1782517080,
        "baro_altitude": 10668,
        "on_ground": false,
        "velocity": 241.03,
        "true_track": 141.76,
        "vertical_rate": 0,
        "geo_altitude": 11239.5,
        "squawk": "6005",
        "spi": false,
        "position_source": 0
      }
    },
    {
      "type": "Feature",
      "geometry": {
        "type": "Point",
        "coordinates": [
          8.6375,
          47.396
        ]
      },
      "properties": {
        "icao24": "4b3305",
        "callsign": "RGA01",
        "origin_country": "Switzerland",
        "time_position": 1782517064,
        "last_contact": 1782517070,
        "baro_altitude": null,
        "on_ground": true,
        "velocity": 0,
        "true_track": 185.62,
        "vertical_rate": null,
        "geo_altitude": null,
        "squawk": "1760",
        "spi": false,
        "position_source": 0
      }
    },
    {
      "type": "Feature",
      "geometry": {
        "type": "Point",
        "coordinates": [
          8.9368,
          46.06
        ]
      },
      "properties": {
        "icao24": "4b3309",
        "callsign": "RGA06",
        "origin_country": "Switzerland",
        "time_position": 1782516917,
        "last_contact": 1782516917,
        "baro_altitude": 640.08,
        "on_ground": false,
        "velocity": 60.54,
        "true_track": 335.39,
        "vertical_rate": 1.3,
        "geo_altitude": 777.24,
        "squawk": null,
        "spi": false,
        "position_source": 0
      }
    },
    {
      "type": "Feature",
      "geometry": {
        "type": "Point",
        "coordinates": [
          10.8136,
          45.1705
        ]
      },
      "properties": {
        "icao24": "49d369",
        "callsign": "TVS53B",
        "origin_country": "Czech Republic",
        "time_position": 1782517080,
        "last_contact": 1782517080,
        "baro_altitude": 10972.8,
        "on_ground": false,
        "velocity": 227.77,
        "true_track": 38.4,
        "vertical_rate": 0,
        "geo_altitude": 11590.02,
        "squawk": "1000",
        "spi": false,
        "position_source": 0
      }
    },
    {
      "type": "Feature",
      "geometry": {
        "type": "Point",
        "coordinates": [
          17.4531,
          47.4888
        ]
      },
      "properties": {
        "icao24": "49d38c",
        "callsign": "TVS6EH",
        "origin_country": "Czech Republic",
        "time_position": 1782517080,
        "last_contact": 1782517080,
        "baro_altitude": 10652.76,
        "on_ground": false,
        "velocity": 224.15,
        "true_track": 326.42,
        "vertical_rate": -4.88,
        "geo_altitude": 11209.02,
        "squawk": "6024",
        "spi": false,
        "position_source": 0
      }
    },
    {
      "type": "Feature",
      "geometry": {
        "type": "Point",
        "coordinates": [
          17.5421,
          46.8765
        ]
      },
      "properties": {
        "icao24": "503e61",
        "callsign": "CAI2E",
        "origin_country": "Lithuania",
        "time_position": 1782517079,
        "last_contact": 1782517080,
        "baro_altitude": 11567.16,
        "on_ground": false,
        "velocity": 224.15,
        "true_track": 303.58,
        "vertical_rate": -0.33,
        "geo_altitude": 12169.14,
        "squawk": "2653",
        "spi": false,
        "position_source": 0
      }
    },
    {
      "type": "Feature",
      "geometry": {
        "type": "Point",
        "coordinates": [
          17.0313,
          44.8213
        ]
      },
      "properties": {
        "icao24": "406e2e",
        "callsign": "EXS4KJ",
        "origin_country": "United Kingdom",
        "time_position": 1782517080,
        "last_contact": 1782517080,
        "baro_altitude": 10972.8,
        "on_ground": false,
        "velocity": 226.12,
        "true_track": 309.74,
        "vertical_rate": 0,
        "geo_altitude": 11544.3,
        "squawk": "5320",
        "spi": false,
        "position_source": 0
      }
    },
    {
      "type": "Feature",
      "geometry": {
        "type": "Point",
        "coordinates": [
          8.724,
          45.6171
        ]
      },
      "properties": {
        "icao24": "31d7a6",
        "callsign": "ECHO10",
        "origin_country": "Italy",
        "time_position": 1782517047,
        "last_contact": 1782517047,
        "baro_altitude": null,
        "on_ground": true,
        "velocity": 4.89,
        "true_track": 348.75,
        "vertical_rate": null,
        "geo_altitude": null,
        "squawk": null,
        "spi": false,
        "position_source": 0
      }
    },
    {
      "type": "Feature",
      "geometry": {
        "type": "Point",
        "coordinates": [
          8.73,
          45.6427
        ]
      },
      "properties": {
        "icao24": "31d7a2",
        "callsign": "ECHO6",
        "origin_country": "Italy",
        "time_position": 1782516830,
        "last_contact": 1782516830,
        "baro_altitude": null,
        "on_ground": true,
        "velocity": 15.95,
        "true_track": 348.75,
        "vertical_rate": null,
        "geo_altitude": null,
        "squawk": null,
        "spi": false,
        "position_source": 0
      }
    },
    {
      "type": "Feature",
      "geometry": {
        "type": "Point",
        "coordinates": [
          8.7361,
          45.6204
        ]
      },
      "properties": {
        "icao24": "31d7a0",
        "callsign": "ECHO4",
        "origin_country": "Italy",
        "time_position": 1782517044,
        "last_contact": 1782517044,
        "baro_altitude": null,
        "on_ground": true,
        "velocity": 7.72,
        "true_track": 168.75,
        "vertical_rate": null,
        "geo_altitude": null,
        "squawk": null,
        "spi": false,
        "position_source": 0
      }
    },
    {
      "type": "Feature",
      "geometry": {
        "type": "Point",
        "coordinates": [
          7.2188,
          43.5245
        ]
      },
      "properties": {
        "icao24": "4ca244",
        "callsign": "RYR8512",
        "origin_country": "Ireland",
        "time_position": 1782517080,
        "last_contact": 1782517080,
        "baro_altitude": 10972.8,
        "on_ground": false,
        "velocity": 236.35,
        "true_track": 52.61,
        "vertical_rate": 0,
        "geo_altitude": 11612.88,
        "squawk": "1426",
        "spi": false,
        "position_source": 0
      }
    },
    {
      "type": "Feature",
      "geometry": {
        "type": "Point",
        "coordinates": [
          18.2492,
          43.921
        ]
      },
      "properties": {
        "icao24": "406b48",
        "callsign": "VIR346",
        "origin_country": "United Kingdom",
        "time_position": 1782517080,
        "last_contact": 1782517080,
        "baro_altitude": 10668,
        "on_ground": false,
        "velocity": 255.82,
        "true_track": 131.58,
        "vertical_rate": -0.33,
        "geo_altitude": 11262.36,
        "squawk": "5207",
        "spi": false,
        "position_source": 0
      }
    },
    {
      "type": "Feature",
      "geometry": {
        "type": "Point",
        "coordinates": [
          14.5567,
          47.1623
        ]
      },
      "properties": {
        "icao24": "407e69",
        "callsign": "EXS1BV",
        "origin_country": "United Kingdom",
        "time_position": 1782517080,
        "last_contact": 1782517080,
        "baro_altitude": 10972.8,
        "on_ground": false,
        "velocity": 224.11,
        "true_track": 314.07,
        "vertical_rate": 0,
        "geo_altitude": 11567.16,
        "squawk": "5605",
        "spi": false,
        "position_source": 0
      }
    },
    {
      "type": "Feature",
      "geometry": {
        "type": "Point",
        "coordinates": [
          13.9375,
          46.9442
        ]
      },
      "properties": {
        "icao24": "407e54",
        "callsign": "EXS56HW",
        "origin_country": "United Kingdom",
        "time_position": 1782517080,
        "last_contact": 1782517080,
        "baro_altitude": 10988.04,
        "on_ground": false,
        "velocity": 230.16,
        "true_track": 306.64,
        "vertical_rate": 0,
        "geo_altitude": 11620.5,
        "squawk": "3233",
        "spi": false,
        "position_source": 0
      }
    },
    {
      "type": "Feature",
      "geometry": {
        "type": "Point",
        "coordinates": [
          10.4039,
          42.6654
        ]
      },
      "properties": {
        "icao24": "440612",
        "callsign": "EJU3608",
        "origin_country": "Austria",
        "time_position": 1782517080,
        "last_contact": 1782517080,
        "baro_altitude": 11582.4,
        "on_ground": false,
        "velocity": 230.14,
        "true_track": 332,
        "vertical_rate": -0.33,
        "geo_altitude": 12230.1,
        "squawk": "1000",
        "spi": false,
        "position_source": 0
      }
    },
    {
      "type": "Feature",
      "geometry": {
        "type": "Point",
        "coordinates": [
          13.4922,
          40.7354
        ]
      },
      "properties": {
        "icao24": "440611",
        "callsign": "EJU95WM",
        "origin_country": "Austria",
        "time_position": 1782517080,
        "last_contact": 1782517080,
        "baro_altitude": 10972.8,
        "on_ground": false,
        "velocity": 241.01,
        "true_track": 311.11,
        "vertical_rate": 0,
        "geo_altitude": 11567.16,
        "squawk": null,
        "spi": false,
        "position_source": 0
      }
    },
    {
      "type": "Feature",
      "geometry": {
        "type": "Point",
        "coordinates": [
          7.664,
          44.9503
        ]
      },
      "properties": {
        "icao24": "06a081",
        "callsign": "QTR8214",
        "origin_country": "Qatar",
        "time_position": 1782517080,
        "last_contact": 1782517080,
        "baro_altitude": 6294.12,
        "on_ground": false,
        "velocity": 183.37,
        "true_track": 100.02,
        "vertical_rate": -4.88,
        "geo_altitude": 6758.94,
        "squawk": "1000",
        "spi": false,
        "position_source": 0
      }
    },
    {
      "type": "Feature",
      "geometry": {
        "type": "Point",
        "coordinates": [
          17.7925,
          35.4217
        ]
      },
      "properties": {
        "icao24": "06a07a",
        "callsign": "QTR30J",
        "origin_country": "Qatar",
        "time_position": 1782517080,
        "last_contact": 1782517080,
        "baro_altitude": 10058.4,
        "on_ground": false,
        "velocity": 249.5,
        "true_track": 99.02,
        "vertical_rate": 0,
        "geo_altitude": 10546.08,
        "squawk": "3150",
        "spi": false,
        "position_source": 0
      }
    },
    {
      "type": "Feature",
      "geometry": {
        "type": "Point",
        "coordinates": [
          17.2666,
          44.674
        ]
      },
      "properties": {
        "icao24": "406c81",
        "callsign": "EXS9QS",
        "origin_country": "United Kingdom",
        "time_position": 1782517080,
        "last_contact": 1782517080,
        "baro_altitude": 11582.4,
        "on_ground": false,
        "velocity": 223.03,
        "true_track": 310.23,
        "vertical_rate": 0,
        "geo_altitude": 12169.14,
        "squawk": "1343",
        "spi": false,
        "position_source": 0
      }
    },
    {
      "type": "Feature",
      "geometry": {
        "type": "Point",
        "coordinates": [
          13.3538,
          42.8194
        ]
      },
      "properties": {
        "icao24": "44079a",
        "callsign": "EJU36JL",
        "origin_country": "Austria",
        "time_position": 1782517080,
        "last_contact": 1782517080,
        "baro_altitude": 10972.8,
        "on_ground": false,
        "velocity": 226.14,
        "true_track": 301.7,
        "vertical_rate": 0,
        "geo_altitude": 11582.4,
        "squawk": "2013",
        "spi": false,
        "position_source": 0
      }
    },
    {
      "type": "Feature",
      "geometry": {
        "type": "Point",
        "coordinates": [
          9.8198,
          44.4989
        ]
      },
      "properties": {
        "icao24": "4403a7",
        "callsign": "EJU31LR",
        "origin_country": "Austria",
        "time_position": 1782517080,
        "last_contact": 1782517080,
        "baro_altitude": 8252.46,
        "on_ground": false,
        "velocity": 232.9,
        "true_track": 299.51,
        "vertical_rate": -6.5,
        "geo_altitude": 8785.86,
        "squawk": "1000",
        "spi": false,
        "position_source": 0
      }
    },
    {
      "type": "Feature",
      "geometry": {
        "type": "Point",
        "coordinates": [
          8.7214,
          45.636
        ]
      },
      "properties": {
        "icao24": "440425",
        "callsign": "EJU68VV",
        "origin_country": "Austria",
        "time_position": 1782517080,
        "last_contact": 1782517080,
        "baro_altitude": null,
        "on_ground": true,
        "velocity": 22.64,
        "true_track": 348.75,
        "vertical_rate": null,
        "geo_altitude": null,
        "squawk": "6631",
        "spi": false,
        "position_source": 0
      }
    },
    {
      "type": "Feature",
      "geometry": {
        "type": "Point",
        "coordinates": [
          17.2919,
          47.7463
        ]
      },
      "properties": {
        "icao24": "4bb842",
        "callsign": "PGT482Y",
        "origin_country": "Turkey",
        "time_position": 1782517080,
        "last_contact": 1782517080,
        "baro_altitude": 10972.8,
        "on_ground": false,
        "velocity": 225.02,
        "true_track": 307.29,
        "vertical_rate": -0.33,
        "geo_altitude": 11551.92,
        "squawk": "5330",
        "spi": false,
        "position_source": 0
      }
    },
    {
      "type": "Feature",
      "geometry": {
        "type": "Point",
        "coordinates": [
          7.7831,
          43.4211
        ]
      },
      "properties": {
        "icao24": "a014ff",
        "callsign": "N104QS",
        "origin_country": "United States",
        "time_position": 1782517080,
        "last_contact": 1782517080,
        "baro_altitude": 868.68,
        "on_ground": false,
        "velocity": 106.06,
        "true_track": 100.06,
        "vertical_rate": 0,
        "geo_altitude": 1021.08,
        "squawk": null,
        "spi": false,
        "position_source": 0
      }
    },
    {
      "type": "Feature",
      "geometry": {
        "type": "Point",
        "coordinates": [
          14.1208,
          44.4319
        ]
      },
      "properties": {
        "icao24": "406a62",
        "callsign": "EXS626D",
        "origin_country": "United Kingdom",
        "time_position": 1782517080,
        "last_contact": 1782517080,
        "baro_altitude": 10972.8,
        "on_ground": false,
        "velocity": 225.24,
        "true_track": 316.39,
        "vertical_rate": 0,
        "geo_altitude": 11567.16,
        "squawk": "7740",
        "spi": false,
        "position_source": 0
      }
    },
    {
      "type": "Feature",
      "geometry": {
        "type": "Point",
        "coordinates": [
          18.9363,
          44.0006
        ]
      },
      "properties": {
        "icao24": "406a63",
        "callsign": "EXS72P",
        "origin_country": "United Kingdom",
        "time_position": 1782517080,
        "last_contact": 1782517080,
        "baro_altitude": 11582.4,
        "on_ground": false,
        "velocity": 226,
        "true_track": 318.69,
        "vertical_rate": 0,
        "geo_altitude": 12169.14,
        "squawk": "2046",
        "spi": false,
        "position_source": 0
      }
    },
    {
      "type": "Feature",
      "geometry": {
        "type": "Point",
        "coordinates": [
          14.1403,
          46.442
        ]
      },
      "properties": {
        "icao24": "407d10",
        "callsign": "TOM1XC",
        "origin_country": "United Kingdom",
        "time_position": 1782517080,
        "last_contact": 1782517080,
        "baro_altitude": 11582.4,
        "on_ground": false,
        "velocity": 230.11,
        "true_track": 308.1,
        "vertical_rate": 0,
        "geo_altitude": 12176.76,
        "squawk": "5636",
        "spi": false,
        "position_source": 0
      }
    },
    {
      "type": "Feature",
      "geometry": {
        "type": "Point",
        "coordinates": [
          9.0449,
          39.9778
        ]
      },
      "properties": {
        "icao24": "44056b",
        "callsign": "EJU12RT",
        "origin_country": "Austria",
        "time_position": 1782517080,
        "last_contact": 1782517080,
        "baro_altitude": 7520.94,
        "on_ground": false,
        "velocity": 213.7,
        "true_track": 352.67,
        "vertical_rate": 10.08,
        "geo_altitude": 8016.24,
        "squawk": null,
        "spi": false,
        "position_source": 0
      }
    },
    {
      "type": "Feature",
      "geometry": {
        "type": "Point",
        "coordinates": [
          15.1574,
          44.5727
        ]
      },
      "properties": {
        "icao24": "407d44",
        "callsign": "WUK8YM",
        "origin_country": "United Kingdom",
        "time_position": 1782517080,
        "last_contact": 1782517080,
        "baro_altitude": 10972.8,
        "on_ground": false,
        "velocity": 231.25,
        "true_track": 299.3,
        "vertical_rate": 0,
        "geo_altitude": 11574.78,
        "squawk": "1167",
        "spi": false,
        "position_source": 0
      }
    },
    {
      "type": "Feature",
      "geometry": {
        "type": "Point",
        "coordinates": [
          8.5594,
          47.4517
        ]
      },
      "properties": {
        "icao24": "4b1807",
        "callsign": "SWR8CM",
        "origin_country": "Switzerland",
        "time_position": 1782517076,
        "last_contact": 1782517076,
        "baro_altitude": null,
        "on_ground": true,
        "velocity": 0,
        "true_track": 185.62,
        "vertical_rate": null,
        "geo_altitude": null,
        "squawk": null,
        "spi": false,
        "position_source": 0
      }
    },
    {
      "type": "Feature",
      "geometry": {
        "type": "Point",
        "coordinates": [
          8.7506,
          45.5301
        ]
      },
      "properties": {
        "icao24": "3c5433",
        "callsign": "BCS37R",
        "origin_country": "Germany",
        "time_position": 1782517080,
        "last_contact": 1782517080,
        "baro_altitude": 640.08,
        "on_ground": false,
        "velocity": 87.07,
        "true_track": 348.76,
        "vertical_rate": -3.25,
        "geo_altitude": 784.86,
        "squawk": "1000",
        "spi": false,
        "position_source": 0
      }
    },
    {
      "type": "Feature",
      "geometry": {
        "type": "Point",
        "coordinates": [
          8.7231,
          45.6205
        ]
      },
      "properties": {
        "icao24": "3c542f",
        "callsign": "BCS465",
        "origin_country": "Germany",
        "time_position": 1782517078,
        "last_contact": 1782517078,
        "baro_altitude": null,
        "on_ground": true,
        "velocity": 6.94,
        "true_track": 348.75,
        "vertical_rate": null,
        "geo_altitude": null,
        "squawk": null,
        "spi": false,
        "position_source": 0
      }
    },
    {
      "type": "Feature",
      "geometry": {
        "type": "Point",
        "coordinates": [
          8.7955,
          45.3666
        ]
      },
      "properties": {
        "icao24": "4951ce",
        "callsign": "TAP828",
        "origin_country": "Portugal",
        "time_position": 1782517080,
        "last_contact": 1782517080,
        "baro_altitude": 1341.12,
        "on_ground": false,
        "velocity": 110.58,
        "true_track": 349,
        "vertical_rate": -1.95,
        "geo_altitude": 1531.62,
        "squawk": "2251",
        "spi": false,
        "position_source": 0
      }
    },
    {
      "type": "Feature",
      "geometry": {
        "type": "Point",
        "coordinates": [
          17.1346,
          42.0652
        ]
      },
      "properties": {
        "icao24": "02a1a8",
        "callsign": "LBT7235",
        "origin_country": "Tunisia",
        "time_position": 1782517080,
        "last_contact": 1782517080,
        "baro_altitude": 10965.18,
        "on_ground": false,
        "velocity": 247.36,
        "true_track": 217.39,
        "vertical_rate": 0.33,
        "geo_altitude": 11544.3,
        "squawk": null,
        "spi": false,
        "position_source": 0
      }
    },
    {
      "type": "Feature",
      "geometry": {
        "type": "Point",
        "coordinates": [
          10.4519,
          36.9376
        ]
      },
      "properties": {
        "icao24": "02a1ac",
        "callsign": "LBT521",
        "origin_country": "Tunisia",
        "time_position": 1782516970,
        "last_contact": 1782516970,
        "baro_altitude": 1546.86,
        "on_ground": false,
        "velocity": 147.85,
        "true_track": 172.6,
        "vertical_rate": -7.8,
        "geo_altitude": 1752.6,
        "squawk": "7655",
        "spi": false,
        "position_source": 0
      }
    },
    {
      "type": "Feature",
      "geometry": {
        "type": "Point",
        "coordinates": [
          15.795,
          39.6802
        ]
      },
      "properties": {
        "icao24": "02a1b4",
        "callsign": "LBT7116",
        "origin_country": "Tunisia",
        "time_position": 1782517080,
        "last_contact": 1782517080,
        "baro_altitude": 11269.98,
        "on_ground": false,
        "velocity": 216.9,
        "true_track": 43.27,
        "vertical_rate": 0.33,
        "geo_altitude": 11833.86,
        "squawk": "6135",
        "spi": false,
        "position_source": 0
      }
    },
    {
      "type": "Feature",
      "geometry": {
        "type": "Point",
        "coordinates": [
          9.2618,
          47.1543
        ]
      },
      "properties": {
        "icao24": "40815c",
        "callsign": "EZY79TV",
        "origin_country": "United Kingdom",
        "time_position": 1782517080,
        "last_contact": 1782517080,
        "baro_altitude": 10972.8,
        "on_ground": false,
        "velocity": 226.91,
        "true_track": 304.84,
        "vertical_rate": 0,
        "geo_altitude": 11620.5,
        "squawk": "7522",
        "spi": false,
        "position_source": 0
      }
    },
    {
      "type": "Feature",
      "geometry": {
        "type": "Point",
        "coordinates": [
          13.9527,
          46.5453
        ]
      },
      "properties": {
        "icao24": "408032",
        "callsign": "EXS52MD",
        "origin_country": "United Kingdom",
        "time_position": 1782517080,
        "last_contact": 1782517080,
        "baro_altitude": 10957.56,
        "on_ground": false,
        "velocity": 226.1,
        "true_track": 308.07,
        "vertical_rate": 0,
        "geo_altitude": 11567.16,
        "squawk": "6623",
        "spi": false,
        "position_source": 0
      }
    },
    {
      "type": "Feature",
      "geometry": {
        "type": "Point",
        "coordinates": [
          17.9675,
          43.7198
        ]
      },
      "properties": {
        "icao24": "408027",
        "callsign": "TOM4CK",
        "origin_country": "United Kingdom",
        "time_position": 1782517078,
        "last_contact": 1782517080,
        "baro_altitude": 11582.4,
        "on_ground": false,
        "velocity": 225.47,
        "true_track": 296.86,
        "vertical_rate": 0,
        "geo_altitude": 12161.52,
        "squawk": "2053",
        "spi": false,
        "position_source": 0
      }
    },
    {
      "type": "Feature",
      "geometry": {
        "type": "Point",
        "coordinates": [
          8.6314,
          44.9192
        ]
      },
      "properties": {
        "icao24": "4ca9c2",
        "callsign": "RYR6TZ",
        "origin_country": "Ireland",
        "time_position": 1782517080,
        "last_contact": 1782517080,
        "baro_altitude": 5204.46,
        "on_ground": false,
        "velocity": 150.71,
        "true_track": 339.83,
        "vertical_rate": -5.2,
        "geo_altitude": 5600.7,
        "squawk": "1000",
        "spi": false,
        "position_source": 0
      }
    },
    {
      "type": "Feature",
      "geometry": {
        "type": "Point",
        "coordinates": [
          7.1611,
          46.6583
        ]
      },
      "properties": {
        "icao24": "440bcd",
        "callsign": "BCS8AA",
        "origin_country": "Austria",
        "time_position": 1782517080,
        "last_contact": 1782517080,
        "baro_altitude": 9753.6,
        "on_ground": false,
        "velocity": 241.69,
        "true_track": 343.3,
        "vertical_rate": 0.33,
        "geo_altitude": 10347.96,
        "squawk": "1000",
        "spi": false,
        "position_source": 0
      }
    },
    {
      "type": "Feature",
      "geometry": {
        "type": "Point",
        "coordinates": [
          12.5754,
          43.6872
        ]
      },
      "properties": {
        "icao24": "4ca9cc",
        "callsign": "RYR9YL",
        "origin_country": "Ireland",
        "time_position": 1782517080,
        "last_contact": 1782517080,
        "baro_altitude": 9540.24,
        "on_ground": false,
        "velocity": 233.88,
        "true_track": 308.66,
        "vertical_rate": -18.21,
        "geo_altitude": 10126.98,
        "squawk": "4425",
        "spi": false,
        "position_source": 0
      }
    },
    {
      "type": "Feature",
      "geometry": {
        "type": "Point",
        "coordinates": [
          14.817,
          38.4532
        ]
      },
      "properties": {
        "icao24": "4baac2",
        "callsign": "THY658",
        "origin_country": "Turkey",
        "time_position": 1782517080,
        "last_contact": 1782517080,
        "baro_altitude": 11887.2,
        "on_ground": false,
        "velocity": 216.45,
        "true_track": 74.28,
        "vertical_rate": 0,
        "geo_altitude": 12451.08,
        "squawk": "6140",
        "spi": false,
        "position_source": 0
      }
    },
    {
      "type": "Feature",
      "geometry": {
        "type": "Point",
        "coordinates": [
          12.2596,
          41.8505
        ]
      },
      "properties": {
        "icao24": "4ca8e6",
        "callsign": "RYR85BG",
        "origin_country": "Ireland",
        "time_position": 1782516999,
        "last_contact": 1782516999,
        "baro_altitude": 7.62,
        "on_ground": false,
        "velocity": 80.53,
        "true_track": 162.14,
        "vertical_rate": -3.9,
        "geo_altitude": 129.54,
        "squawk": "2020",
        "spi": false,
        "position_source": 0
      }
    },
    {
      "type": "Feature",
      "geometry": {
        "type": "Point",
        "coordinates": [
          10.8722,
          44.9567
        ]
      },
      "properties": {
        "icao24": "4baa53",
        "callsign": "THY3450",
        "origin_country": "Turkey",
        "time_position": 1782517080,
        "last_contact": 1782517080,
        "baro_altitude": 9433.56,
        "on_ground": false,
        "velocity": 238.29,
        "true_track": 106.56,
        "vertical_rate": 5.85,
        "geo_altitude": 10005.06,
        "squawk": "0436",
        "spi": false,
        "position_source": 0
      }
    },
    {
      "type": "Feature",
      "geometry": {
        "type": "Point",
        "coordinates": [
          15.8886,
          39.0097
        ]
      },
      "properties": {
        "icao24": "4ca85b",
        "callsign": "ITY1173",
        "origin_country": "Ireland",
        "time_position": 1782517075,
        "last_contact": 1782517075,
        "baro_altitude": 1074.42,
        "on_ground": false,
        "velocity": 118,
        "true_track": 132.17,
        "vertical_rate": -6.5,
        "geo_altitude": 1249.68,
        "squawk": null,
        "spi": false,
        "position_source": 0
      }
    },
    {
      "type": "Feature",
      "geometry": {
        "type": "Point",
        "coordinates": [
          11.2726,
          44.5413
        ]
      },
      "properties": {
        "icao24": "4ca7b6",
        "callsign": "RYR7DE",
        "origin_country": "Ireland",
        "time_position": 1782517061,
        "last_contact": 1782517061,
        "baro_altitude": 15.24,
        "on_ground": false,
        "velocity": 75,
        "true_track": 116.92,
        "vertical_rate": -3.58,
        "geo_altitude": 114.3,
        "squawk": "5120",
        "spi": false,
        "position_source": 0
      }
    },
    {
      "type": "Feature",
      "geometry": {
        "type": "Point",
        "coordinates": [
          9.8444,
          41.1983
        ]
      },
      "properties": {
        "icao24": "4ca6aa",
        "callsign": "RYR85FH",
        "origin_country": "Ireland",
        "time_position": 1782517080,
        "last_contact": 1782517080,
        "baro_altitude": 11201.4,
        "on_ground": false,
        "velocity": 231.33,
        "true_track": 20.57,
        "vertical_rate": 6.83,
        "geo_altitude": 11811,
        "squawk": null,
        "spi": false,
        "position_source": 0
      }
    },
    {
      "type": "Feature",
      "geometry": {
        "type": "Point",
        "coordinates": [
          9.7377,
          45.6622
        ]
      },
      "properties": {
        "icao24": "4ca801",
        "callsign": "RYR1YJ",
        "origin_country": "Ireland",
        "time_position": 1782516813,
        "last_contact": 1782516813,
        "baro_altitude": 243.84,
        "on_ground": false,
        "velocity": 82.61,
        "true_track": 285.16,
        "vertical_rate": -4.55,
        "geo_altitude": 365.76,
        "squawk": "6456",
        "spi": false,
        "position_source": 0
      }
    },
    {
      "type": "Feature",
      "geometry": {
        "type": "Point",
        "coordinates": [
          18.4541,
          46.283
        ]
      },
      "properties": {
        "icao24": "4bcde3",
        "callsign": "SXS14E",
        "origin_country": "Turkey",
        "time_position": 1782517080,
        "last_contact": 1782517080,
        "baro_altitude": 11277.6,
        "on_ground": false,
        "velocity": 231.1,
        "true_track": 136.71,
        "vertical_rate": 0,
        "geo_altitude": 11849.1,
        "squawk": "6434",
        "spi": false,
        "position_source": 0
      }
    },
    {
      "type": "Feature",
      "geometry": {
        "type": "Point",
        "coordinates": [
          15.1788,
          45.7905
        ]
      },
      "properties": {
        "icao24": "501c1c",
        "callsign": "TDR185",
        "origin_country": "Croatia",
        "time_position": 1782517080,
        "last_contact": 1782517080,
        "baro_altitude": 3406.14,
        "on_ground": false,
        "velocity": 182.46,
        "true_track": 319.57,
        "vertical_rate": -4.23,
        "geo_altitude": 3733.8,
        "squawk": "7737",
        "spi": false,
        "position_source": 0
      }
    },
    {
      "type": "Feature",
      "geometry": {
        "type": "Point",
        "coordinates": [
          17.4527,
          45.0254
        ]
      },
      "properties": {
        "icao24": "4bcdb2",
        "callsign": "SXS2BQ",
        "origin_country": "Turkey",
        "time_position": 1782517080,
        "last_contact": 1782517080,
        "baro_altitude": 11887.2,
        "on_ground": false,
        "velocity": 239.38,
        "true_track": 130.47,
        "vertical_rate": 0,
        "geo_altitude": 12481.56,
        "squawk": "5255",
        "spi": false,
        "position_source": 0
      }
    },
    {
      "type": "Feature",
      "geometry": {
        "type": "Point",
        "coordinates": [
          11.2677,
          43.3031
        ]
      },
      "properties": {
        "icao24": "4ca621",
        "callsign": "RYR8TU",
        "origin_country": "Ireland",
        "time_position": 1782517079,
        "last_contact": 1782517080,
        "baro_altitude": 10302.24,
        "on_ground": false,
        "velocity": 228.59,
        "true_track": 345.4,
        "vertical_rate": -13,
        "geo_altitude": 10911.84,
        "squawk": "1000",
        "spi": false,
        "position_source": 0
      }
    },
    {
      "type": "Feature",
      "geometry": {
        "type": "Point",
        "coordinates": [
          14.7296,
          47.5858
        ]
      },
      "properties": {
        "icao24": "4bce12",
        "callsign": "SXS8UA",
        "origin_country": "Turkey",
        "time_position": 1782517080,
        "last_contact": 1782517080,
        "baro_altitude": 11277.6,
        "on_ground": false,
        "velocity": 240.44,
        "true_track": 138.12,
        "vertical_rate": 0.33,
        "geo_altitude": 11887.2,
        "squawk": "6402",
        "spi": false,
        "position_source": 0
      }
    },
    {
      "type": "Feature",
      "geometry": {
        "type": "Point",
        "coordinates": [
          15.539,
          41.4365
        ]
      },
      "properties": {
        "icao24": "46866b",
        "callsign": "AEZ2229",
        "origin_country": "Greece",
        "time_position": 1782517042,
        "last_contact": 1782517042,
        "baro_altitude": null,
        "on_ground": true,
        "velocity": 5.66,
        "true_track": 106.88,
        "vertical_rate": null,
        "geo_altitude": null,
        "squawk": "6335",
        "spi": false,
        "position_source": 0
      }
    },
    {
      "type": "Feature",
      "geometry": {
        "type": "Point",
        "coordinates": [
          16.3076,
          45.2495
        ]
      },
      "properties": {
        "icao24": "4075af",
        "callsign": "EXS82LG",
        "origin_country": "United Kingdom",
        "time_position": 1782517080,
        "last_contact": 1782517080,
        "baro_altitude": 11582.4,
        "on_ground": false,
        "velocity": 225.29,
        "true_track": 309.07,
        "vertical_rate": 0,
        "geo_altitude": 12169.14,
        "squawk": "3260",
        "spi": false,
        "position_source": 0
      }
    },
    {
      "type": "Feature",
      "geometry": {
        "type": "Point",
        "coordinates": [
          15.6585,
          46.7141
        ]
      },
      "properties": {
        "icao24": "01024f",
        "callsign": "MSC2932",
        "origin_country": "Egypt",
        "time_position": 1782517080,
        "last_contact": 1782517080,
        "baro_altitude": 11590.02,
        "on_ground": false,
        "velocity": 227.19,
        "true_track": 322.64,
        "vertical_rate": 0.33,
        "geo_altitude": 12207.24,
        "squawk": "2077",
        "spi": false,
        "position_source": 0
      }
    },
    {
      "type": "Feature",
      "geometry": {
        "type": "Point",
        "coordinates": [
          10.0047,
          44.0073
        ]
      },
      "properties": {
        "icao24": "010283",
        "callsign": "MSR948",
        "origin_country": "Egypt",
        "time_position": 1782517080,
        "last_contact": 1782517080,
        "baro_altitude": 11887.2,
        "on_ground": false,
        "velocity": 247.81,
        "true_track": 115.71,
        "vertical_rate": 0,
        "geo_altitude": 12504.42,
        "squawk": "0423",
        "spi": false,
        "position_source": 0
      }
    },
    {
      "type": "Feature",
      "geometry": {
        "type": "Point",
        "coordinates": [
          13.2868,
          47.7551
        ]
      },
      "properties": {
        "icao24": "010265",
        "callsign": "MSC2938",
        "origin_country": "Egypt",
        "time_position": 1782517080,
        "last_contact": 1782517080,
        "baro_altitude": 10972.8,
        "on_ground": false,
        "velocity": 221.85,
        "true_track": 322.25,
        "vertical_rate": 0,
        "geo_altitude": 11590.02,
        "squawk": "6624",
        "spi": false,
        "position_source": 0
      }
    },
    {
      "type": "Feature",
      "geometry": {
        "type": "Point",
        "coordinates": [
          18.6932,
          42.4667
        ]
      },
      "properties": {
        "icao24": "010205",
        "callsign": "MSR780",
        "origin_country": "Egypt",
        "time_position": 1782517079,
        "last_contact": 1782517080,
        "baro_altitude": 10675.62,
        "on_ground": false,
        "velocity": 236.56,
        "true_track": 138.61,
        "vertical_rate": 0.33,
        "geo_altitude": 11239.5,
        "squawk": "5236",
        "spi": false,
        "position_source": 0
      }
    },
    {
      "type": "Feature",
      "geometry": {
        "type": "Point",
        "coordinates": [
          17.9554,
          47.0452
        ]
      },
      "properties": {
        "icao24": "01022d",
        "callsign": "MSC2908",
        "origin_country": "Egypt",
        "time_position": 1782517080,
        "last_contact": 1782517080,
        "baro_altitude": 10972.8,
        "on_ground": false,
        "velocity": 232.25,
        "true_track": 312.85,
        "vertical_rate": 0,
        "geo_altitude": 11544.3,
        "squawk": "2644",
        "spi": false,
        "position_source": 0
      }
    },
    {
      "type": "Feature",
      "geometry": {
        "type": "Point",
        "coordinates": [
          15.244,
          41.6822
        ]
      },
      "properties": {
        "icao24": "01028e",
        "callsign": "NMA301",
        "origin_country": "Egypt",
        "time_position": 1782517079,
        "last_contact": 1782517080,
        "baro_altitude": 10668,
        "on_ground": false,
        "velocity": 237.57,
        "true_track": 128.58,
        "vertical_rate": 0,
        "geo_altitude": 11247.12,
        "squawk": "0441",
        "spi": false,
        "position_source": 0
      }
    },
    {
      "type": "Feature",
      "geometry": {
        "type": "Point",
        "coordinates": [
          9.2088,
          47.2113
        ]
      },
      "properties": {
        "icao24": "4075f3",
        "callsign": "TOM1MN",
        "origin_country": "United Kingdom",
        "time_position": 1782517080,
        "last_contact": 1782517080,
        "baro_altitude": 11582.4,
        "on_ground": false,
        "velocity": 231.4,
        "true_track": 306.41,
        "vertical_rate": 0,
        "geo_altitude": 12230.1,
        "squawk": "7513",
        "spi": false,
        "position_source": 0
      }
    },
    {
      "type": "Feature",
      "geometry": {
        "type": "Point",
        "coordinates": [
          8.9093,
          45.4988
        ]
      },
      "properties": {
        "icao24": "300990",
        "callsign": "LSI220",
        "origin_country": "Italy",
        "time_position": 1782517080,
        "last_contact": 1782517080,
        "baro_altitude": 2118.36,
        "on_ground": false,
        "velocity": 135.9,
        "true_track": 168.65,
        "vertical_rate": -3.58,
        "geo_altitude": 2346.96,
        "squawk": "2337",
        "spi": false,
        "position_source": 0
      }
    },
    {
      "type": "Feature",
      "geometry": {
        "type": "Point",
        "coordinates": [
          17.7758,
          44.4303
        ]
      },
      "properties": {
        "icao24": "4d2536",
        "callsign": "WZZ1UN",
        "origin_country": "",
        "time_position": 1782517080,
        "last_contact": 1782517080,
        "baro_altitude": 10668,
        "on_ground": false,
        "velocity": 230.99,
        "true_track": 135.09,
        "vertical_rate": 0,
        "geo_altitude": 11254.74,
        "squawk": "6423",
        "spi": false,
        "position_source": 0
      }
    },
    {
      "type": "Feature",
      "geometry": {
        "type": "Point",
        "coordinates": [
          16.5516,
          43.9524
        ]
      },
      "properties": {
        "icao24": "4072a5",
        "callsign": "TOM675",
        "origin_country": "United Kingdom",
        "time_position": 1782517080,
        "last_contact": 1782517080,
        "baro_altitude": 10972.8,
        "on_ground": false,
        "velocity": 231.95,
        "true_track": 301.12,
        "vertical_rate": 0.33,
        "geo_altitude": 11551.92,
        "squawk": "5312",
        "spi": false,
        "position_source": 0
      }
    },
    {
      "type": "Feature",
      "geometry": {
        "type": "Point",
        "coordinates": [
          8.5341,
          45.2003
        ]
      },
      "properties": {
        "icao24": "4d2424",
        "callsign": "WMT4JM",
        "origin_country": "",
        "time_position": 1782517080,
        "last_contact": 1782517080,
        "baro_altitude": 3009.9,
        "on_ground": false,
        "velocity": 140.04,
        "true_track": 348.77,
        "vertical_rate": -3.58,
        "geo_altitude": 3284.22,
        "squawk": "1000",
        "spi": false,
        "position_source": 0
      }
    },
    {
      "type": "Feature",
      "geometry": {
        "type": "Point",
        "coordinates": [
          13.0042,
          38.8251
        ]
      },
      "properties": {
        "icao24": "40753f",
        "callsign": "EXS8UM",
        "origin_country": "United Kingdom",
        "time_position": 1782517080,
        "last_contact": 1782517080,
        "baro_altitude": 10972.8,
        "on_ground": false,
        "velocity": 230.96,
        "true_track": 311.93,
        "vertical_rate": 0,
        "geo_altitude": 11544.3,
        "squawk": null,
        "spi": false,
        "position_source": 0
      }
    },
    {
      "type": "Feature",
      "geometry": {
        "type": "Point",
        "coordinates": [
          9.0552,
          40.7305
        ]
      },
      "properties": {
        "icao24": "346043",
        "callsign": "VOE1GD",
        "origin_country": "Spain",
        "time_position": 1782516994,
        "last_contact": 1782517012,
        "baro_altitude": 1920.24,
        "on_ground": false,
        "velocity": 126.29,
        "true_track": 83.69,
        "vertical_rate": -4.23,
        "geo_altitude": 2133.6,
        "squawk": "1442",
        "spi": false,
        "position_source": 0
      }
    },
    {
      "type": "Feature",
      "geometry": {
        "type": "Point",
        "coordinates": [
          17.914,
          43.9883
        ]
      },
      "properties": {
        "icao24": "40756d",
        "callsign": "EZY34PE",
        "origin_country": "United Kingdom",
        "time_position": 1782517080,
        "last_contact": 1782517080,
        "baro_altitude": 11590.02,
        "on_ground": false,
        "velocity": 231.21,
        "true_track": 305.03,
        "vertical_rate": 0.33,
        "geo_altitude": 12169.14,
        "squawk": "5346",
        "spi": false,
        "position_source": 0
      }
    },
    {
      "type": "Feature",
      "geometry": {
        "type": "Point",
        "coordinates": [
          8.9031,
          45.526
        ]
      },
      "properties": {
        "icao24": "4d248e",
        "callsign": "WMT952",
        "origin_country": "",
        "time_position": 1782517080,
        "last_contact": 1782517080,
        "baro_altitude": 3497.58,
        "on_ground": false,
        "velocity": 143.44,
        "true_track": 170.5,
        "vertical_rate": -7.8,
        "geo_altitude": 3810,
        "squawk": "2330",
        "spi": false,
        "position_source": 0
      }
    },
    {
      "type": "Feature",
      "geometry": {
        "type": "Point",
        "coordinates": [
          16.9018,
          46.1877
        ]
      },
      "properties": {
        "icao24": "4d248f",
        "callsign": "WZZ1JS",
        "origin_country": "",
        "time_position": 1782517080,
        "last_contact": 1782517080,
        "baro_altitude": 10058.4,
        "on_ground": false,
        "velocity": 226.96,
        "true_track": 57.97,
        "vertical_rate": 0,
        "geo_altitude": 10637.52,
        "squawk": "1000",
        "spi": false,
        "position_source": 0
      }
    },
    {
      "type": "Feature",
      "geometry": {
        "type": "Point",
        "coordinates": [
          12.2586,
          41.8531
        ]
      },
      "properties": {
        "icao24": "4cae58",
        "callsign": "RYR88FD",
        "origin_country": "Ireland",
        "time_position": 1782516799,
        "last_contact": 1782516799,
        "baro_altitude": 15.24,
        "on_ground": false,
        "velocity": 79.73,
        "true_track": 162.73,
        "vertical_rate": -3.58,
        "geo_altitude": 106.68,
        "squawk": "1000",
        "spi": false,
        "position_source": 0
      }
    },
    {
      "type": "Feature",
      "geometry": {
        "type": "Point",
        "coordinates": [
          7.9074,
          43.8493
        ]
      },
      "properties": {
        "icao24": "4cae54",
        "callsign": "RYR7CE",
        "origin_country": "Ireland",
        "time_position": 1782517080,
        "last_contact": 1782517080,
        "baro_altitude": 11582.4,
        "on_ground": false,
        "velocity": 233.18,
        "true_track": 54.07,
        "vertical_rate": 0.33,
        "geo_altitude": 12230.1,
        "squawk": "7446",
        "spi": false,
        "position_source": 0
      }
    },
    {
      "type": "Feature",
      "geometry": {
        "type": "Point",
        "coordinates": [
          14.494,
          35.8487
        ]
      },
      "properties": {
        "icao24": "4cae96",
        "callsign": "RYR1277",
        "origin_country": "Ireland",
        "time_position": 1782517079,
        "last_contact": 1782517079,
        "baro_altitude": null,
        "on_ground": true,
        "velocity": 1.8,
        "true_track": 22.5,
        "vertical_rate": null,
        "geo_altitude": null,
        "squawk": "4304",
        "spi": false,
        "position_source": 0
      }
    },
    {
      "type": "Feature",
      "geometry": {
        "type": "Point",
        "coordinates": [
          12.3366,
          43.8994
        ]
      },
      "properties": {
        "icao24": "4cae92",
        "callsign": "RYR9JP",
        "origin_country": "Ireland",
        "time_position": 1782517080,
        "last_contact": 1782517080,
        "baro_altitude": 8404.86,
        "on_ground": false,
        "velocity": 240.02,
        "true_track": 304.61,
        "vertical_rate": -19.18,
        "geo_altitude": 8961.12,
        "squawk": "1000",
        "spi": false,
        "position_source": 0
      }
    },
    {
      "type": "Feature",
      "geometry": {
        "type": "Point",
        "coordinates": [
          14.4784,
          35.8581
        ]
      },
      "properties": {
        "icao24": "4cae66",
        "callsign": "RYR94PB",
        "origin_country": "Ireland",
        "time_position": 1782517078,
        "last_contact": 1782517079,
        "baro_altitude": null,
        "on_ground": true,
        "velocity": 16.98,
        "true_track": 56.25,
        "vertical_rate": null,
        "geo_altitude": null,
        "squawk": "2235",
        "spi": false,
        "position_source": 0
      }
    },
    {
      "type": "Feature",
      "geometry": {
        "type": "Point",
        "coordinates": [
          12.142,
          40.3585
        ]
      },
      "properties": {
        "icao24": "4cae9a",
        "callsign": "RYR28TH",
        "origin_country": "Ireland",
        "time_position": 1782517080,
        "last_contact": 1782517080,
        "baro_altitude": 11277.6,
        "on_ground": false,
        "velocity": 235.06,
        "true_track": 159.5,
        "vertical_rate": 0,
        "geo_altitude": 11879.58,
        "squawk": "3503",
        "spi": false,
        "position_source": 0
      }
    },
    {
      "type": "Feature",
      "geometry": {
        "type": "Point",
        "coordinates": [
          9.1543,
          45.9423
        ]
      },
      "properties": {
        "icao24": "4caca2",
        "callsign": "ABR177",
        "origin_country": "Ireland",
        "time_position": 1782517080,
        "last_contact": 1782517080,
        "baro_altitude": 4998.72,
        "on_ground": false,
        "velocity": 105.76,
        "true_track": 340.68,
        "vertical_rate": 3.9,
        "geo_altitude": 5372.1,
        "squawk": "1000",
        "spi": false,
        "position_source": 0
      }
    },
    {
      "type": "Feature",
      "geometry": {
        "type": "Point",
        "coordinates": [
          6.4272,
          44.7388
        ]
      },
      "properties": {
        "icao24": "4d21ea",
        "callsign": "RYR67RA",
        "origin_country": "Malta",
        "time_position": 1782517080,
        "last_contact": 1782517080,
        "baro_altitude": 11582.4,
        "on_ground": false,
        "velocity": 235.62,
        "true_track": 25.61,
        "vertical_rate": 0,
        "geo_altitude": 12230.1,
        "squawk": "5572",
        "spi": false,
        "position_source": 0
      }
    },
    {
      "type": "Feature",
      "geometry": {
        "type": "Point",
        "coordinates": [
          15.463,
          39.3307
        ]
      },
      "properties": {
        "icao24": "4d21e6",
        "callsign": "BBG251",
        "origin_country": "Malta",
        "time_position": 1782517079,
        "last_contact": 1782517079,
        "baro_altitude": 10668,
        "on_ground": false,
        "velocity": 229.75,
        "true_track": 105.19,
        "vertical_rate": 0.33,
        "geo_altitude": 11231.88,
        "squawk": "1417",
        "spi": false,
        "position_source": 0
      }
    },
    {
      "type": "Feature",
      "geometry": {
        "type": "Point",
        "coordinates": [
          12.4117,
          41.6979
        ]
      },
      "properties": {
        "icao24": "4d224f",
        "callsign": "RYR31QC",
        "origin_country": "Malta",
        "time_position": 1782517080,
        "last_contact": 1782517080,
        "baro_altitude": 11582.4,
        "on_ground": false,
        "velocity": 229.94,
        "true_track": 349.17,
        "vertical_rate": 0,
        "geo_altitude": 12199.62,
        "squawk": "6564",
        "spi": false,
        "position_source": 0
      }
    },
    {
      "type": "Feature",
      "geometry": {
        "type": "Point",
        "coordinates": [
          10.86,
          43.7569
        ]
      },
      "properties": {
        "icao24": "4cabf8",
        "callsign": "MSA976P",
        "origin_country": "Ireland",
        "time_position": 1782517080,
        "last_contact": 1782517080,
        "baro_altitude": 11864.34,
        "on_ground": false,
        "velocity": 222.42,
        "true_track": 339.13,
        "vertical_rate": -4.88,
        "geo_altitude": 12496.8,
        "squawk": "1000",
        "spi": false,
        "position_source": 0
      }
    },
    {
      "type": "Feature",
      "geometry": {
        "type": "Point",
        "coordinates": [
          14.6102,
          44.1194
        ]
      },
      "properties": {
        "icao24": "70e083",
        "callsign": "NIA222",
        "origin_country": "Cambodia",
        "time_position": 1782517080,
        "last_contact": 1782517080,
        "baro_altitude": 10675.62,
        "on_ground": false,
        "velocity": 238.04,
        "true_track": 122.56,
        "vertical_rate": 0,
        "geo_altitude": 11262.36,
        "squawk": "0401",
        "spi": false,
        "position_source": 0
      }
    },
    {
      "type": "Feature",
      "geometry": {
        "type": "Point",
        "coordinates": [
          9.7387,
          45.662
        ]
      },
      "properties": {
        "icao24": "4cac89",
        "callsign": "RYR4HB",
        "origin_country": "Ireland",
        "time_position": 1782516934,
        "last_contact": 1782516935,
        "baro_altitude": 243.84,
        "on_ground": false,
        "velocity": 85.37,
        "true_track": 285.38,
        "vertical_rate": -4.55,
        "geo_altitude": 358.14,
        "squawk": "5515",
        "spi": false,
        "position_source": 0
      }
    },
    {
      "type": "Feature",
      "geometry": {
        "type": "Point",
        "coordinates": [
          8.2038,
          44.8712
        ]
      },
      "properties": {
        "icao24": "4cac63",
        "callsign": "ABR420",
        "origin_country": "Ireland",
        "time_position": 1782517080,
        "last_contact": 1782517080,
        "baro_altitude": 7360.92,
        "on_ground": false,
        "velocity": 207.63,
        "true_track": 209.87,
        "vertical_rate": 9.75,
        "geo_altitude": 7871.46,
        "squawk": null,
        "spi": false,
        "position_source": 0
      }
    },
    {
      "type": "Feature",
      "geometry": {
        "type": "Point",
        "coordinates": [
          15.9187,
          43.4795
        ]
      },
      "properties": {
        "icao24": "408346",
        "callsign": "EXS17A",
        "origin_country": "United Kingdom",
        "time_position": 1782517080,
        "last_contact": 1782517080,
        "baro_altitude": 10972.8,
        "on_ground": false,
        "velocity": 228.37,
        "true_track": 309.61,
        "vertical_rate": 0,
        "geo_altitude": 11574.78,
        "squawk": "7742",
        "spi": false,
        "position_source": 0
      }
    },
    {
      "type": "Feature",
      "geometry": {
        "type": "Point",
        "coordinates": [
          13.2516,
          45.5545
        ]
      },
      "properties": {
        "icao24": "408388",
        "callsign": "EZY75PF",
        "origin_country": "United Kingdom",
        "time_position": 1782517080,
        "last_contact": 1782517080,
        "baro_altitude": 10949.94,
        "on_ground": false,
        "velocity": 224.44,
        "true_track": 314.91,
        "vertical_rate": 2.93,
        "geo_altitude": 11559.54,
        "squawk": "2061",
        "spi": false,
        "position_source": 0
      }
    },
    {
      "type": "Feature",
      "geometry": {
        "type": "Point",
        "coordinates": [
          10.7402,
          46.3545
        ]
      },
      "properties": {
        "icao24": "40836c",
        "callsign": "EZY21FJ",
        "origin_country": "United Kingdom",
        "time_position": 1782517080,
        "last_contact": 1782517080,
        "baro_altitude": 10980.42,
        "on_ground": false,
        "velocity": 225.18,
        "true_track": 300.02,
        "vertical_rate": 0,
        "geo_altitude": 11612.88,
        "squawk": "0253",
        "spi": false,
        "position_source": 0
      }
    },
    {
      "type": "Feature",
      "geometry": {
        "type": "Point",
        "coordinates": [
          14.9649,
          45.9881
        ]
      },
      "properties": {
        "icao24": "40702e",
        "callsign": "EXS23PW",
        "origin_country": "United Kingdom",
        "time_position": 1782517079,
        "last_contact": 1782517080,
        "baro_altitude": 10972.8,
        "on_ground": false,
        "velocity": 227.05,
        "true_track": 308.38,
        "vertical_rate": 0,
        "geo_altitude": 11567.16,
        "squawk": "5640",
        "spi": false,
        "position_source": 0
      }
    },
    {
      "type": "Feature",
      "geometry": {
        "type": "Point",
        "coordinates": [
          7.6018,
          44.5157
        ]
      },
      "properties": {
        "icao24": "01013c",
        "callsign": "MSR996",
        "origin_country": "Egypt",
        "time_position": 1782517080,
        "last_contact": 1782517080,
        "baro_altitude": 10668,
        "on_ground": false,
        "velocity": 248.34,
        "true_track": 122.31,
        "vertical_rate": 0,
        "geo_altitude": 11300.46,
        "squawk": "0475",
        "spi": false,
        "position_source": 0
      }
    },
    {
      "type": "Feature",
      "geometry": {
        "type": "Point",
        "coordinates": [
          13.304,
          47.6087
        ]
      },
      "properties": {
        "icao24": "39d2ae",
        "callsign": "AFR188",
        "origin_country": "France",
        "time_position": 1782517079,
        "last_contact": 1782517080,
        "baro_altitude": 11277.6,
        "on_ground": false,
        "velocity": 260.35,
        "true_track": 112.66,
        "vertical_rate": 0,
        "geo_altitude": 11871.96,
        "squawk": "0665",
        "spi": false,
        "position_source": 0
      }
    },
    {
      "type": "Feature",
      "geometry": {
        "type": "Point",
        "coordinates": [
          12.1988,
          41.9957
        ]
      },
      "properties": {
        "icao24": "4d207d",
        "callsign": "RYR28BZ",
        "origin_country": "Malta",
        "time_position": 1782517080,
        "last_contact": 1782517080,
        "baro_altitude": 822.96,
        "on_ground": false,
        "velocity": 93.35,
        "true_track": 164.66,
        "vertical_rate": -2.28,
        "geo_altitude": 960.12,
        "squawk": "1000",
        "spi": false,
        "position_source": 0
      }
    },
    {
      "type": "Feature",
      "geometry": {
        "type": "Point",
        "coordinates": [
          9.3243,
          45.6531
        ]
      },
      "properties": {
        "icao24": "4d2092",
        "callsign": "WMT3YZ",
        "origin_country": "Malta",
        "time_position": 1782517080,
        "last_contact": 1782517080,
        "baro_altitude": 5814.06,
        "on_ground": false,
        "velocity": 173.88,
        "true_track": 269.83,
        "vertical_rate": -8.13,
        "geo_altitude": 6248.4,
        "squawk": "4145",
        "spi": false,
        "position_source": 0
      }
    },
    {
      "type": "Feature",
      "geometry": {
        "type": "Point",
        "coordinates": [
          18.4957,
          46.296
        ]
      },
      "properties": {
        "icao24": "40717c",
        "callsign": "EXS53CT",
        "origin_country": "United Kingdom",
        "time_position": 1782517080,
        "last_contact": 1782517080,
        "baro_altitude": 10972.8,
        "on_ground": false,
        "velocity": 224.94,
        "true_track": 320.01,
        "vertical_rate": 0,
        "geo_altitude": 11544.3,
        "squawk": "5304",
        "spi": false,
        "position_source": 0
      }
    },
    {
      "type": "Feature",
      "geometry": {
        "type": "Point",
        "coordinates": [
          17.1223,
          45.334
        ]
      },
      "properties": {
        "icao24": "40717f",
        "callsign": "EXS3714",
        "origin_country": "United Kingdom",
        "time_position": 1782517080,
        "last_contact": 1782517080,
        "baro_altitude": 10972.8,
        "on_ground": false,
        "velocity": 231.41,
        "true_track": 316.26,
        "vertical_rate": 0,
        "geo_altitude": 11551.92,
        "squawk": "6626",
        "spi": false,
        "position_source": 0
      }
    },
    {
      "type": "Feature",
      "geometry": {
        "type": "Point",
        "coordinates": [
          14.3136,
          35.7627
        ]
      },
      "properties": {
        "icao24": "4d2038",
        "callsign": "KMM455",
        "origin_country": "Malta",
        "time_position": 1782517079,
        "last_contact": 1782517080,
        "baro_altitude": 883.92,
        "on_ground": false,
        "velocity": 97.61,
        "true_track": 55.3,
        "vertical_rate": -0.33,
        "geo_altitude": 1005.84,
        "squawk": "4312",
        "spi": false,
        "position_source": 0
      }
    },
    {
      "type": "Feature",
      "geometry": {
        "type": "Point",
        "coordinates": [
          9.5514,
          41.1074
        ]
      },
      "properties": {
        "icao24": "4d2022",
        "callsign": "WMT7T",
        "origin_country": "Malta",
        "time_position": 1782517080,
        "last_contact": 1782517080,
        "baro_altitude": 10965.18,
        "on_ground": false,
        "velocity": 220.45,
        "true_track": 70.93,
        "vertical_rate": 0.33,
        "geo_altitude": 11605.26,
        "squawk": "1000",
        "spi": false,
        "position_source": 0
      }
    },
    {
      "type": "Feature",
      "geometry": {
        "type": "Point",
        "coordinates": [
          8.5656,
          47.4552
        ]
      },
      "properties": {
        "icao24": "4b17f8",
        "callsign": "SWR1CW",
        "origin_country": "Switzerland",
        "time_position": 1782517078,
        "last_contact": 1782517078,
        "baro_altitude": null,
        "on_ground": true,
        "velocity": 0,
        "true_track": 132.19,
        "vertical_rate": null,
        "geo_altitude": null,
        "squawk": "2000",
        "spi": false,
        "position_source": 0
      }
    },
    {
      "type": "Feature",
      "geometry": {
        "type": "Point",
        "coordinates": [
          8.5645,
          47.4439
        ]
      },
      "properties": {
        "icao24": "4b17fd",
        "callsign": "SWR",
        "origin_country": "Switzerland",
        "time_position": 1782517073,
        "last_contact": 1782517080,
        "baro_altitude": null,
        "on_ground": true,
        "velocity": 0.06,
        "true_track": 143.44,
        "vertical_rate": null,
        "geo_altitude": null,
        "squawk": "2000",
        "spi": false,
        "position_source": 0
      }
    }
  ]
}