{
  "type": "FeatureCollection",
  "source": "opensky",
  "dataset": "aircraft_italy",
  "generated_at": "2026-05-26T22:44:06.305929+00:00",
  "opensky_time": 1779835443,
  "count": 147,
  "features": [
    {
      "type": "Feature",
      "geometry": {
        "type": "Point",
        "coordinates": [
          16.3411,
          44.1686
        ]
      },
      "properties": {
        "icao24": "511188",
        "callsign": "MBU3EL",
        "origin_country": "Estonia",
        "time_position": 1779835443,
        "last_contact": 1779835443,
        "baro_altitude": 11590.02,
        "on_ground": false,
        "velocity": 222.23,
        "true_track": 324.8,
        "vertical_rate": 0,
        "geo_altitude": 12092.94,
        "squawk": "6633",
        "spi": false,
        "position_source": 0
      }
    },
    {
      "type": "Feature",
      "geometry": {
        "type": "Point",
        "coordinates": [
          18.5991,
          47.6648
        ]
      },
      "properties": {
        "icao24": "471f63",
        "callsign": "WZZ64LB",
        "origin_country": "Hungary",
        "time_position": 1779835442,
        "last_contact": 1779835443,
        "baro_altitude": 4328.16,
        "on_ground": false,
        "velocity": 176.75,
        "true_track": 128.74,
        "vertical_rate": -7.8,
        "geo_altitude": 4617.72,
        "squawk": "1000",
        "spi": false,
        "position_source": 0
      }
    },
    {
      "type": "Feature",
      "geometry": {
        "type": "Point",
        "coordinates": [
          17.9163,
          42.7172
        ]
      },
      "properties": {
        "icao24": "471f01",
        "callsign": "WMT1BF",
        "origin_country": "Hungary",
        "time_position": 1779835443,
        "last_contact": 1779835443,
        "baro_altitude": 10469.88,
        "on_ground": false,
        "velocity": 227.03,
        "true_track": 122.79,
        "vertical_rate": -12.68,
        "geo_altitude": 10949.94,
        "squawk": "0276",
        "spi": false,
        "position_source": 0
      }
    },
    {
      "type": "Feature",
      "geometry": {
        "type": "Point",
        "coordinates": [
          10.8077,
          46.1772
        ]
      },
      "properties": {
        "icao24": "505ceb",
        "callsign": "TOM1GN",
        "origin_country": "Slovakia",
        "time_position": 1779835443,
        "last_contact": 1779835443,
        "baro_altitude": 10972.8,
        "on_ground": false,
        "velocity": 223.78,
        "true_track": 299.92,
        "vertical_rate": 0,
        "geo_altitude": 11490.96,
        "squawk": "5356",
        "spi": false,
        "position_source": 0
      }
    },
    {
      "type": "Feature",
      "geometry": {
        "type": "Point",
        "coordinates": [
          8.9736,
          45.6075
        ]
      },
      "properties": {
        "icao24": "440389",
        "callsign": "EJU48FL",
        "origin_country": "Austria",
        "time_position": 1779835443,
        "last_contact": 1779835443,
        "baro_altitude": 3718.56,
        "on_ground": false,
        "velocity": 128.62,
        "true_track": 23.08,
        "vertical_rate": -0.98,
        "geo_altitude": 4023.36,
        "squawk": "2054",
        "spi": false,
        "position_source": 0
      }
    },
    {
      "type": "Feature",
      "geometry": {
        "type": "Point",
        "coordinates": [
          14.4126,
          44.4881
        ]
      },
      "properties": {
        "icao24": "4068f5",
        "callsign": "EXS8R",
        "origin_country": "United Kingdom",
        "time_position": 1779835442,
        "last_contact": 1779835443,
        "baro_altitude": 10972.8,
        "on_ground": false,
        "velocity": 226.1,
        "true_track": 308.07,
        "vertical_rate": 0,
        "geo_altitude": 11483.34,
        "squawk": "2042",
        "spi": false,
        "position_source": 0
      }
    },
    {
      "type": "Feature",
      "geometry": {
        "type": "Point",
        "coordinates": [
          7.0975,
          43.4069
        ]
      },
      "properties": {
        "icao24": "44009e",
        "callsign": "EJU9043",
        "origin_country": "Austria",
        "time_position": 1779835443,
        "last_contact": 1779835443,
        "baro_altitude": 9974.58,
        "on_ground": false,
        "velocity": 233.75,
        "true_track": 49.02,
        "vertical_rate": -5.2,
        "geo_altitude": 10507.98,
        "squawk": "1411",
        "spi": false,
        "position_source": 0
      }
    },
    {
      "type": "Feature",
      "geometry": {
        "type": "Point",
        "coordinates": [
          6.076,
          40.8347
        ]
      },
      "properties": {
        "icao24": "738054",
        "callsign": "ELY398",
        "origin_country": "Israel",
        "time_position": 1779835443,
        "last_contact": 1779835443,
        "baro_altitude": 9753.6,
        "on_ground": false,
        "velocity": 227.75,
        "true_track": 96.35,
        "vertical_rate": 0,
        "geo_altitude": 10256.52,
        "squawk": "1450",
        "spi": false,
        "position_source": 0
      }
    },
    {
      "type": "Feature",
      "geometry": {
        "type": "Point",
        "coordinates": [
          16.8389,
          47.0136
        ]
      },
      "properties": {
        "icao24": "471d5a",
        "callsign": "WZZ835A",
        "origin_country": "Hungary",
        "time_position": 1779835442,
        "last_contact": 1779835442,
        "baro_altitude": 10058.4,
        "on_ground": false,
        "velocity": 230.49,
        "true_track": 82.3,
        "vertical_rate": 0,
        "geo_altitude": 10538.46,
        "squawk": "1000",
        "spi": false,
        "position_source": 0
      }
    },
    {
      "type": "Feature",
      "geometry": {
        "type": "Point",
        "coordinates": [
          14.2891,
          38.3911
        ]
      },
      "properties": {
        "icao24": "452165",
        "callsign": "DAH3018",
        "origin_country": "Bulgaria",
        "time_position": 1779835443,
        "last_contact": 1779835443,
        "baro_altitude": 11285.22,
        "on_ground": false,
        "velocity": 204.8,
        "true_track": 74.71,
        "vertical_rate": 0,
        "geo_altitude": 11734.8,
        "squawk": null,
        "spi": false,
        "position_source": 0
      }
    },
    {
      "type": "Feature",
      "geometry": {
        "type": "Point",
        "coordinates": [
          13.3012,
          37.9945
        ]
      },
      "properties": {
        "icao24": "440175",
        "callsign": "EJU4105",
        "origin_country": "Austria",
        "time_position": 1779835443,
        "last_contact": 1779835443,
        "baro_altitude": 4876.8,
        "on_ground": false,
        "velocity": 185.9,
        "true_track": 291.6,
        "vertical_rate": 0,
        "geo_altitude": 5204.46,
        "squawk": "5425",
        "spi": false,
        "position_source": 0
      }
    },
    {
      "type": "Feature",
      "geometry": {
        "type": "Point",
        "coordinates": [
          13.7871,
          44.9703
        ]
      },
      "properties": {
        "icao24": "471db0",
        "callsign": "WZZ86YZ",
        "origin_country": "Hungary",
        "time_position": 1779835443,
        "last_contact": 1779835443,
        "baro_altitude": 10972.8,
        "on_ground": false,
        "velocity": 227.87,
        "true_track": 81.43,
        "vertical_rate": 0.33,
        "geo_altitude": 11490.96,
        "squawk": "6034",
        "spi": false,
        "position_source": 0
      }
    },
    {
      "type": "Feature",
      "geometry": {
        "type": "Point",
        "coordinates": [
          7.6384,
          43.7542
        ]
      },
      "properties": {
        "icao24": "781aa6",
        "callsign": "CES7236",
        "origin_country": "China",
        "time_position": 1779835443,
        "last_contact": 1779835443,
        "baro_altitude": 10972.8,
        "on_ground": false,
        "velocity": 244.28,
        "true_track": 52.36,
        "vertical_rate": 0,
        "geo_altitude": 11490.96,
        "squawk": "0414",
        "spi": false,
        "position_source": 0
      }
    },
    {
      "type": "Feature",
      "geometry": {
        "type": "Point",
        "coordinates": [
          18.4922,
          38.594
        ]
      },
      "properties": {
        "icao24": "738284",
        "callsign": "ISR152",
        "origin_country": "Israel",
        "time_position": 1779835442,
        "last_contact": 1779835442,
        "baro_altitude": 11277.6,
        "on_ground": false,
        "velocity": 211.39,
        "true_track": 100.52,
        "vertical_rate": 0,
        "geo_altitude": 11696.7,
        "squawk": "4312",
        "spi": false,
        "position_source": 0
      }
    },
    {
      "type": "Feature",
      "geometry": {
        "type": "Point",
        "coordinates": [
          16.301,
          45.1189
        ]
      },
      "properties": {
        "icao24": "80073a",
        "callsign": "AIC2018",
        "origin_country": "India",
        "time_position": 1779835442,
        "last_contact": 1779835443,
        "baro_altitude": 11887.2,
        "on_ground": false,
        "velocity": 255,
        "true_track": 134.92,
        "vertical_rate": 0,
        "geo_altitude": 12405.36,
        "squawk": "1170",
        "spi": false,
        "position_source": 0
      }
    },
    {
      "type": "Feature",
      "geometry": {
        "type": "Point",
        "coordinates": [
          11.7171,
          47.6742
        ]
      },
      "properties": {
        "icao24": "800732",
        "callsign": "AIC132",
        "origin_country": "India",
        "time_position": 1779835443,
        "last_contact": 1779835443,
        "baro_altitude": 11879.58,
        "on_ground": false,
        "velocity": 255.3,
        "true_track": 125.9,
        "vertical_rate": 0,
        "geo_altitude": 12374.88,
        "squawk": "2213",
        "spi": false,
        "position_source": 0
      }
    },
    {
      "type": "Feature",
      "geometry": {
        "type": "Point",
        "coordinates": [
          18.3534,
          44.1504
        ]
      },
      "properties": {
        "icao24": "4ac9c4",
        "callsign": "BLX364",
        "origin_country": "Sweden",
        "time_position": 1779835443,
        "last_contact": 1779835443,
        "baro_altitude": 11582.4,
        "on_ground": false,
        "velocity": 227.65,
        "true_track": 338.25,
        "vertical_rate": 0,
        "geo_altitude": 12070.08,
        "squawk": "5534",
        "spi": false,
        "position_source": 0
      }
    },
    {
      "type": "Feature",
      "geometry": {
        "type": "Point",
        "coordinates": [
          8.7755,
          45.4393
        ]
      },
      "properties": {
        "icao24": "4ac98a",
        "callsign": "BCS7AG",
        "origin_country": "Sweden",
        "time_position": 1779835443,
        "last_contact": 1779835443,
        "baro_altitude": 1127.76,
        "on_ground": false,
        "velocity": 105.74,
        "true_track": 349.35,
        "vertical_rate": -1.63,
        "geo_altitude": 1318.26,
        "squawk": "1000",
        "spi": false,
        "position_source": 0
      }
    },
    {
      "type": "Feature",
      "geometry": {
        "type": "Point",
        "coordinates": [
          13.0745,
          44.2749
        ]
      },
      "properties": {
        "icao24": "3965ad",
        "callsign": "AFR672",
        "origin_country": "France",
        "time_position": 1779835442,
        "last_contact": 1779835443,
        "baro_altitude": 8839.2,
        "on_ground": false,
        "velocity": 260.17,
        "true_track": 136.36,
        "vertical_rate": 0,
        "geo_altitude": 9334.5,
        "squawk": "0664",
        "spi": false,
        "position_source": 0
      }
    },
    {
      "type": "Feature",
      "geometry": {
        "type": "Point",
        "coordinates": [
          16.4885,
          43.4352
        ]
      },
      "properties": {
        "icao24": "896627",
        "callsign": "UAE28Y",
        "origin_country": "United Arab Emirates",
        "time_position": 1779835443,
        "last_contact": 1779835443,
        "baro_altitude": 11887.2,
        "on_ground": false,
        "velocity": 250.17,
        "true_track": 129.91,
        "vertical_rate": 0,
        "geo_altitude": 12359.64,
        "squawk": "5236",
        "spi": false,
        "position_source": 0
      }
    },
    {
      "type": "Feature",
      "geometry": {
        "type": "Point",
        "coordinates": [
          16.2164,
          46.2923
        ]
      },
      "properties": {
        "icao24": "896598",
        "callsign": "ETD42B",
        "origin_country": "United Arab Emirates",
        "time_position": 1779835443,
        "last_contact": 1779835443,
        "baro_altitude": 11887.2,
        "on_ground": false,
        "velocity": 257.14,
        "true_track": 122.83,
        "vertical_rate": -0.33,
        "geo_altitude": 12374.88,
        "squawk": "2204",
        "spi": false,
        "position_source": 0
      }
    },
    {
      "type": "Feature",
      "geometry": {
        "type": "Point",
        "coordinates": [
          14.2582,
          44.7202
        ]
      },
      "properties": {
        "icao24": "44cc45",
        "callsign": "BEL4JK",
        "origin_country": "Belgium",
        "time_position": 1779835443,
        "last_contact": 1779835443,
        "baro_altitude": 11590.02,
        "on_ground": false,
        "velocity": 225.33,
        "true_track": 309.91,
        "vertical_rate": 0,
        "geo_altitude": 12100.56,
        "squawk": "5530",
        "spi": false,
        "position_source": 0
      }
    },
    {
      "type": "Feature",
      "geometry": {
        "type": "Point",
        "coordinates": [
          7.6797,
          47.5246
        ]
      },
      "properties": {
        "icao24": "40666a",
        "callsign": "EZY21TX",
        "origin_country": "United Kingdom",
        "time_position": 1779835443,
        "last_contact": 1779835443,
        "baro_altitude": 10363.2,
        "on_ground": false,
        "velocity": 216.71,
        "true_track": 309.51,
        "vertical_rate": 0,
        "geo_altitude": 10881.36,
        "squawk": "2743",
        "spi": false,
        "position_source": 0
      }
    },
    {
      "type": "Feature",
      "geometry": {
        "type": "Point",
        "coordinates": [
          13.0148,
          44.5165
        ]
      },
      "properties": {
        "icao24": "40660e",
        "callsign": "TOM5JX",
        "origin_country": "United Kingdom",
        "time_position": 1779835443,
        "last_contact": 1779835443,
        "baro_altitude": 12192,
        "on_ground": false,
        "velocity": 228.27,
        "true_track": 301.83,
        "vertical_rate": 0,
        "geo_altitude": 12702.54,
        "squawk": "4137",
        "spi": false,
        "position_source": 0
      }
    },
    {
      "type": "Feature",
      "geometry": {
        "type": "Point",
        "coordinates": [
          14.001,
          47.097
        ]
      },
      "properties": {
        "icao24": "89408d",
        "callsign": "GFA006",
        "origin_country": "Bahrain",
        "time_position": 1779835443,
        "last_contact": 1779835443,
        "baro_altitude": 11887.2,
        "on_ground": false,
        "velocity": 256.71,
        "true_track": 122.89,
        "vertical_rate": 0,
        "geo_altitude": 12390.12,
        "squawk": "5257",
        "spi": false,
        "position_source": 0
      }
    },
    {
      "type": "Feature",
      "geometry": {
        "type": "Point",
        "coordinates": [
          11.2723,
          44.5414
        ]
      },
      "properties": {
        "icao24": "4ca4f0",
        "callsign": "RYR5DJ",
        "origin_country": "Ireland",
        "time_position": 1779835141,
        "last_contact": 1779835142,
        "baro_altitude": -7.62,
        "on_ground": false,
        "velocity": 74.31,
        "true_track": 116.74,
        "vertical_rate": -3.58,
        "geo_altitude": 114.3,
        "squawk": "1000",
        "spi": false,
        "position_source": 0
      }
    },
    {
      "type": "Feature",
      "geometry": {
        "type": "Point",
        "coordinates": [
          17.6,
          44.1442
        ]
      },
      "properties": {
        "icao24": "04019a",
        "callsign": "ETH553",
        "origin_country": "Ethiopia",
        "time_position": 1779835442,
        "last_contact": 1779835442,
        "baro_altitude": 11269.98,
        "on_ground": false,
        "velocity": 257.34,
        "true_track": 144.85,
        "vertical_rate": 0.33,
        "geo_altitude": 11772.9,
        "squawk": "1162",
        "spi": false,
        "position_source": 0
      }
    },
    {
      "type": "Feature",
      "geometry": {
        "type": "Point",
        "coordinates": [
          18.4154,
          46.5653
        ]
      },
      "properties": {
        "icao24": "394a02",
        "callsign": "AFR274",
        "origin_country": "France",
        "time_position": 1779835442,
        "last_contact": 1779835442,
        "baro_altitude": 9448.8,
        "on_ground": false,
        "velocity": 258.66,
        "true_track": 103.46,
        "vertical_rate": 0,
        "geo_altitude": 9906,
        "squawk": "6027",
        "spi": false,
        "position_source": 0
      }
    },
    {
      "type": "Feature",
      "geometry": {
        "type": "Point",
        "coordinates": [
          15.8453,
          47.5388
        ]
      },
      "properties": {
        "icao24": "5082f0",
        "callsign": "MGH232",
        "origin_country": "Ukraine",
        "time_position": 1779835443,
        "last_contact": 1779835443,
        "baro_altitude": 10668,
        "on_ground": false,
        "velocity": 247.06,
        "true_track": 126.11,
        "vertical_rate": 0,
        "geo_altitude": 11163.3,
        "squawk": "6412",
        "spi": false,
        "position_source": 0
      }
    },
    {
      "type": "Feature",
      "geometry": {
        "type": "Point",
        "coordinates": [
          11.0831,
          47.5358
        ]
      },
      "properties": {
        "icao24": "394a0b",
        "callsign": "AFR256",
        "origin_country": "France",
        "time_position": 1779835442,
        "last_contact": 1779835443,
        "baro_altitude": 9448.8,
        "on_ground": false,
        "velocity": 263.15,
        "true_track": 98.43,
        "vertical_rate": 0,
        "geo_altitude": 9966.96,
        "squawk": "0665",
        "spi": false,
        "position_source": 0
      }
    },
    {
      "type": "Feature",
      "geometry": {
        "type": "Point",
        "coordinates": [
          12.2723,
          41.8126
        ]
      },
      "properties": {
        "icao24": "4ca56d",
        "callsign": "RYR77DM",
        "origin_country": "Ireland",
        "time_position": 1779835415,
        "last_contact": 1779835415,
        "baro_altitude": null,
        "on_ground": true,
        "velocity": 14.92,
        "true_track": 163.12,
        "vertical_rate": null,
        "geo_altitude": null,
        "squawk": "1000",
        "spi": false,
        "position_source": 0
      }
    },
    {
      "type": "Feature",
      "geometry": {
        "type": "Point",
        "coordinates": [
          13.216,
          38.2178
        ]
      },
      "properties": {
        "icao24": "4ca56c",
        "callsign": "RYR3CF",
        "origin_country": "Ireland",
        "time_position": 1779835338,
        "last_contact": 1779835339,
        "baro_altitude": 419.1,
        "on_ground": false,
        "velocity": 99.84,
        "true_track": 247.27,
        "vertical_rate": -5.2,
        "geo_altitude": 571.5,
        "squawk": null,
        "spi": false,
        "position_source": 0
      }
    },
    {
      "type": "Feature",
      "geometry": {
        "type": "Point",
        "coordinates": [
          12.9131,
          47.3526
        ]
      },
      "properties": {
        "icao24": "040204",
        "callsign": "ETH501",
        "origin_country": "Ethiopia",
        "time_position": 1779835442,
        "last_contact": 1779835443,
        "baro_altitude": 11887.2,
        "on_ground": false,
        "velocity": 258.85,
        "true_track": 137.34,
        "vertical_rate": 0,
        "geo_altitude": 12374.88,
        "squawk": "1145",
        "spi": false,
        "position_source": 0
      }
    },
    {
      "type": "Feature",
      "geometry": {
        "type": "Point",
        "coordinates": [
          6.1286,
          44.3526
        ]
      },
      "properties": {
        "icao24": "ad1ca5",
        "callsign": "TWY94",
        "origin_country": "United States",
        "time_position": 1779835443,
        "last_contact": 1779835443,
        "baro_altitude": 12192,
        "on_ground": false,
        "velocity": 247.7,
        "true_track": 308.85,
        "vertical_rate": -0.33,
        "geo_altitude": 12717.78,
        "squawk": "4056",
        "spi": false,
        "position_source": 0
      }
    },
    {
      "type": "Feature",
      "geometry": {
        "type": "Point",
        "coordinates": [
          8.718,
          45.6391
        ]
      },
      "properties": {
        "icao24": "3c70b5",
        "callsign": "BCS7331",
        "origin_country": "Germany",
        "time_position": 1779835439,
        "last_contact": 1779835442,
        "baro_altitude": null,
        "on_ground": true,
        "velocity": 6.69,
        "true_track": 2.81,
        "vertical_rate": null,
        "geo_altitude": null,
        "squawk": null,
        "spi": false,
        "position_source": 0
      }
    },
    {
      "type": "Feature",
      "geometry": {
        "type": "Point",
        "coordinates": [
          17.5519,
          39.2262
        ]
      },
      "properties": {
        "icao24": "04004a",
        "callsign": "ETH727",
        "origin_country": "Ethiopia",
        "time_position": 1779835443,
        "last_contact": 1779835443,
        "baro_altitude": 11269.98,
        "on_ground": false,
        "velocity": 236.73,
        "true_track": 121.58,
        "vertical_rate": -0.33,
        "geo_altitude": 11704.32,
        "squawk": "4310",
        "spi": false,
        "position_source": 0
      }
    },
    {
      "type": "Feature",
      "geometry": {
        "type": "Point",
        "coordinates": [
          12.0273,
          47.2178
        ]
      },
      "properties": {
        "icao24": "407fc1",
        "callsign": "WUK7402",
        "origin_country": "United Kingdom",
        "time_position": 1779835443,
        "last_contact": 1779835443,
        "baro_altitude": 10660.38,
        "on_ground": false,
        "velocity": 231.52,
        "true_track": 131.13,
        "vertical_rate": 0,
        "geo_altitude": 11193.78,
        "squawk": "0533",
        "spi": false,
        "position_source": 0
      }
    },
    {
      "type": "Feature",
      "geometry": {
        "type": "Point",
        "coordinates": [
          7.3316,
          46.611
        ]
      },
      "properties": {
        "icao24": "4b3302",
        "callsign": "RGAIG",
        "origin_country": "Switzerland",
        "time_position": 1779835440,
        "last_contact": 1779835443,
        "baro_altitude": 1699.26,
        "on_ground": false,
        "velocity": 2.57,
        "true_track": 270,
        "vertical_rate": -1.63,
        "geo_altitude": 1920.24,
        "squawk": "7000",
        "spi": false,
        "position_source": 0
      }
    },
    {
      "type": "Feature",
      "geometry": {
        "type": "Point",
        "coordinates": [
          7.4243,
          46.9482
        ]
      },
      "properties": {
        "icao24": "4b3304",
        "callsign": "RGA02",
        "origin_country": "Switzerland",
        "time_position": 1779835312,
        "last_contact": 1779835321,
        "baro_altitude": null,
        "on_ground": true,
        "velocity": 0,
        "true_track": 230.62,
        "vertical_rate": null,
        "geo_altitude": null,
        "squawk": "7100",
        "spi": false,
        "position_source": 0
      }
    },
    {
      "type": "Feature",
      "geometry": {
        "type": "Point",
        "coordinates": [
          6.0305,
          43.6959
        ]
      },
      "properties": {
        "icao24": "49d328",
        "callsign": "EWG8EX",
        "origin_country": "Czech Republic",
        "time_position": 1779835443,
        "last_contact": 1779835443,
        "baro_altitude": 10972.8,
        "on_ground": false,
        "velocity": 230.08,
        "true_track": 25.99,
        "vertical_rate": 0,
        "geo_altitude": 11506.2,
        "squawk": "5345",
        "spi": false,
        "position_source": 0
      }
    },
    {
      "type": "Feature",
      "geometry": {
        "type": "Point",
        "coordinates": [
          11.7744,
          42.1291
        ]
      },
      "properties": {
        "icao24": "4ca303",
        "callsign": "RYR32SC",
        "origin_country": "Ireland",
        "time_position": 1779835443,
        "last_contact": 1779835443,
        "baro_altitude": 3162.3,
        "on_ground": false,
        "velocity": 145.1,
        "true_track": 91.02,
        "vertical_rate": -12.68,
        "geo_altitude": 3436.62,
        "squawk": "1000",
        "spi": false,
        "position_source": 0
      }
    },
    {
      "type": "Feature",
      "geometry": {
        "type": "Point",
        "coordinates": [
          15.7544,
          39.9821
        ]
      },
      "properties": {
        "icao24": "49d365",
        "callsign": "ISR348",
        "origin_country": "Czech Republic",
        "time_position": 1779835443,
        "last_contact": 1779835443,
        "baro_altitude": 11277.6,
        "on_ground": false,
        "velocity": 219.01,
        "true_track": 119.09,
        "vertical_rate": -0.33,
        "geo_altitude": 11734.8,
        "squawk": null,
        "spi": false,
        "position_source": 0
      }
    },
    {
      "type": "Feature",
      "geometry": {
        "type": "Point",
        "coordinates": [
          17.0514,
          44.0576
        ]
      },
      "properties": {
        "icao24": "406e9f",
        "callsign": "EXS7GT",
        "origin_country": "United Kingdom",
        "time_position": 1779835443,
        "last_contact": 1779835443,
        "baro_altitude": 12192,
        "on_ground": false,
        "velocity": 236.52,
        "true_track": 296.06,
        "vertical_rate": 0,
        "geo_altitude": 12710.16,
        "squawk": "5337",
        "spi": false,
        "position_source": 0
      }
    },
    {
      "type": "Feature",
      "geometry": {
        "type": "Point",
        "coordinates": [
          8.7171,
          45.6419
        ]
      },
      "properties": {
        "icao24": "4ba892",
        "callsign": "THY6425",
        "origin_country": "Turkey",
        "time_position": 1779835262,
        "last_contact": 1779835262,
        "baro_altitude": null,
        "on_ground": true,
        "velocity": 9.77,
        "true_track": 348.75,
        "vertical_rate": null,
        "geo_altitude": null,
        "squawk": null,
        "spi": false,
        "position_source": 0
      }
    },
    {
      "type": "Feature",
      "geometry": {
        "type": "Point",
        "coordinates": [
          9.8171,
          46.6416
        ]
      },
      "properties": {
        "icao24": "407e53",
        "callsign": "EXS39JW",
        "origin_country": "United Kingdom",
        "time_position": 1779835443,
        "last_contact": 1779835443,
        "baro_altitude": 11292.84,
        "on_ground": false,
        "velocity": 225.84,
        "true_track": 308.62,
        "vertical_rate": 2.6,
        "geo_altitude": 11833.86,
        "squawk": "2747",
        "spi": false,
        "position_source": 0
      }
    },
    {
      "type": "Feature",
      "geometry": {
        "type": "Point",
        "coordinates": [
          6.0225,
          39.1773
        ]
      },
      "properties": {
        "icao24": "406b20",
        "callsign": "BAW57K",
        "origin_country": "United Kingdom",
        "time_position": 1779835442,
        "last_contact": 1779835442,
        "baro_altitude": 11277.6,
        "on_ground": false,
        "velocity": 242.45,
        "true_track": 163.99,
        "vertical_rate": 0,
        "geo_altitude": 11772.9,
        "squawk": "6337",
        "spi": false,
        "position_source": 0
      }
    },
    {
      "type": "Feature",
      "geometry": {
        "type": "Point",
        "coordinates": [
          12.7218,
          45.3559
        ]
      },
      "properties": {
        "icao24": "48c1a8",
        "callsign": "RYR6RZ",
        "origin_country": "Poland",
        "time_position": 1779835443,
        "last_contact": 1779835443,
        "baro_altitude": 9494.52,
        "on_ground": false,
        "velocity": 231.17,
        "true_track": 55.43,
        "vertical_rate": 9.43,
        "geo_altitude": 9959.34,
        "squawk": "1000",
        "spi": false,
        "position_source": 0
      }
    },
    {
      "type": "Feature",
      "geometry": {
        "type": "Point",
        "coordinates": [
          15.3819,
          43.9185
        ]
      },
      "properties": {
        "icao24": "407f8c",
        "callsign": "EXS89NW",
        "origin_country": "United Kingdom",
        "time_position": 1779835443,
        "last_contact": 1779835443,
        "baro_altitude": 10972.8,
        "on_ground": false,
        "velocity": 232.92,
        "true_track": 309.17,
        "vertical_rate": 0.33,
        "geo_altitude": 11475.72,
        "squawk": "5505",
        "spi": false,
        "position_source": 0
      }
    },
    {
      "type": "Feature",
      "geometry": {
        "type": "Point",
        "coordinates": [
          12.9937,
          43.1021
        ]
      },
      "properties": {
        "icao24": "44079a",
        "callsign": "EJU12HZ",
        "origin_country": "Austria",
        "time_position": 1779835443,
        "last_contact": 1779835443,
        "baro_altitude": 10972.8,
        "on_ground": false,
        "velocity": 239.18,
        "true_track": 302.53,
        "vertical_rate": 0,
        "geo_altitude": 11483.34,
        "squawk": "2053",
        "spi": false,
        "position_source": 0
      }
    },
    {
      "type": "Feature",
      "geometry": {
        "type": "Point",
        "coordinates": [
          18.7583,
          43.7305
        ]
      },
      "properties": {
        "icao24": "407f7b",
        "callsign": "EXS24JS",
        "origin_country": "United Kingdom",
        "time_position": 1779835443,
        "last_contact": 1779835443,
        "baro_altitude": 10972.8,
        "on_ground": false,
        "velocity": 231.55,
        "true_track": 308.96,
        "vertical_rate": 0,
        "geo_altitude": 11452.86,
        "squawk": "5334",
        "spi": false,
        "position_source": 0
      }
    },
    {
      "type": "Feature",
      "geometry": {
        "type": "Point",
        "coordinates": [
          17.3983,
          42.6834
        ]
      },
      "properties": {
        "icao24": "48c129",
        "callsign": "RYR5SN",
        "origin_country": "Poland",
        "time_position": 1779835443,
        "last_contact": 1779835443,
        "baro_altitude": 11277.6,
        "on_ground": false,
        "velocity": 225.71,
        "true_track": 121.77,
        "vertical_rate": 0.33,
        "geo_altitude": 11757.66,
        "squawk": "0244",
        "spi": false,
        "position_source": 0
      }
    },
    {
      "type": "Feature",
      "geometry": {
        "type": "Point",
        "coordinates": [
          16.3128,
          43.4368
        ]
      },
      "properties": {
        "icao24": "407c0a",
        "callsign": "TOM1YT",
        "origin_country": "United Kingdom",
        "time_position": 1779835443,
        "last_contact": 1779835443,
        "baro_altitude": 11574.78,
        "on_ground": false,
        "velocity": 231.43,
        "true_track": 311.49,
        "vertical_rate": 0,
        "geo_altitude": 12085.32,
        "squawk": "2001",
        "spi": false,
        "position_source": 0
      }
    },
    {
      "type": "Feature",
      "geometry": {
        "type": "Point",
        "coordinates": [
          16.5797,
          46.9075
        ]
      },
      "properties": {
        "icao24": "06a1bf",
        "callsign": "QTR1V",
        "origin_country": "Qatar",
        "time_position": 1779835443,
        "last_contact": 1779835443,
        "baro_altitude": 10058.4,
        "on_ground": false,
        "velocity": 261.18,
        "true_track": 120.15,
        "vertical_rate": 0,
        "geo_altitude": 10530.84,
        "squawk": "5221",
        "spi": false,
        "position_source": 0
      }
    },
    {
      "type": "Feature",
      "geometry": {
        "type": "Point",
        "coordinates": [
          7.8252,
          40.7451
        ]
      },
      "properties": {
        "icao24": "4bb853",
        "callsign": "PGT1742",
        "origin_country": "Turkey",
        "time_position": 1779835443,
        "last_contact": 1779835443,
        "baro_altitude": 10972.8,
        "on_ground": false,
        "velocity": 218.34,
        "true_track": 87.43,
        "vertical_rate": 0,
        "geo_altitude": 11483.34,
        "squawk": "1427",
        "spi": false,
        "position_source": 0
      }
    },
    {
      "type": "Feature",
      "geometry": {
        "type": "Point",
        "coordinates": [
          11.1594,
          41.5033
        ]
      },
      "properties": {
        "icao24": "344644",
        "callsign": "VLG3EX",
        "origin_country": "Spain",
        "time_position": 1779835443,
        "last_contact": 1779835443,
        "baro_altitude": 6309.36,
        "on_ground": false,
        "velocity": 234.82,
        "true_track": 256.06,
        "vertical_rate": 10.4,
        "geo_altitude": 6736.08,
        "squawk": null,
        "spi": false,
        "position_source": 0
      }
    },
    {
      "type": "Feature",
      "geometry": {
        "type": "Point",
        "coordinates": [
          13.0922,
          42.9965
        ]
      },
      "properties": {
        "icao24": "801593",
        "callsign": "VTPRI",
        "origin_country": "India",
        "time_position": 1779835443,
        "last_contact": 1779835443,
        "baro_altitude": 12496.8,
        "on_ground": false,
        "velocity": 251.59,
        "true_track": 127.69,
        "vertical_rate": 0,
        "geo_altitude": 12984.48,
        "squawk": "0446",
        "spi": false,
        "position_source": 0
      }
    },
    {
      "type": "Feature",
      "geometry": {
        "type": "Point",
        "coordinates": [
          10.9336,
          39.3075
        ]
      },
      "properties": {
        "icao24": "06a0ad",
        "callsign": "QTR41A",
        "origin_country": "Qatar",
        "time_position": 1779835443,
        "last_contact": 1779835443,
        "baro_altitude": 12184.38,
        "on_ground": false,
        "velocity": 227.5,
        "true_track": 118.94,
        "vertical_rate": 0,
        "geo_altitude": 12656.82,
        "squawk": "1415",
        "spi": false,
        "position_source": 0
      }
    },
    {
      "type": "Feature",
      "geometry": {
        "type": "Point",
        "coordinates": [
          17.7867,
          42.4399
        ]
      },
      "properties": {
        "icao24": "408124",
        "callsign": "EXS4CX",
        "origin_country": "United Kingdom",
        "time_position": 1779835443,
        "last_contact": 1779835443,
        "baro_altitude": 10972.8,
        "on_ground": false,
        "velocity": 232.01,
        "true_track": 310.68,
        "vertical_rate": -0.33,
        "geo_altitude": 11445.24,
        "squawk": "5526",
        "spi": false,
        "position_source": 0
      }
    },
    {
      "type": "Feature",
      "geometry": {
        "type": "Point",
        "coordinates": [
          8.564,
          47.4317
        ]
      },
      "properties": {
        "icao24": "4b1803",
        "callsign": "SWISS",
        "origin_country": "Switzerland",
        "time_position": 1779835438,
        "last_contact": 1779835443,
        "baro_altitude": null,
        "on_ground": true,
        "velocity": 0.13,
        "true_track": 146.25,
        "vertical_rate": null,
        "geo_altitude": null,
        "squawk": null,
        "spi": false,
        "position_source": 0
      }
    },
    {
      "type": "Feature",
      "geometry": {
        "type": "Point",
        "coordinates": [
          8.5652,
          47.4421
        ]
      },
      "properties": {
        "icao24": "4b1807",
        "callsign": "SWR57Z",
        "origin_country": "Switzerland",
        "time_position": 1779835443,
        "last_contact": 1779835443,
        "baro_altitude": null,
        "on_ground": true,
        "velocity": 0,
        "true_track": 146.25,
        "vertical_rate": null,
        "geo_altitude": null,
        "squawk": null,
        "spi": false,
        "position_source": 0
      }
    },
    {
      "type": "Feature",
      "geometry": {
        "type": "Point",
        "coordinates": [
          8.5597,
          47.447
        ]
      },
      "properties": {
        "icao24": "4b1809",
        "callsign": "SWR259T",
        "origin_country": "Switzerland",
        "time_position": 1779835132,
        "last_contact": 1779835135,
        "baro_altitude": 327.66,
        "on_ground": true,
        "velocity": 0,
        "true_track": 244.69,
        "vertical_rate": null,
        "geo_altitude": null,
        "squawk": "2000",
        "spi": false,
        "position_source": 0
      }
    },
    {
      "type": "Feature",
      "geometry": {
        "type": "Point",
        "coordinates": [
          8.4618,
          45.1365
        ]
      },
      "properties": {
        "icao24": "4952d1",
        "callsign": "TAP828",
        "origin_country": "Portugal",
        "time_position": 1779835443,
        "last_contact": 1779835443,
        "baro_altitude": 2743.2,
        "on_ground": false,
        "velocity": 119.64,
        "true_track": 163.51,
        "vertical_rate": -0.33,
        "geo_altitude": 3009.9,
        "squawk": "1142",
        "spi": false,
        "position_source": 0
      }
    },
    {
      "type": "Feature",
      "geometry": {
        "type": "Point",
        "coordinates": [
          8.5633,
          47.4417
        ]
      },
      "properties": {
        "icao24": "4b180a",
        "callsign": "SWR8KY",
        "origin_country": "Switzerland",
        "time_position": 1779835442,
        "last_contact": 1779835442,
        "baro_altitude": null,
        "on_ground": true,
        "velocity": 0,
        "true_track": 64.69,
        "vertical_rate": null,
        "geo_altitude": null,
        "squawk": "2000",
        "spi": false,
        "position_source": 0
      }
    },
    {
      "type": "Feature",
      "geometry": {
        "type": "Point",
        "coordinates": [
          15.2985,
          44.4883
        ]
      },
      "properties": {
        "icao24": "408051",
        "callsign": "EZY15JF",
        "origin_country": "United Kingdom",
        "time_position": 1779835443,
        "last_contact": 1779835443,
        "baro_altitude": 11582.4,
        "on_ground": false,
        "velocity": 227.13,
        "true_track": 305.6,
        "vertical_rate": 0,
        "geo_altitude": 12092.94,
        "squawk": "5662",
        "spi": false,
        "position_source": 0
      }
    },
    {
      "type": "Feature",
      "geometry": {
        "type": "Point",
        "coordinates": [
          7.4734,
          45.6697
        ]
      },
      "properties": {
        "icao24": "3c542d",
        "callsign": "BCS5NR",
        "origin_country": "Germany",
        "time_position": 1779835443,
        "last_contact": 1779835443,
        "baro_altitude": 7376.16,
        "on_ground": false,
        "velocity": 216.44,
        "true_track": 315.29,
        "vertical_rate": 8.78,
        "geo_altitude": 7825.74,
        "squawk": "5705",
        "spi": false,
        "position_source": 0
      }
    },
    {
      "type": "Feature",
      "geometry": {
        "type": "Point",
        "coordinates": [
          16.8943,
          43.018
        ]
      },
      "properties": {
        "icao24": "408210",
        "callsign": "EXS42YS",
        "origin_country": "United Kingdom",
        "time_position": 1779835443,
        "last_contact": 1779835443,
        "baro_altitude": 10972.8,
        "on_ground": false,
        "velocity": 231.92,
        "true_track": 309.87,
        "vertical_rate": 0,
        "geo_altitude": 11483.34,
        "squawk": "6637",
        "spi": false,
        "position_source": 0
      }
    },
    {
      "type": "Feature",
      "geometry": {
        "type": "Point",
        "coordinates": [
          17.8288,
          41.7911
        ]
      },
      "properties": {
        "icao24": "40823c",
        "callsign": "EXS13EV",
        "origin_country": "United Kingdom",
        "time_position": 1779835442,
        "last_contact": 1779835442,
        "baro_altitude": 10972.8,
        "on_ground": false,
        "velocity": 231.23,
        "true_track": 310.85,
        "vertical_rate": 0,
        "geo_altitude": 11452.86,
        "squawk": "2045",
        "spi": false,
        "position_source": 0
      }
    },
    {
      "type": "Feature",
      "geometry": {
        "type": "Point",
        "coordinates": [
          12.5925,
          45.6455
        ]
      },
      "properties": {
        "icao24": "4080f7",
        "callsign": "EZY75PF",
        "origin_country": "United Kingdom",
        "time_position": 1779835442,
        "last_contact": 1779835443,
        "baro_altitude": 11582.4,
        "on_ground": false,
        "velocity": 221.73,
        "true_track": 306.6,
        "vertical_rate": 0,
        "geo_altitude": 12108.18,
        "squawk": "2004",
        "spi": false,
        "position_source": 0
      }
    },
    {
      "type": "Feature",
      "geometry": {
        "type": "Point",
        "coordinates": [
          10.6142,
          46.2924
        ]
      },
      "properties": {
        "icao24": "408181",
        "callsign": "EZY41ZQ",
        "origin_country": "United Kingdom",
        "time_position": 1779835443,
        "last_contact": 1779835443,
        "baro_altitude": 10980.42,
        "on_ground": false,
        "velocity": 228.51,
        "true_track": 301.18,
        "vertical_rate": 0,
        "geo_altitude": 11513.82,
        "squawk": "6622",
        "spi": false,
        "position_source": 0
      }
    },
    {
      "type": "Feature",
      "geometry": {
        "type": "Point",
        "coordinates": [
          8.7419,
          45.5615
        ]
      },
      "properties": {
        "icao24": "440c35",
        "callsign": "EJU73ZE",
        "origin_country": "Austria",
        "time_position": 1779835442,
        "last_contact": 1779835442,
        "baro_altitude": 449.58,
        "on_ground": false,
        "velocity": 79.7,
        "true_track": 348.84,
        "vertical_rate": -3.9,
        "geo_altitude": 601.98,
        "squawk": "1000",
        "spi": false,
        "position_source": 0
      }
    },
    {
      "type": "Feature",
      "geometry": {
        "type": "Point",
        "coordinates": [
          17.7939,
          42.442
        ]
      },
      "properties": {
        "icao24": "408000",
        "callsign": "EZY89KT",
        "origin_country": "United Kingdom",
        "time_position": 1779835442,
        "last_contact": 1779835443,
        "baro_altitude": 11582.4,
        "on_ground": false,
        "velocity": 232.74,
        "true_track": 310.7,
        "vertical_rate": 0,
        "geo_altitude": 12077.7,
        "squawk": "5525",
        "spi": false,
        "position_source": 0
      }
    },
    {
      "type": "Feature",
      "geometry": {
        "type": "Point",
        "coordinates": [
          17.1834,
          43.352
        ]
      },
      "properties": {
        "icao24": "408040",
        "callsign": "TOM17E",
        "origin_country": "United Kingdom",
        "time_position": 1779835443,
        "last_contact": 1779835443,
        "baro_altitude": 12192,
        "on_ground": false,
        "velocity": 227.29,
        "true_track": 303.83,
        "vertical_rate": -0.33,
        "geo_altitude": 12664.44,
        "squawk": "1157",
        "spi": false,
        "position_source": 0
      }
    },
    {
      "type": "Feature",
      "geometry": {
        "type": "Point",
        "coordinates": [
          17.6045,
          43.8882
        ]
      },
      "properties": {
        "icao24": "408041",
        "callsign": "WUK962",
        "origin_country": "United Kingdom",
        "time_position": 1779835443,
        "last_contact": 1779835443,
        "baro_altitude": 10972.8,
        "on_ground": false,
        "velocity": 229.25,
        "true_track": 316.45,
        "vertical_rate": 0,
        "geo_altitude": 11483.34,
        "squawk": "2233",
        "spi": false,
        "position_source": 0
      }
    },
    {
      "type": "Feature",
      "geometry": {
        "type": "Point",
        "coordinates": [
          17.8206,
          44.2773
        ]
      },
      "properties": {
        "icao24": "408026",
        "callsign": "TOM78X",
        "origin_country": "United Kingdom",
        "time_position": 1779835443,
        "last_contact": 1779835443,
        "baro_altitude": 11582.4,
        "on_ground": false,
        "velocity": 223.93,
        "true_track": 308,
        "vertical_rate": 0,
        "geo_altitude": 12070.08,
        "squawk": "2041",
        "spi": false,
        "position_source": 0
      }
    },
    {
      "type": "Feature",
      "geometry": {
        "type": "Point",
        "coordinates": [
          17.9007,
          43.229
        ]
      },
      "properties": {
        "icao24": "4007ef",
        "callsign": "BAW2065",
        "origin_country": "United Kingdom",
        "time_position": 1779835443,
        "last_contact": 1779835443,
        "baro_altitude": 10058.4,
        "on_ground": false,
        "velocity": 251.37,
        "true_track": 143.74,
        "vertical_rate": 0,
        "geo_altitude": 10500.36,
        "squawk": "2701",
        "spi": false,
        "position_source": 0
      }
    },
    {
      "type": "Feature",
      "geometry": {
        "type": "Point",
        "coordinates": [
          10.4502,
          42.9461
        ]
      },
      "properties": {
        "icao24": "4ca9d2",
        "callsign": "RYR7DE",
        "origin_country": "Ireland",
        "time_position": 1779835443,
        "last_contact": 1779835443,
        "baro_altitude": 9144,
        "on_ground": false,
        "velocity": 207.37,
        "true_track": 20.32,
        "vertical_rate": 0,
        "geo_altitude": 9639.3,
        "squawk": "5466",
        "spi": false,
        "position_source": 0
      }
    },
    {
      "type": "Feature",
      "geometry": {
        "type": "Point",
        "coordinates": [
          10.0361,
          45.4505
        ]
      },
      "properties": {
        "icao24": "4ca9a9",
        "callsign": "RYR81LE",
        "origin_country": "Ireland",
        "time_position": 1779835443,
        "last_contact": 1779835443,
        "baro_altitude": 2095.5,
        "on_ground": false,
        "velocity": 97.87,
        "true_track": 313.94,
        "vertical_rate": -3.9,
        "geo_altitude": 2324.1,
        "squawk": "6004",
        "spi": false,
        "position_source": 0
      }
    },
    {
      "type": "Feature",
      "geometry": {
        "type": "Point",
        "coordinates": [
          8.9079,
          46.264
        ]
      },
      "properties": {
        "icao24": "400664",
        "callsign": "DHK7017",
        "origin_country": "United Kingdom",
        "time_position": 1779835443,
        "last_contact": 1779835443,
        "baro_altitude": 11582.4,
        "on_ground": false,
        "velocity": 222.88,
        "true_track": 325.72,
        "vertical_rate": 0,
        "geo_altitude": 12092.94,
        "squawk": "2773",
        "spi": false,
        "position_source": 0
      }
    },
    {
      "type": "Feature",
      "geometry": {
        "type": "Point",
        "coordinates": [
          8.7164,
          45.6263
        ]
      },
      "properties": {
        "icao24": "4ca912",
        "callsign": "RYR19NG",
        "origin_country": "Ireland",
        "time_position": 1779835442,
        "last_contact": 1779835442,
        "baro_altitude": null,
        "on_ground": true,
        "velocity": 5.66,
        "true_track": 258.75,
        "vertical_rate": null,
        "geo_altitude": null,
        "squawk": "1000",
        "spi": false,
        "position_source": 0
      }
    },
    {
      "type": "Feature",
      "geometry": {
        "type": "Point",
        "coordinates": [
          9.9612,
          45.5475
        ]
      },
      "properties": {
        "icao24": "4ca911",
        "callsign": "RYR90RC",
        "origin_country": "Ireland",
        "time_position": 1779835442,
        "last_contact": 1779835443,
        "baro_altitude": 1508.76,
        "on_ground": false,
        "velocity": 97.24,
        "true_track": 359.09,
        "vertical_rate": -4.23,
        "geo_altitude": 1722.12,
        "squawk": "2601",
        "spi": false,
        "position_source": 0
      }
    },
    {
      "type": "Feature",
      "geometry": {
        "type": "Point",
        "coordinates": [
          10.4992,
          45.2866
        ]
      },
      "properties": {
        "icao24": "4ca82b",
        "callsign": "MSA56B",
        "origin_country": "Ireland",
        "time_position": 1779835443,
        "last_contact": 1779835443,
        "baro_altitude": 2446.02,
        "on_ground": false,
        "velocity": 146.9,
        "true_track": 161.63,
        "vertical_rate": 17.88,
        "geo_altitude": 2682.24,
        "squawk": null,
        "spi": false,
        "position_source": 0
      }
    },
    {
      "type": "Feature",
      "geometry": {
        "type": "Point",
        "coordinates": [
          18.3534,
          44.9416
        ]
      },
      "properties": {
        "icao24": "394c09",
        "callsign": "AFR1390",
        "origin_country": "France",
        "time_position": 1779835443,
        "last_contact": 1779835443,
        "baro_altitude": 10660.38,
        "on_ground": false,
        "velocity": 232.52,
        "true_track": 119.85,
        "vertical_rate": 0.33,
        "geo_altitude": 11132.82,
        "squawk": "0673",
        "spi": false,
        "position_source": 0
      }
    },
    {
      "type": "Feature",
      "geometry": {
        "type": "Point",
        "coordinates": [
          18.7218,
          47.1263
        ]
      },
      "properties": {
        "icao24": "4bce46",
        "callsign": "SXS4BD",
        "origin_country": "Turkey",
        "time_position": 1779835442,
        "last_contact": 1779835443,
        "baro_altitude": 11582.4,
        "on_ground": false,
        "velocity": 216.9,
        "true_track": 307.39,
        "vertical_rate": 0,
        "geo_altitude": 12047.22,
        "squawk": "5302",
        "spi": false,
        "position_source": 0
      }
    },
    {
      "type": "Feature",
      "geometry": {
        "type": "Point",
        "coordinates": [
          11.4406,
          42.0699
        ]
      },
      "properties": {
        "icao24": "4ca708",
        "callsign": "RYR9EY",
        "origin_country": "Ireland",
        "time_position": 1779835442,
        "last_contact": 1779835443,
        "baro_altitude": 11582.4,
        "on_ground": false,
        "velocity": 224.5,
        "true_track": 323.1,
        "vertical_rate": 0.33,
        "geo_altitude": 12085.32,
        "squawk": "7406",
        "spi": false,
        "position_source": 0
      }
    },
    {
      "type": "Feature",
      "geometry": {
        "type": "Point",
        "coordinates": [
          8.7212,
          45.6302
        ]
      },
      "properties": {
        "icao24": "4ca704",
        "callsign": "RYR5XE",
        "origin_country": "Ireland",
        "time_position": 1779835443,
        "last_contact": 1779835443,
        "baro_altitude": null,
        "on_ground": true,
        "velocity": 8.75,
        "true_track": 253.12,
        "vertical_rate": null,
        "geo_altitude": null,
        "squawk": "1000",
        "spi": false,
        "position_source": 0
      }
    },
    {
      "type": "Feature",
      "geometry": {
        "type": "Point",
        "coordinates": [
          7.2094,
          45.9828
        ]
      },
      "properties": {
        "icao24": "4ca61e",
        "callsign": "RYR53ZL",
        "origin_country": "Ireland",
        "time_position": 1779835443,
        "last_contact": 1779835443,
        "baro_altitude": 8702.04,
        "on_ground": false,
        "velocity": 237.77,
        "true_track": 317.54,
        "vertical_rate": 10.4,
        "geo_altitude": 9182.1,
        "squawk": "5767",
        "spi": false,
        "position_source": 0
      }
    },
    {
      "type": "Feature",
      "geometry": {
        "type": "Point",
        "coordinates": [
          12.1296,
          40.5559
        ]
      },
      "properties": {
        "icao24": "4ca61b",
        "callsign": "RYR92JA",
        "origin_country": "Ireland",
        "time_position": 1779835442,
        "last_contact": 1779835443,
        "baro_altitude": 11277.6,
        "on_ground": false,
        "velocity": 231.55,
        "true_track": 169.11,
        "vertical_rate": 0,
        "geo_altitude": 11780.52,
        "squawk": "7435",
        "spi": false,
        "position_source": 0
      }
    },
    {
      "type": "Feature",
      "geometry": {
        "type": "Point",
        "coordinates": [
          10.8705,
          45.7821
        ]
      },
      "properties": {
        "icao24": "4ca61d",
        "callsign": "RYR6DX",
        "origin_country": "Ireland",
        "time_position": 1779835443,
        "last_contact": 1779835443,
        "baro_altitude": 6362.7,
        "on_ground": false,
        "velocity": 220,
        "true_track": 320.5,
        "vertical_rate": 10.73,
        "geo_altitude": 6758.94,
        "squawk": "0265",
        "spi": false,
        "position_source": 0
      }
    },
    {
      "type": "Feature",
      "geometry": {
        "type": "Point",
        "coordinates": [
          17.9135,
          46.6106
        ]
      },
      "properties": {
        "icao24": "4d0107",
        "callsign": "CLX4162",
        "origin_country": "Luxembourg",
        "time_position": 1779835443,
        "last_contact": 1779835443,
        "baro_altitude": 11887.2,
        "on_ground": false,
        "velocity": 254.06,
        "true_track": 102.04,
        "vertical_rate": 0,
        "geo_altitude": 12367.26,
        "squawk": "3504",
        "spi": false,
        "position_source": 0
      }
    },
    {
      "type": "Feature",
      "geometry": {
        "type": "Point",
        "coordinates": [
          11.7136,
          47.5889
        ]
      },
      "properties": {
        "icao24": "4075af",
        "callsign": "EXS74LT",
        "origin_country": "United Kingdom",
        "time_position": 1779835443,
        "last_contact": 1779835443,
        "baro_altitude": 11582.4,
        "on_ground": false,
        "velocity": 214.14,
        "true_track": 307.78,
        "vertical_rate": 0,
        "geo_altitude": 12100.56,
        "squawk": "3112",
        "spi": false,
        "position_source": 0
      }
    },
    {
      "type": "Feature",
      "geometry": {
        "type": "Point",
        "coordinates": [
          15.2239,
          47.7885
        ]
      },
      "properties": {
        "icao24": "40768b",
        "callsign": "EZY34PE",
        "origin_country": "United Kingdom",
        "time_position": 1779835443,
        "last_contact": 1779835443,
        "baro_altitude": 10972.8,
        "on_ground": false,
        "velocity": 215.27,
        "true_track": 300.92,
        "vertical_rate": -0.33,
        "geo_altitude": 11460.48,
        "squawk": "5326",
        "spi": false,
        "position_source": 0
      }
    },
    {
      "type": "Feature",
      "geometry": {
        "type": "Point",
        "coordinates": [
          9.2246,
          39.0727
        ]
      },
      "properties": {
        "icao24": "407686",
        "callsign": "EZY2628",
        "origin_country": "United Kingdom",
        "time_position": 1779835443,
        "last_contact": 1779835443,
        "baro_altitude": 11574.78,
        "on_ground": false,
        "velocity": 224.81,
        "true_track": 352.24,
        "vertical_rate": 0,
        "geo_altitude": 12054.84,
        "squawk": null,
        "spi": false,
        "position_source": 0
      }
    },
    {
      "type": "Feature",
      "geometry": {
        "type": "Point",
        "coordinates": [
          11.2935,
          47.3364
        ]
      },
      "properties": {
        "icao24": "76cdaa",
        "callsign": "SIA337",
        "origin_country": "Singapore",
        "time_position": 1779835443,
        "last_contact": 1779835443,
        "baro_altitude": 10668,
        "on_ground": false,
        "velocity": 262.21,
        "true_track": 98.58,
        "vertical_rate": 0.33,
        "geo_altitude": 11170.92,
        "squawk": "0670",
        "spi": false,
        "position_source": 0
      }
    },
    {
      "type": "Feature",
      "geometry": {
        "type": "Point",
        "coordinates": [
          10.0618,
          45.3451
        ]
      },
      "properties": {
        "icao24": "4cafc1",
        "callsign": "RYR52TC",
        "origin_country": "Ireland",
        "time_position": 1779835443,
        "last_contact": 1779835443,
        "baro_altitude": 2438.4,
        "on_ground": false,
        "velocity": 112.23,
        "true_track": 58.5,
        "vertical_rate": 0,
        "geo_altitude": 2682.24,
        "squawk": "0504",
        "spi": false,
        "position_source": 0
      }
    },
    {
      "type": "Feature",
      "geometry": {
        "type": "Point",
        "coordinates": [
          10.6513,
          44.815
        ]
      },
      "properties": {
        "icao24": "4cafca",
        "callsign": "MSA95S",
        "origin_country": "Ireland",
        "time_position": 1779835442,
        "last_contact": 1779835443,
        "baro_altitude": 5577.84,
        "on_ground": false,
        "velocity": 203.4,
        "true_track": 157.39,
        "vertical_rate": 14.31,
        "geo_altitude": 5913.12,
        "squawk": "1000",
        "spi": false,
        "position_source": 0
      }
    },
    {
      "type": "Feature",
      "geometry": {
        "type": "Point",
        "coordinates": [
          12.976,
          38.1981
        ]
      },
      "properties": {
        "icao24": "4caff6",
        "callsign": "RYR14YV",
        "origin_country": "Ireland",
        "time_position": 1779835443,
        "last_contact": 1779835443,
        "baro_altitude": 11277.6,
        "on_ground": false,
        "velocity": 228.23,
        "true_track": 153.2,
        "vertical_rate": 0,
        "geo_altitude": 11727.18,
        "squawk": "7302",
        "spi": false,
        "position_source": 0
      }
    },
    {
      "type": "Feature",
      "geometry": {
        "type": "Point",
        "coordinates": [
          14.2804,
          36.3257
        ]
      },
      "properties": {
        "icao24": "4caff8",
        "callsign": "RYR3KH",
        "origin_country": "Ireland",
        "time_position": 1779835443,
        "last_contact": 1779835443,
        "baro_altitude": 4419.6,
        "on_ground": false,
        "velocity": 179.84,
        "true_track": 192.72,
        "vertical_rate": -2.6,
        "geo_altitude": 4686.3,
        "squawk": "3730",
        "spi": false,
        "position_source": 0
      }
    },
    {
      "type": "Feature",
      "geometry": {
        "type": "Point",
        "coordinates": [
          13.9314,
          46.5453
        ]
      },
      "properties": {
        "icao24": "01023b",
        "callsign": "MSC2912",
        "origin_country": "Egypt",
        "time_position": 1779835442,
        "last_contact": 1779835442,
        "baro_altitude": 10980.42,
        "on_ground": false,
        "velocity": 222.66,
        "true_track": 314.06,
        "vertical_rate": -0.33,
        "geo_altitude": 11498.58,
        "squawk": "2072",
        "spi": false,
        "position_source": 0
      }
    },
    {
      "type": "Feature",
      "geometry": {
        "type": "Point",
        "coordinates": [
          6.0777,
          46.8287
        ]
      },
      "properties": {
        "icao24": "484b90",
        "callsign": "KLM1435",
        "origin_country": "Kingdom of the Netherlands",
        "time_position": 1779835443,
        "last_contact": 1779835443,
        "baro_altitude": 6705.6,
        "on_ground": false,
        "velocity": 193.67,
        "true_track": 210.31,
        "vertical_rate": -5.2,
        "geo_altitude": 7139.94,
        "squawk": "1000",
        "spi": false,
        "position_source": 0
      }
    },
    {
      "type": "Feature",
      "geometry": {
        "type": "Point",
        "coordinates": [
          15.3314,
          44.2058
        ]
      },
      "properties": {
        "icao24": "40772d",
        "callsign": "EZY73EF",
        "origin_country": "United Kingdom",
        "time_position": 1779835443,
        "last_contact": 1779835443,
        "baro_altitude": 11597.64,
        "on_ground": false,
        "velocity": 230.2,
        "true_track": 312.1,
        "vertical_rate": 0,
        "geo_altitude": 12108.18,
        "squawk": "7734",
        "spi": false,
        "position_source": 0
      }
    },
    {
      "type": "Feature",
      "geometry": {
        "type": "Point",
        "coordinates": [
          12.4389,
          46.1751
        ]
      },
      "properties": {
        "icao24": "4075e0",
        "callsign": "EZY52DQ",
        "origin_country": "United Kingdom",
        "time_position": 1779835442,
        "last_contact": 1779835443,
        "baro_altitude": 10972.8,
        "on_ground": false,
        "velocity": 227.48,
        "true_track": 313.08,
        "vertical_rate": -0.33,
        "geo_altitude": 11490.96,
        "squawk": "5315",
        "spi": false,
        "position_source": 0
      }
    },
    {
      "type": "Feature",
      "geometry": {
        "type": "Point",
        "coordinates": [
          8.7179,
          45.6394
        ]
      },
      "properties": {
        "icao24": "4caed5",
        "callsign": "BCS408",
        "origin_country": "Ireland",
        "time_position": 1779835307,
        "last_contact": 1779835307,
        "baro_altitude": null,
        "on_ground": true,
        "velocity": 8.23,
        "true_track": 348.75,
        "vertical_rate": null,
        "geo_altitude": null,
        "squawk": null,
        "spi": false,
        "position_source": 0
      }
    },
    {
      "type": "Feature",
      "geometry": {
        "type": "Point",
        "coordinates": [
          13.2995,
          38.0738
        ]
      },
      "properties": {
        "icao24": "30066c",
        "callsign": "IHECO",
        "origin_country": "Italy",
        "time_position": 1779835441,
        "last_contact": 1779835441,
        "baro_altitude": 632.46,
        "on_ground": false,
        "velocity": 47.67,
        "true_track": 55.11,
        "vertical_rate": -3.9,
        "geo_altitude": 792.48,
        "squawk": null,
        "spi": false,
        "position_source": 0
      }
    },
    {
      "type": "Feature",
      "geometry": {
        "type": "Point",
        "coordinates": [
          14.5707,
          36.9822
        ]
      },
      "properties": {
        "icao24": "300687",
        "callsign": "LID641",
        "origin_country": "Italy",
        "time_position": 1779835442,
        "last_contact": 1779835443,
        "baro_altitude": 601.98,
        "on_ground": false,
        "velocity": 59.32,
        "true_track": 133.24,
        "vertical_rate": -1.63,
        "geo_altitude": 739.14,
        "squawk": null,
        "spi": false,
        "position_source": 0
      }
    },
    {
      "type": "Feature",
      "geometry": {
        "type": "Point",
        "coordinates": [
          7.839,
          47.7523
        ]
      },
      "properties": {
        "icao24": "40751b",
        "callsign": "EXS6AH",
        "origin_country": "United Kingdom",
        "time_position": 1779835443,
        "last_contact": 1779835443,
        "baro_altitude": 10965.18,
        "on_ground": false,
        "velocity": 227.38,
        "true_track": 309.31,
        "vertical_rate": 0,
        "geo_altitude": 11468.1,
        "squawk": "7533",
        "spi": false,
        "position_source": 0
      }
    },
    {
      "type": "Feature",
      "geometry": {
        "type": "Point",
        "coordinates": [
          9.3247,
          46.8424
        ]
      },
      "properties": {
        "icao24": "40756d",
        "callsign": "EZY12CX",
        "origin_country": "United Kingdom",
        "time_position": 1779835443,
        "last_contact": 1779835443,
        "baro_altitude": 11582.4,
        "on_ground": false,
        "velocity": 219.36,
        "true_track": 306.9,
        "vertical_rate": -0.33,
        "geo_altitude": 12100.56,
        "squawk": "7527",
        "spi": false,
        "position_source": 0
      }
    },
    {
      "type": "Feature",
      "geometry": {
        "type": "Point",
        "coordinates": [
          8.6951,
          44.7453
        ]
      },
      "properties": {
        "icao24": "424c8c",
        "callsign": "MABSU",
        "origin_country": "United Kingdom",
        "time_position": 1779835443,
        "last_contact": 1779835443,
        "baro_altitude": 9959.34,
        "on_ground": false,
        "velocity": 238.01,
        "true_track": 232.29,
        "vertical_rate": 7.48,
        "geo_altitude": 10477.5,
        "squawk": "0450",
        "spi": false,
        "position_source": 0
      }
    },
    {
      "type": "Feature",
      "geometry": {
        "type": "Point",
        "coordinates": [
          10.2024,
          43.9684
        ]
      },
      "properties": {
        "icao24": "30074f",
        "callsign": "PEGASO3",
        "origin_country": "Italy",
        "time_position": 1779835436,
        "last_contact": 1779835438,
        "baro_altitude": 220.98,
        "on_ground": false,
        "velocity": 41.48,
        "true_track": 316.01,
        "vertical_rate": -2.6,
        "geo_altitude": 358.14,
        "squawk": "6233",
        "spi": false,
        "position_source": 0
      }
    },
    {
      "type": "Feature",
      "geometry": {
        "type": "Point",
        "coordinates": [
          14.0241,
          36.118
        ]
      },
      "properties": {
        "icao24": "4cae90",
        "callsign": "RYR4CJ",
        "origin_country": "Ireland",
        "time_position": 1779835443,
        "last_contact": 1779835443,
        "baro_altitude": 3512.82,
        "on_ground": false,
        "velocity": 159.75,
        "true_track": 161.8,
        "vertical_rate": -8.13,
        "geo_altitude": 3749.04,
        "squawk": "4314",
        "spi": false,
        "position_source": 0
      }
    },
    {
      "type": "Feature",
      "geometry": {
        "type": "Point",
        "coordinates": [
          15.4635,
          45.8087
        ]
      },
      "properties": {
        "icao24": "4d22ae",
        "callsign": "RYR73YY",
        "origin_country": "Malta",
        "time_position": 1779835443,
        "last_contact": 1779835443,
        "baro_altitude": 2407.92,
        "on_ground": false,
        "velocity": 147.02,
        "true_track": 122.13,
        "vertical_rate": -6.18,
        "geo_altitude": 2674.62,
        "squawk": "1000",
        "spi": false,
        "position_source": 0
      }
    },
    {
      "type": "Feature",
      "geometry": {
        "type": "Point",
        "coordinates": [
          9.7271,
          45.6641
        ]
      },
      "properties": {
        "icao24": "4cae68",
        "callsign": "RYR13LL",
        "origin_country": "Ireland",
        "time_position": 1779835274,
        "last_contact": 1779835274,
        "baro_altitude": 182.88,
        "on_ground": false,
        "velocity": 75.49,
        "true_track": 284.6,
        "vertical_rate": -3.58,
        "geo_altitude": 350.52,
        "squawk": "7036",
        "spi": true,
        "position_source": 0
      }
    },
    {
      "type": "Feature",
      "geometry": {
        "type": "Point",
        "coordinates": [
          14.6114,
          45.3668
        ]
      },
      "properties": {
        "icao24": "4d22bb",
        "callsign": "RYR6054",
        "origin_country": "Malta",
        "time_position": 1779835443,
        "last_contact": 1779835443,
        "baro_altitude": 5402.58,
        "on_ground": false,
        "velocity": 184.41,
        "true_track": 83.27,
        "vertical_rate": -9.1,
        "geo_altitude": 5798.82,
        "squawk": "0404",
        "spi": false,
        "position_source": 0
      }
    },
    {
      "type": "Feature",
      "geometry": {
        "type": "Point",
        "coordinates": [
          10.7943,
          45.7353
        ]
      },
      "properties": {
        "icao24": "407267",
        "callsign": "EXS6AJ",
        "origin_country": "United Kingdom",
        "time_position": 1779835443,
        "last_contact": 1779835443,
        "baro_altitude": 10972.8,
        "on_ground": false,
        "velocity": 222.15,
        "true_track": 303.76,
        "vertical_rate": 0,
        "geo_altitude": 11506.2,
        "squawk": "5512",
        "spi": false,
        "position_source": 0
      }
    },
    {
      "type": "Feature",
      "geometry": {
        "type": "Point",
        "coordinates": [
          9.965,
          45.3001
        ]
      },
      "properties": {
        "icao24": "4d2304",
        "callsign": "RYR4LN",
        "origin_country": "Malta",
        "time_position": 1779835443,
        "last_contact": 1779835443,
        "baro_altitude": 3352.8,
        "on_ground": false,
        "velocity": 127.69,
        "true_track": 82.36,
        "vertical_rate": 0.33,
        "geo_altitude": 3642.36,
        "squawk": "0002",
        "spi": false,
        "position_source": 0
      }
    },
    {
      "type": "Feature",
      "geometry": {
        "type": "Point",
        "coordinates": [
          8.5651,
          45.2827
        ]
      },
      "properties": {
        "icao24": "4d234b",
        "callsign": "RYR4ZQ",
        "origin_country": "Malta",
        "time_position": 1779835443,
        "last_contact": 1779835443,
        "baro_altitude": 10972.8,
        "on_ground": false,
        "velocity": 231.74,
        "true_track": 314.19,
        "vertical_rate": 0,
        "geo_altitude": 11498.58,
        "squawk": "1225",
        "spi": false,
        "position_source": 0
      }
    },
    {
      "type": "Feature",
      "geometry": {
        "type": "Point",
        "coordinates": [
          17.1644,
          44.8937
        ]
      },
      "properties": {
        "icao24": "4d232c",
        "callsign": "CXI7PV",
        "origin_country": "Malta",
        "time_position": 1779835443,
        "last_contact": 1779835443,
        "baro_altitude": 11582.4,
        "on_ground": false,
        "velocity": 225.12,
        "true_track": 321.4,
        "vertical_rate": 0.33,
        "geo_altitude": 12070.08,
        "squawk": "2051",
        "spi": false,
        "position_source": 0
      }
    },
    {
      "type": "Feature",
      "geometry": {
        "type": "Point",
        "coordinates": [
          9.8464,
          45.6419
        ]
      },
      "properties": {
        "icao24": "4d2385",
        "callsign": "RYR13PK",
        "origin_country": "Malta",
        "time_position": 1779835442,
        "last_contact": 1779835443,
        "baro_altitude": 655.32,
        "on_ground": false,
        "velocity": 86.72,
        "true_track": 284.78,
        "vertical_rate": -4.55,
        "geo_altitude": 815.34,
        "squawk": "0002",
        "spi": false,
        "position_source": 0
      }
    },
    {
      "type": "Feature",
      "geometry": {
        "type": "Point",
        "coordinates": [
          12.1882,
          47.7764
        ]
      },
      "properties": {
        "icao24": "4070ec",
        "callsign": "EXS89YE",
        "origin_country": "United Kingdom",
        "time_position": 1779835443,
        "last_contact": 1779835443,
        "baro_altitude": 10972.8,
        "on_ground": false,
        "velocity": 215.07,
        "true_track": 304.87,
        "vertical_rate": 0,
        "geo_altitude": 11468.1,
        "squawk": "2212",
        "spi": false,
        "position_source": 0
      }
    },
    {
      "type": "Feature",
      "geometry": {
        "type": "Point",
        "coordinates": [
          7.5565,
          47.1404
        ]
      },
      "properties": {
        "icao24": "4070ed",
        "callsign": "EXS17MT",
        "origin_country": "United Kingdom",
        "time_position": 1779835443,
        "last_contact": 1779835443,
        "baro_altitude": 10972.8,
        "on_ground": false,
        "velocity": 231.72,
        "true_track": 315.27,
        "vertical_rate": 0,
        "geo_altitude": 11490.96,
        "squawk": "2751",
        "spi": false,
        "position_source": 0
      }
    },
    {
      "type": "Feature",
      "geometry": {
        "type": "Point",
        "coordinates": [
          10.0132,
          45.6761
        ]
      },
      "properties": {
        "icao24": "4cad11",
        "callsign": "RYR2323",
        "origin_country": "Ireland",
        "time_position": 1779835442,
        "last_contact": 1779835443,
        "baro_altitude": 4229.1,
        "on_ground": false,
        "velocity": 121.75,
        "true_track": 290.27,
        "vertical_rate": -5.2,
        "geo_altitude": 4572,
        "squawk": "5541",
        "spi": false,
        "position_source": 0
      }
    },
    {
      "type": "Feature",
      "geometry": {
        "type": "Point",
        "coordinates": [
          16.6721,
          45.456
        ]
      },
      "properties": {
        "icao24": "4070e7",
        "callsign": "EXS56WG",
        "origin_country": "United Kingdom",
        "time_position": 1779835443,
        "last_contact": 1779835443,
        "baro_altitude": 10965.18,
        "on_ground": false,
        "velocity": 221.54,
        "true_track": 314.72,
        "vertical_rate": 0,
        "geo_altitude": 11460.48,
        "squawk": "5336",
        "spi": false,
        "position_source": 0
      }
    },
    {
      "type": "Feature",
      "geometry": {
        "type": "Point",
        "coordinates": [
          9.7271,
          45.6641
        ]
      },
      "properties": {
        "icao24": "4cad2b",
        "callsign": "RYR90EJ",
        "origin_country": "Ireland",
        "time_position": 1779835432,
        "last_contact": 1779835432,
        "baro_altitude": 175.26,
        "on_ground": false,
        "velocity": 73.5,
        "true_track": 285.01,
        "vertical_rate": -2.93,
        "geo_altitude": 312.42,
        "squawk": "5152",
        "spi": false,
        "position_source": 0
      }
    },
    {
      "type": "Feature",
      "geometry": {
        "type": "Point",
        "coordinates": [
          14.3678,
          35.7939
        ]
      },
      "properties": {
        "icao24": "4cad3b",
        "callsign": "RYR28QD",
        "origin_country": "Ireland",
        "time_position": 1779835442,
        "last_contact": 1779835442,
        "baro_altitude": 563.88,
        "on_ground": false,
        "velocity": 88.51,
        "true_track": 54.46,
        "vertical_rate": -4.55,
        "geo_altitude": 708.66,
        "squawk": "6022",
        "spi": false,
        "position_source": 0
      }
    },
    {
      "type": "Feature",
      "geometry": {
        "type": "Point",
        "coordinates": [
          6.5965,
          46.4079
        ]
      },
      "properties": {
        "icao24": "4cad3d",
        "callsign": "RYR84LQ",
        "origin_country": "Ireland",
        "time_position": 1779835443,
        "last_contact": 1779835443,
        "baro_altitude": 10972.8,
        "on_ground": false,
        "velocity": 230.85,
        "true_track": 319.07,
        "vertical_rate": 0,
        "geo_altitude": 11506.2,
        "squawk": "5766",
        "spi": false,
        "position_source": 0
      }
    },
    {
      "type": "Feature",
      "geometry": {
        "type": "Point",
        "coordinates": [
          10.6039,
          46.195
        ]
      },
      "properties": {
        "icao24": "4cad7d",
        "callsign": "EIN44Y",
        "origin_country": "Ireland",
        "time_position": 1779835443,
        "last_contact": 1779835443,
        "baro_altitude": 11582.4,
        "on_ground": false,
        "velocity": 223.3,
        "true_track": 303.25,
        "vertical_rate": -0.33,
        "geo_altitude": 12108.18,
        "squawk": "3714",
        "spi": false,
        "position_source": 0
      }
    },
    {
      "type": "Feature",
      "geometry": {
        "type": "Point",
        "coordinates": [
          6.4656,
          40.7066
        ]
      },
      "properties": {
        "icao24": "4d21e6",
        "callsign": "BBG251",
        "origin_country": "Malta",
        "time_position": 1779835443,
        "last_contact": 1779835443,
        "baro_altitude": 10972.8,
        "on_ground": false,
        "velocity": 217.85,
        "true_track": 92.71,
        "vertical_rate": 0,
        "geo_altitude": 11490.96,
        "squawk": "1422",
        "spi": false,
        "position_source": 0
      }
    },
    {
      "type": "Feature",
      "geometry": {
        "type": "Point",
        "coordinates": [
          11.978,
          41.9734
        ]
      },
      "properties": {
        "icao24": "4d2219",
        "callsign": "RYR49AV",
        "origin_country": "Malta",
        "time_position": 1779835443,
        "last_contact": 1779835443,
        "baro_altitude": 1485.9,
        "on_ground": false,
        "velocity": 136.4,
        "true_track": 74.92,
        "vertical_rate": -9.1,
        "geo_altitude": 1691.64,
        "squawk": "1416",
        "spi": false,
        "position_source": 0
      }
    },
    {
      "type": "Feature",
      "geometry": {
        "type": "Point",
        "coordinates": [
          9.3248,
          40.3641
        ]
      },
      "properties": {
        "icao24": "4d2224",
        "callsign": "RYR7UH",
        "origin_country": "Malta",
        "time_position": 1779835442,
        "last_contact": 1779835442,
        "baro_altitude": 11582.4,
        "on_ground": false,
        "velocity": 243.18,
        "true_track": 296.78,
        "vertical_rate": 0,
        "geo_altitude": 12085.32,
        "squawk": null,
        "spi": false,
        "position_source": 0
      }
    },
    {
      "type": "Feature",
      "geometry": {
        "type": "Point",
        "coordinates": [
          9.5391,
          43.4574
        ]
      },
      "properties": {
        "icao24": "4d227c",
        "callsign": "RYR6128",
        "origin_country": "Malta",
        "time_position": 1779835443,
        "last_contact": 1779835443,
        "baro_altitude": 9204.96,
        "on_ground": false,
        "velocity": 231.73,
        "true_track": 41.76,
        "vertical_rate": -2.28,
        "geo_altitude": 9715.5,
        "squawk": "3554",
        "spi": false,
        "position_source": 0
      }
    },
    {
      "type": "Feature",
      "geometry": {
        "type": "Point",
        "coordinates": [
          11.6396,
          44.2186
        ]
      },
      "properties": {
        "icao24": "4d227f",
        "callsign": "RYR6017",
        "origin_country": "Malta",
        "time_position": 1779835443,
        "last_contact": 1779835443,
        "baro_altitude": 4023.36,
        "on_ground": false,
        "velocity": 191.62,
        "true_track": 303.95,
        "vertical_rate": -11.38,
        "geo_altitude": 4343.4,
        "squawk": "6621",
        "spi": false,
        "position_source": 0
      }
    },
    {
      "type": "Feature",
      "geometry": {
        "type": "Point",
        "coordinates": [
          8.4339,
          47.1037
        ]
      },
      "properties": {
        "icao24": "4071d7",
        "callsign": "EZY18YQ",
        "origin_country": "United Kingdom",
        "time_position": 1779835443,
        "last_contact": 1779835443,
        "baro_altitude": 11590.02,
        "on_ground": false,
        "velocity": 219.64,
        "true_track": 312.06,
        "vertical_rate": 0.33,
        "geo_altitude": 12115.8,
        "squawk": "2753",
        "spi": false,
        "position_source": 0
      }
    },
    {
      "type": "Feature",
      "geometry": {
        "type": "Point",
        "coordinates": [
          12.1643,
          47.1682
        ]
      },
      "properties": {
        "icao24": "71002c",
        "callsign": "SVA118",
        "origin_country": "Saudi Arabia",
        "time_position": 1779835443,
        "last_contact": 1779835443,
        "baro_altitude": 11269.98,
        "on_ground": false,
        "velocity": 259.92,
        "true_track": 129.3,
        "vertical_rate": 0,
        "geo_altitude": 11795.76,
        "squawk": "0703",
        "spi": false,
        "position_source": 0
      }
    },
    {
      "type": "Feature",
      "geometry": {
        "type": "Point",
        "coordinates": [
          17.764,
          35.4219
        ]
      },
      "properties": {
        "icao24": "71002b",
        "callsign": "SVA374",
        "origin_country": "Saudi Arabia",
        "time_position": 1779835430,
        "last_contact": 1779835440,
        "baro_altitude": 11887.2,
        "on_ground": false,
        "velocity": 240.11,
        "true_track": 99,
        "vertical_rate": -0.33,
        "geo_altitude": 12230.1,
        "squawk": "4102",
        "spi": false,
        "position_source": 0
      }
    },
    {
      "type": "Feature",
      "geometry": {
        "type": "Point",
        "coordinates": [
          16.5291,
          44.7597
        ]
      },
      "properties": {
        "icao24": "4d20b1",
        "callsign": "WMT952",
        "origin_country": "Malta",
        "time_position": 1779835443,
        "last_contact": 1779835443,
        "baro_altitude": 10363.2,
        "on_ground": false,
        "velocity": 240.69,
        "true_track": 284.48,
        "vertical_rate": 0,
        "geo_altitude": 10850.88,
        "squawk": "2332",
        "spi": false,
        "position_source": 0
      }
    },
    {
      "type": "Feature",
      "geometry": {
        "type": "Point",
        "coordinates": [
          9.7925,
          45.2299
        ]
      },
      "properties": {
        "icao24": "4cac85",
        "callsign": "RYR7BE",
        "origin_country": "Ireland",
        "time_position": 1779835443,
        "last_contact": 1779835443,
        "baro_altitude": 3931.92,
        "on_ground": false,
        "velocity": 127.35,
        "true_track": 22.32,
        "vertical_rate": -4.23,
        "geo_altitude": 4244.34,
        "squawk": "4634",
        "spi": false,
        "position_source": 0
      }
    },
    {
      "type": "Feature",
      "geometry": {
        "type": "Point",
        "coordinates": [
          14.2005,
          42.4482
        ]
      },
      "properties": {
        "icao24": "4cac86",
        "callsign": "RYR744U",
        "origin_country": "Ireland",
        "time_position": 1779835298,
        "last_contact": 1779835304,
        "baro_altitude": 15.24,
        "on_ground": false,
        "velocity": 63.49,
        "true_track": 217.43,
        "vertical_rate": -3.58,
        "geo_altitude": 144.78,
        "squawk": "6574",
        "spi": false,
        "position_source": 0
      }
    },
    {
      "type": "Feature",
      "geometry": {
        "type": "Point",
        "coordinates": [
          9.0651,
          45.3029
        ]
      },
      "properties": {
        "icao24": "4d20bc",
        "callsign": "WMT5PL",
        "origin_country": "Malta",
        "time_position": 1779835443,
        "last_contact": 1779835443,
        "baro_altitude": 2202.18,
        "on_ground": false,
        "velocity": 117.95,
        "true_track": 288.04,
        "vertical_rate": -2.28,
        "geo_altitude": 2446.02,
        "squawk": "1000",
        "spi": false,
        "position_source": 0
      }
    },
    {
      "type": "Feature",
      "geometry": {
        "type": "Point",
        "coordinates": [
          15.485,
          45.7372
        ]
      },
      "properties": {
        "icao24": "40702e",
        "callsign": "EXS94BN",
        "origin_country": "United Kingdom",
        "time_position": 1779835443,
        "last_contact": 1779835443,
        "baro_altitude": 11582.4,
        "on_ground": false,
        "velocity": 227.56,
        "true_track": 291.34,
        "vertical_rate": 0,
        "geo_altitude": 12092.94,
        "squawk": "3224",
        "spi": false,
        "position_source": 0
      }
    },
    {
      "type": "Feature",
      "geometry": {
        "type": "Point",
        "coordinates": [
          14.0525,
          44.1542
        ]
      },
      "properties": {
        "icao24": "408329",
        "callsign": "TOM437",
        "origin_country": "United Kingdom",
        "time_position": 1779835443,
        "last_contact": 1779835443,
        "baro_altitude": 11582.4,
        "on_ground": false,
        "velocity": 231.1,
        "true_track": 301.99,
        "vertical_rate": 0.33,
        "geo_altitude": 12100.56,
        "squawk": "5533",
        "spi": false,
        "position_source": 0
      }
    },
    {
      "type": "Feature",
      "geometry": {
        "type": "Point",
        "coordinates": [
          12.4397,
          45.9691
        ]
      },
      "properties": {
        "icao24": "408305",
        "callsign": "EXS78FG",
        "origin_country": "United Kingdom",
        "time_position": 1779835443,
        "last_contact": 1779835443,
        "baro_altitude": 10980.42,
        "on_ground": false,
        "velocity": 223.25,
        "true_track": 305.34,
        "vertical_rate": 0,
        "geo_altitude": 11490.96,
        "squawk": "7730",
        "spi": false,
        "position_source": 0
      }
    },
    {
      "type": "Feature",
      "geometry": {
        "type": "Point",
        "coordinates": [
          13.1826,
          47.7181
        ]
      },
      "properties": {
        "icao24": "39d2af",
        "callsign": "AFR188",
        "origin_country": "France",
        "time_position": 1779835443,
        "last_contact": 1779835443,
        "baro_altitude": 11277.6,
        "on_ground": false,
        "velocity": 261.4,
        "true_track": 104.01,
        "vertical_rate": 0,
        "geo_altitude": 11757.66,
        "squawk": "0662",
        "spi": false,
        "position_source": 0
      }
    },
    {
      "type": "Feature",
      "geometry": {
        "type": "Point",
        "coordinates": [
          17.0362,
          45.53
        ]
      },
      "properties": {
        "icao24": "4d204a",
        "callsign": "WZZ6579",
        "origin_country": "Malta",
        "time_position": 1779835443,
        "last_contact": 1779835443,
        "baro_altitude": 10660.38,
        "on_ground": false,
        "velocity": 229.29,
        "true_track": 93.22,
        "vertical_rate": 0,
        "geo_altitude": 11163.3,
        "squawk": "0442",
        "spi": false,
        "position_source": 0
      }
    },
    {
      "type": "Feature",
      "geometry": {
        "type": "Point",
        "coordinates": [
          9.1171,
          44.0844
        ]
      },
      "properties": {
        "icao24": "3de9ae",
        "callsign": "DHITA",
        "origin_country": "Germany",
        "time_position": 1779835443,
        "last_contact": 1779835443,
        "baro_altitude": 1249.68,
        "on_ground": false,
        "velocity": 77.34,
        "true_track": 304.43,
        "vertical_rate": 0.33,
        "geo_altitude": 1455.42,
        "squawk": "1450",
        "spi": false,
        "position_source": 0
      }
    },
    {
      "type": "Feature",
      "geometry": {
        "type": "Point",
        "coordinates": [
          7.7367,
          46.6317
        ]
      },
      "properties": {
        "icao24": "4d2006",
        "callsign": "EWG60W",
        "origin_country": "Malta",
        "time_position": 1779835443,
        "last_contact": 1779835443,
        "baro_altitude": 11582.4,
        "on_ground": false,
        "velocity": 230.09,
        "true_track": 27.42,
        "vertical_rate": 0,
        "geo_altitude": 12115.8,
        "squawk": "5347",
        "spi": false,
        "position_source": 0
      }
    },
    {
      "type": "Feature",
      "geometry": {
        "type": "Point",
        "coordinates": [
          18.2396,
          42.1267
        ]
      },
      "properties": {
        "icao24": "4082ac",
        "callsign": "EZY98FB",
        "origin_country": "United Kingdom",
        "time_position": 1779835443,
        "last_contact": 1779835443,
        "baro_altitude": 10980.42,
        "on_ground": false,
        "velocity": 237.96,
        "true_track": 305.41,
        "vertical_rate": 0,
        "geo_altitude": 11460.48,
        "squawk": "5521",
        "spi": false,
        "position_source": 0
      }
    },
    {
      "type": "Feature",
      "geometry": {
        "type": "Point",
        "coordinates": [
          8.5587,
          47.4483
        ]
      },
      "properties": {
        "icao24": "4b17e6",
        "callsign": "SWR",
        "origin_country": "Switzerland",
        "time_position": 1779835442,
        "last_contact": 1779835442,
        "baro_altitude": null,
        "on_ground": true,
        "velocity": 0,
        "true_track": 244.69,
        "vertical_rate": null,
        "geo_altitude": null,
        "squawk": "2000",
        "spi": false,
        "position_source": 0
      }
    },
    {
      "type": "Feature",
      "geometry": {
        "type": "Point",
        "coordinates": [
          8.5584,
          47.4487
        ]
      },
      "properties": {
        "icao24": "4b17fc",
        "callsign": "SWR",
        "origin_country": "Switzerland",
        "time_position": 1779835442,
        "last_contact": 1779835442,
        "baro_altitude": null,
        "on_ground": true,
        "velocity": 0,
        "true_track": 244.69,
        "vertical_rate": null,
        "geo_altitude": null,
        "squawk": "2000",
        "spi": false,
        "position_source": 0
      }
    }
  ]
}