{
  "type": "FeatureCollection",
  "source": "opensky",
  "dataset": "aircraft_italy",
  "generated_at": "2026-09-11T00:58:21.440297+00:00",
  "opensky_time": 1789088294,
  "count": 82,
  "features": [
    {
      "type": "Feature",
      "geometry": {
        "type": "Point",
        "coordinates": [
          17.8537,
          47.1721
        ]
      },
      "properties": {
        "icao24": "4bc8c6",
        "callsign": "PGT96T",
        "origin_country": "Turkey",
        "time_position": 1789088293,
        "last_contact": 1789088293,
        "baro_altitude": 10652.76,
        "on_ground": false,
        "velocity": 237.77,
        "true_track": 118.28,
        "vertical_rate": 0,
        "geo_altitude": 11132.82,
        "squawk": "6421",
        "spi": false,
        "position_source": 0
      }
    },
    {
      "type": "Feature",
      "geometry": {
        "type": "Point",
        "coordinates": [
          9.6824,
          39.5327
        ]
      },
      "properties": {
        "icao24": "46b821",
        "callsign": "AEE3LP",
        "origin_country": "Greece",
        "time_position": 1789088293,
        "last_contact": 1789088293,
        "baro_altitude": 10972.8,
        "on_ground": false,
        "velocity": 244.29,
        "true_track": 95.07,
        "vertical_rate": 0,
        "geo_altitude": 11521.44,
        "squawk": "1146",
        "spi": false,
        "position_source": 0
      }
    },
    {
      "type": "Feature",
      "geometry": {
        "type": "Point",
        "coordinates": [
          18.8702,
          43.2705
        ]
      },
      "properties": {
        "icao24": "4aca0b",
        "callsign": "NSZ3355",
        "origin_country": "Sweden",
        "time_position": 1789088292,
        "last_contact": 1789088293,
        "baro_altitude": 10972.8,
        "on_ground": false,
        "velocity": 232.65,
        "true_track": 336.27,
        "vertical_rate": 0.33,
        "geo_altitude": 11513.82,
        "squawk": null,
        "spi": false,
        "position_source": 0
      }
    },
    {
      "type": "Feature",
      "geometry": {
        "type": "Point",
        "coordinates": [
          12.135,
          42.0335
        ]
      },
      "properties": {
        "icao24": "8015a5",
        "callsign": "AIC119",
        "origin_country": "India",
        "time_position": 1789088293,
        "last_contact": 1789088293,
        "baro_altitude": 1165.86,
        "on_ground": false,
        "velocity": 93.57,
        "true_track": 163.06,
        "vertical_rate": -1.63,
        "geo_altitude": 1272.54,
        "squawk": "6467",
        "spi": false,
        "position_source": 0
      }
    },
    {
      "type": "Feature",
      "geometry": {
        "type": "Point",
        "coordinates": [
          8.3475,
          45.1896
        ]
      },
      "properties": {
        "icao24": "452084",
        "callsign": "BCS460",
        "origin_country": "Bulgaria",
        "time_position": 1789088293,
        "last_contact": 1789088294,
        "baro_altitude": 5173.98,
        "on_ground": false,
        "velocity": 201.77,
        "true_track": 206.5,
        "vertical_rate": 16.26,
        "geo_altitude": 5356.86,
        "squawk": "1000",
        "spi": false,
        "position_source": 0
      }
    },
    {
      "type": "Feature",
      "geometry": {
        "type": "Point",
        "coordinates": [
          17.799,
          39.6977
        ]
      },
      "properties": {
        "icao24": "801859",
        "callsign": "AIC188",
        "origin_country": "India",
        "time_position": 1789088293,
        "last_contact": 1789088293,
        "baro_altitude": 11269.98,
        "on_ground": false,
        "velocity": 257.63,
        "true_track": 121.28,
        "vertical_rate": 0,
        "geo_altitude": 11849.1,
        "squawk": "1174",
        "spi": false,
        "position_source": 0
      }
    },
    {
      "type": "Feature",
      "geometry": {
        "type": "Point",
        "coordinates": [
          11.8733,
          45.7918
        ]
      },
      "properties": {
        "icao24": "738076",
        "callsign": "ELY024",
        "origin_country": "Israel",
        "time_position": 1789088293,
        "last_contact": 1789088294,
        "baro_altitude": 11277.6,
        "on_ground": false,
        "velocity": 250.45,
        "true_track": 118.46,
        "vertical_rate": 0,
        "geo_altitude": 11666.22,
        "squawk": "1144",
        "spi": false,
        "position_source": 0
      }
    },
    {
      "type": "Feature",
      "geometry": {
        "type": "Point",
        "coordinates": [
          10.273,
          42.3649
        ]
      },
      "properties": {
        "icao24": "738073",
        "callsign": "ELY010",
        "origin_country": "Israel",
        "time_position": 1789088293,
        "last_contact": 1789088294,
        "baro_altitude": 11277.6,
        "on_ground": false,
        "velocity": 251.24,
        "true_track": 117.04,
        "vertical_rate": 0,
        "geo_altitude": 11788.14,
        "squawk": "2233",
        "spi": false,
        "position_source": 0
      }
    },
    {
      "type": "Feature",
      "geometry": {
        "type": "Point",
        "coordinates": [
          16.6752,
          38.1752
        ]
      },
      "properties": {
        "icao24": "738058",
        "callsign": "ELY376",
        "origin_country": "Israel",
        "time_position": 1789088293,
        "last_contact": 1789088293,
        "baro_altitude": 11277.6,
        "on_ground": false,
        "velocity": 242.05,
        "true_track": 97.94,
        "vertical_rate": 0,
        "geo_altitude": 11864.34,
        "squawk": "1224",
        "spi": false,
        "position_source": 0
      }
    },
    {
      "type": "Feature",
      "geometry": {
        "type": "Point",
        "coordinates": [
          14.7457,
          40.5232
        ]
      },
      "properties": {
        "icao24": "738103",
        "callsign": "ELY017",
        "origin_country": "Israel",
        "time_position": 1789088293,
        "last_contact": 1789088293,
        "baro_altitude": 10972.8,
        "on_ground": false,
        "velocity": 242.06,
        "true_track": 295.69,
        "vertical_rate": -0.33,
        "geo_altitude": 11529.06,
        "squawk": "2203",
        "spi": false,
        "position_source": 0
      }
    },
    {
      "type": "Feature",
      "geometry": {
        "type": "Point",
        "coordinates": [
          11.4264,
          46.0532
        ]
      },
      "properties": {
        "icao24": "45213e",
        "callsign": "AMQ459",
        "origin_country": "Bulgaria",
        "time_position": 1789088293,
        "last_contact": 1789088293,
        "baro_altitude": 10355.58,
        "on_ground": false,
        "velocity": 255.98,
        "true_track": 50.87,
        "vertical_rate": 0,
        "geo_altitude": 10690.86,
        "squawk": "1151",
        "spi": false,
        "position_source": 0
      }
    },
    {
      "type": "Feature",
      "geometry": {
        "type": "Point",
        "coordinates": [
          17.3806,
          42.3124
        ]
      },
      "properties": {
        "icao24": "7380c1",
        "callsign": "ELY028",
        "origin_country": "Israel",
        "time_position": 1789088293,
        "last_contact": 1789088293,
        "baro_altitude": 11887.2,
        "on_ground": false,
        "velocity": 265.83,
        "true_track": 123.07,
        "vertical_rate": 0,
        "geo_altitude": 12473.94,
        "squawk": "0264",
        "spi": false,
        "position_source": 0
      }
    },
    {
      "type": "Feature",
      "geometry": {
        "type": "Point",
        "coordinates": [
          17.2444,
          47.7373
        ]
      },
      "properties": {
        "icao24": "7380c5",
        "callsign": "ELY001",
        "origin_country": "Israel",
        "time_position": 1789088293,
        "last_contact": 1789088293,
        "baro_altitude": 10965.18,
        "on_ground": false,
        "velocity": 249.32,
        "true_track": 316.92,
        "vertical_rate": -0.33,
        "geo_altitude": 11414.76,
        "squawk": "1162",
        "spi": false,
        "position_source": 0
      }
    },
    {
      "type": "Feature",
      "geometry": {
        "type": "Point",
        "coordinates": [
          18.2846,
          46.9319
        ]
      },
      "properties": {
        "icao24": "7380cb",
        "callsign": "ELY005",
        "origin_country": "Israel",
        "time_position": 1789088293,
        "last_contact": 1789088293,
        "baro_altitude": 9745.98,
        "on_ground": false,
        "velocity": 259.47,
        "true_track": 319.58,
        "vertical_rate": -0.33,
        "geo_altitude": 10203.18,
        "squawk": "1173",
        "spi": false,
        "position_source": 0
      }
    },
    {
      "type": "Feature",
      "geometry": {
        "type": "Point",
        "coordinates": [
          10.0452,
          40.3611
        ]
      },
      "properties": {
        "icao24": "020118",
        "callsign": "MAC438",
        "origin_country": "Morocco",
        "time_position": 1789088293,
        "last_contact": 1789088293,
        "baro_altitude": 11285.22,
        "on_ground": false,
        "velocity": 209.77,
        "true_track": 255.08,
        "vertical_rate": 0,
        "geo_altitude": 11841.48,
        "squawk": "2311",
        "spi": false,
        "position_source": 0
      }
    },
    {
      "type": "Feature",
      "geometry": {
        "type": "Point",
        "coordinates": [
          15.4961,
          40.7734
        ]
      },
      "properties": {
        "icao24": "020175",
        "callsign": "MAC529",
        "origin_country": "Morocco",
        "time_position": 1789088293,
        "last_contact": 1789088293,
        "baro_altitude": 10980.42,
        "on_ground": false,
        "velocity": 211.38,
        "true_track": 283.22,
        "vertical_rate": 0,
        "geo_altitude": 11551.92,
        "squawk": "2334",
        "spi": false,
        "position_source": 0
      }
    },
    {
      "type": "Feature",
      "geometry": {
        "type": "Point",
        "coordinates": [
          6.0685,
          45.4012
        ]
      },
      "properties": {
        "icao24": "345292",
        "callsign": "BCS422",
        "origin_country": "Spain",
        "time_position": 1789088293,
        "last_contact": 1789088293,
        "baro_altitude": 10058.4,
        "on_ground": false,
        "velocity": 212.2,
        "true_track": 274.87,
        "vertical_rate": 0,
        "geo_altitude": 10462.26,
        "squawk": "1000",
        "spi": false,
        "position_source": 0
      }
    },
    {
      "type": "Feature",
      "geometry": {
        "type": "Point",
        "coordinates": [
          6.2829,
          40.1705
        ]
      },
      "properties": {
        "icao24": "020145",
        "callsign": "MAC523",
        "origin_country": "Morocco",
        "time_position": 1789088293,
        "last_contact": 1789088293,
        "baro_altitude": 11277.6,
        "on_ground": false,
        "velocity": 231.34,
        "true_track": 258.72,
        "vertical_rate": 0.33,
        "geo_altitude": 11811,
        "squawk": "4011",
        "spi": false,
        "position_source": 0
      }
    },
    {
      "type": "Feature",
      "geometry": {
        "type": "Point",
        "coordinates": [
          13.6182,
          47.2896
        ]
      },
      "properties": {
        "icao24": "4067f3",
        "callsign": "TOM719",
        "origin_country": "United Kingdom",
        "time_position": 1789088293,
        "last_contact": 1789088293,
        "baro_altitude": 10972.8,
        "on_ground": false,
        "velocity": 235.76,
        "true_track": 304.87,
        "vertical_rate": 0,
        "geo_altitude": 11361.42,
        "squawk": "2030",
        "spi": false,
        "position_source": 0
      }
    },
    {
      "type": "Feature",
      "geometry": {
        "type": "Point",
        "coordinates": [
          15.1206,
          46.2852
        ]
      },
      "properties": {
        "icao24": "4bb192",
        "callsign": "THY9LC",
        "origin_country": "Turkey",
        "time_position": 1789088293,
        "last_contact": 1789088293,
        "baro_altitude": 12489.18,
        "on_ground": false,
        "velocity": 275.64,
        "true_track": 85.29,
        "vertical_rate": -0.33,
        "geo_altitude": 12931.14,
        "squawk": "1165",
        "spi": false,
        "position_source": 0
      }
    },
    {
      "type": "Feature",
      "geometry": {
        "type": "Point",
        "coordinates": [
          12.949,
          45.6815
        ]
      },
      "properties": {
        "icao24": "4bb190",
        "callsign": "THY4JD",
        "origin_country": "Turkey",
        "time_position": 1789088293,
        "last_contact": 1789088293,
        "baro_altitude": 10363.2,
        "on_ground": false,
        "velocity": 230.83,
        "true_track": 265.01,
        "vertical_rate": -0.33,
        "geo_altitude": 10736.58,
        "squawk": "3260",
        "spi": false,
        "position_source": 0
      }
    },
    {
      "type": "Feature",
      "geometry": {
        "type": "Point",
        "coordinates": [
          15.1424,
          38.3237
        ]
      },
      "properties": {
        "icao24": "4bb065",
        "callsign": "THY2RZ",
        "origin_country": "Turkey",
        "time_position": 1789088293,
        "last_contact": 1789088293,
        "baro_altitude": 11277.6,
        "on_ground": false,
        "velocity": 229.4,
        "true_track": 70.75,
        "vertical_rate": 0,
        "geo_altitude": 11871.96,
        "squawk": "7743",
        "spi": false,
        "position_source": 0
      }
    },
    {
      "type": "Feature",
      "geometry": {
        "type": "Point",
        "coordinates": [
          17.735,
          37.8969
        ]
      },
      "properties": {
        "icao24": "4bb062",
        "callsign": "THY635",
        "origin_country": "Turkey",
        "time_position": 1789088289,
        "last_contact": 1789088293,
        "baro_altitude": 10363.2,
        "on_ground": false,
        "velocity": 230.91,
        "true_track": 231.24,
        "vertical_rate": 0,
        "geo_altitude": 10911.84,
        "squawk": "2306",
        "spi": false,
        "position_source": 0
      }
    },
    {
      "type": "Feature",
      "geometry": {
        "type": "Point",
        "coordinates": [
          17.1104,
          37.0023
        ]
      },
      "properties": {
        "icao24": "4bb06d",
        "callsign": "THY3KA",
        "origin_country": "Turkey",
        "time_position": 1789088293,
        "last_contact": 1789088293,
        "baro_altitude": 11277.6,
        "on_ground": false,
        "velocity": 248.31,
        "true_track": 54.1,
        "vertical_rate": 0,
        "geo_altitude": 11887.2,
        "squawk": "3151",
        "spi": false,
        "position_source": 0
      }
    },
    {
      "type": "Feature",
      "geometry": {
        "type": "Point",
        "coordinates": [
          17.6682,
          44.9745
        ]
      },
      "properties": {
        "icao24": "406696",
        "callsign": "TOM8VC",
        "origin_country": "United Kingdom",
        "time_position": 1789088293,
        "last_contact": 1789088293,
        "baro_altitude": 10972.8,
        "on_ground": false,
        "velocity": 234.31,
        "true_track": 340.37,
        "vertical_rate": 0.33,
        "geo_altitude": 11483.34,
        "squawk": "5452",
        "spi": false,
        "position_source": 0
      }
    },
    {
      "type": "Feature",
      "geometry": {
        "type": "Point",
        "coordinates": [
          17.2985,
          43.9568
        ]
      },
      "properties": {
        "icao24": "40665e",
        "callsign": "TOM553",
        "origin_country": "United Kingdom",
        "time_position": 1789088293,
        "last_contact": 1789088293,
        "baro_altitude": 10363.2,
        "on_ground": false,
        "velocity": 235.38,
        "true_track": 324.61,
        "vertical_rate": 0,
        "geo_altitude": 10866.12,
        "squawk": "5513",
        "spi": false,
        "position_source": 0
      }
    },
    {
      "type": "Feature",
      "geometry": {
        "type": "Point",
        "coordinates": [
          12.6874,
          47.1222
        ]
      },
      "properties": {
        "icao24": "400ff4",
        "callsign": "TOM269",
        "origin_country": "United Kingdom",
        "time_position": 1789088293,
        "last_contact": 1789088294,
        "baro_altitude": 11582.4,
        "on_ground": false,
        "velocity": 225.89,
        "true_track": 293.06,
        "vertical_rate": 0,
        "geo_altitude": 11940.54,
        "squawk": "5323",
        "spi": false,
        "position_source": 0
      }
    },
    {
      "type": "Feature",
      "geometry": {
        "type": "Point",
        "coordinates": [
          6.751,
          42.3373
        ]
      },
      "properties": {
        "icao24": "49d3d5",
        "callsign": "TVS4147",
        "origin_country": "Czech Republic",
        "time_position": 1789088293,
        "last_contact": 1789088293,
        "baro_altitude": 10972.8,
        "on_ground": false,
        "velocity": 205.46,
        "true_track": 25.99,
        "vertical_rate": 0,
        "geo_altitude": 11468.1,
        "squawk": "1000",
        "spi": false,
        "position_source": 0
      }
    },
    {
      "type": "Feature",
      "geometry": {
        "type": "Point",
        "coordinates": [
          18.601,
          38.3885
        ]
      },
      "properties": {
        "icao24": "4ba9da",
        "callsign": "THY43H",
        "origin_country": "Turkey",
        "time_position": 1789088145,
        "last_contact": 1789088206,
        "baro_altitude": 11277.6,
        "on_ground": false,
        "velocity": 242.05,
        "true_track": 43.02,
        "vertical_rate": 0,
        "geo_altitude": 11856.72,
        "squawk": "4107",
        "spi": false,
        "position_source": 0
      }
    },
    {
      "type": "Feature",
      "geometry": {
        "type": "Point",
        "coordinates": [
          17.8021,
          45.3587
        ]
      },
      "properties": {
        "icao24": "407faf",
        "callsign": "TOM8CE",
        "origin_country": "United Kingdom",
        "time_position": 1789088293,
        "last_contact": 1789088294,
        "baro_altitude": 10363.2,
        "on_ground": false,
        "velocity": 246.32,
        "true_track": 339.33,
        "vertical_rate": 0,
        "geo_altitude": 10866.12,
        "squawk": "5341",
        "spi": false,
        "position_source": 0
      }
    },
    {
      "type": "Feature",
      "geometry": {
        "type": "Point",
        "coordinates": [
          17.3095,
          46.0644
        ]
      },
      "properties": {
        "icao24": "4ba94a",
        "callsign": "THY4",
        "origin_country": "Turkey",
        "time_position": 1789088293,
        "last_contact": 1789088293,
        "baro_altitude": 11277.6,
        "on_ground": false,
        "velocity": 249.87,
        "true_track": 121.53,
        "vertical_rate": -0.33,
        "geo_altitude": 11750.04,
        "squawk": "1172",
        "spi": false,
        "position_source": 0
      }
    },
    {
      "type": "Feature",
      "geometry": {
        "type": "Point",
        "coordinates": [
          15.5072,
          43.0679
        ]
      },
      "properties": {
        "icao24": "407eec",
        "callsign": "EZY54ZP",
        "origin_country": "United Kingdom",
        "time_position": 1789088294,
        "last_contact": 1789088294,
        "baro_altitude": 11582.4,
        "on_ground": false,
        "velocity": 217.45,
        "true_track": 310.59,
        "vertical_rate": 0,
        "geo_altitude": 12131.04,
        "squawk": "2021",
        "spi": false,
        "position_source": 0
      }
    },
    {
      "type": "Feature",
      "geometry": {
        "type": "Point",
        "coordinates": [
          15.7592,
          46.3934
        ]
      },
      "properties": {
        "icao24": "71c285",
        "callsign": "KAL504",
        "origin_country": "Republic of Korea",
        "time_position": 1789088293,
        "last_contact": 1789088293,
        "baro_altitude": 9448.8,
        "on_ground": false,
        "velocity": 266,
        "true_track": 90.89,
        "vertical_rate": 0,
        "geo_altitude": 9852.66,
        "squawk": "0663",
        "spi": false,
        "position_source": 0
      }
    },
    {
      "type": "Feature",
      "geometry": {
        "type": "Point",
        "coordinates": [
          13.3946,
          42.6871
        ]
      },
      "properties": {
        "icao24": "47c968",
        "callsign": "NBT50P",
        "origin_country": "Norway",
        "time_position": 1789088293,
        "last_contact": 1789088293,
        "baro_altitude": 11887.2,
        "on_ground": false,
        "velocity": 256.46,
        "true_track": 122.38,
        "vertical_rate": 0,
        "geo_altitude": 12435.84,
        "squawk": "2271",
        "spi": false,
        "position_source": 0
      }
    },
    {
      "type": "Feature",
      "geometry": {
        "type": "Point",
        "coordinates": [
          13.4125,
          45.0076
        ]
      },
      "properties": {
        "icao24": "407e61",
        "callsign": "EZY75PF",
        "origin_country": "United Kingdom",
        "time_position": 1789088293,
        "last_contact": 1789088293,
        "baro_altitude": 10980.42,
        "on_ground": false,
        "velocity": 225.73,
        "true_track": 320.18,
        "vertical_rate": 0,
        "geo_altitude": 11422.38,
        "squawk": "2016",
        "spi": false,
        "position_source": 0
      }
    },
    {
      "type": "Feature",
      "geometry": {
        "type": "Point",
        "coordinates": [
          9.6699,
          44.762
        ]
      },
      "properties": {
        "icao24": "440612",
        "callsign": "EJU68VV",
        "origin_country": "Austria",
        "time_position": 1789088293,
        "last_contact": 1789088293,
        "baro_altitude": 6926.58,
        "on_ground": false,
        "velocity": 226.99,
        "true_track": 315,
        "vertical_rate": -15.93,
        "geo_altitude": 7170.42,
        "squawk": "2077",
        "spi": false,
        "position_source": 0
      }
    },
    {
      "type": "Feature",
      "geometry": {
        "type": "Point",
        "coordinates": [
          14.264,
          45.9225
        ]
      },
      "properties": {
        "icao24": "406ae8",
        "callsign": "TOM21N",
        "origin_country": "United Kingdom",
        "time_position": 1789088292,
        "last_contact": 1789088293,
        "baro_altitude": 11582.4,
        "on_ground": false,
        "velocity": 238.41,
        "true_track": 317.01,
        "vertical_rate": 0,
        "geo_altitude": 12024.36,
        "squawk": "7743",
        "spi": false,
        "position_source": 0
      }
    },
    {
      "type": "Feature",
      "geometry": {
        "type": "Point",
        "coordinates": [
          14.8486,
          45.3394
        ]
      },
      "properties": {
        "icao24": "407c0a",
        "callsign": "TOM8EH",
        "origin_country": "United Kingdom",
        "time_position": 1789088293,
        "last_contact": 1789088293,
        "baro_altitude": 11582.4,
        "on_ground": false,
        "velocity": 234.32,
        "true_track": 316.25,
        "vertical_rate": -0.33,
        "geo_altitude": 12054.84,
        "squawk": "5613",
        "spi": false,
        "position_source": 0
      }
    },
    {
      "type": "Feature",
      "geometry": {
        "type": "Point",
        "coordinates": [
          8.7585,
          41.0412
        ]
      },
      "properties": {
        "icao24": "344696",
        "callsign": "VLG53DB",
        "origin_country": "Spain",
        "time_position": 1789088293,
        "last_contact": 1789088294,
        "baro_altitude": 11277.6,
        "on_ground": false,
        "velocity": 202.28,
        "true_track": 252.99,
        "vertical_rate": 0,
        "geo_altitude": 11818.62,
        "squawk": null,
        "spi": false,
        "position_source": 0
      }
    },
    {
      "type": "Feature",
      "geometry": {
        "type": "Point",
        "coordinates": [
          8.5631,
          47.4421
        ]
      },
      "properties": {
        "icao24": "4b1808",
        "callsign": "SWR",
        "origin_country": "Switzerland",
        "time_position": 1789088291,
        "last_contact": 1789088292,
        "baro_altitude": 365.76,
        "on_ground": true,
        "velocity": 0,
        "true_track": 64.69,
        "vertical_rate": null,
        "geo_altitude": null,
        "squawk": "2000",
        "spi": false,
        "position_source": 0
      }
    },
    {
      "type": "Feature",
      "geometry": {
        "type": "Point",
        "coordinates": [
          8.562,
          47.4409
        ]
      },
      "properties": {
        "icao24": "4b180a",
        "callsign": "SWR",
        "origin_country": "Switzerland",
        "time_position": 1789088288,
        "last_contact": 1789088288,
        "baro_altitude": null,
        "on_ground": true,
        "velocity": 0,
        "true_track": 244.69,
        "vertical_rate": null,
        "geo_altitude": null,
        "squawk": null,
        "spi": false,
        "position_source": 0
      }
    },
    {
      "type": "Feature",
      "geometry": {
        "type": "Point",
        "coordinates": [
          12.7493,
          47.6506
        ]
      },
      "properties": {
        "icao24": "40804e",
        "callsign": "WUK8QH",
        "origin_country": "United Kingdom",
        "time_position": 1789088292,
        "last_contact": 1789088293,
        "baro_altitude": 10965.18,
        "on_ground": false,
        "velocity": 237.78,
        "true_track": 305.13,
        "vertical_rate": 0,
        "geo_altitude": 11323.32,
        "squawk": "0507",
        "spi": false,
        "position_source": 0
      }
    },
    {
      "type": "Feature",
      "geometry": {
        "type": "Point",
        "coordinates": [
          17.8097,
          35.9749
        ]
      },
      "properties": {
        "icao24": "02a1a3",
        "callsign": "LBT7690",
        "origin_country": "Tunisia",
        "time_position": 1789088293,
        "last_contact": 1789088293,
        "baro_altitude": 11269.98,
        "on_ground": false,
        "velocity": 248.48,
        "true_track": 90.12,
        "vertical_rate": 0,
        "geo_altitude": 11902.44,
        "squawk": "6151",
        "spi": false,
        "position_source": 0
      }
    },
    {
      "type": "Feature",
      "geometry": {
        "type": "Point",
        "coordinates": [
          16.4121,
          43.1877
        ]
      },
      "properties": {
        "icao24": "02a1a7",
        "callsign": "LBT829",
        "origin_country": "Tunisia",
        "time_position": 1789088294,
        "last_contact": 1789088294,
        "baro_altitude": 10363.2,
        "on_ground": false,
        "velocity": 210.06,
        "true_track": 212.6,
        "vertical_rate": -0.33,
        "geo_altitude": 10896.6,
        "squawk": "6020",
        "spi": false,
        "position_source": 0
      }
    },
    {
      "type": "Feature",
      "geometry": {
        "type": "Point",
        "coordinates": [
          10.4299,
          39.6515
        ]
      },
      "properties": {
        "icao24": "4690e9",
        "callsign": "AEE5RT",
        "origin_country": "Greece",
        "time_position": 1789088293,
        "last_contact": 1789088293,
        "baro_altitude": 11262.36,
        "on_ground": false,
        "velocity": 226.71,
        "true_track": 125.67,
        "vertical_rate": 0,
        "geo_altitude": 11826.24,
        "squawk": "1155",
        "spi": false,
        "position_source": 0
      }
    },
    {
      "type": "Feature",
      "geometry": {
        "type": "Point",
        "coordinates": [
          8.5578,
          47.4672
        ]
      },
      "properties": {
        "icao24": "4b5d34",
        "callsign": "GALA11",
        "origin_country": "Switzerland",
        "time_position": 1789088293,
        "last_contact": 1789088293,
        "baro_altitude": null,
        "on_ground": true,
        "velocity": 2.83,
        "true_track": 315,
        "vertical_rate": null,
        "geo_altitude": null,
        "squawk": null,
        "spi": false,
        "position_source": 0
      }
    },
    {
      "type": "Feature",
      "geometry": {
        "type": "Point",
        "coordinates": [
          8.5494,
          47.4563
        ]
      },
      "properties": {
        "icao24": "4b5d54",
        "callsign": "GALA6",
        "origin_country": "Switzerland",
        "time_position": 1789088291,
        "last_contact": 1789088291,
        "baro_altitude": null,
        "on_ground": true,
        "velocity": 3.34,
        "true_track": 331.88,
        "vertical_rate": null,
        "geo_altitude": null,
        "squawk": null,
        "spi": false,
        "position_source": 0
      }
    },
    {
      "type": "Feature",
      "geometry": {
        "type": "Point",
        "coordinates": [
          8.5604,
          47.4652
        ]
      },
      "properties": {
        "icao24": "4b5d3d",
        "callsign": "GALA23",
        "origin_country": "Switzerland",
        "time_position": 1789088292,
        "last_contact": 1789088293,
        "baro_altitude": null,
        "on_ground": true,
        "velocity": 2.06,
        "true_track": 312.19,
        "vertical_rate": null,
        "geo_altitude": null,
        "squawk": null,
        "spi": false,
        "position_source": 0
      }
    },
    {
      "type": "Feature",
      "geometry": {
        "type": "Point",
        "coordinates": [
          8.5381,
          47.4718
        ]
      },
      "properties": {
        "icao24": "4b5d3b",
        "callsign": "GALA20",
        "origin_country": "Switzerland",
        "time_position": 1789088293,
        "last_contact": 1789088293,
        "baro_altitude": null,
        "on_ground": true,
        "velocity": 11.32,
        "true_track": 334.69,
        "vertical_rate": null,
        "geo_altitude": null,
        "squawk": null,
        "spi": false,
        "position_source": 0
      }
    },
    {
      "type": "Feature",
      "geometry": {
        "type": "Point",
        "coordinates": [
          8.5635,
          47.4611
        ]
      },
      "properties": {
        "icao24": "4b5c23",
        "callsign": "URSULA13",
        "origin_country": "Switzerland",
        "time_position": 1789088292,
        "last_contact": 1789088292,
        "baro_altitude": null,
        "on_ground": true,
        "velocity": 8.23,
        "true_track": 16.88,
        "vertical_rate": null,
        "geo_altitude": null,
        "squawk": null,
        "spi": false,
        "position_source": 0
      }
    },
    {
      "type": "Feature",
      "geometry": {
        "type": "Point",
        "coordinates": [
          8.5493,
          47.4563
        ]
      },
      "properties": {
        "icao24": "4b5c39",
        "callsign": "GALA21",
        "origin_country": "Switzerland",
        "time_position": 1789088293,
        "last_contact": 1789088293,
        "baro_altitude": null,
        "on_ground": true,
        "velocity": 4.12,
        "true_track": 337.5,
        "vertical_rate": null,
        "geo_altitude": null,
        "squawk": null,
        "spi": false,
        "position_source": 0
      }
    },
    {
      "type": "Feature",
      "geometry": {
        "type": "Point",
        "coordinates": [
          14.4223,
          37.728
        ]
      },
      "properties": {
        "icao24": "4ca7b3",
        "callsign": "RYR4LD",
        "origin_country": "Ireland",
        "time_position": 1789088293,
        "last_contact": 1789088293,
        "baro_altitude": 5295.9,
        "on_ground": false,
        "velocity": 186.13,
        "true_track": 162.47,
        "vertical_rate": -2.6,
        "geo_altitude": 5623.56,
        "squawk": "7432",
        "spi": false,
        "position_source": 0
      }
    },
    {
      "type": "Feature",
      "geometry": {
        "type": "Point",
        "coordinates": [
          14.2822,
          45.7603
        ]
      },
      "properties": {
        "icao24": "5084c5",
        "callsign": "VKA701",
        "origin_country": "Ukraine",
        "time_position": 1789088293,
        "last_contact": 1789088293,
        "baro_altitude": 5486.4,
        "on_ground": false,
        "velocity": 121.42,
        "true_track": 75.02,
        "vertical_rate": 0.98,
        "geo_altitude": 5684.52,
        "squawk": "0435",
        "spi": false,
        "position_source": 0
      }
    },
    {
      "type": "Feature",
      "geometry": {
        "type": "Point",
        "coordinates": [
          18.4931,
          46.1729
        ]
      },
      "properties": {
        "icao24": "4bcde3",
        "callsign": "SXS3FP",
        "origin_country": "Turkey",
        "time_position": 1789088293,
        "last_contact": 1789088293,
        "baro_altitude": 11277.6,
        "on_ground": false,
        "velocity": 232.92,
        "true_track": 128.36,
        "vertical_rate": 0,
        "geo_altitude": 11765.28,
        "squawk": "6436",
        "spi": false,
        "position_source": 0
      }
    },
    {
      "type": "Feature",
      "geometry": {
        "type": "Point",
        "coordinates": [
          13.8214,
          46.7418
        ]
      },
      "properties": {
        "icao24": "405e23",
        "callsign": "TOM2PJ",
        "origin_country": "United Kingdom",
        "time_position": 1789088293,
        "last_contact": 1789088293,
        "baro_altitude": 11582.4,
        "on_ground": false,
        "velocity": 222.84,
        "true_track": 294.55,
        "vertical_rate": 0,
        "geo_altitude": 11978.64,
        "squawk": "2025",
        "spi": false,
        "position_source": 0
      }
    },
    {
      "type": "Feature",
      "geometry": {
        "type": "Point",
        "coordinates": [
          16.1985,
          45.828
        ]
      },
      "properties": {
        "icao24": "501c5a",
        "callsign": "CTN8701",
        "origin_country": "Croatia",
        "time_position": 1789088005,
        "last_contact": 1789088015,
        "baro_altitude": 685.8,
        "on_ground": false,
        "velocity": 98.66,
        "true_track": 227.32,
        "vertical_rate": -4.88,
        "geo_altitude": 815.34,
        "squawk": "1000",
        "spi": false,
        "position_source": 0
      }
    },
    {
      "type": "Feature",
      "geometry": {
        "type": "Point",
        "coordinates": [
          14.8192,
          37.3288
        ]
      },
      "properties": {
        "icao24": "4ca718",
        "callsign": "ITY1735",
        "origin_country": "Ireland",
        "time_position": 1789088293,
        "last_contact": 1789088293,
        "baro_altitude": 2400.3,
        "on_ground": false,
        "velocity": 144.8,
        "true_track": 79.77,
        "vertical_rate": -3.25,
        "geo_altitude": 2613.66,
        "squawk": "5404",
        "spi": false,
        "position_source": 0
      }
    },
    {
      "type": "Feature",
      "geometry": {
        "type": "Point",
        "coordinates": [
          17.738,
          39.1542
        ]
      },
      "properties": {
        "icao24": "010283",
        "callsign": "MSR986",
        "origin_country": "Egypt",
        "time_position": 1789088293,
        "last_contact": 1789088293,
        "baro_altitude": 12496.8,
        "on_ground": false,
        "velocity": 266.06,
        "true_track": 118.15,
        "vertical_rate": 0,
        "geo_altitude": 13083.54,
        "squawk": "1141",
        "spi": false,
        "position_source": 0
      }
    },
    {
      "type": "Feature",
      "geometry": {
        "type": "Point",
        "coordinates": [
          8.6298,
          45.4819
        ]
      },
      "properties": {
        "icao24": "346318",
        "callsign": "BCS7CK",
        "origin_country": "Spain",
        "time_position": 1789088293,
        "last_contact": 1789088293,
        "baro_altitude": 2499.36,
        "on_ground": false,
        "velocity": 134.58,
        "true_track": 219.1,
        "vertical_rate": 10.73,
        "geo_altitude": 2598.42,
        "squawk": "1000",
        "spi": false,
        "position_source": 0
      }
    },
    {
      "type": "Feature",
      "geometry": {
        "type": "Point",
        "coordinates": [
          15.8053,
          41.6139
        ]
      },
      "properties": {
        "icao24": "4d24d5",
        "callsign": "WMT892",
        "origin_country": "Malta",
        "time_position": 1789088293,
        "last_contact": 1789088293,
        "baro_altitude": 9745.98,
        "on_ground": false,
        "velocity": 236.34,
        "true_track": 302.38,
        "vertical_rate": 0.33,
        "geo_altitude": 10271.76,
        "squawk": null,
        "spi": false,
        "position_source": 0
      }
    },
    {
      "type": "Feature",
      "geometry": {
        "type": "Point",
        "coordinates": [
          17.9381,
          46.6942
        ]
      },
      "properties": {
        "icao24": "010292",
        "callsign": "MSC2968",
        "origin_country": "Egypt",
        "time_position": 1789088293,
        "last_contact": 1789088293,
        "baro_altitude": 11582.4,
        "on_ground": false,
        "velocity": 222.13,
        "true_track": 317.63,
        "vertical_rate": 0,
        "geo_altitude": 12054.84,
        "squawk": "2022",
        "spi": false,
        "position_source": 0
      }
    },
    {
      "type": "Feature",
      "geometry": {
        "type": "Point",
        "coordinates": [
          8.7487,
          45.3706
        ]
      },
      "properties": {
        "icao24": "3004c2",
        "callsign": "NOS4893",
        "origin_country": "Italy",
        "time_position": 1789088294,
        "last_contact": 1789088294,
        "baro_altitude": 1417.32,
        "on_ground": false,
        "velocity": 119.41,
        "true_track": 18.59,
        "vertical_rate": -3.9,
        "geo_altitude": 1508.76,
        "squawk": "2035",
        "spi": false,
        "position_source": 0
      }
    },
    {
      "type": "Feature",
      "geometry": {
        "type": "Point",
        "coordinates": [
          7.6743,
          40.9002
        ]
      },
      "properties": {
        "icao24": "4d23c4",
        "callsign": "GTR1542",
        "origin_country": "Malta",
        "time_position": 1789088293,
        "last_contact": 1789088293,
        "baro_altitude": 11582.4,
        "on_ground": false,
        "velocity": 231.26,
        "true_track": 274.72,
        "vertical_rate": 0,
        "geo_altitude": 12092.94,
        "squawk": "2341",
        "spi": false,
        "position_source": 0
      }
    },
    {
      "type": "Feature",
      "geometry": {
        "type": "Point",
        "coordinates": [
          17.9827,
          45.1784
        ]
      },
      "properties": {
        "icao24": "4d23ea",
        "callsign": "CXI9X",
        "origin_country": "Malta",
        "time_position": 1789088292,
        "last_contact": 1789088293,
        "baro_altitude": 11277.6,
        "on_ground": false,
        "velocity": 218.92,
        "true_track": 155.42,
        "vertical_rate": -0.33,
        "geo_altitude": 11788.14,
        "squawk": "7637",
        "spi": false,
        "position_source": 0
      }
    },
    {
      "type": "Feature",
      "geometry": {
        "type": "Point",
        "coordinates": [
          11.9391,
          38.618
        ]
      },
      "properties": {
        "icao24": "4cadbe",
        "callsign": "RYR45NP",
        "origin_country": "Ireland",
        "time_position": 1789088293,
        "last_contact": 1789088293,
        "baro_altitude": 11277.6,
        "on_ground": false,
        "velocity": 213.35,
        "true_track": 137.35,
        "vertical_rate": -0.33,
        "geo_altitude": 11856.72,
        "squawk": "0417",
        "spi": false,
        "position_source": 0
      }
    },
    {
      "type": "Feature",
      "geometry": {
        "type": "Point",
        "coordinates": [
          6.08,
          40.3882
        ]
      },
      "properties": {
        "icao24": "4d2420",
        "callsign": "WMT5320",
        "origin_country": "Malta",
        "time_position": 1789088293,
        "last_contact": 1789088293,
        "baro_altitude": 10972.8,
        "on_ground": false,
        "velocity": 235.89,
        "true_track": 74.57,
        "vertical_rate": 0,
        "geo_altitude": 11498.58,
        "squawk": "1000",
        "spi": false,
        "position_source": 0
      }
    },
    {
      "type": "Feature",
      "geometry": {
        "type": "Point",
        "coordinates": [
          7.6647,
          44.2288
        ]
      },
      "properties": {
        "icao24": "4cadf6",
        "callsign": "RYR94CD",
        "origin_country": "Ireland",
        "time_position": 1789088292,
        "last_contact": 1789088293,
        "baro_altitude": 10972.8,
        "on_ground": false,
        "velocity": 252.98,
        "true_track": 236.7,
        "vertical_rate": 0,
        "geo_altitude": 11414.76,
        "squawk": "1000",
        "spi": false,
        "position_source": 0
      }
    },
    {
      "type": "Feature",
      "geometry": {
        "type": "Point",
        "coordinates": [
          12.1943,
          41.892
        ]
      },
      "properties": {
        "icao24": "4d248e",
        "callsign": "WMT7KN",
        "origin_country": "Malta",
        "time_position": 1789088293,
        "last_contact": 1789088293,
        "baro_altitude": 472.44,
        "on_ground": false,
        "velocity": 87.86,
        "true_track": 162.63,
        "vertical_rate": -3.9,
        "geo_altitude": 548.64,
        "squawk": "4136",
        "spi": false,
        "position_source": 0
      }
    },
    {
      "type": "Feature",
      "geometry": {
        "type": "Point",
        "coordinates": [
          16.1583,
          39.512
        ]
      },
      "properties": {
        "icao24": "4cae64",
        "callsign": "RYR28QD",
        "origin_country": "Ireland",
        "time_position": 1789088293,
        "last_contact": 1789088293,
        "baro_altitude": 11277.6,
        "on_ground": false,
        "velocity": 229.56,
        "true_track": 175.76,
        "vertical_rate": 0.33,
        "geo_altitude": 11864.34,
        "squawk": "4134",
        "spi": false,
        "position_source": 0
      }
    },
    {
      "type": "Feature",
      "geometry": {
        "type": "Point",
        "coordinates": [
          8.9106,
          45.0945
        ]
      },
      "properties": {
        "icao24": "4cae62",
        "callsign": "RYR6LW",
        "origin_country": "Ireland",
        "time_position": 1789088293,
        "last_contact": 1789088293,
        "baro_altitude": 2865.12,
        "on_ground": false,
        "velocity": 136.31,
        "true_track": 344.23,
        "vertical_rate": -3.9,
        "geo_altitude": 2994.66,
        "squawk": "7222",
        "spi": false,
        "position_source": 0
      }
    },
    {
      "type": "Feature",
      "geometry": {
        "type": "Point",
        "coordinates": [
          16.1969,
          45.827
        ]
      },
      "properties": {
        "icao24": "4d22b9",
        "callsign": "RYR64GG",
        "origin_country": "Malta",
        "time_position": 1789088202,
        "last_contact": 1789088214,
        "baro_altitude": 701.04,
        "on_ground": false,
        "velocity": 94.62,
        "true_track": 226.76,
        "vertical_rate": -4.88,
        "geo_altitude": 800.1,
        "squawk": "1000",
        "spi": false,
        "position_source": 0
      }
    },
    {
      "type": "Feature",
      "geometry": {
        "type": "Point",
        "coordinates": [
          12.126,
          46.4621
        ]
      },
      "properties": {
        "icao24": "4cae9d",
        "callsign": "RYR98RQ",
        "origin_country": "Ireland",
        "time_position": 1789088292,
        "last_contact": 1789088293,
        "baro_altitude": 11277.6,
        "on_ground": false,
        "velocity": 212.47,
        "true_track": 179.58,
        "vertical_rate": -0.33,
        "geo_altitude": 11643.36,
        "squawk": "0730",
        "spi": false,
        "position_source": 0
      }
    },
    {
      "type": "Feature",
      "geometry": {
        "type": "Point",
        "coordinates": [
          10.3915,
          42.7097
        ]
      },
      "properties": {
        "icao24": "4d21ea",
        "callsign": "RYR5DN",
        "origin_country": "Malta",
        "time_position": 1789088293,
        "last_contact": 1789088294,
        "baro_altitude": 9753.6,
        "on_ground": false,
        "velocity": 243.7,
        "true_track": 18.59,
        "vertical_rate": 0,
        "geo_altitude": 10195.56,
        "squawk": "7403",
        "spi": false,
        "position_source": 0
      }
    },
    {
      "type": "Feature",
      "geometry": {
        "type": "Point",
        "coordinates": [
          16.2102,
          43.1981
        ]
      },
      "properties": {
        "icao24": "4c01eb",
        "callsign": "ASL14C",
        "origin_country": "Serbia",
        "time_position": 1789088293,
        "last_contact": 1789088293,
        "baro_altitude": 10050.78,
        "on_ground": false,
        "velocity": 249.46,
        "true_track": 55.16,
        "vertical_rate": 0.33,
        "geo_altitude": 10568.94,
        "squawk": "2205",
        "spi": false,
        "position_source": 0
      }
    },
    {
      "type": "Feature",
      "geometry": {
        "type": "Point",
        "coordinates": [
          7.3508,
          43.5309
        ]
      },
      "properties": {
        "icao24": "4d2245",
        "callsign": "RYR7CE",
        "origin_country": "Malta",
        "time_position": 1789088293,
        "last_contact": 1789088293,
        "baro_altitude": 9753.6,
        "on_ground": false,
        "velocity": 240.82,
        "true_track": 45.35,
        "vertical_rate": -0.33,
        "geo_altitude": 10172.7,
        "squawk": "1000",
        "spi": false,
        "position_source": 0
      }
    },
    {
      "type": "Feature",
      "geometry": {
        "type": "Point",
        "coordinates": [
          13.3513,
          43.594
        ]
      },
      "properties": {
        "icao24": "4d2216",
        "callsign": "RYR8KM",
        "origin_country": "Malta",
        "time_position": 1789088293,
        "last_contact": 1789088293,
        "baro_altitude": 11277.6,
        "on_ground": false,
        "velocity": 226.66,
        "true_track": 140.71,
        "vertical_rate": 0,
        "geo_altitude": 11765.28,
        "squawk": "0511",
        "spi": false,
        "position_source": 0
      }
    },
    {
      "type": "Feature",
      "geometry": {
        "type": "Point",
        "coordinates": [
          11.5579,
          36.0359
        ]
      },
      "properties": {
        "icao24": "710059",
        "callsign": "SVA342",
        "origin_country": "Saudi Arabia",
        "time_position": 1789088293,
        "last_contact": 1789088293,
        "baro_altitude": 11277.6,
        "on_ground": false,
        "velocity": 258.31,
        "true_track": 95.26,
        "vertical_rate": 0,
        "geo_altitude": 11879.58,
        "squawk": "4117",
        "spi": false,
        "position_source": 0
      }
    },
    {
      "type": "Feature",
      "geometry": {
        "type": "Point",
        "coordinates": [
          17.6707,
          46.1184
        ]
      },
      "properties": {
        "icao24": "408352",
        "callsign": "EXS1470",
        "origin_country": "United Kingdom",
        "time_position": 1789088293,
        "last_contact": 1789088293,
        "baro_altitude": 10370.82,
        "on_ground": false,
        "velocity": 223.36,
        "true_track": 302.3,
        "vertical_rate": 0,
        "geo_altitude": 10843.26,
        "squawk": "7730",
        "spi": false,
        "position_source": 0
      }
    },
    {
      "type": "Feature",
      "geometry": {
        "type": "Point",
        "coordinates": [
          15.2017,
          37.3186
        ]
      },
      "properties": {
        "icao24": "4d207d",
        "callsign": "RYR48ML",
        "origin_country": "Malta",
        "time_position": 1789088182,
        "last_contact": 1789088182,
        "baro_altitude": 899.16,
        "on_ground": false,
        "velocity": 118.26,
        "true_track": 94.99,
        "vertical_rate": 0.33,
        "geo_altitude": 1013.46,
        "squawk": "7455",
        "spi": false,
        "position_source": 0
      }
    },
    {
      "type": "Feature",
      "geometry": {
        "type": "Point",
        "coordinates": [
          6.8152,
          46.2371
        ]
      },
      "properties": {
        "icao24": "451dbd",
        "callsign": "BCS2204",
        "origin_country": "Bulgaria",
        "time_position": 1789088293,
        "last_contact": 1789088293,
        "baro_altitude": 10370.82,
        "on_ground": false,
        "velocity": 192,
        "true_track": 311.85,
        "vertical_rate": 0,
        "geo_altitude": 10767.06,
        "squawk": "5761",
        "spi": false,
        "position_source": 0
      }
    },
    {
      "type": "Feature",
      "geometry": {
        "type": "Point",
        "coordinates": [
          16.063,
          40.8635
        ]
      },
      "properties": {
        "icao24": "4d2007",
        "callsign": "WMT2507",
        "origin_country": "Malta",
        "time_position": 1789088290,
        "last_contact": 1789088292,
        "baro_altitude": 10972.8,
        "on_ground": false,
        "velocity": 211.41,
        "true_track": 290.07,
        "vertical_rate": -0.33,
        "geo_altitude": 11551.92,
        "squawk": "5515",
        "spi": false,
        "position_source": 0
      }
    },
    {
      "type": "Feature",
      "geometry": {
        "type": "Point",
        "coordinates": [
          12.2148,
          41.8432
        ]
      },
      "properties": {
        "icao24": "4caa59",
        "callsign": "RYR7887",
        "origin_country": "Ireland",
        "time_position": 1789088205,
        "last_contact": 1789088211,
        "baro_altitude": 167.64,
        "on_ground": false,
        "velocity": 68.99,
        "true_track": 162.65,
        "vertical_rate": -3.25,
        "geo_altitude": 236.22,
        "squawk": "2256",
        "spi": false,
        "position_source": 0
      }
    }
  ]
}