{
  "type": "FeatureCollection",
  "source": "opensky",
  "dataset": "aircraft_italy",
  "generated_at": "2026-08-02T00:04:48.130290+00:00",
  "opensky_time": 1785629078,
  "count": 131,
  "features": [
    {
      "type": "Feature",
      "geometry": {
        "type": "Point",
        "coordinates": [
          16.5158,
          47.7807
        ]
      },
      "properties": {
        "icao24": "4bc8c8",
        "callsign": "PGT69QK",
        "origin_country": "Turkey",
        "time_position": 1785629077,
        "last_contact": 1785629077,
        "baro_altitude": 10965.18,
        "on_ground": false,
        "velocity": 228.08,
        "true_track": 288.27,
        "vertical_rate": -0.33,
        "geo_altitude": 11551.92,
        "squawk": "5355",
        "spi": false,
        "position_source": 0
      }
    },
    {
      "type": "Feature",
      "geometry": {
        "type": "Point",
        "coordinates": [
          18.4417,
          45.6801
        ]
      },
      "properties": {
        "icao24": "471efe",
        "callsign": "WMT726",
        "origin_country": "Hungary",
        "time_position": 1785629077,
        "last_contact": 1785629077,
        "baro_altitude": 11292.84,
        "on_ground": false,
        "velocity": 231.25,
        "true_track": 163.06,
        "vertical_rate": 0,
        "geo_altitude": 11902.44,
        "squawk": "0217",
        "spi": false,
        "position_source": 0
      }
    },
    {
      "type": "Feature",
      "geometry": {
        "type": "Point",
        "coordinates": [
          16.0985,
          46.8919
        ]
      },
      "properties": {
        "icao24": "471eff",
        "callsign": "WZZ50HD",
        "origin_country": "Hungary",
        "time_position": 1785629077,
        "last_contact": 1785629077,
        "baro_altitude": 11269.98,
        "on_ground": false,
        "velocity": 226.85,
        "true_track": 6.64,
        "vertical_rate": 0,
        "geo_altitude": 11864.34,
        "squawk": "0217",
        "spi": false,
        "position_source": 0
      }
    },
    {
      "type": "Feature",
      "geometry": {
        "type": "Point",
        "coordinates": [
          17.6426,
          39.1697
        ]
      },
      "properties": {
        "icao24": "801666",
        "callsign": "AIC11E",
        "origin_country": "India",
        "time_position": 1785629077,
        "last_contact": 1785629077,
        "baro_altitude": 11887.2,
        "on_ground": false,
        "velocity": 256.65,
        "true_track": 121.14,
        "vertical_rate": -0.33,
        "geo_altitude": 12512.04,
        "squawk": "0205",
        "spi": false,
        "position_source": 0
      }
    },
    {
      "type": "Feature",
      "geometry": {
        "type": "Point",
        "coordinates": [
          9.7548,
          40.5779
        ]
      },
      "properties": {
        "icao24": "a51a9c",
        "callsign": "N428P",
        "origin_country": "United States",
        "time_position": 1785628954,
        "last_contact": 1785628958,
        "baro_altitude": 3573.78,
        "on_ground": false,
        "velocity": 175.6,
        "true_track": 12.69,
        "vertical_rate": -9.75,
        "geo_altitude": 3855.72,
        "squawk": "7045",
        "spi": false,
        "position_source": 0
      }
    },
    {
      "type": "Feature",
      "geometry": {
        "type": "Point",
        "coordinates": [
          6.6944,
          45.2208
        ]
      },
      "properties": {
        "icao24": "471f70",
        "callsign": "WZZ671",
        "origin_country": "Hungary",
        "time_position": 1785629077,
        "last_contact": 1785629077,
        "baro_altitude": 10972.8,
        "on_ground": false,
        "velocity": 237.17,
        "true_track": 23.12,
        "vertical_rate": 0,
        "geo_altitude": 11567.16,
        "squawk": "1000",
        "spi": false,
        "position_source": 0
      }
    },
    {
      "type": "Feature",
      "geometry": {
        "type": "Point",
        "coordinates": [
          17.8667,
          42.7091
        ]
      },
      "properties": {
        "icao24": "471f06",
        "callsign": "WMT1BF",
        "origin_country": "Hungary",
        "time_position": 1785629077,
        "last_contact": 1785629077,
        "baro_altitude": 10675.62,
        "on_ground": false,
        "velocity": 243.44,
        "true_track": 120.2,
        "vertical_rate": 0,
        "geo_altitude": 11262.36,
        "squawk": "0254",
        "spi": false,
        "position_source": 0
      }
    },
    {
      "type": "Feature",
      "geometry": {
        "type": "Point",
        "coordinates": [
          16.2747,
          45.2442
        ]
      },
      "properties": {
        "icao24": "471fad",
        "callsign": "WZZ86YZ",
        "origin_country": "Hungary",
        "time_position": 1785629077,
        "last_contact": 1785629077,
        "baro_altitude": 10370.82,
        "on_ground": false,
        "velocity": 232.04,
        "true_track": 84.53,
        "vertical_rate": 0,
        "geo_altitude": 10934.7,
        "squawk": "0436",
        "spi": false,
        "position_source": 0
      }
    },
    {
      "type": "Feature",
      "geometry": {
        "type": "Point",
        "coordinates": [
          7.8469,
          43.2731
        ]
      },
      "properties": {
        "icao24": "3e4458",
        "callsign": "XGO3MN",
        "origin_country": "Germany",
        "time_position": 1785629076,
        "last_contact": 1785629076,
        "baro_altitude": 3787.14,
        "on_ground": false,
        "velocity": 156.91,
        "true_track": 280.39,
        "vertical_rate": -5.53,
        "geo_altitude": 4015.74,
        "squawk": "3701",
        "spi": false,
        "position_source": 0
      }
    },
    {
      "type": "Feature",
      "geometry": {
        "type": "Point",
        "coordinates": [
          6.5324,
          45.1566
        ]
      },
      "properties": {
        "icao24": "801859",
        "callsign": "AIC188",
        "origin_country": "India",
        "time_position": 1785629077,
        "last_contact": 1785629077,
        "baro_altitude": 11269.98,
        "on_ground": false,
        "velocity": 249.24,
        "true_track": 105.44,
        "vertical_rate": 0,
        "geo_altitude": 11894.82,
        "squawk": "2372",
        "spi": false,
        "position_source": 0
      }
    },
    {
      "type": "Feature",
      "geometry": {
        "type": "Point",
        "coordinates": [
          13.755,
          39.6119
        ]
      },
      "properties": {
        "icao24": "738059",
        "callsign": "ELY292",
        "origin_country": "Israel",
        "time_position": 1785629077,
        "last_contact": 1785629077,
        "baro_altitude": 10668,
        "on_ground": false,
        "velocity": 246.94,
        "true_track": 103.37,
        "vertical_rate": 0,
        "geo_altitude": 11277.6,
        "squawk": "1410",
        "spi": false,
        "position_source": 0
      }
    },
    {
      "type": "Feature",
      "geometry": {
        "type": "Point",
        "coordinates": [
          8.7489,
          41.8378
        ]
      },
      "properties": {
        "icao24": "39dd40",
        "callsign": "CCM84FY",
        "origin_country": "France",
        "time_position": 1785628869,
        "last_contact": 1785628869,
        "baro_altitude": 487.68,
        "on_ground": false,
        "velocity": 77.57,
        "true_track": 24.7,
        "vertical_rate": -3.9,
        "geo_altitude": 571.5,
        "squawk": "1000",
        "spi": false,
        "position_source": 0
      }
    },
    {
      "type": "Feature",
      "geometry": {
        "type": "Point",
        "coordinates": [
          12.5915,
          44.6871
        ]
      },
      "properties": {
        "icao24": "440198",
        "callsign": "EJU67TU",
        "origin_country": "Austria",
        "time_position": 1785629077,
        "last_contact": 1785629077,
        "baro_altitude": 10363.2,
        "on_ground": false,
        "velocity": 232.62,
        "true_track": 295.83,
        "vertical_rate": -0.33,
        "geo_altitude": 10942.32,
        "squawk": "6630",
        "spi": false,
        "position_source": 0
      }
    },
    {
      "type": "Feature",
      "geometry": {
        "type": "Point",
        "coordinates": [
          14.2792,
          41.6207
        ]
      },
      "properties": {
        "icao24": "440128",
        "callsign": "EJU48TR",
        "origin_country": "Austria",
        "time_position": 1785629077,
        "last_contact": 1785629077,
        "baro_altitude": 10965.18,
        "on_ground": false,
        "velocity": 228.22,
        "true_track": 292.11,
        "vertical_rate": 0,
        "geo_altitude": 11590.02,
        "squawk": "2044",
        "spi": false,
        "position_source": 0
      }
    },
    {
      "type": "Feature",
      "geometry": {
        "type": "Point",
        "coordinates": [
          17.5014,
          47.2875
        ]
      },
      "properties": {
        "icao24": "4bb2b2",
        "callsign": "TKJ3MQ",
        "origin_country": "Turkey",
        "time_position": 1785629077,
        "last_contact": 1785629077,
        "baro_altitude": 10660.38,
        "on_ground": false,
        "velocity": 233.62,
        "true_track": 118.26,
        "vertical_rate": 0,
        "geo_altitude": 11239.5,
        "squawk": "2266",
        "spi": false,
        "position_source": 0
      }
    },
    {
      "type": "Feature",
      "geometry": {
        "type": "Point",
        "coordinates": [
          14.4885,
          44.9226
        ]
      },
      "properties": {
        "icao24": "7380c0",
        "callsign": "ELY003",
        "origin_country": "Israel",
        "time_position": 1785629077,
        "last_contact": 1785629077,
        "baro_altitude": 10363.2,
        "on_ground": false,
        "velocity": 259.71,
        "true_track": 294.33,
        "vertical_rate": -0.33,
        "geo_altitude": 10934.7,
        "squawk": "5607",
        "spi": false,
        "position_source": 0
      }
    },
    {
      "type": "Feature",
      "geometry": {
        "type": "Point",
        "coordinates": [
          6.6558,
          45.3403
        ]
      },
      "properties": {
        "icao24": "345613",
        "callsign": "VOE2047",
        "origin_country": "Spain",
        "time_position": 1785629077,
        "last_contact": 1785629077,
        "baro_altitude": 6949.44,
        "on_ground": false,
        "velocity": 168.38,
        "true_track": 288.16,
        "vertical_rate": -8.13,
        "geo_altitude": 7383.78,
        "squawk": "1000",
        "spi": false,
        "position_source": 0
      }
    },
    {
      "type": "Feature",
      "geometry": {
        "type": "Point",
        "coordinates": [
          7.7277,
          45.0201
        ]
      },
      "properties": {
        "icao24": "34660e",
        "callsign": "VOE2827",
        "origin_country": "Spain",
        "time_position": 1785629077,
        "last_contact": 1785629078,
        "baro_altitude": 10561.32,
        "on_ground": false,
        "velocity": 212.19,
        "true_track": 292.52,
        "vertical_rate": -4.55,
        "geo_altitude": 11148.06,
        "squawk": "1000",
        "spi": false,
        "position_source": 0
      }
    },
    {
      "type": "Feature",
      "geometry": {
        "type": "Point",
        "coordinates": [
          18.1802,
          47.2482
        ]
      },
      "properties": {
        "icao24": "4bb20b",
        "callsign": "THY7QN",
        "origin_country": "Turkey",
        "time_position": 1785629077,
        "last_contact": 1785629077,
        "baro_altitude": 10668,
        "on_ground": false,
        "velocity": 232.6,
        "true_track": 124.64,
        "vertical_rate": 0.33,
        "geo_altitude": 11239.5,
        "squawk": "3401",
        "spi": false,
        "position_source": 0
      }
    },
    {
      "type": "Feature",
      "geometry": {
        "type": "Point",
        "coordinates": [
          6.4439,
          40.3691
        ]
      },
      "properties": {
        "icao24": "4bb152",
        "callsign": "THY6470",
        "origin_country": "Turkey",
        "time_position": 1785629077,
        "last_contact": 1785629077,
        "baro_altitude": 11582.4,
        "on_ground": false,
        "velocity": 268.57,
        "true_track": 78.73,
        "vertical_rate": 0,
        "geo_altitude": 12214.86,
        "squawk": "1442",
        "spi": false,
        "position_source": 0
      }
    },
    {
      "type": "Feature",
      "geometry": {
        "type": "Point",
        "coordinates": [
          18.1469,
          46.3671
        ]
      },
      "properties": {
        "icao24": "4b8750",
        "callsign": "PGT7122",
        "origin_country": "Turkey",
        "time_position": 1785629077,
        "last_contact": 1785629077,
        "baro_altitude": 11887.2,
        "on_ground": false,
        "velocity": 237.66,
        "true_track": 128.41,
        "vertical_rate": 0,
        "geo_altitude": 12504.42,
        "squawk": "6406",
        "spi": false,
        "position_source": 0
      }
    },
    {
      "type": "Feature",
      "geometry": {
        "type": "Point",
        "coordinates": [
          17.6743,
          37.4631
        ]
      },
      "properties": {
        "icao24": "3a2e23",
        "callsign": "REU972",
        "origin_country": "France",
        "time_position": 1785629077,
        "last_contact": 1785629077,
        "baro_altitude": 9448.8,
        "on_ground": false,
        "velocity": 271.76,
        "true_track": 135.84,
        "vertical_rate": 0,
        "geo_altitude": 9921.24,
        "squawk": "7625",
        "spi": false,
        "position_source": 0
      }
    },
    {
      "type": "Feature",
      "geometry": {
        "type": "Point",
        "coordinates": [
          10.8545,
          35.3988
        ]
      },
      "properties": {
        "icao24": "018047",
        "callsign": "5AONI",
        "origin_country": "Libyan Arab Jamahiriya",
        "time_position": 1785629077,
        "last_contact": 1785629077,
        "baro_altitude": 10058.4,
        "on_ground": false,
        "velocity": 227.06,
        "true_track": 159.72,
        "vertical_rate": 0,
        "geo_altitude": 10675.62,
        "squawk": "6155",
        "spi": false,
        "position_source": 0
      }
    },
    {
      "type": "Feature",
      "geometry": {
        "type": "Point",
        "coordinates": [
          14.6095,
          35.2795
        ]
      },
      "properties": {
        "icao24": "4bb074",
        "callsign": "THY3KA",
        "origin_country": "Turkey",
        "time_position": 1785629077,
        "last_contact": 1785629077,
        "baro_altitude": 10668,
        "on_ground": false,
        "velocity": 231.99,
        "true_track": 50.31,
        "vertical_rate": -0.33,
        "geo_altitude": 11285.22,
        "squawk": "3141",
        "spi": false,
        "position_source": 0
      }
    },
    {
      "type": "Feature",
      "geometry": {
        "type": "Point",
        "coordinates": [
          18.9121,
          45.9237
        ]
      },
      "properties": {
        "icao24": "896620",
        "callsign": "UAE78P",
        "origin_country": "United Arab Emirates",
        "time_position": 1785629076,
        "last_contact": 1785629077,
        "baro_altitude": 11887.2,
        "on_ground": false,
        "velocity": 254.28,
        "true_track": 135.25,
        "vertical_rate": -0.33,
        "geo_altitude": 12489.18,
        "squawk": "2234",
        "spi": false,
        "position_source": 0
      }
    },
    {
      "type": "Feature",
      "geometry": {
        "type": "Point",
        "coordinates": [
          9.4505,
          36.7586
        ]
      },
      "properties": {
        "icao24": "34644b",
        "callsign": "IBS1904",
        "origin_country": "Spain",
        "time_position": 1785629076,
        "last_contact": 1785629077,
        "baro_altitude": 10355.58,
        "on_ground": false,
        "velocity": 220.84,
        "true_track": 277.09,
        "vertical_rate": 0,
        "geo_altitude": 10988.04,
        "squawk": "2014",
        "spi": false,
        "position_source": 0
      }
    },
    {
      "type": "Feature",
      "geometry": {
        "type": "Point",
        "coordinates": [
          18.1007,
          46.2924
        ]
      },
      "properties": {
        "icao24": "4b990b",
        "callsign": "FHY1366",
        "origin_country": "Turkey",
        "time_position": 1785629077,
        "last_contact": 1785629078,
        "baro_altitude": 10675.62,
        "on_ground": false,
        "velocity": 230.39,
        "true_track": 133.1,
        "vertical_rate": 0.33,
        "geo_altitude": 11247.12,
        "squawk": "7661",
        "spi": false,
        "position_source": 0
      }
    },
    {
      "type": "Feature",
      "geometry": {
        "type": "Point",
        "coordinates": [
          13.6435,
          39.1376
        ]
      },
      "properties": {
        "icao24": "4b8562",
        "callsign": "TCAKB",
        "origin_country": "Turkey",
        "time_position": 1785629077,
        "last_contact": 1785629077,
        "baro_altitude": 13716,
        "on_ground": false,
        "velocity": 231.57,
        "true_track": 96.76,
        "vertical_rate": 0,
        "geo_altitude": 14409.42,
        "squawk": "1275",
        "spi": false,
        "position_source": 0
      }
    },
    {
      "type": "Feature",
      "geometry": {
        "type": "Point",
        "coordinates": [
          10.2091,
          47.6354
        ]
      },
      "properties": {
        "icao24": "406666",
        "callsign": "EZY34PE",
        "origin_country": "United Kingdom",
        "time_position": 1785629077,
        "last_contact": 1785629077,
        "baro_altitude": 10363.2,
        "on_ground": false,
        "velocity": 223.52,
        "true_track": 321.92,
        "vertical_rate": 0,
        "geo_altitude": 10942.32,
        "squawk": "3114",
        "spi": false,
        "position_source": 0
      }
    },
    {
      "type": "Feature",
      "geometry": {
        "type": "Point",
        "coordinates": [
          13.499,
          45.6115
        ]
      },
      "properties": {
        "icao24": "400ff4",
        "callsign": "TOM2KA",
        "origin_country": "United Kingdom",
        "time_position": 1785629077,
        "last_contact": 1785629077,
        "baro_altitude": 11582.4,
        "on_ground": false,
        "velocity": 232.83,
        "true_track": 315.72,
        "vertical_rate": 0,
        "geo_altitude": 12169.14,
        "squawk": "0536",
        "spi": false,
        "position_source": 0
      }
    },
    {
      "type": "Feature",
      "geometry": {
        "type": "Point",
        "coordinates": [
          9.0408,
          41.6744
        ]
      },
      "properties": {
        "icao24": "400fe0",
        "callsign": "EZY25CQ",
        "origin_country": "United Kingdom",
        "time_position": 1785629077,
        "last_contact": 1785629077,
        "baro_altitude": 11582.4,
        "on_ground": false,
        "velocity": 236.29,
        "true_track": 328.35,
        "vertical_rate": -0.33,
        "geo_altitude": 12214.86,
        "squawk": "6576",
        "spi": false,
        "position_source": 0
      }
    },
    {
      "type": "Feature",
      "geometry": {
        "type": "Point",
        "coordinates": [
          16.3158,
          35.8591
        ]
      },
      "properties": {
        "icao24": "040188",
        "callsign": "ETH741",
        "origin_country": "Ethiopia",
        "time_position": 1785629077,
        "last_contact": 1785629077,
        "baro_altitude": 10660.38,
        "on_ground": false,
        "velocity": 263.85,
        "true_track": 100.67,
        "vertical_rate": -0.33,
        "geo_altitude": 11239.5,
        "squawk": "4107",
        "spi": false,
        "position_source": 0
      }
    },
    {
      "type": "Feature",
      "geometry": {
        "type": "Point",
        "coordinates": [
          7.2473,
          43.4041
        ]
      },
      "properties": {
        "icao24": "4ca4f5",
        "callsign": "RYR55BJ",
        "origin_country": "Ireland",
        "time_position": 1785629077,
        "last_contact": 1785629077,
        "baro_altitude": 10957.56,
        "on_ground": false,
        "velocity": 225,
        "true_track": 60.86,
        "vertical_rate": -3.58,
        "geo_altitude": 11529.06,
        "squawk": "1000",
        "spi": false,
        "position_source": 0
      }
    },
    {
      "type": "Feature",
      "geometry": {
        "type": "Point",
        "coordinates": [
          9.8361,
          41.2165
        ]
      },
      "properties": {
        "icao24": "4ca56d",
        "callsign": "RYR54SE",
        "origin_country": "Ireland",
        "time_position": 1785629077,
        "last_contact": 1785629077,
        "baro_altitude": 10058.4,
        "on_ground": false,
        "velocity": 219.23,
        "true_track": 256.29,
        "vertical_rate": 0,
        "geo_altitude": 10622.28,
        "squawk": "1000",
        "spi": false,
        "position_source": 0
      }
    },
    {
      "type": "Feature",
      "geometry": {
        "type": "Point",
        "coordinates": [
          15.8209,
          36.6278
        ]
      },
      "properties": {
        "icao24": "4ba9ca",
        "callsign": "THY1CT",
        "origin_country": "Turkey",
        "time_position": 1785629077,
        "last_contact": 1785629077,
        "baro_altitude": 11582.4,
        "on_ground": false,
        "velocity": 254.16,
        "true_track": 232.32,
        "vertical_rate": 0,
        "geo_altitude": 12222.48,
        "squawk": "2321",
        "spi": false,
        "position_source": 0
      }
    },
    {
      "type": "Feature",
      "geometry": {
        "type": "Point",
        "coordinates": [
          10.0173,
          42.3811
        ]
      },
      "properties": {
        "icao24": "040046",
        "callsign": "ETH575",
        "origin_country": "Ethiopia",
        "time_position": 1785629077,
        "last_contact": 1785629077,
        "baro_altitude": 11887.2,
        "on_ground": false,
        "velocity": 264.88,
        "true_track": 124.96,
        "vertical_rate": 0,
        "geo_altitude": 12527.28,
        "squawk": "1170",
        "spi": false,
        "position_source": 0
      }
    },
    {
      "type": "Feature",
      "geometry": {
        "type": "Point",
        "coordinates": [
          15.848,
          44.5889
        ]
      },
      "properties": {
        "icao24": "502d28",
        "callsign": "BTI8CH",
        "origin_country": "Latvia",
        "time_position": 1785629076,
        "last_contact": 1785629077,
        "baro_altitude": 11582.4,
        "on_ground": false,
        "velocity": 239.53,
        "true_track": 2.95,
        "vertical_rate": 0,
        "geo_altitude": 12184.38,
        "squawk": "6563",
        "spi": false,
        "position_source": 0
      }
    },
    {
      "type": "Feature",
      "geometry": {
        "type": "Point",
        "coordinates": [
          12.3766,
          45.0272
        ]
      },
      "properties": {
        "icao24": "06a30a",
        "callsign": "QTR31T",
        "origin_country": "Qatar",
        "time_position": 1785629077,
        "last_contact": 1785629077,
        "baro_altitude": 10972.8,
        "on_ground": false,
        "velocity": 248.91,
        "true_track": 288.81,
        "vertical_rate": -0.33,
        "geo_altitude": 11559.54,
        "squawk": "2062",
        "spi": false,
        "position_source": 0
      }
    },
    {
      "type": "Feature",
      "geometry": {
        "type": "Point",
        "coordinates": [
          11.6586,
          46.2216
        ]
      },
      "properties": {
        "icao24": "49d418",
        "callsign": "TVS2063",
        "origin_country": "Czech Republic",
        "time_position": 1785629077,
        "last_contact": 1785629077,
        "baro_altitude": 10972.8,
        "on_ground": false,
        "velocity": 236,
        "true_track": 24.33,
        "vertical_rate": 0,
        "geo_altitude": 11567.16,
        "squawk": "1000",
        "spi": false,
        "position_source": 0
      }
    },
    {
      "type": "Feature",
      "geometry": {
        "type": "Point",
        "coordinates": [
          17.4428,
          47.7022
        ]
      },
      "properties": {
        "icao24": "49d414",
        "callsign": "TVS2623",
        "origin_country": "Czech Republic",
        "time_position": 1785629077,
        "last_contact": 1785629077,
        "baro_altitude": 9753.6,
        "on_ground": false,
        "velocity": 220.85,
        "true_track": 300.21,
        "vertical_rate": -1.63,
        "geo_altitude": 10287,
        "squawk": "5301",
        "spi": false,
        "position_source": 0
      }
    },
    {
      "type": "Feature",
      "geometry": {
        "type": "Point",
        "coordinates": [
          17.2245,
          47.3926
        ]
      },
      "properties": {
        "icao24": "49d42b",
        "callsign": "TVS32V",
        "origin_country": "Czech Republic",
        "time_position": 1785629076,
        "last_contact": 1785629077,
        "baro_altitude": 10058.4,
        "on_ground": false,
        "velocity": 240.89,
        "true_track": 140.63,
        "vertical_rate": 0,
        "geo_altitude": 10607.04,
        "squawk": "5216",
        "spi": false,
        "position_source": 0
      }
    },
    {
      "type": "Feature",
      "geometry": {
        "type": "Point",
        "coordinates": [
          6.2691,
          47.1128
        ]
      },
      "properties": {
        "icao24": "49d1c6",
        "callsign": "EWG09NC",
        "origin_country": "Czech Republic",
        "time_position": 1785629076,
        "last_contact": 1785629077,
        "baro_altitude": 10972.8,
        "on_ground": false,
        "velocity": 236.26,
        "true_track": 358.13,
        "vertical_rate": 0,
        "geo_altitude": 11544.3,
        "squawk": "5315",
        "spi": false,
        "position_source": 0
      }
    },
    {
      "type": "Feature",
      "geometry": {
        "type": "Point",
        "coordinates": [
          13.7355,
          45.7752
        ]
      },
      "properties": {
        "icao24": "407fea",
        "callsign": "WUK504Y",
        "origin_country": "United Kingdom",
        "time_position": 1785629076,
        "last_contact": 1785629077,
        "baro_altitude": 10980.42,
        "on_ground": false,
        "velocity": 227.79,
        "true_track": 293.84,
        "vertical_rate": -0.33,
        "geo_altitude": 11582.4,
        "squawk": "0506",
        "spi": false,
        "position_source": 0
      }
    },
    {
      "type": "Feature",
      "geometry": {
        "type": "Point",
        "coordinates": [
          11.6493,
          47.3221
        ]
      },
      "properties": {
        "icao24": "407ff4",
        "callsign": "WUK8QH",
        "origin_country": "United Kingdom",
        "time_position": 1785629077,
        "last_contact": 1785629077,
        "baro_altitude": 10988.04,
        "on_ground": false,
        "velocity": 231.3,
        "true_track": 303.02,
        "vertical_rate": 0.33,
        "geo_altitude": 11590.02,
        "squawk": "2212",
        "spi": false,
        "position_source": 0
      }
    },
    {
      "type": "Feature",
      "geometry": {
        "type": "Point",
        "coordinates": [
          13.9593,
          46.6019
        ]
      },
      "properties": {
        "icao24": "406caa",
        "callsign": "EXS6MN",
        "origin_country": "United Kingdom",
        "time_position": 1785629077,
        "last_contact": 1785629077,
        "baro_altitude": 11582.4,
        "on_ground": false,
        "velocity": 226.3,
        "true_track": 305.75,
        "vertical_rate": 0,
        "geo_altitude": 12192,
        "squawk": "7213",
        "spi": false,
        "position_source": 0
      }
    },
    {
      "type": "Feature",
      "geometry": {
        "type": "Point",
        "coordinates": [
          11.7094,
          44.3197
        ]
      },
      "properties": {
        "icao24": "4ca226",
        "callsign": "RYR765L",
        "origin_country": "Ireland",
        "time_position": 1785629077,
        "last_contact": 1785629077,
        "baro_altitude": 11376.66,
        "on_ground": false,
        "velocity": 229.77,
        "true_track": 306.07,
        "vertical_rate": -5.2,
        "geo_altitude": 11986.26,
        "squawk": "1000",
        "spi": false,
        "position_source": 0
      }
    },
    {
      "type": "Feature",
      "geometry": {
        "type": "Point",
        "coordinates": [
          17.9194,
          37.1754
        ]
      },
      "properties": {
        "icao24": "407fff",
        "callsign": "EZY63MD",
        "origin_country": "United Kingdom",
        "time_position": 1785629077,
        "last_contact": 1785629077,
        "baro_altitude": 10972.8,
        "on_ground": false,
        "velocity": 223.72,
        "true_track": 315.28,
        "vertical_rate": 0,
        "geo_altitude": 11536.68,
        "squawk": null,
        "spi": false,
        "position_source": 0
      }
    },
    {
      "type": "Feature",
      "geometry": {
        "type": "Point",
        "coordinates": [
          14.2587,
          46.3845
        ]
      },
      "properties": {
        "icao24": "407e7b",
        "callsign": "TOM81D",
        "origin_country": "United Kingdom",
        "time_position": 1785629076,
        "last_contact": 1785629077,
        "baro_altitude": 10972.8,
        "on_ground": false,
        "velocity": 224.11,
        "true_track": 307.63,
        "vertical_rate": 0,
        "geo_altitude": 11567.16,
        "squawk": "1375",
        "spi": false,
        "position_source": 0
      }
    },
    {
      "type": "Feature",
      "geometry": {
        "type": "Point",
        "coordinates": [
          16.8282,
          42.8564
        ]
      },
      "properties": {
        "icao24": "7448a8",
        "callsign": "RJA121",
        "origin_country": "Jordan",
        "time_position": 1785629077,
        "last_contact": 1785629077,
        "baro_altitude": 10972.8,
        "on_ground": false,
        "velocity": 225.15,
        "true_track": 303.73,
        "vertical_rate": -0.33,
        "geo_altitude": 11559.54,
        "squawk": "5625",
        "spi": false,
        "position_source": 0
      }
    },
    {
      "type": "Feature",
      "geometry": {
        "type": "Point",
        "coordinates": [
          14.3892,
          46.0049
        ]
      },
      "properties": {
        "icao24": "407e71",
        "callsign": "EXS2VM",
        "origin_country": "United Kingdom",
        "time_position": 1785629077,
        "last_contact": 1785629077,
        "baro_altitude": 10972.8,
        "on_ground": false,
        "velocity": 225.56,
        "true_track": 314.08,
        "vertical_rate": 0.33,
        "geo_altitude": 11551.92,
        "squawk": "2060",
        "spi": false,
        "position_source": 0
      }
    },
    {
      "type": "Feature",
      "geometry": {
        "type": "Point",
        "coordinates": [
          15.1958,
          45.867
        ]
      },
      "properties": {
        "icao24": "406b13",
        "callsign": "TOM96B",
        "origin_country": "United Kingdom",
        "time_position": 1785629076,
        "last_contact": 1785629077,
        "baro_altitude": 12184.38,
        "on_ground": false,
        "velocity": 251.15,
        "true_track": 308.51,
        "vertical_rate": -0.33,
        "geo_altitude": 12824.46,
        "squawk": "2052",
        "spi": false,
        "position_source": 0
      }
    },
    {
      "type": "Feature",
      "geometry": {
        "type": "Point",
        "coordinates": [
          14.1752,
          44.587
        ]
      },
      "properties": {
        "icao24": "44079a",
        "callsign": "EJU65WZ",
        "origin_country": "Austria",
        "time_position": 1785629077,
        "last_contact": 1785629077,
        "baro_altitude": 10355.58,
        "on_ground": false,
        "velocity": 240.16,
        "true_track": 309.35,
        "vertical_rate": 0,
        "geo_altitude": 10911.84,
        "squawk": "6623",
        "spi": false,
        "position_source": 0
      }
    },
    {
      "type": "Feature",
      "geometry": {
        "type": "Point",
        "coordinates": [
          12.2053,
          45.8171
        ]
      },
      "properties": {
        "icao24": "407f66",
        "callsign": "EZY52DQ",
        "origin_country": "United Kingdom",
        "time_position": 1785629077,
        "last_contact": 1785629077,
        "baro_altitude": 10957.56,
        "on_ground": false,
        "velocity": 221.35,
        "true_track": 302.47,
        "vertical_rate": -0.33,
        "geo_altitude": 11544.3,
        "squawk": "5312",
        "spi": false,
        "position_source": 0
      }
    },
    {
      "type": "Feature",
      "geometry": {
        "type": "Point",
        "coordinates": [
          12.7518,
          46.7821
        ]
      },
      "properties": {
        "icao24": "48c2a8",
        "callsign": "RYR71TT",
        "origin_country": "Poland",
        "time_position": 1785629077,
        "last_contact": 1785629077,
        "baro_altitude": 11582.4,
        "on_ground": false,
        "velocity": 240.55,
        "true_track": 51.51,
        "vertical_rate": -0.33,
        "geo_altitude": 12192,
        "squawk": "1000",
        "spi": false,
        "position_source": 0
      }
    },
    {
      "type": "Feature",
      "geometry": {
        "type": "Point",
        "coordinates": [
          11.2775,
          44.5363
        ]
      },
      "properties": {
        "icao24": "3e47ba",
        "callsign": null,
        "origin_country": "Germany",
        "time_position": 1785628768,
        "last_contact": 1785628768,
        "baro_altitude": 53.34,
        "on_ground": false,
        "velocity": 1.85,
        "true_track": 146.31,
        "vertical_rate": 0,
        "geo_altitude": 76.2,
        "squawk": null,
        "spi": false,
        "position_source": 0
      }
    },
    {
      "type": "Feature",
      "geometry": {
        "type": "Point",
        "coordinates": [
          15.1715,
          46.1371
        ]
      },
      "properties": {
        "icao24": "49d034",
        "callsign": "TVQ6469",
        "origin_country": "Czech Republic",
        "time_position": 1785629076,
        "last_contact": 1785629077,
        "baro_altitude": 10668,
        "on_ground": false,
        "velocity": 222.28,
        "true_track": 25.5,
        "vertical_rate": 0,
        "geo_altitude": 11239.5,
        "squawk": "6170",
        "spi": false,
        "position_source": 0
      }
    },
    {
      "type": "Feature",
      "geometry": {
        "type": "Point",
        "coordinates": [
          7.018,
          43.5165
        ]
      },
      "properties": {
        "icao24": "440452",
        "callsign": "EJU1746",
        "origin_country": "Austria",
        "time_position": 1785629077,
        "last_contact": 1785629077,
        "baro_altitude": 1150.62,
        "on_ground": false,
        "velocity": 98.6,
        "true_track": 46.06,
        "vertical_rate": -5.2,
        "geo_altitude": 1272.54,
        "squawk": "2260",
        "spi": false,
        "position_source": 0
      }
    },
    {
      "type": "Feature",
      "geometry": {
        "type": "Point",
        "coordinates": [
          13.3567,
          46.4659
        ]
      },
      "properties": {
        "icao24": "407c26",
        "callsign": "TOM701",
        "origin_country": "United Kingdom",
        "time_position": 1785629077,
        "last_contact": 1785629077,
        "baro_altitude": 11582.4,
        "on_ground": false,
        "velocity": 231.71,
        "true_track": 307.15,
        "vertical_rate": 0,
        "geo_altitude": 12192,
        "squawk": "2071",
        "spi": false,
        "position_source": 0
      }
    },
    {
      "type": "Feature",
      "geometry": {
        "type": "Point",
        "coordinates": [
          12.6128,
          44.9404
        ]
      },
      "properties": {
        "icao24": "4402f1",
        "callsign": "EJU12HZ",
        "origin_country": "Austria",
        "time_position": 1785629076,
        "last_contact": 1785629076,
        "baro_altitude": 10363.2,
        "on_ground": false,
        "velocity": 233.8,
        "true_track": 292.78,
        "vertical_rate": 0.33,
        "geo_altitude": 10934.7,
        "squawk": "2003",
        "spi": false,
        "position_source": 0
      }
    },
    {
      "type": "Feature",
      "geometry": {
        "type": "Point",
        "coordinates": [
          13.3241,
          40.7859
        ]
      },
      "properties": {
        "icao24": "4bb86f",
        "callsign": "PGT1742",
        "origin_country": "Turkey",
        "time_position": 1785629077,
        "last_contact": 1785629077,
        "baro_altitude": 11277.6,
        "on_ground": false,
        "velocity": 255.18,
        "true_track": 90.69,
        "vertical_rate": 0,
        "geo_altitude": 11917.68,
        "squawk": "1247",
        "spi": false,
        "position_source": 0
      }
    },
    {
      "type": "Feature",
      "geometry": {
        "type": "Point",
        "coordinates": [
          8.7242,
          45.6448
        ]
      },
      "properties": {
        "icao24": "4402ae",
        "callsign": "EJU54MD",
        "origin_country": "Austria",
        "time_position": 1785628865,
        "last_contact": 1785628865,
        "baro_altitude": null,
        "on_ground": true,
        "velocity": 3.6,
        "true_track": 351.56,
        "vertical_rate": null,
        "geo_altitude": null,
        "squawk": "1000",
        "spi": false,
        "position_source": 0
      }
    },
    {
      "type": "Feature",
      "geometry": {
        "type": "Point",
        "coordinates": [
          8.2657,
          44.2746
        ]
      },
      "properties": {
        "icao24": "4404e6",
        "callsign": "EJU58PR",
        "origin_country": "Austria",
        "time_position": 1785629077,
        "last_contact": 1785629077,
        "baro_altitude": 8442.96,
        "on_ground": false,
        "velocity": 216.53,
        "true_track": 39.02,
        "vertical_rate": -12.03,
        "geo_altitude": 8983.98,
        "squawk": "1000",
        "spi": false,
        "position_source": 0
      }
    },
    {
      "type": "Feature",
      "geometry": {
        "type": "Point",
        "coordinates": [
          7.2142,
          43.6634
        ]
      },
      "properties": {
        "icao24": "4404a4",
        "callsign": "EJU69JX",
        "origin_country": "Austria",
        "time_position": 1785629076,
        "last_contact": 1785629076,
        "baro_altitude": null,
        "on_ground": true,
        "velocity": 9.77,
        "true_track": 230.62,
        "vertical_rate": null,
        "geo_altitude": null,
        "squawk": "5534",
        "spi": false,
        "position_source": 0
      }
    },
    {
      "type": "Feature",
      "geometry": {
        "type": "Point",
        "coordinates": [
          14.1229,
          35.1543
        ]
      },
      "properties": {
        "icao24": "06a0ab",
        "callsign": "QTR42U",
        "origin_country": "Qatar",
        "time_position": 1785629077,
        "last_contact": 1785629077,
        "baro_altitude": 11277.6,
        "on_ground": false,
        "velocity": 269.86,
        "true_track": 113.24,
        "vertical_rate": 0,
        "geo_altitude": 11932.92,
        "squawk": "2214",
        "spi": false,
        "position_source": 0
      }
    },
    {
      "type": "Feature",
      "geometry": {
        "type": "Point",
        "coordinates": [
          8.5651,
          47.4419
        ]
      },
      "properties": {
        "icao24": "4b1802",
        "callsign": "SWISS",
        "origin_country": "Switzerland",
        "time_position": 1785629070,
        "last_contact": 1785629070,
        "baro_altitude": null,
        "on_ground": true,
        "velocity": 0.06,
        "true_track": 143.44,
        "vertical_rate": null,
        "geo_altitude": null,
        "squawk": null,
        "spi": false,
        "position_source": 0
      }
    },
    {
      "type": "Feature",
      "geometry": {
        "type": "Point",
        "coordinates": [
          15.3641,
          39.3556
        ]
      },
      "properties": {
        "icao24": "02a1a5",
        "callsign": "LBT7762",
        "origin_country": "Tunisia",
        "time_position": 1785629077,
        "last_contact": 1785629077,
        "baro_altitude": 10972.8,
        "on_ground": false,
        "velocity": 231.43,
        "true_track": 43.56,
        "vertical_rate": 0,
        "geo_altitude": 11605.26,
        "squawk": "6162",
        "spi": false,
        "position_source": 0
      }
    },
    {
      "type": "Feature",
      "geometry": {
        "type": "Point",
        "coordinates": [
          10.713,
          35.748
        ]
      },
      "properties": {
        "icao24": "02a1a3",
        "callsign": "LBT505",
        "origin_country": "Tunisia",
        "time_position": 1785628861,
        "last_contact": 1785628865,
        "baro_altitude": 137.16,
        "on_ground": false,
        "velocity": 71.8,
        "true_track": 73.77,
        "vertical_rate": -3.25,
        "geo_altitude": 182.88,
        "squawk": "4064",
        "spi": false,
        "position_source": 0
      }
    },
    {
      "type": "Feature",
      "geometry": {
        "type": "Point",
        "coordinates": [
          16.1791,
          45.2523
        ]
      },
      "properties": {
        "icao24": "40825f",
        "callsign": "EXS1QR",
        "origin_country": "United Kingdom",
        "time_position": 1785629076,
        "last_contact": 1785629077,
        "baro_altitude": 10972.8,
        "on_ground": false,
        "velocity": 234.48,
        "true_track": 306.79,
        "vertical_rate": 0,
        "geo_altitude": 11574.78,
        "squawk": "5321",
        "spi": false,
        "position_source": 0
      }
    },
    {
      "type": "Feature",
      "geometry": {
        "type": "Point",
        "coordinates": [
          13.6728,
          46.69
        ]
      },
      "properties": {
        "icao24": "40823f",
        "callsign": "EXS65LG",
        "origin_country": "United Kingdom",
        "time_position": 1785629077,
        "last_contact": 1785629077,
        "baro_altitude": 11582.4,
        "on_ground": false,
        "velocity": 226.88,
        "true_track": 307.26,
        "vertical_rate": 0.33,
        "geo_altitude": 12192,
        "squawk": "5533",
        "spi": false,
        "position_source": 0
      }
    },
    {
      "type": "Feature",
      "geometry": {
        "type": "Point",
        "coordinates": [
          9.9807,
          38.5142
        ]
      },
      "properties": {
        "icao24": "02a1ac",
        "callsign": "LBT521",
        "origin_country": "Tunisia",
        "time_position": 1785629077,
        "last_contact": 1785629077,
        "baro_altitude": 10416.54,
        "on_ground": false,
        "velocity": 246.14,
        "true_track": 161.98,
        "vertical_rate": -4.88,
        "geo_altitude": 11033.76,
        "squawk": "7622",
        "spi": false,
        "position_source": 0
      }
    },
    {
      "type": "Feature",
      "geometry": {
        "type": "Point",
        "coordinates": [
          7.4038,
          38.0219
        ]
      },
      "properties": {
        "icao24": "02a1b0",
        "callsign": "LBT593",
        "origin_country": "Tunisia",
        "time_position": 1785629077,
        "last_contact": 1785629077,
        "baro_altitude": 10668,
        "on_ground": false,
        "velocity": 234.69,
        "true_track": 154.28,
        "vertical_rate": 0,
        "geo_altitude": 11300.46,
        "squawk": "5671",
        "spi": false,
        "position_source": 0
      }
    },
    {
      "type": "Feature",
      "geometry": {
        "type": "Point",
        "coordinates": [
          15.4156,
          45.7503
        ]
      },
      "properties": {
        "icao24": "4080de",
        "callsign": "EXS94VU",
        "origin_country": "United Kingdom",
        "time_position": 1785629077,
        "last_contact": 1785629077,
        "baro_altitude": 10972.8,
        "on_ground": false,
        "velocity": 229.22,
        "true_track": 308.44,
        "vertical_rate": 0,
        "geo_altitude": 11567.16,
        "squawk": "5373",
        "spi": false,
        "position_source": 0
      }
    },
    {
      "type": "Feature",
      "geometry": {
        "type": "Point",
        "coordinates": [
          18.4462,
          44.4888
        ]
      },
      "properties": {
        "icao24": "40815b",
        "callsign": "EZY43KU",
        "origin_country": "United Kingdom",
        "time_position": 1785629076,
        "last_contact": 1785629077,
        "baro_altitude": 10972.8,
        "on_ground": false,
        "velocity": 236.56,
        "true_track": 316.76,
        "vertical_rate": 0,
        "geo_altitude": 11582.4,
        "squawk": "5510",
        "spi": false,
        "position_source": 0
      }
    },
    {
      "type": "Feature",
      "geometry": {
        "type": "Point",
        "coordinates": [
          13.1655,
          44.4907
        ]
      },
      "properties": {
        "icao24": "440c6f",
        "callsign": "EJU3686",
        "origin_country": "Austria",
        "time_position": 1785629077,
        "last_contact": 1785629077,
        "baro_altitude": 10972.8,
        "on_ground": false,
        "velocity": 231.68,
        "true_track": 296.22,
        "vertical_rate": -0.33,
        "geo_altitude": 11567.16,
        "squawk": "2037",
        "spi": false,
        "position_source": 0
      }
    },
    {
      "type": "Feature",
      "geometry": {
        "type": "Point",
        "coordinates": [
          9.9148,
          47.6332
        ]
      },
      "properties": {
        "icao24": "408041",
        "callsign": "WUK7402",
        "origin_country": "United Kingdom",
        "time_position": 1785629077,
        "last_contact": 1785629077,
        "baro_altitude": 10675.62,
        "on_ground": false,
        "velocity": 236.73,
        "true_track": 132.18,
        "vertical_rate": -0.33,
        "geo_altitude": 11262.36,
        "squawk": "5203",
        "spi": false,
        "position_source": 0
      }
    },
    {
      "type": "Feature",
      "geometry": {
        "type": "Point",
        "coordinates": [
          7.5094,
          46.281
        ]
      },
      "properties": {
        "icao24": "4ca9d0",
        "callsign": "RYR58LK",
        "origin_country": "Ireland",
        "time_position": 1785629077,
        "last_contact": 1785629077,
        "baro_altitude": 11582.4,
        "on_ground": false,
        "velocity": 237.7,
        "true_track": 31.73,
        "vertical_rate": 0,
        "geo_altitude": 12176.76,
        "squawk": "1060",
        "spi": false,
        "position_source": 0
      }
    },
    {
      "type": "Feature",
      "geometry": {
        "type": "Point",
        "coordinates": [
          12.5259,
          43.1781
        ]
      },
      "properties": {
        "icao24": "4ca9a1",
        "callsign": "NOS6149",
        "origin_country": "Ireland",
        "time_position": 1785629076,
        "last_contact": 1785629077,
        "baro_altitude": 10363.2,
        "on_ground": false,
        "velocity": 233.43,
        "true_track": 304.04,
        "vertical_rate": 0,
        "geo_altitude": 10927.08,
        "squawk": "2043",
        "spi": false,
        "position_source": 0
      }
    },
    {
      "type": "Feature",
      "geometry": {
        "type": "Point",
        "coordinates": [
          15.3776,
          46.8527
        ]
      },
      "properties": {
        "icao24": "4bab2e",
        "callsign": "THY3393",
        "origin_country": "Turkey",
        "time_position": 1785629077,
        "last_contact": 1785629077,
        "baro_altitude": 10668,
        "on_ground": false,
        "velocity": 242.75,
        "true_track": 145.1,
        "vertical_rate": 0,
        "geo_altitude": 11247.12,
        "squawk": "6415",
        "spi": false,
        "position_source": 0
      }
    },
    {
      "type": "Feature",
      "geometry": {
        "type": "Point",
        "coordinates": [
          7.4351,
          46.2201
        ]
      },
      "properties": {
        "icao24": "3c0d0c",
        "callsign": "TUI9MD",
        "origin_country": "Germany",
        "time_position": 1785629077,
        "last_contact": 1785629077,
        "baro_altitude": 10972.8,
        "on_ground": false,
        "velocity": 236.16,
        "true_track": 15.67,
        "vertical_rate": 0,
        "geo_altitude": 11567.16,
        "squawk": "1000",
        "spi": false,
        "position_source": 0
      }
    },
    {
      "type": "Feature",
      "geometry": {
        "type": "Point",
        "coordinates": [
          8.4409,
          42.0763
        ]
      },
      "properties": {
        "icao24": "424747",
        "callsign": "VPCVJ",
        "origin_country": "United Kingdom",
        "time_position": 1785629077,
        "last_contact": 1785629077,
        "baro_altitude": 7962.9,
        "on_ground": false,
        "velocity": 244.45,
        "true_track": 135.17,
        "vertical_rate": -3.58,
        "geo_altitude": 8450.58,
        "squawk": "3344",
        "spi": false,
        "position_source": 0
      }
    },
    {
      "type": "Feature",
      "geometry": {
        "type": "Point",
        "coordinates": [
          7.6091,
          47.5087
        ]
      },
      "properties": {
        "icao24": "ab8b7f",
        "callsign": "FDX5384",
        "origin_country": "United States",
        "time_position": 1785629077,
        "last_contact": 1785629077,
        "baro_altitude": 10058.4,
        "on_ground": false,
        "velocity": 263.27,
        "true_track": 120.93,
        "vertical_rate": 0,
        "geo_altitude": 10591.8,
        "squawk": "0675",
        "spi": false,
        "position_source": 0
      }
    },
    {
      "type": "Feature",
      "geometry": {
        "type": "Point",
        "coordinates": [
          14.1452,
          38.3871
        ]
      },
      "properties": {
        "icao24": "4baa8a",
        "callsign": "THY5LY",
        "origin_country": "Turkey",
        "time_position": 1785629076,
        "last_contact": 1785629076,
        "baro_altitude": 10043.16,
        "on_ground": false,
        "velocity": 230.84,
        "true_track": 75.28,
        "vertical_rate": 0,
        "geo_altitude": 10629.9,
        "squawk": "1242",
        "spi": false,
        "position_source": 0
      }
    },
    {
      "type": "Feature",
      "geometry": {
        "type": "Point",
        "coordinates": [
          12.0547,
          45.2747
        ]
      },
      "properties": {
        "icao24": "4ca911",
        "callsign": "RYR83ZV",
        "origin_country": "Ireland",
        "time_position": 1785629076,
        "last_contact": 1785629076,
        "baro_altitude": 1737.36,
        "on_ground": false,
        "velocity": 122.24,
        "true_track": 52.7,
        "vertical_rate": -1.95,
        "geo_altitude": 1882.14,
        "squawk": "5242",
        "spi": false,
        "position_source": 0
      }
    },
    {
      "type": "Feature",
      "geometry": {
        "type": "Point",
        "coordinates": [
          12.6361,
          46.7521
        ]
      },
      "properties": {
        "icao24": "49d5ef",
        "callsign": "TVS2TU",
        "origin_country": "Czech Republic",
        "time_position": 1785629077,
        "last_contact": 1785629077,
        "baro_altitude": 10972.8,
        "on_ground": false,
        "velocity": 233.63,
        "true_track": 30.57,
        "vertical_rate": -0.33,
        "geo_altitude": 11551.92,
        "squawk": "1000",
        "spi": false,
        "position_source": 0
      }
    },
    {
      "type": "Feature",
      "geometry": {
        "type": "Point",
        "coordinates": [
          10.0651,
          37.3841
        ]
      },
      "properties": {
        "icao24": "02a199",
        "callsign": "TAR722",
        "origin_country": "Tunisia",
        "time_position": 1785629077,
        "last_contact": 1785629077,
        "baro_altitude": 4792.98,
        "on_ground": false,
        "velocity": 201.42,
        "true_track": 344.9,
        "vertical_rate": 12.35,
        "geo_altitude": 5128.26,
        "squawk": null,
        "spi": false,
        "position_source": 0
      }
    },
    {
      "type": "Feature",
      "geometry": {
        "type": "Point",
        "coordinates": [
          8.1996,
          41.0996
        ]
      },
      "properties": {
        "icao24": "02a198",
        "callsign": "TAR725",
        "origin_country": "Tunisia",
        "time_position": 1785629077,
        "last_contact": 1785629077,
        "baro_altitude": 10066.02,
        "on_ground": false,
        "velocity": 228.81,
        "true_track": 151.53,
        "vertical_rate": 0,
        "geo_altitude": 10637.52,
        "squawk": "7624",
        "spi": false,
        "position_source": 0
      }
    },
    {
      "type": "Feature",
      "geometry": {
        "type": "Point",
        "coordinates": [
          14.9529,
          46.7262
        ]
      },
      "properties": {
        "icao24": "48664a",
        "callsign": "CND19ZY",
        "origin_country": "Kingdom of the Netherlands",
        "time_position": 1785629077,
        "last_contact": 1785629077,
        "baro_altitude": 10972.8,
        "on_ground": false,
        "velocity": 233.91,
        "true_track": 319.55,
        "vertical_rate": 0,
        "geo_altitude": 11559.54,
        "squawk": "2066",
        "spi": false,
        "position_source": 0
      }
    },
    {
      "type": "Feature",
      "geometry": {
        "type": "Point",
        "coordinates": [
          18.9534,
          44.941
        ]
      },
      "properties": {
        "icao24": "4bcdee",
        "callsign": "SXS3XA",
        "origin_country": "Turkey",
        "time_position": 1785629077,
        "last_contact": 1785629077,
        "baro_altitude": 11582.4,
        "on_ground": false,
        "velocity": 236.94,
        "true_track": 313.15,
        "vertical_rate": 0,
        "geo_altitude": 12199.62,
        "squawk": "3211",
        "spi": false,
        "position_source": 0
      }
    },
    {
      "type": "Feature",
      "geometry": {
        "type": "Point",
        "coordinates": [
          16.9869,
          46.8804
        ]
      },
      "properties": {
        "icao24": "4bce49",
        "callsign": "SXS3QZ",
        "origin_country": "Turkey",
        "time_position": 1785629077,
        "last_contact": 1785629077,
        "baro_altitude": 11277.6,
        "on_ground": false,
        "velocity": 233.31,
        "true_track": 131.25,
        "vertical_rate": 0,
        "geo_altitude": 11864.34,
        "squawk": "7643",
        "spi": false,
        "position_source": 0
      }
    },
    {
      "type": "Feature",
      "geometry": {
        "type": "Point",
        "coordinates": [
          6.7779,
          41.943
        ]
      },
      "properties": {
        "icao24": "48ea4d",
        "callsign": "RYS7239",
        "origin_country": "Poland",
        "time_position": 1785629077,
        "last_contact": 1785629077,
        "baro_altitude": 11277.6,
        "on_ground": false,
        "velocity": 230.67,
        "true_track": 226.08,
        "vertical_rate": 0,
        "geo_altitude": 11864.34,
        "squawk": "1000",
        "spi": false,
        "position_source": 0
      }
    },
    {
      "type": "Feature",
      "geometry": {
        "type": "Point",
        "coordinates": [
          14.8689,
          46.8645
        ]
      },
      "properties": {
        "icao24": "4bcdb2",
        "callsign": "SXS2NB",
        "origin_country": "Turkey",
        "time_position": 1785629076,
        "last_contact": 1785629077,
        "baro_altitude": 11277.6,
        "on_ground": false,
        "velocity": 232.92,
        "true_track": 131.33,
        "vertical_rate": 0,
        "geo_altitude": 11871.96,
        "squawk": "7665",
        "spi": false,
        "position_source": 0
      }
    },
    {
      "type": "Feature",
      "geometry": {
        "type": "Point",
        "coordinates": [
          6.9808,
          38.3437
        ]
      },
      "properties": {
        "icao24": "3c71a1",
        "callsign": "BCS080",
        "origin_country": "Germany",
        "time_position": 1785629076,
        "last_contact": 1785629077,
        "baro_altitude": 12192,
        "on_ground": false,
        "velocity": 257.2,
        "true_track": 3.55,
        "vertical_rate": 0,
        "geo_altitude": 12877.8,
        "squawk": null,
        "spi": false,
        "position_source": 0
      }
    },
    {
      "type": "Feature",
      "geometry": {
        "type": "Point",
        "coordinates": [
          17.5307,
          47.6304
        ]
      },
      "properties": {
        "icao24": "4bce09",
        "callsign": "SXS4BD",
        "origin_country": "Turkey",
        "time_position": 1785629077,
        "last_contact": 1785629077,
        "baro_altitude": 11582.4,
        "on_ground": false,
        "velocity": 229.29,
        "true_track": 305.69,
        "vertical_rate": 0,
        "geo_altitude": 12176.76,
        "squawk": "5352",
        "spi": false,
        "position_source": 0
      }
    },
    {
      "type": "Feature",
      "geometry": {
        "type": "Point",
        "coordinates": [
          16.3983,
          47.2811
        ]
      },
      "properties": {
        "icao24": "4bce14",
        "callsign": "SXS5CQ",
        "origin_country": "Turkey",
        "time_position": 1785629077,
        "last_contact": 1785629077,
        "baro_altitude": 11277.6,
        "on_ground": false,
        "velocity": 233.04,
        "true_track": 126.74,
        "vertical_rate": 0,
        "geo_altitude": 11864.34,
        "squawk": "1734",
        "spi": false,
        "position_source": 0
      }
    },
    {
      "type": "Feature",
      "geometry": {
        "type": "Point",
        "coordinates": [
          16.9324,
          46.5242
        ]
      },
      "properties": {
        "icao24": "4bce13",
        "callsign": "SXS2GA",
        "origin_country": "Turkey",
        "time_position": 1785629077,
        "last_contact": 1785629077,
        "baro_altitude": 11277.6,
        "on_ground": false,
        "velocity": 237.74,
        "true_track": 128.23,
        "vertical_rate": 0,
        "geo_altitude": 11864.34,
        "squawk": "7707",
        "spi": false,
        "position_source": 0
      }
    },
    {
      "type": "Feature",
      "geometry": {
        "type": "Point",
        "coordinates": [
          10.7933,
          47.5754
        ]
      },
      "properties": {
        "icao24": "407642",
        "callsign": "TOM423",
        "origin_country": "United Kingdom",
        "time_position": 1785629077,
        "last_contact": 1785629077,
        "baro_altitude": 11582.4,
        "on_ground": false,
        "velocity": 223.87,
        "true_track": 293.86,
        "vertical_rate": 0,
        "geo_altitude": 12169.14,
        "squawk": "0625",
        "spi": false,
        "position_source": 0
      }
    },
    {
      "type": "Feature",
      "geometry": {
        "type": "Point",
        "coordinates": [
          15.182,
          44.2874
        ]
      },
      "properties": {
        "icao24": "40768c",
        "callsign": "EZY73EF",
        "origin_country": "United Kingdom",
        "time_position": 1785629077,
        "last_contact": 1785629077,
        "baro_altitude": 10965.18,
        "on_ground": false,
        "velocity": 230.16,
        "true_track": 312.28,
        "vertical_rate": 0,
        "geo_altitude": 11551.92,
        "squawk": "5527",
        "spi": false,
        "position_source": 0
      }
    },
    {
      "type": "Feature",
      "geometry": {
        "type": "Point",
        "coordinates": [
          18.9703,
          43.6802
        ]
      },
      "properties": {
        "icao24": "407797",
        "callsign": "EZY12ET",
        "origin_country": "United Kingdom",
        "time_position": 1785629067,
        "last_contact": 1785629076,
        "baro_altitude": 10980.42,
        "on_ground": false,
        "velocity": 233.25,
        "true_track": 310.26,
        "vertical_rate": 0,
        "geo_altitude": 11597.64,
        "squawk": "2072",
        "spi": false,
        "position_source": 0
      }
    },
    {
      "type": "Feature",
      "geometry": {
        "type": "Point",
        "coordinates": [
          16.4763,
          44.7715
        ]
      },
      "properties": {
        "icao24": "01024d",
        "callsign": "MSC2918",
        "origin_country": "Egypt",
        "time_position": 1785629077,
        "last_contact": 1785629077,
        "baro_altitude": 10370.82,
        "on_ground": false,
        "velocity": 241.2,
        "true_track": 315.78,
        "vertical_rate": 0,
        "geo_altitude": 10934.7,
        "squawk": "2025",
        "spi": false,
        "position_source": 0
      }
    },
    {
      "type": "Feature",
      "geometry": {
        "type": "Point",
        "coordinates": [
          18.7746,
          38.5682
        ]
      },
      "properties": {
        "icao24": "346316",
        "callsign": "IBE08PL",
        "origin_country": "Spain",
        "time_position": 1785629060,
        "last_contact": 1785629060,
        "baro_altitude": 11277.6,
        "on_ground": false,
        "velocity": 235.39,
        "true_track": 111.41,
        "vertical_rate": 0,
        "geo_altitude": 11856.72,
        "squawk": "1443",
        "spi": false,
        "position_source": 0
      }
    },
    {
      "type": "Feature",
      "geometry": {
        "type": "Point",
        "coordinates": [
          16.6011,
          44.2156
        ]
      },
      "properties": {
        "icao24": "40772d",
        "callsign": "EZY78NM",
        "origin_country": "United Kingdom",
        "time_position": 1785629077,
        "last_contact": 1785629077,
        "baro_altitude": 11582.4,
        "on_ground": false,
        "velocity": 234.23,
        "true_track": 295.78,
        "vertical_rate": 0.33,
        "geo_altitude": 12207.24,
        "squawk": "5313",
        "spi": false,
        "position_source": 0
      }
    },
    {
      "type": "Feature",
      "geometry": {
        "type": "Point",
        "coordinates": [
          10.1785,
          47.4132
        ]
      },
      "properties": {
        "icao24": "0101de",
        "callsign": "MSR996",
        "origin_country": "Egypt",
        "time_position": 1785629077,
        "last_contact": 1785629077,
        "baro_altitude": 11269.98,
        "on_ground": false,
        "velocity": 264.22,
        "true_track": 105.47,
        "vertical_rate": 0,
        "geo_altitude": 11871.96,
        "squawk": "2221",
        "spi": false,
        "position_source": 0
      }
    },
    {
      "type": "Feature",
      "geometry": {
        "type": "Point",
        "coordinates": [
          13.8888,
          44.2296
        ]
      },
      "properties": {
        "icao24": "4caeb0",
        "callsign": "NOS18JZ",
        "origin_country": "Ireland",
        "time_position": 1785629077,
        "last_contact": 1785629077,
        "baro_altitude": 10149.84,
        "on_ground": false,
        "velocity": 239.63,
        "true_track": 301.3,
        "vertical_rate": -7.48,
        "geo_altitude": 10706.1,
        "squawk": "2053",
        "spi": false,
        "position_source": 0
      }
    },
    {
      "type": "Feature",
      "geometry": {
        "type": "Point",
        "coordinates": [
          10.8587,
          44.7822
        ]
      },
      "properties": {
        "icao24": "4d2535",
        "callsign": "WZZ6786",
        "origin_country": "Malta",
        "time_position": 1785629076,
        "last_contact": 1785629077,
        "baro_altitude": 10980.42,
        "on_ground": false,
        "velocity": 232.4,
        "true_track": 49.4,
        "vertical_rate": 0,
        "geo_altitude": 11590.02,
        "squawk": "1000",
        "spi": false,
        "position_source": 0
      }
    },
    {
      "type": "Feature",
      "geometry": {
        "type": "Point",
        "coordinates": [
          12.4262,
          41.942
        ]
      },
      "properties": {
        "icao24": "4caec8",
        "callsign": "NIBBIO01",
        "origin_country": "Ireland",
        "time_position": 1785629077,
        "last_contact": 1785629077,
        "baro_altitude": 373.38,
        "on_ground": false,
        "velocity": 52.46,
        "true_track": 205.56,
        "vertical_rate": 0,
        "geo_altitude": 426.72,
        "squawk": "1155",
        "spi": false,
        "position_source": 0
      }
    },
    {
      "type": "Feature",
      "geometry": {
        "type": "Point",
        "coordinates": [
          9.954,
          42.1445
        ]
      },
      "properties": {
        "icao24": "347256",
        "callsign": "VOE93DP",
        "origin_country": "Spain",
        "time_position": 1785629077,
        "last_contact": 1785629077,
        "baro_altitude": 9326.88,
        "on_ground": false,
        "velocity": 240.7,
        "true_track": 5.15,
        "vertical_rate": 6.5,
        "geo_altitude": 9860.28,
        "squawk": "5437",
        "spi": false,
        "position_source": 0
      }
    },
    {
      "type": "Feature",
      "geometry": {
        "type": "Point",
        "coordinates": [
          6.1954,
          41.9438
        ]
      },
      "properties": {
        "icao24": "347258",
        "callsign": "VOE8NN",
        "origin_country": "Spain",
        "time_position": 1785629077,
        "last_contact": 1785629077,
        "baro_altitude": 10980.42,
        "on_ground": false,
        "velocity": 227.46,
        "true_track": 304.59,
        "vertical_rate": 0,
        "geo_altitude": 11559.54,
        "squawk": "1000",
        "spi": false,
        "position_source": 0
      }
    },
    {
      "type": "Feature",
      "geometry": {
        "type": "Point",
        "coordinates": [
          12.9086,
          37.9643
        ]
      },
      "properties": {
        "icao24": "30066c",
        "callsign": "IHECO",
        "origin_country": "Italy",
        "time_position": 1785629054,
        "last_contact": 1785629054,
        "baro_altitude": 1684.02,
        "on_ground": false,
        "velocity": 79.55,
        "true_track": 251.92,
        "vertical_rate": 0,
        "geo_altitude": 1836.42,
        "squawk": null,
        "spi": false,
        "position_source": 0
      }
    },
    {
      "type": "Feature",
      "geometry": {
        "type": "Point",
        "coordinates": [
          9.7411,
          45.6616
        ]
      },
      "properties": {
        "icao24": "4cadbf",
        "callsign": "RYR13PK",
        "origin_country": "Ireland",
        "time_position": 1785628886,
        "last_contact": 1785628886,
        "baro_altitude": 320.04,
        "on_ground": false,
        "velocity": 77.25,
        "true_track": 285.05,
        "vertical_rate": -3.9,
        "geo_altitude": 388.62,
        "squawk": "7031",
        "spi": false,
        "position_source": 0
      }
    },
    {
      "type": "Feature",
      "geometry": {
        "type": "Point",
        "coordinates": [
          7.5603,
          46.5135
        ]
      },
      "properties": {
        "icao24": "4d240e",
        "callsign": "EWG3593",
        "origin_country": "Malta",
        "time_position": 1785629077,
        "last_contact": 1785629077,
        "baro_altitude": 11574.78,
        "on_ground": false,
        "velocity": 234.82,
        "true_track": 13.94,
        "vertical_rate": 0,
        "geo_altitude": 12184.38,
        "squawk": "1000",
        "spi": false,
        "position_source": 0
      }
    },
    {
      "type": "Feature",
      "geometry": {
        "type": "Point",
        "coordinates": [
          12.0338,
          47.0602
        ]
      },
      "properties": {
        "icao24": "40753f",
        "callsign": "EXS91VW",
        "origin_country": "United Kingdom",
        "time_position": 1785629077,
        "last_contact": 1785629077,
        "baro_altitude": 10972.8,
        "on_ground": false,
        "velocity": 221.58,
        "true_track": 293.83,
        "vertical_rate": 0,
        "geo_altitude": 11559.54,
        "squawk": "5356",
        "spi": false,
        "position_source": 0
      }
    },
    {
      "type": "Feature",
      "geometry": {
        "type": "Point",
        "coordinates": [
          9.7524,
          45.6594
        ]
      },
      "properties": {
        "icao24": "4cae55",
        "callsign": "RYR87RR",
        "origin_country": "Ireland",
        "time_position": 1785629074,
        "last_contact": 1785629076,
        "baro_altitude": 358.14,
        "on_ground": false,
        "velocity": 80.36,
        "true_track": 284.84,
        "vertical_rate": -3.9,
        "geo_altitude": 419.1,
        "squawk": "5171",
        "spi": false,
        "position_source": 0
      }
    },
    {
      "type": "Feature",
      "geometry": {
        "type": "Point",
        "coordinates": [
          7.9912,
          40.7371
        ]
      },
      "properties": {
        "icao24": "4d22ca",
        "callsign": "RYR7GC",
        "origin_country": "Malta",
        "time_position": 1785629077,
        "last_contact": 1785629077,
        "baro_altitude": 10980.42,
        "on_ground": false,
        "velocity": 254.52,
        "true_track": 69.04,
        "vertical_rate": 0,
        "geo_altitude": 11605.26,
        "squawk": "1000",
        "spi": false,
        "position_source": 0
      }
    },
    {
      "type": "Feature",
      "geometry": {
        "type": "Point",
        "coordinates": [
          6.4337,
          44.6417
        ]
      },
      "properties": {
        "icao24": "4d239c",
        "callsign": "CXI17UW",
        "origin_country": "Malta",
        "time_position": 1785629077,
        "last_contact": 1785629077,
        "baro_altitude": 11582.4,
        "on_ground": false,
        "velocity": 227.76,
        "true_track": 18.03,
        "vertical_rate": 0,
        "geo_altitude": 12199.62,
        "squawk": "1000",
        "spi": false,
        "position_source": 0
      }
    },
    {
      "type": "Feature",
      "geometry": {
        "type": "Point",
        "coordinates": [
          15.9319,
          45.1932
        ]
      },
      "properties": {
        "icao24": "45d962",
        "callsign": "VKG025",
        "origin_country": "Denmark",
        "time_position": 1785629077,
        "last_contact": 1785629077,
        "baro_altitude": 10370.82,
        "on_ground": false,
        "velocity": 231.5,
        "true_track": 341.2,
        "vertical_rate": 0,
        "geo_altitude": 10942.32,
        "squawk": "2063",
        "spi": false,
        "position_source": 0
      }
    },
    {
      "type": "Feature",
      "geometry": {
        "type": "Point",
        "coordinates": [
          9.964,
          42.6762
        ]
      },
      "properties": {
        "icao24": "34714d",
        "callsign": "VOE18TT",
        "origin_country": "Spain",
        "time_position": 1785629077,
        "last_contact": 1785629077,
        "baro_altitude": 10980.42,
        "on_ground": false,
        "velocity": 231.85,
        "true_track": 6.24,
        "vertical_rate": 0,
        "geo_altitude": 11590.02,
        "squawk": "5413",
        "spi": false,
        "position_source": 0
      }
    },
    {
      "type": "Feature",
      "geometry": {
        "type": "Point",
        "coordinates": [
          7.4318,
          40.6352
        ]
      },
      "properties": {
        "icao24": "4d222d",
        "callsign": "RYR20JH",
        "origin_country": "Malta",
        "time_position": 1785629076,
        "last_contact": 1785629077,
        "baro_altitude": 4975.86,
        "on_ground": false,
        "velocity": 217.29,
        "true_track": 87.56,
        "vertical_rate": -9.1,
        "geo_altitude": 5318.76,
        "squawk": "1000",
        "spi": false,
        "position_source": 0
      }
    },
    {
      "type": "Feature",
      "geometry": {
        "type": "Point",
        "coordinates": [
          10.4534,
          47.4233
        ]
      },
      "properties": {
        "icao24": "40600e",
        "callsign": "EZY2156",
        "origin_country": "United Kingdom",
        "time_position": 1785629077,
        "last_contact": 1785629077,
        "baro_altitude": 10363.2,
        "on_ground": false,
        "velocity": 231.86,
        "true_track": 319.95,
        "vertical_rate": 0.33,
        "geo_altitude": 10927.08,
        "squawk": "3550",
        "spi": false,
        "position_source": 0
      }
    },
    {
      "type": "Feature",
      "geometry": {
        "type": "Point",
        "coordinates": [
          8.7191,
          45.6277
        ]
      },
      "properties": {
        "icao24": "4d2255",
        "callsign": "RYR2TY",
        "origin_country": "Malta",
        "time_position": 1785628999,
        "last_contact": 1785629000,
        "baro_altitude": null,
        "on_ground": true,
        "velocity": 0,
        "true_track": 78.75,
        "vertical_rate": null,
        "geo_altitude": null,
        "squawk": "2000",
        "spi": false,
        "position_source": 0
      }
    },
    {
      "type": "Feature",
      "geometry": {
        "type": "Point",
        "coordinates": [
          7.3664,
          40.8089
        ]
      },
      "properties": {
        "icao24": "4d20b1",
        "callsign": "WMT511",
        "origin_country": "Malta",
        "time_position": 1785629077,
        "last_contact": 1785629077,
        "baro_altitude": 10972.8,
        "on_ground": false,
        "velocity": 246.63,
        "true_track": 74.51,
        "vertical_rate": -0.33,
        "geo_altitude": 11574.78,
        "squawk": "2223",
        "spi": false,
        "position_source": 0
      }
    },
    {
      "type": "Feature",
      "geometry": {
        "type": "Point",
        "coordinates": [
          18.0021,
          39.9982
        ]
      },
      "properties": {
        "icao24": "4cac8d",
        "callsign": "NOS6589",
        "origin_country": "Ireland",
        "time_position": 1785629077,
        "last_contact": 1785629077,
        "baro_altitude": 10972.8,
        "on_ground": false,
        "velocity": 228.74,
        "true_track": 312.08,
        "vertical_rate": 0,
        "geo_altitude": 11559.54,
        "squawk": "5537",
        "spi": false,
        "position_source": 0
      }
    },
    {
      "type": "Feature",
      "geometry": {
        "type": "Point",
        "coordinates": [
          10.1809,
          47.6613
        ]
      },
      "properties": {
        "icao24": "408352",
        "callsign": "EXS6FZ",
        "origin_country": "United Kingdom",
        "time_position": 1785629077,
        "last_contact": 1785629077,
        "baro_altitude": 10972.8,
        "on_ground": false,
        "velocity": 224.25,
        "true_track": 317.23,
        "vertical_rate": 0,
        "geo_altitude": 11544.3,
        "squawk": "3105",
        "spi": false,
        "position_source": 0
      }
    },
    {
      "type": "Feature",
      "geometry": {
        "type": "Point",
        "coordinates": [
          17.6694,
          44.3975
        ]
      },
      "properties": {
        "icao24": "408347",
        "callsign": "EXS3868",
        "origin_country": "United Kingdom",
        "time_position": 1785629074,
        "last_contact": 1785629075,
        "baro_altitude": 10980.42,
        "on_ground": false,
        "velocity": 231.57,
        "true_track": 310.95,
        "vertical_rate": 0,
        "geo_altitude": 11582.4,
        "squawk": "2033",
        "spi": false,
        "position_source": 0
      }
    },
    {
      "type": "Feature",
      "geometry": {
        "type": "Point",
        "coordinates": [
          11.5968,
          47.3453
        ]
      },
      "properties": {
        "icao24": "408346",
        "callsign": "EXS65BM",
        "origin_country": "United Kingdom",
        "time_position": 1785629077,
        "last_contact": 1785629077,
        "baro_altitude": 11582.4,
        "on_ground": false,
        "velocity": 218.6,
        "true_track": 303.09,
        "vertical_rate": 0,
        "geo_altitude": 12176.76,
        "squawk": "6617",
        "spi": false,
        "position_source": 0
      }
    },
    {
      "type": "Feature",
      "geometry": {
        "type": "Point",
        "coordinates": [
          12.3359,
          46.1904
        ]
      },
      "properties": {
        "icao24": "408386",
        "callsign": "EZY75PF",
        "origin_country": "United Kingdom",
        "time_position": 1785629077,
        "last_contact": 1785629077,
        "baro_altitude": 10965.18,
        "on_ground": false,
        "velocity": 226.63,
        "true_track": 314.54,
        "vertical_rate": 0.33,
        "geo_altitude": 11544.3,
        "squawk": "0501",
        "spi": false,
        "position_source": 0
      }
    },
    {
      "type": "Feature",
      "geometry": {
        "type": "Point",
        "coordinates": [
          18.2246,
          44.8693
        ]
      },
      "properties": {
        "icao24": "710112",
        "callsign": "SVA022",
        "origin_country": "Saudi Arabia",
        "time_position": 1785629077,
        "last_contact": 1785629077,
        "baro_altitude": 10668,
        "on_ground": false,
        "velocity": 255.71,
        "true_track": 118.21,
        "vertical_rate": 0,
        "geo_altitude": 11254.74,
        "squawk": "1172",
        "spi": false,
        "position_source": 0
      }
    },
    {
      "type": "Feature",
      "geometry": {
        "type": "Point",
        "coordinates": [
          6.4553,
          43.7538
        ]
      },
      "properties": {
        "icao24": "30019c",
        "callsign": "NOS9140",
        "origin_country": "Italy",
        "time_position": 1785629077,
        "last_contact": 1785629077,
        "baro_altitude": 11277.6,
        "on_ground": false,
        "velocity": 244.05,
        "true_track": 233.23,
        "vertical_rate": 0.33,
        "geo_altitude": 11894.82,
        "squawk": "1000",
        "spi": false,
        "position_source": 0
      }
    },
    {
      "type": "Feature",
      "geometry": {
        "type": "Point",
        "coordinates": [
          12.6652,
          47.2358
        ]
      },
      "properties": {
        "icao24": "408305",
        "callsign": "EXS11YS",
        "origin_country": "United Kingdom",
        "time_position": 1785629077,
        "last_contact": 1785629077,
        "baro_altitude": 10972.8,
        "on_ground": false,
        "velocity": 225.65,
        "true_track": 307.5,
        "vertical_rate": 0.33,
        "geo_altitude": 11551.92,
        "squawk": "5364",
        "spi": false,
        "position_source": 0
      }
    },
    {
      "type": "Feature",
      "geometry": {
        "type": "Point",
        "coordinates": [
          17.9048,
          44.2873
        ]
      },
      "properties": {
        "icao24": "407177",
        "callsign": "EXS96NX",
        "origin_country": "United Kingdom",
        "time_position": 1785629077,
        "last_contact": 1785629077,
        "baro_altitude": 10972.8,
        "on_ground": false,
        "velocity": 229.16,
        "true_track": 309.44,
        "vertical_rate": 0,
        "geo_altitude": 11559.54,
        "squawk": "5307",
        "spi": false,
        "position_source": 0
      }
    },
    {
      "type": "Feature",
      "geometry": {
        "type": "Point",
        "coordinates": [
          8.836,
          45.8602
        ]
      },
      "properties": {
        "icao24": "4d2029",
        "callsign": "SWU2303",
        "origin_country": "Malta",
        "time_position": 1785629076,
        "last_contact": 1785629077,
        "baro_altitude": 5836.92,
        "on_ground": false,
        "velocity": 149.89,
        "true_track": 291.55,
        "vertical_rate": 3.9,
        "geo_altitude": 6202.68,
        "squawk": "1000",
        "spi": false,
        "position_source": 0
      }
    },
    {
      "type": "Feature",
      "geometry": {
        "type": "Point",
        "coordinates": [
          6.4114,
          46.8188
        ]
      },
      "properties": {
        "icao24": "47bfb3",
        "callsign": "NOZ37N",
        "origin_country": "Norway",
        "time_position": 1785629077,
        "last_contact": 1785629077,
        "baro_altitude": 10972.8,
        "on_ground": false,
        "velocity": 237.4,
        "true_track": 7.97,
        "vertical_rate": 0,
        "geo_altitude": 11559.54,
        "squawk": "1063",
        "spi": false,
        "position_source": 0
      }
    }
  ]
}