{
  "type": "FeatureCollection",
  "source": "opensky",
  "dataset": "aircraft_italy",
  "generated_at": "2026-06-04T23:17:26.095415+00:00",
  "opensky_time": 1780615026,
  "count": 142,
  "features": [
    {
      "type": "Feature",
      "geometry": {
        "type": "Point",
        "coordinates": [
          7.1704,
          40.92
        ]
      },
      "properties": {
        "icao24": "46b833",
        "callsign": "AEE712",
        "origin_country": "Greece",
        "time_position": 1780615025,
        "last_contact": 1780615025,
        "baro_altitude": 10965.18,
        "on_ground": false,
        "velocity": 209.64,
        "true_track": 274.93,
        "vertical_rate": 0,
        "geo_altitude": 11475.72,
        "squawk": "7740",
        "spi": false,
        "position_source": 0
      }
    },
    {
      "type": "Feature",
      "geometry": {
        "type": "Point",
        "coordinates": [
          13.5698,
          46.4089
        ]
      },
      "properties": {
        "icao24": "46b826",
        "callsign": "AEE609",
        "origin_country": "Greece",
        "time_position": 1780615025,
        "last_contact": 1780615026,
        "baro_altitude": 11292.84,
        "on_ground": false,
        "velocity": 242.27,
        "true_track": 135.17,
        "vertical_rate": 0.33,
        "geo_altitude": 11681.46,
        "squawk": "0547",
        "spi": false,
        "position_source": 0
      }
    },
    {
      "type": "Feature",
      "geometry": {
        "type": "Point",
        "coordinates": [
          8.615,
          44.9044
        ]
      },
      "properties": {
        "icao24": "440224",
        "callsign": "EJU36QL",
        "origin_country": "Austria",
        "time_position": 1780615025,
        "last_contact": 1780615026,
        "baro_altitude": 4274.82,
        "on_ground": false,
        "velocity": 163.04,
        "true_track": 348.9,
        "vertical_rate": -7.8,
        "geo_altitude": 4396.74,
        "squawk": "1000",
        "spi": false,
        "position_source": 0
      }
    },
    {
      "type": "Feature",
      "geometry": {
        "type": "Point",
        "coordinates": [
          15.7074,
          42.1797
        ]
      },
      "properties": {
        "icao24": "471f77",
        "callsign": "WMT5655",
        "origin_country": "Hungary",
        "time_position": 1780615025,
        "last_contact": 1780615025,
        "baro_altitude": 11269.98,
        "on_ground": false,
        "velocity": 243.09,
        "true_track": 73.9,
        "vertical_rate": 0,
        "geo_altitude": 11765.28,
        "squawk": "1225",
        "spi": false,
        "position_source": 0
      }
    },
    {
      "type": "Feature",
      "geometry": {
        "type": "Point",
        "coordinates": [
          18.4932,
          42.359
        ]
      },
      "properties": {
        "icao24": "471f06",
        "callsign": "WMT1BF",
        "origin_country": "Hungary",
        "time_position": 1780615025,
        "last_contact": 1780615025,
        "baro_altitude": 6507.48,
        "on_ground": false,
        "velocity": 208.88,
        "true_track": 133.4,
        "vertical_rate": -10.73,
        "geo_altitude": 6812.28,
        "squawk": "0250",
        "spi": false,
        "position_source": 0
      }
    },
    {
      "type": "Feature",
      "geometry": {
        "type": "Point",
        "coordinates": [
          12.4375,
          47.3518
        ]
      },
      "properties": {
        "icao24": "407b55",
        "callsign": "WUK962",
        "origin_country": "United Kingdom",
        "time_position": 1780615025,
        "last_contact": 1780615025,
        "baro_altitude": 10972.8,
        "on_ground": false,
        "velocity": 209.9,
        "true_track": 307.43,
        "vertical_rate": 0,
        "geo_altitude": 11308.08,
        "squawk": "3121",
        "spi": false,
        "position_source": 0
      }
    },
    {
      "type": "Feature",
      "geometry": {
        "type": "Point",
        "coordinates": [
          12.0365,
          45.7388
        ]
      },
      "properties": {
        "icao24": "505ceb",
        "callsign": "TOM4487",
        "origin_country": "Slovakia",
        "time_position": 1780615025,
        "last_contact": 1780615025,
        "baro_altitude": 12192,
        "on_ground": false,
        "velocity": 206.42,
        "true_track": 307.81,
        "vertical_rate": 0,
        "geo_altitude": 12565.38,
        "squawk": "3703",
        "spi": false,
        "position_source": 0
      }
    },
    {
      "type": "Feature",
      "geometry": {
        "type": "Point",
        "coordinates": [
          12.2379,
          41.9022
        ]
      },
      "properties": {
        "icao24": "8015a8",
        "callsign": "AIC191",
        "origin_country": "India",
        "time_position": 1780615025,
        "last_contact": 1780615025,
        "baro_altitude": 365.76,
        "on_ground": false,
        "velocity": 79.24,
        "true_track": 162.62,
        "vertical_rate": -4.23,
        "geo_altitude": 426.72,
        "squawk": "5504",
        "spi": false,
        "position_source": 0
      }
    },
    {
      "type": "Feature",
      "geometry": {
        "type": "Point",
        "coordinates": [
          17.0647,
          44.6431
        ]
      },
      "properties": {
        "icao24": "73806e",
        "callsign": "ELY314",
        "origin_country": "Israel",
        "time_position": 1780615025,
        "last_contact": 1780615025,
        "baro_altitude": 10668,
        "on_ground": false,
        "velocity": 245.87,
        "true_track": 137.97,
        "vertical_rate": 0,
        "geo_altitude": 11094.72,
        "squawk": "2252",
        "spi": false,
        "position_source": 0
      }
    },
    {
      "type": "Feature",
      "geometry": {
        "type": "Point",
        "coordinates": [
          16.3105,
          39.1567
        ]
      },
      "properties": {
        "icao24": "73806c",
        "callsign": "ELY392",
        "origin_country": "Israel",
        "time_position": 1780615025,
        "last_contact": 1780615025,
        "baro_altitude": 10668,
        "on_ground": false,
        "velocity": 246.19,
        "true_track": 106.01,
        "vertical_rate": 0,
        "geo_altitude": 11170.92,
        "squawk": "1452",
        "spi": false,
        "position_source": 0
      }
    },
    {
      "type": "Feature",
      "geometry": {
        "type": "Point",
        "coordinates": [
          16.4478,
          42.9722
        ]
      },
      "properties": {
        "icao24": "73806f",
        "callsign": "ELY388",
        "origin_country": "Israel",
        "time_position": 1780615025,
        "last_contact": 1780615025,
        "baro_altitude": 10668,
        "on_ground": false,
        "velocity": 248.83,
        "true_track": 121.82,
        "vertical_rate": 0,
        "geo_altitude": 11117.58,
        "squawk": "0454",
        "spi": false,
        "position_source": 0
      }
    },
    {
      "type": "Feature",
      "geometry": {
        "type": "Point",
        "coordinates": [
          10.722,
          44.54
        ]
      },
      "properties": {
        "icao24": "738076",
        "callsign": "ELY024",
        "origin_country": "Israel",
        "time_position": 1780615025,
        "last_contact": 1780615025,
        "baro_altitude": 11277.6,
        "on_ground": false,
        "velocity": 276.95,
        "true_track": 101.79,
        "vertical_rate": 0,
        "geo_altitude": 11696.7,
        "squawk": "0443",
        "spi": false,
        "position_source": 0
      }
    },
    {
      "type": "Feature",
      "geometry": {
        "type": "Point",
        "coordinates": [
          7.6521,
          46.3096
        ]
      },
      "properties": {
        "icao24": "a41cf8",
        "callsign": "UPS243",
        "origin_country": "United States",
        "time_position": 1780615025,
        "last_contact": 1780615025,
        "baro_altitude": 10980.42,
        "on_ground": false,
        "velocity": 277.1,
        "true_track": 25.04,
        "vertical_rate": 0,
        "geo_altitude": 11231.88,
        "squawk": "1062",
        "spi": false,
        "position_source": 0
      }
    },
    {
      "type": "Feature",
      "geometry": {
        "type": "Point",
        "coordinates": [
          9.318,
          40.4532
        ]
      },
      "properties": {
        "icao24": "738055",
        "callsign": "ELY398",
        "origin_country": "Israel",
        "time_position": 1780615025,
        "last_contact": 1780615026,
        "baro_altitude": 10668,
        "on_ground": false,
        "velocity": 254.95,
        "true_track": 101.29,
        "vertical_rate": 0,
        "geo_altitude": 11178.54,
        "squawk": "1455",
        "spi": false,
        "position_source": 0
      }
    },
    {
      "type": "Feature",
      "geometry": {
        "type": "Point",
        "coordinates": [
          15.7044,
          46.4128
        ]
      },
      "properties": {
        "icao24": "406900",
        "callsign": "EXS7K",
        "origin_country": "United Kingdom",
        "time_position": 1780615025,
        "last_contact": 1780615025,
        "baro_altitude": 11582.4,
        "on_ground": false,
        "velocity": 211.73,
        "true_track": 315.79,
        "vertical_rate": 0,
        "geo_altitude": 12001.5,
        "squawk": "5356",
        "spi": false,
        "position_source": 0
      }
    },
    {
      "type": "Feature",
      "geometry": {
        "type": "Point",
        "coordinates": [
          9.3641,
          44.6467
        ]
      },
      "properties": {
        "icao24": "440141",
        "callsign": "EJU31LR",
        "origin_country": "Austria",
        "time_position": 1780615025,
        "last_contact": 1780615025,
        "baro_altitude": 7155.18,
        "on_ground": false,
        "velocity": 193,
        "true_track": 309.38,
        "vertical_rate": -17.88,
        "geo_altitude": 7437.12,
        "squawk": "1000",
        "spi": false,
        "position_source": 0
      }
    },
    {
      "type": "Feature",
      "geometry": {
        "type": "Point",
        "coordinates": [
          7.0296,
          40.416
        ]
      },
      "properties": {
        "icao24": "471dc0",
        "callsign": "WMT5320",
        "origin_country": "Hungary",
        "time_position": 1780615025,
        "last_contact": 1780615025,
        "baro_altitude": 10965.18,
        "on_ground": false,
        "velocity": 261.17,
        "true_track": 76.68,
        "vertical_rate": 0,
        "geo_altitude": 11483.34,
        "squawk": "1000",
        "spi": false,
        "position_source": 0
      }
    },
    {
      "type": "Feature",
      "geometry": {
        "type": "Point",
        "coordinates": [
          14.8947,
          37.484
        ]
      },
      "properties": {
        "icao24": "4bd8ac",
        "callsign": "THY6114",
        "origin_country": "Turkey",
        "time_position": 1780615025,
        "last_contact": 1780615026,
        "baro_altitude": 10355.58,
        "on_ground": false,
        "velocity": 229.92,
        "true_track": 250.39,
        "vertical_rate": 0,
        "geo_altitude": 10858.5,
        "squawk": "2307",
        "spi": false,
        "position_source": 0
      }
    },
    {
      "type": "Feature",
      "geometry": {
        "type": "Point",
        "coordinates": [
          13.9163,
          46.2643
        ]
      },
      "properties": {
        "icao24": "7380c5",
        "callsign": "ELY318",
        "origin_country": "Israel",
        "time_position": 1780615025,
        "last_contact": 1780615025,
        "baro_altitude": 11887.2,
        "on_ground": false,
        "velocity": 260.18,
        "true_track": 131.63,
        "vertical_rate": 0,
        "geo_altitude": 12291.06,
        "squawk": "2212",
        "spi": false,
        "position_source": 0
      }
    },
    {
      "type": "Feature",
      "geometry": {
        "type": "Point",
        "coordinates": [
          10.4742,
          44.4869
        ]
      },
      "properties": {
        "icao24": "020118",
        "callsign": "MAC464",
        "origin_country": "Morocco",
        "time_position": 1780615025,
        "last_contact": 1780615026,
        "baro_altitude": 5814.06,
        "on_ground": false,
        "velocity": 171.09,
        "true_track": 256.97,
        "vertical_rate": 9.1,
        "geo_altitude": 6035.04,
        "squawk": "0442",
        "spi": false,
        "position_source": 0
      }
    },
    {
      "type": "Feature",
      "geometry": {
        "type": "Point",
        "coordinates": [
          7.5129,
          39.5024
        ]
      },
      "properties": {
        "icao24": "4bb287",
        "callsign": "THY5LY",
        "origin_country": "Turkey",
        "time_position": 1780615026,
        "last_contact": 1780615026,
        "baro_altitude": 10370.82,
        "on_ground": false,
        "velocity": 248.97,
        "true_track": 62.43,
        "vertical_rate": 0,
        "geo_altitude": 10881.36,
        "squawk": null,
        "spi": false,
        "position_source": 0
      }
    },
    {
      "type": "Feature",
      "geometry": {
        "type": "Point",
        "coordinates": [
          17.4645,
          40.5112
        ]
      },
      "properties": {
        "icao24": "020176",
        "callsign": "MAC523",
        "origin_country": "Morocco",
        "time_position": 1780615025,
        "last_contact": 1780615025,
        "baro_altitude": 11582.4,
        "on_ground": false,
        "velocity": 223.67,
        "true_track": 266.57,
        "vertical_rate": 0,
        "geo_altitude": 12077.7,
        "squawk": "2327",
        "spi": false,
        "position_source": 0
      }
    },
    {
      "type": "Feature",
      "geometry": {
        "type": "Point",
        "coordinates": [
          9.8996,
          44.1789
        ]
      },
      "properties": {
        "icao24": "346648",
        "callsign": "VOE2827",
        "origin_country": "Spain",
        "time_position": 1780615026,
        "last_contact": 1780615026,
        "baro_altitude": 11582.4,
        "on_ground": false,
        "velocity": 204.84,
        "true_track": 298.17,
        "vertical_rate": 0,
        "geo_altitude": 12009.12,
        "squawk": "1000",
        "spi": false,
        "position_source": 0
      }
    },
    {
      "type": "Feature",
      "geometry": {
        "type": "Point",
        "coordinates": [
          17.0085,
          44.8594
        ]
      },
      "properties": {
        "icao24": "406753",
        "callsign": "EZY17NZ",
        "origin_country": "United Kingdom",
        "time_position": 1780615024,
        "last_contact": 1780615025,
        "baro_altitude": 10972.8,
        "on_ground": false,
        "velocity": 217.01,
        "true_track": 310.87,
        "vertical_rate": 0.33,
        "geo_altitude": 11422.38,
        "squawk": "5317",
        "spi": false,
        "position_source": 0
      }
    },
    {
      "type": "Feature",
      "geometry": {
        "type": "Point",
        "coordinates": [
          16.8415,
          44.8321
        ]
      },
      "properties": {
        "icao24": "800738",
        "callsign": "AIC132",
        "origin_country": "India",
        "time_position": 1780615025,
        "last_contact": 1780615025,
        "baro_altitude": 11887.2,
        "on_ground": false,
        "velocity": 268.74,
        "true_track": 131.04,
        "vertical_rate": 0,
        "geo_altitude": 12344.4,
        "squawk": "5203",
        "spi": false,
        "position_source": 0
      }
    },
    {
      "type": "Feature",
      "geometry": {
        "type": "Point",
        "coordinates": [
          6.353,
          45.17
        ]
      },
      "properties": {
        "icao24": "4bb193",
        "callsign": "THY41J",
        "origin_country": "Turkey",
        "time_position": 1780615025,
        "last_contact": 1780615025,
        "baro_altitude": 11887.2,
        "on_ground": false,
        "velocity": 275.11,
        "true_track": 107.86,
        "vertical_rate": 0.33,
        "geo_altitude": 12176.76,
        "squawk": "2362",
        "spi": false,
        "position_source": 0
      }
    },
    {
      "type": "Feature",
      "geometry": {
        "type": "Point",
        "coordinates": [
          15.1999,
          35.4304
        ]
      },
      "properties": {
        "icao24": "8a0796",
        "callsign": "KNE9113",
        "origin_country": "Indonesia",
        "time_position": 1780615026,
        "last_contact": 1780615026,
        "baro_altitude": 11887.2,
        "on_ground": false,
        "velocity": 239.59,
        "true_track": 94.93,
        "vertical_rate": 0,
        "geo_altitude": 12443.46,
        "squawk": "4116",
        "spi": false,
        "position_source": 0
      }
    },
    {
      "type": "Feature",
      "geometry": {
        "type": "Point",
        "coordinates": [
          17.1102,
          46.7352
        ]
      },
      "properties": {
        "icao24": "3965a8",
        "callsign": "AFR116",
        "origin_country": "France",
        "time_position": 1780615026,
        "last_contact": 1780615026,
        "baro_altitude": 9448.8,
        "on_ground": false,
        "velocity": 268.37,
        "true_track": 101.61,
        "vertical_rate": 0,
        "geo_altitude": 9829.8,
        "squawk": "0674",
        "spi": false,
        "position_source": 0
      }
    },
    {
      "type": "Feature",
      "geometry": {
        "type": "Point",
        "coordinates": [
          13.1805,
          46.036
        ]
      },
      "properties": {
        "icao24": "3008c4",
        "callsign": "IDNAM",
        "origin_country": "Italy",
        "time_position": 1780614813,
        "last_contact": 1780614814,
        "baro_altitude": 137.16,
        "on_ground": false,
        "velocity": 3.09,
        "true_track": 0,
        "vertical_rate": -1.3,
        "geo_altitude": 160.02,
        "squawk": "1040",
        "spi": false,
        "position_source": 0
      }
    },
    {
      "type": "Feature",
      "geometry": {
        "type": "Point",
        "coordinates": [
          11.3718,
          36.0502
        ]
      },
      "properties": {
        "icao24": "34644d",
        "callsign": "IBS1904",
        "origin_country": "Spain",
        "time_position": 1780615025,
        "last_contact": 1780615025,
        "baro_altitude": 10363.2,
        "on_ground": false,
        "velocity": 221.75,
        "true_track": 279.62,
        "vertical_rate": 0.33,
        "geo_altitude": 10942.32,
        "squawk": "2003",
        "spi": false,
        "position_source": 0
      }
    },
    {
      "type": "Feature",
      "geometry": {
        "type": "Point",
        "coordinates": [
          17.0533,
          45.9549
        ]
      },
      "properties": {
        "icao24": "8964b3",
        "callsign": "UAE6",
        "origin_country": "United Arab Emirates",
        "time_position": 1780615025,
        "last_contact": 1780615025,
        "baro_altitude": 11277.6,
        "on_ground": false,
        "velocity": 273.95,
        "true_track": 123.9,
        "vertical_rate": 0,
        "geo_altitude": 11681.46,
        "squawk": "2221",
        "spi": false,
        "position_source": 0
      }
    },
    {
      "type": "Feature",
      "geometry": {
        "type": "Point",
        "coordinates": [
          13.7356,
          47.6842
        ]
      },
      "properties": {
        "icao24": "4076ed",
        "callsign": "EXS16V",
        "origin_country": "United Kingdom",
        "time_position": 1780615025,
        "last_contact": 1780615026,
        "baro_altitude": 10972.8,
        "on_ground": false,
        "velocity": 208.58,
        "true_track": 311,
        "vertical_rate": 0,
        "geo_altitude": 11315.7,
        "squawk": "5361",
        "spi": false,
        "position_source": 0
      }
    },
    {
      "type": "Feature",
      "geometry": {
        "type": "Point",
        "coordinates": [
          16.1108,
          43.5103
        ]
      },
      "properties": {
        "icao24": "406696",
        "callsign": "TOM2PJ",
        "origin_country": "United Kingdom",
        "time_position": 1780615025,
        "last_contact": 1780615025,
        "baro_altitude": 10972.8,
        "on_ground": false,
        "velocity": 212.11,
        "true_track": 309.09,
        "vertical_rate": 0,
        "geo_altitude": 11437.62,
        "squawk": "6631",
        "spi": false,
        "position_source": 0
      }
    },
    {
      "type": "Feature",
      "geometry": {
        "type": "Point",
        "coordinates": [
          11.6148,
          38.0566
        ]
      },
      "properties": {
        "icao24": "0201a4",
        "callsign": "RAM2011",
        "origin_country": "Morocco",
        "time_position": 1780615025,
        "last_contact": 1780615025,
        "baro_altitude": 12192,
        "on_ground": false,
        "velocity": 236.39,
        "true_track": 301.93,
        "vertical_rate": -0.33,
        "geo_altitude": 12755.88,
        "squawk": "5515",
        "spi": false,
        "position_source": 0
      }
    },
    {
      "type": "Feature",
      "geometry": {
        "type": "Point",
        "coordinates": [
          16.6757,
          44.6773
        ]
      },
      "properties": {
        "icao24": "40796a",
        "callsign": "TOM32V",
        "origin_country": "United Kingdom",
        "time_position": 1780615025,
        "last_contact": 1780615025,
        "baro_altitude": 11582.4,
        "on_ground": false,
        "velocity": 209.17,
        "true_track": 314.5,
        "vertical_rate": 0,
        "geo_altitude": 12031.98,
        "squawk": "2652",
        "spi": false,
        "position_source": 0
      }
    },
    {
      "type": "Feature",
      "geometry": {
        "type": "Point",
        "coordinates": [
          16.2686,
          47.3479
        ]
      },
      "properties": {
        "icao24": "896681",
        "callsign": "UAE78P",
        "origin_country": "United Arab Emirates",
        "time_position": 1780615026,
        "last_contact": 1780615026,
        "baro_altitude": 11887.2,
        "on_ground": false,
        "velocity": 270.19,
        "true_track": 126.72,
        "vertical_rate": 0.33,
        "geo_altitude": 12245.34,
        "squawk": "1171",
        "spi": false,
        "position_source": 0
      }
    },
    {
      "type": "Feature",
      "geometry": {
        "type": "Point",
        "coordinates": [
          15.979,
          35.9852
        ]
      },
      "properties": {
        "icao24": "040198",
        "callsign": "ETH501",
        "origin_country": "Ethiopia",
        "time_position": 1780615025,
        "last_contact": 1780615026,
        "baro_altitude": 11887.2,
        "on_ground": false,
        "velocity": 248.09,
        "true_track": 101.24,
        "vertical_rate": 0,
        "geo_altitude": 12405.36,
        "squawk": "2202",
        "spi": false,
        "position_source": 0
      }
    },
    {
      "type": "Feature",
      "geometry": {
        "type": "Point",
        "coordinates": [
          15.6461,
          47.5882
        ]
      },
      "properties": {
        "icao24": "4bcd81",
        "callsign": "SXS1ZQ",
        "origin_country": "Turkey",
        "time_position": 1780615025,
        "last_contact": 1780615025,
        "baro_altitude": 11887.2,
        "on_ground": false,
        "velocity": 246.63,
        "true_track": 125.15,
        "vertical_rate": 0,
        "geo_altitude": 12268.2,
        "squawk": "4505",
        "spi": false,
        "position_source": 0
      }
    },
    {
      "type": "Feature",
      "geometry": {
        "type": "Point",
        "coordinates": [
          16.767,
          41.1367
        ]
      },
      "properties": {
        "icao24": "4ca4ea",
        "callsign": "RY408P",
        "origin_country": "Ireland",
        "time_position": 1780615018,
        "last_contact": 1780615023,
        "baro_altitude": null,
        "on_ground": true,
        "velocity": 0,
        "true_track": 202.5,
        "vertical_rate": null,
        "geo_altitude": null,
        "squawk": null,
        "spi": false,
        "position_source": 0
      }
    },
    {
      "type": "Feature",
      "geometry": {
        "type": "Point",
        "coordinates": [
          13.7151,
          36.2755
        ]
      },
      "properties": {
        "icao24": "04019a",
        "callsign": "ETH741",
        "origin_country": "Ethiopia",
        "time_position": 1780615025,
        "last_contact": 1780615025,
        "baro_altitude": 11269.98,
        "on_ground": false,
        "velocity": 253.05,
        "true_track": 99.6,
        "vertical_rate": 0,
        "geo_altitude": 11841.48,
        "squawk": "4104",
        "spi": false,
        "position_source": 0
      }
    },
    {
      "type": "Feature",
      "geometry": {
        "type": "Point",
        "coordinates": [
          14.4565,
          37.2257
        ]
      },
      "properties": {
        "icao24": "4ca56d",
        "callsign": "RYR46JB",
        "origin_country": "Ireland",
        "time_position": 1780615025,
        "last_contact": 1780615025,
        "baro_altitude": 8229.6,
        "on_ground": false,
        "velocity": 197.96,
        "true_track": 188.07,
        "vertical_rate": 0,
        "geo_altitude": 8679.18,
        "squawk": "6033",
        "spi": false,
        "position_source": 0
      }
    },
    {
      "type": "Feature",
      "geometry": {
        "type": "Point",
        "coordinates": [
          10.9255,
          42.188
        ]
      },
      "properties": {
        "icao24": "040048",
        "callsign": "ETH575",
        "origin_country": "Ethiopia",
        "time_position": 1780615025,
        "last_contact": 1780615025,
        "baro_altitude": 11879.58,
        "on_ground": false,
        "velocity": 263.44,
        "true_track": 117.07,
        "vertical_rate": 0.33,
        "geo_altitude": 12367.26,
        "squawk": "3363",
        "spi": false,
        "position_source": 0
      }
    },
    {
      "type": "Feature",
      "geometry": {
        "type": "Point",
        "coordinates": [
          15.6281,
          40.1133
        ]
      },
      "properties": {
        "icao24": "040045",
        "callsign": "ETH727",
        "origin_country": "Ethiopia",
        "time_position": 1780615026,
        "last_contact": 1780615026,
        "baro_altitude": 11277.6,
        "on_ground": false,
        "velocity": 265.14,
        "true_track": 120.3,
        "vertical_rate": 0,
        "geo_altitude": 11795.76,
        "squawk": "4312",
        "spi": false,
        "position_source": 0
      }
    },
    {
      "type": "Feature",
      "geometry": {
        "type": "Point",
        "coordinates": [
          14.4657,
          36.2162
        ]
      },
      "properties": {
        "icao24": "06a391",
        "callsign": "QTR8274",
        "origin_country": "Qatar",
        "time_position": 1780615025,
        "last_contact": 1780615025,
        "baro_altitude": 11887.2,
        "on_ground": false,
        "velocity": 247.92,
        "true_track": 100.4,
        "vertical_rate": 0,
        "geo_altitude": 12435.84,
        "squawk": "4102",
        "spi": false,
        "position_source": 0
      }
    },
    {
      "type": "Feature",
      "geometry": {
        "type": "Point",
        "coordinates": [
          9.611,
          45.0906
        ]
      },
      "properties": {
        "icao24": "502d61",
        "callsign": "UAG37B",
        "origin_country": "Latvia",
        "time_position": 1780615025,
        "last_contact": 1780615025,
        "baro_altitude": 5532.12,
        "on_ground": false,
        "velocity": 186.39,
        "true_track": 209.61,
        "vertical_rate": -9.43,
        "geo_altitude": 5722.62,
        "squawk": "2203",
        "spi": false,
        "position_source": 0
      }
    },
    {
      "type": "Feature",
      "geometry": {
        "type": "Point",
        "coordinates": [
          12.2757,
          40.7936
        ]
      },
      "properties": {
        "icao24": "49d420",
        "callsign": "TVQ6481",
        "origin_country": "Czech Republic",
        "time_position": 1780615025,
        "last_contact": 1780615025,
        "baro_altitude": 11582.4,
        "on_ground": false,
        "velocity": 236.03,
        "true_track": 16.46,
        "vertical_rate": 0,
        "geo_altitude": 12100.56,
        "squawk": "6134",
        "spi": false,
        "position_source": 0
      }
    },
    {
      "type": "Feature",
      "geometry": {
        "type": "Point",
        "coordinates": [
          12.4207,
          46.9097
        ]
      },
      "properties": {
        "icao24": "06a2b7",
        "callsign": "QTR42M",
        "origin_country": "Qatar",
        "time_position": 1780615025,
        "last_contact": 1780615025,
        "baro_altitude": 10668,
        "on_ground": false,
        "velocity": 272.23,
        "true_track": 113.03,
        "vertical_rate": 0,
        "geo_altitude": 11018.52,
        "squawk": "0663",
        "spi": false,
        "position_source": 0
      }
    },
    {
      "type": "Feature",
      "geometry": {
        "type": "Point",
        "coordinates": [
          9.6719,
          45.6743
        ]
      },
      "properties": {
        "icao24": "4ca2ad",
        "callsign": "RYR765L",
        "origin_country": "Ireland",
        "time_position": 1780614856,
        "last_contact": 1780614857,
        "baro_altitude": 396.24,
        "on_ground": false,
        "velocity": 73.14,
        "true_track": 105.5,
        "vertical_rate": -4.88,
        "geo_altitude": 411.48,
        "squawk": "4412",
        "spi": false,
        "position_source": 0
      }
    },
    {
      "type": "Feature",
      "geometry": {
        "type": "Point",
        "coordinates": [
          15.7328,
          46.6248
        ]
      },
      "properties": {
        "icao24": "406d77",
        "callsign": "BAW15",
        "origin_country": "United Kingdom",
        "time_position": 1780615025,
        "last_contact": 1780615026,
        "baro_altitude": 10660.38,
        "on_ground": false,
        "velocity": 264.29,
        "true_track": 124.77,
        "vertical_rate": 0,
        "geo_altitude": 11064.24,
        "squawk": "1163",
        "spi": false,
        "position_source": 0
      }
    },
    {
      "type": "Feature",
      "geometry": {
        "type": "Point",
        "coordinates": [
          17.0981,
          39.3105
        ]
      },
      "properties": {
        "icao24": "49d365",
        "callsign": "ISR342",
        "origin_country": "Czech Republic",
        "time_position": 1780615025,
        "last_contact": 1780615025,
        "baro_altitude": 11277.6,
        "on_ground": false,
        "velocity": 241.83,
        "true_track": 117.49,
        "vertical_rate": 0,
        "geo_altitude": 11765.28,
        "squawk": "4306",
        "spi": false,
        "position_source": 0
      }
    },
    {
      "type": "Feature",
      "geometry": {
        "type": "Point",
        "coordinates": [
          17.0787,
          42.9012
        ]
      },
      "properties": {
        "icao24": "48e9f2",
        "callsign": "RYR5669",
        "origin_country": "Poland",
        "time_position": 1780615026,
        "last_contact": 1780615026,
        "baro_altitude": 11277.6,
        "on_ground": false,
        "velocity": 218.81,
        "true_track": 113.85,
        "vertical_rate": 0,
        "geo_altitude": 11734.8,
        "squawk": "3756",
        "spi": false,
        "position_source": 0
      }
    },
    {
      "type": "Feature",
      "geometry": {
        "type": "Point",
        "coordinates": [
          18.8161,
          42.1798
        ]
      },
      "properties": {
        "icao24": "407fda",
        "callsign": "WUK7402",
        "origin_country": "United Kingdom",
        "time_position": 1780615025,
        "last_contact": 1780615025,
        "baro_altitude": 6195.06,
        "on_ground": false,
        "velocity": 221.34,
        "true_track": 137.26,
        "vertical_rate": -12.03,
        "geo_altitude": 6492.24,
        "squawk": "0544",
        "spi": false,
        "position_source": 0
      }
    },
    {
      "type": "Feature",
      "geometry": {
        "type": "Point",
        "coordinates": [
          12.695,
          42.1676
        ]
      },
      "properties": {
        "icao24": "4ca24c",
        "callsign": "RYR11YF",
        "origin_country": "Ireland",
        "time_position": 1780615025,
        "last_contact": 1780615025,
        "baro_altitude": 11277.6,
        "on_ground": false,
        "velocity": 233.69,
        "true_track": 160.05,
        "vertical_rate": 0,
        "geo_altitude": 11765.28,
        "squawk": "7427",
        "spi": false,
        "position_source": 0
      }
    },
    {
      "type": "Feature",
      "geometry": {
        "type": "Point",
        "coordinates": [
          16.141,
          45.8345
        ]
      },
      "properties": {
        "icao24": "407e7b",
        "callsign": "TOM309",
        "origin_country": "United Kingdom",
        "time_position": 1780615026,
        "last_contact": 1780615026,
        "baro_altitude": 10363.2,
        "on_ground": false,
        "velocity": 229.25,
        "true_track": 313.55,
        "vertical_rate": 0,
        "geo_altitude": 10782.3,
        "squawk": "2035",
        "spi": false,
        "position_source": 0
      }
    },
    {
      "type": "Feature",
      "geometry": {
        "type": "Point",
        "coordinates": [
          8.5082,
          40.7058
        ]
      },
      "properties": {
        "icao24": "71c391",
        "callsign": "KAL922",
        "origin_country": "Republic of Korea",
        "time_position": 1780615026,
        "last_contact": 1780615026,
        "baro_altitude": 10965.18,
        "on_ground": false,
        "velocity": 271.14,
        "true_track": 68.99,
        "vertical_rate": 0,
        "geo_altitude": 11475.72,
        "squawk": "1427",
        "spi": false,
        "position_source": 0
      }
    },
    {
      "type": "Feature",
      "geometry": {
        "type": "Point",
        "coordinates": [
          6.9231,
          47.3963
        ]
      },
      "properties": {
        "icao24": "407e63",
        "callsign": "EZY48VW",
        "origin_country": "United Kingdom",
        "time_position": 1780615025,
        "last_contact": 1780615025,
        "baro_altitude": 11574.78,
        "on_ground": false,
        "velocity": 212.69,
        "true_track": 309.5,
        "vertical_rate": 0.33,
        "geo_altitude": 11772.9,
        "squawk": "2743",
        "spi": false,
        "position_source": 0
      }
    },
    {
      "type": "Feature",
      "geometry": {
        "type": "Point",
        "coordinates": [
          15.1852,
          44.4397
        ]
      },
      "properties": {
        "icao24": "407e60",
        "callsign": "EZY75PF",
        "origin_country": "United Kingdom",
        "time_position": 1780615025,
        "last_contact": 1780615025,
        "baro_altitude": 10972.8,
        "on_ground": false,
        "velocity": 223.07,
        "true_track": 305.05,
        "vertical_rate": 0,
        "geo_altitude": 11430,
        "squawk": "2022",
        "spi": false,
        "position_source": 0
      }
    },
    {
      "type": "Feature",
      "geometry": {
        "type": "Point",
        "coordinates": [
          16.8176,
          44.7055
        ]
      },
      "properties": {
        "icao24": "407e54",
        "callsign": "EXS98H",
        "origin_country": "United Kingdom",
        "time_position": 1780615025,
        "last_contact": 1780615025,
        "baro_altitude": 10972.8,
        "on_ground": false,
        "velocity": 209.72,
        "true_track": 309.63,
        "vertical_rate": 0,
        "geo_altitude": 11437.62,
        "squawk": "2071",
        "spi": false,
        "position_source": 0
      }
    },
    {
      "type": "Feature",
      "geometry": {
        "type": "Point",
        "coordinates": [
          16.9357,
          45.2832
        ]
      },
      "properties": {
        "icao24": "406c80",
        "callsign": "EXS6FV",
        "origin_country": "United Kingdom",
        "time_position": 1780615025,
        "last_contact": 1780615025,
        "baro_altitude": 10972.8,
        "on_ground": false,
        "velocity": 215.5,
        "true_track": 318.97,
        "vertical_rate": 0,
        "geo_altitude": 11399.52,
        "squawk": "5536",
        "spi": false,
        "position_source": 0
      }
    },
    {
      "type": "Feature",
      "geometry": {
        "type": "Point",
        "coordinates": [
          8.7848,
          45.4051
        ]
      },
      "properties": {
        "icao24": "44079a",
        "callsign": "EJU68VV",
        "origin_country": "Austria",
        "time_position": 1780615025,
        "last_contact": 1780615025,
        "baro_altitude": 1386.84,
        "on_ground": false,
        "velocity": 109.57,
        "true_track": 348.9,
        "vertical_rate": -2.6,
        "geo_altitude": 1417.32,
        "squawk": "2062",
        "spi": false,
        "position_source": 0
      }
    },
    {
      "type": "Feature",
      "geometry": {
        "type": "Point",
        "coordinates": [
          14.9321,
          43.1498
        ]
      },
      "properties": {
        "icao24": "407f67",
        "callsign": "EZY89CX",
        "origin_country": "United Kingdom",
        "time_position": 1780615026,
        "last_contact": 1780615026,
        "baro_altitude": 11285.22,
        "on_ground": false,
        "velocity": 237.59,
        "true_track": 136.14,
        "vertical_rate": 0.33,
        "geo_altitude": 11750.04,
        "squawk": "0513",
        "spi": false,
        "position_source": 0
      }
    },
    {
      "type": "Feature",
      "geometry": {
        "type": "Point",
        "coordinates": [
          13.8006,
          46.3623
        ]
      },
      "properties": {
        "icao24": "4cc4c5",
        "callsign": "ABD5724",
        "origin_country": "Iceland",
        "time_position": 1780615025,
        "last_contact": 1780615026,
        "baro_altitude": 10058.4,
        "on_ground": false,
        "velocity": 258.55,
        "true_track": 140.9,
        "vertical_rate": 0.33,
        "geo_altitude": 10401.3,
        "squawk": "7117",
        "spi": false,
        "position_source": 0
      }
    },
    {
      "type": "Feature",
      "geometry": {
        "type": "Point",
        "coordinates": [
          15.2334,
          45.6255
        ]
      },
      "properties": {
        "icao24": "407c26",
        "callsign": "TOM255",
        "origin_country": "United Kingdom",
        "time_position": 1780615025,
        "last_contact": 1780615025,
        "baro_altitude": 11582.4,
        "on_ground": false,
        "velocity": 220.41,
        "true_track": 318.12,
        "vertical_rate": 0,
        "geo_altitude": 12016.74,
        "squawk": "5333",
        "spi": false,
        "position_source": 0
      }
    },
    {
      "type": "Feature",
      "geometry": {
        "type": "Point",
        "coordinates": [
          15.1379,
          45.7298
        ]
      },
      "properties": {
        "icao24": "407c0a",
        "callsign": "TOM515",
        "origin_country": "United Kingdom",
        "time_position": 1780615025,
        "last_contact": 1780615025,
        "baro_altitude": 10972.8,
        "on_ground": false,
        "velocity": 222.13,
        "true_track": 317.63,
        "vertical_rate": 0,
        "geo_altitude": 11399.52,
        "squawk": "2036",
        "spi": false,
        "position_source": 0
      }
    },
    {
      "type": "Feature",
      "geometry": {
        "type": "Point",
        "coordinates": [
          8.7464,
          45.5454
        ]
      },
      "properties": {
        "icao24": "44042f",
        "callsign": "EJU3596",
        "origin_country": "Austria",
        "time_position": 1780615025,
        "last_contact": 1780615025,
        "baro_altitude": 678.18,
        "on_ground": false,
        "velocity": 70.22,
        "true_track": 349.02,
        "vertical_rate": -3.58,
        "geo_altitude": 693.42,
        "squawk": "1000",
        "spi": false,
        "position_source": 0
      }
    },
    {
      "type": "Feature",
      "geometry": {
        "type": "Point",
        "coordinates": [
          17.3544,
          47.2144
        ]
      },
      "properties": {
        "icao24": "4bb84f",
        "callsign": "PGT482Y",
        "origin_country": "Turkey",
        "time_position": 1780615025,
        "last_contact": 1780615025,
        "baro_altitude": 11582.4,
        "on_ground": false,
        "velocity": 207.13,
        "true_track": 319.03,
        "vertical_rate": 0,
        "geo_altitude": 11971.02,
        "squawk": "5325",
        "spi": false,
        "position_source": 0
      }
    },
    {
      "type": "Feature",
      "geometry": {
        "type": "Point",
        "coordinates": [
          7.3052,
          40.909
        ]
      },
      "properties": {
        "icao24": "343386",
        "callsign": "VLG61BB",
        "origin_country": "Spain",
        "time_position": 1780615025,
        "last_contact": 1780615025,
        "baro_altitude": 10668,
        "on_ground": false,
        "velocity": 207.03,
        "true_track": 274.85,
        "vertical_rate": 0,
        "geo_altitude": 11155.68,
        "squawk": null,
        "spi": false,
        "position_source": 0
      }
    },
    {
      "type": "Feature",
      "geometry": {
        "type": "Point",
        "coordinates": [
          14.0843,
          47.5316
        ]
      },
      "properties": {
        "icao24": "406a59",
        "callsign": "EXS16M",
        "origin_country": "United Kingdom",
        "time_position": 1780615025,
        "last_contact": 1780615025,
        "baro_altitude": 11582.4,
        "on_ground": false,
        "velocity": 212.24,
        "true_track": 312.74,
        "vertical_rate": 0,
        "geo_altitude": 11948.16,
        "squawk": "5525",
        "spi": false,
        "position_source": 0
      }
    },
    {
      "type": "Feature",
      "geometry": {
        "type": "Point",
        "coordinates": [
          18.2985,
          44.3181
        ]
      },
      "properties": {
        "icao24": "48c230",
        "callsign": "RYR454",
        "origin_country": "Poland",
        "time_position": 1780615025,
        "last_contact": 1780615025,
        "baro_altitude": 12192,
        "on_ground": false,
        "velocity": 211.25,
        "true_track": 3.21,
        "vertical_rate": 0,
        "geo_altitude": 12633.96,
        "squawk": "1000",
        "spi": false,
        "position_source": 0
      }
    },
    {
      "type": "Feature",
      "geometry": {
        "type": "Point",
        "coordinates": [
          17.9236,
          40.398
        ]
      },
      "properties": {
        "icao24": "80159f",
        "callsign": "AIC144",
        "origin_country": "India",
        "time_position": 1780615025,
        "last_contact": 1780615025,
        "baro_altitude": 10058.4,
        "on_ground": false,
        "velocity": 267.29,
        "true_track": 124.73,
        "vertical_rate": 0,
        "geo_altitude": 10507.98,
        "squawk": "0404",
        "spi": false,
        "position_source": 0
      }
    },
    {
      "type": "Feature",
      "geometry": {
        "type": "Point",
        "coordinates": [
          17.6147,
          36.6585
        ]
      },
      "properties": {
        "icao24": "06a0b9",
        "callsign": "QTR41A",
        "origin_country": "Qatar",
        "time_position": 1780615025,
        "last_contact": 1780615025,
        "baro_altitude": 11879.58,
        "on_ground": false,
        "velocity": 260.88,
        "true_track": 113.23,
        "vertical_rate": 0,
        "geo_altitude": 12397.74,
        "squawk": null,
        "spi": false,
        "position_source": 0
      }
    },
    {
      "type": "Feature",
      "geometry": {
        "type": "Point",
        "coordinates": [
          14.1676,
          36.2293
        ]
      },
      "properties": {
        "icao24": "06a0ab",
        "callsign": "QTR52A",
        "origin_country": "Qatar",
        "time_position": 1780615025,
        "last_contact": 1780615025,
        "baro_altitude": 12489.18,
        "on_ground": false,
        "velocity": 249.17,
        "true_track": 99.99,
        "vertical_rate": 0.65,
        "geo_altitude": 13045.44,
        "squawk": "6131",
        "spi": false,
        "position_source": 0
      }
    },
    {
      "type": "Feature",
      "geometry": {
        "type": "Point",
        "coordinates": [
          8.5602,
          47.4462
        ]
      },
      "properties": {
        "icao24": "4b1809",
        "callsign": "SWR",
        "origin_country": "Switzerland",
        "time_position": 1780613413,
        "last_contact": 1780615010,
        "baro_altitude": null,
        "on_ground": true,
        "velocity": 0,
        "true_track": 244.69,
        "vertical_rate": null,
        "geo_altitude": null,
        "squawk": "2000",
        "spi": false,
        "position_source": 0
      }
    },
    {
      "type": "Feature",
      "geometry": {
        "type": "Point",
        "coordinates": [
          8.5636,
          47.4414
        ]
      },
      "properties": {
        "icao24": "4b180b",
        "callsign": "SWR",
        "origin_country": "Switzerland",
        "time_position": 1780615017,
        "last_contact": 1780615022,
        "baro_altitude": null,
        "on_ground": true,
        "velocity": 0,
        "true_track": 64.69,
        "vertical_rate": null,
        "geo_altitude": null,
        "squawk": "2000",
        "spi": false,
        "position_source": 0
      }
    },
    {
      "type": "Feature",
      "geometry": {
        "type": "Point",
        "coordinates": [
          17.7312,
          35.4144
        ]
      },
      "properties": {
        "icao24": "0a00c2",
        "callsign": "DAH3157",
        "origin_country": "Algeria",
        "time_position": 1780615025,
        "last_contact": 1780615025,
        "baro_altitude": 12192,
        "on_ground": false,
        "velocity": 238.43,
        "true_track": 278.81,
        "vertical_rate": 0,
        "geo_altitude": 12694.92,
        "squawk": null,
        "spi": false,
        "position_source": 0
      }
    },
    {
      "type": "Feature",
      "geometry": {
        "type": "Point",
        "coordinates": [
          7.219,
          47.1507
        ]
      },
      "properties": {
        "icao24": "408142",
        "callsign": "DHK528",
        "origin_country": "United Kingdom",
        "time_position": 1780615025,
        "last_contact": 1780615025,
        "baro_altitude": 11887.2,
        "on_ground": false,
        "velocity": 252.1,
        "true_track": 139.39,
        "vertical_rate": 0,
        "geo_altitude": 12085.32,
        "squawk": "5211",
        "spi": false,
        "position_source": 0
      }
    },
    {
      "type": "Feature",
      "geometry": {
        "type": "Point",
        "coordinates": [
          6.4565,
          46.3905
        ]
      },
      "properties": {
        "icao24": "3c5423",
        "callsign": "BCS9TC",
        "origin_country": "Germany",
        "time_position": 1780615025,
        "last_contact": 1780615025,
        "baro_altitude": 10370.82,
        "on_ground": false,
        "velocity": 277.19,
        "true_track": 45.3,
        "vertical_rate": 0,
        "geo_altitude": 10523.22,
        "squawk": "1000",
        "spi": false,
        "position_source": 0
      }
    },
    {
      "type": "Feature",
      "geometry": {
        "type": "Point",
        "coordinates": [
          17.8491,
          47.3563
        ]
      },
      "properties": {
        "icao24": "440cab",
        "callsign": "AUA1083",
        "origin_country": "Austria",
        "time_position": 1780615025,
        "last_contact": 1780615025,
        "baro_altitude": 8412.48,
        "on_ground": false,
        "velocity": 232.86,
        "true_track": 146.63,
        "vertical_rate": 8.13,
        "geo_altitude": 8763,
        "squawk": "4156",
        "spi": false,
        "position_source": 0
      }
    },
    {
      "type": "Feature",
      "geometry": {
        "type": "Point",
        "coordinates": [
          11.7536,
          35.2563
        ]
      },
      "properties": {
        "icao24": "02a1a5",
        "callsign": "LBT7671",
        "origin_country": "Tunisia",
        "time_position": 1780615025,
        "last_contact": 1780615025,
        "baro_altitude": 8961.12,
        "on_ground": false,
        "velocity": 224.19,
        "true_track": 216.79,
        "vertical_rate": -10.4,
        "geo_altitude": 9502.14,
        "squawk": "6026",
        "spi": false,
        "position_source": 0
      }
    },
    {
      "type": "Feature",
      "geometry": {
        "type": "Point",
        "coordinates": [
          13.76,
          43.7561
        ]
      },
      "properties": {
        "icao24": "02a1b4",
        "callsign": "LBT7425",
        "origin_country": "Tunisia",
        "time_position": 1780615026,
        "last_contact": 1780615026,
        "baro_altitude": 11894.82,
        "on_ground": false,
        "velocity": 218.82,
        "true_track": 197.8,
        "vertical_rate": 0,
        "geo_altitude": 12359.64,
        "squawk": "5545",
        "spi": false,
        "position_source": 0
      }
    },
    {
      "type": "Feature",
      "geometry": {
        "type": "Point",
        "coordinates": [
          12.6877,
          38.1892
        ]
      },
      "properties": {
        "icao24": "02a1b0",
        "callsign": "LBT7451",
        "origin_country": "Tunisia",
        "time_position": 1780615025,
        "last_contact": 1780615025,
        "baro_altitude": 10668,
        "on_ground": false,
        "velocity": 231.9,
        "true_track": 202.98,
        "vertical_rate": 0,
        "geo_altitude": 11224.26,
        "squawk": "4305",
        "spi": false,
        "position_source": 0
      }
    },
    {
      "type": "Feature",
      "geometry": {
        "type": "Point",
        "coordinates": [
          16.4046,
          45.5499
        ]
      },
      "properties": {
        "icao24": "4080df",
        "callsign": "EXS59WJ",
        "origin_country": "United Kingdom",
        "time_position": 1780615025,
        "last_contact": 1780615025,
        "baro_altitude": 10972.8,
        "on_ground": false,
        "velocity": 217.36,
        "true_track": 320.28,
        "vertical_rate": 0,
        "geo_altitude": 11414.76,
        "squawk": "2033",
        "spi": false,
        "position_source": 0
      }
    },
    {
      "type": "Feature",
      "geometry": {
        "type": "Point",
        "coordinates": [
          17.9387,
          43.0404
        ]
      },
      "properties": {
        "icao24": "40815b",
        "callsign": "EZY75UQ",
        "origin_country": "United Kingdom",
        "time_position": 1780615025,
        "last_contact": 1780615025,
        "baro_altitude": 11590.02,
        "on_ground": false,
        "velocity": 206.33,
        "true_track": 303.1,
        "vertical_rate": 0,
        "geo_altitude": 12054.84,
        "squawk": "5613",
        "spi": false,
        "position_source": 0
      }
    },
    {
      "type": "Feature",
      "geometry": {
        "type": "Point",
        "coordinates": [
          10.5753,
          47.4124
        ]
      },
      "properties": {
        "icao24": "40815c",
        "callsign": "EZY79GQ",
        "origin_country": "United Kingdom",
        "time_position": 1780615025,
        "last_contact": 1780615025,
        "baro_altitude": 10972.8,
        "on_ground": false,
        "velocity": 207.53,
        "true_track": 312.59,
        "vertical_rate": -0.33,
        "geo_altitude": 11224.26,
        "squawk": "3125",
        "spi": false,
        "position_source": 0
      }
    },
    {
      "type": "Feature",
      "geometry": {
        "type": "Point",
        "coordinates": [
          13.9031,
          44.5741
        ]
      },
      "properties": {
        "icao24": "440c6f",
        "callsign": "EJU48FL",
        "origin_country": "Austria",
        "time_position": 1780615025,
        "last_contact": 1780615025,
        "baro_altitude": 10972.8,
        "on_ground": false,
        "velocity": 220.43,
        "true_track": 305.69,
        "vertical_rate": 0,
        "geo_altitude": 11422.38,
        "squawk": "7741",
        "spi": false,
        "position_source": 0
      }
    },
    {
      "type": "Feature",
      "geometry": {
        "type": "Point",
        "coordinates": [
          8.7348,
          45.5873
        ]
      },
      "properties": {
        "icao24": "440c33",
        "callsign": "EJU89NW",
        "origin_country": "Austria",
        "time_position": 1780614760,
        "last_contact": 1780614760,
        "baro_altitude": 434.34,
        "on_ground": false,
        "velocity": 63.87,
        "true_track": 349.32,
        "vertical_rate": -3.25,
        "geo_altitude": 457.2,
        "squawk": "1000",
        "spi": false,
        "position_source": 0
      }
    },
    {
      "type": "Feature",
      "geometry": {
        "type": "Point",
        "coordinates": [
          6.42,
          40.2065
        ]
      },
      "properties": {
        "icao24": "4246b3",
        "callsign": "AZG9933",
        "origin_country": "United Kingdom",
        "time_position": 1780615025,
        "last_contact": 1780615025,
        "baro_altitude": 10668,
        "on_ground": false,
        "velocity": 226.67,
        "true_track": 260.07,
        "vertical_rate": 0,
        "geo_altitude": 11155.68,
        "squawk": "2016",
        "spi": false,
        "position_source": 0
      }
    },
    {
      "type": "Feature",
      "geometry": {
        "type": "Point",
        "coordinates": [
          10.7525,
          46.4204
        ]
      },
      "properties": {
        "icao24": "408032",
        "callsign": "EXS47K",
        "origin_country": "United Kingdom",
        "time_position": 1780615025,
        "last_contact": 1780615025,
        "baro_altitude": 11590.02,
        "on_ground": false,
        "velocity": 207.04,
        "true_track": 304.16,
        "vertical_rate": 0.33,
        "geo_altitude": 11925.3,
        "squawk": "7514",
        "spi": false,
        "position_source": 0
      }
    },
    {
      "type": "Feature",
      "geometry": {
        "type": "Point",
        "coordinates": [
          17.2716,
          44.2448
        ]
      },
      "properties": {
        "icao24": "408034",
        "callsign": "EXS30KR",
        "origin_country": "United Kingdom",
        "time_position": 1780615026,
        "last_contact": 1780615026,
        "baro_altitude": 11582.4,
        "on_ground": false,
        "velocity": 214.99,
        "true_track": 315.29,
        "vertical_rate": 0,
        "geo_altitude": 12047.22,
        "squawk": "5313",
        "spi": false,
        "position_source": 0
      }
    },
    {
      "type": "Feature",
      "geometry": {
        "type": "Point",
        "coordinates": [
          14.1032,
          35.8201
        ]
      },
      "properties": {
        "icao24": "7105b1",
        "callsign": "SVA9618",
        "origin_country": "Saudi Arabia",
        "time_position": 1780615025,
        "last_contact": 1780615025,
        "baro_altitude": 11887.2,
        "on_ground": false,
        "velocity": 252.24,
        "true_track": 96.68,
        "vertical_rate": -0.33,
        "geo_altitude": 12443.46,
        "squawk": "7770",
        "spi": false,
        "position_source": 0
      }
    },
    {
      "type": "Feature",
      "geometry": {
        "type": "Point",
        "coordinates": [
          6.6851,
          44.2341
        ]
      },
      "properties": {
        "icao24": "4ca8e6",
        "callsign": "RYR9LY",
        "origin_country": "Ireland",
        "time_position": 1780615025,
        "last_contact": 1780615025,
        "baro_altitude": 8008.62,
        "on_ground": false,
        "velocity": 207.78,
        "true_track": 329.5,
        "vertical_rate": 9.1,
        "geo_altitude": 8252.46,
        "squawk": "4062",
        "spi": false,
        "position_source": 0
      }
    },
    {
      "type": "Feature",
      "geometry": {
        "type": "Point",
        "coordinates": [
          7.6839,
          40.8761
        ]
      },
      "properties": {
        "icao24": "4ca8db",
        "callsign": "RYR6804",
        "origin_country": "Ireland",
        "time_position": 1780615026,
        "last_contact": 1780615026,
        "baro_altitude": 8008.62,
        "on_ground": false,
        "velocity": 204.61,
        "true_track": 273.46,
        "vertical_rate": 9.75,
        "geo_altitude": 8374.38,
        "squawk": null,
        "spi": false,
        "position_source": 0
      }
    },
    {
      "type": "Feature",
      "geometry": {
        "type": "Point",
        "coordinates": [
          11.7745,
          45.5178
        ]
      },
      "properties": {
        "icao24": "4ca8d9",
        "callsign": "RYR84UF",
        "origin_country": "Ireland",
        "time_position": 1780615025,
        "last_contact": 1780615025,
        "baro_altitude": 3055.62,
        "on_ground": false,
        "velocity": 152.56,
        "true_track": 139.65,
        "vertical_rate": -1.95,
        "geo_altitude": 3154.68,
        "squawk": "0530",
        "spi": false,
        "position_source": 0
      }
    },
    {
      "type": "Feature",
      "geometry": {
        "type": "Point",
        "coordinates": [
          14.2841,
          47.4011
        ]
      },
      "properties": {
        "icao24": "5084d2",
        "callsign": "MGH402",
        "origin_country": "Ukraine",
        "time_position": 1780615026,
        "last_contact": 1780615026,
        "baro_altitude": 10668,
        "on_ground": false,
        "velocity": 244.18,
        "true_track": 126,
        "vertical_rate": 0,
        "geo_altitude": 11026.14,
        "squawk": "7663",
        "spi": false,
        "position_source": 0
      }
    },
    {
      "type": "Feature",
      "geometry": {
        "type": "Point",
        "coordinates": [
          18.8499,
          47.7156
        ]
      },
      "properties": {
        "icao24": "5084d1",
        "callsign": "MGH428",
        "origin_country": "Ukraine",
        "time_position": 1780615025,
        "last_contact": 1780615026,
        "baro_altitude": 10325.1,
        "on_ground": false,
        "velocity": 245.91,
        "true_track": 134.83,
        "vertical_rate": 4.55,
        "geo_altitude": 10706.1,
        "squawk": "7604",
        "spi": false,
        "position_source": 0
      }
    },
    {
      "type": "Feature",
      "geometry": {
        "type": "Point",
        "coordinates": [
          13.0263,
          42.5039
        ]
      },
      "properties": {
        "icao24": "4ca82b",
        "callsign": "MSA56B",
        "origin_country": "Ireland",
        "time_position": 1780615025,
        "last_contact": 1780615025,
        "baro_altitude": 10668,
        "on_ground": false,
        "velocity": 248.18,
        "true_track": 128.6,
        "vertical_rate": 0,
        "geo_altitude": 11132.82,
        "squawk": "1000",
        "spi": false,
        "position_source": 0
      }
    },
    {
      "type": "Feature",
      "geometry": {
        "type": "Point",
        "coordinates": [
          9.3973,
          40.5513
        ]
      },
      "properties": {
        "icao24": "4ca82c",
        "callsign": "MSA83E",
        "origin_country": "Ireland",
        "time_position": 1780615023,
        "last_contact": 1780615023,
        "baro_altitude": 8785.86,
        "on_ground": false,
        "velocity": 220.91,
        "true_track": 195.4,
        "vertical_rate": -5.2,
        "geo_altitude": 9220.2,
        "squawk": "4636",
        "spi": false,
        "position_source": 0
      }
    },
    {
      "type": "Feature",
      "geometry": {
        "type": "Point",
        "coordinates": [
          17.3054,
          46.8427
        ]
      },
      "properties": {
        "icao24": "4bcdeb",
        "callsign": "SXS37U",
        "origin_country": "Turkey",
        "time_position": 1780615025,
        "last_contact": 1780615026,
        "baro_altitude": 10972.8,
        "on_ground": false,
        "velocity": 213.24,
        "true_track": 308.14,
        "vertical_rate": 0,
        "geo_altitude": 11384.28,
        "squawk": "3275",
        "spi": false,
        "position_source": 0
      }
    },
    {
      "type": "Feature",
      "geometry": {
        "type": "Point",
        "coordinates": [
          10.6507,
          46.2456
        ]
      },
      "properties": {
        "icao24": "4ca703",
        "callsign": "RYR9373",
        "origin_country": "Ireland",
        "time_position": 1780615025,
        "last_contact": 1780615025,
        "baro_altitude": 8648.7,
        "on_ground": false,
        "velocity": 199.79,
        "true_track": 241.72,
        "vertical_rate": -4.88,
        "geo_altitude": 8923.02,
        "squawk": "2266",
        "spi": false,
        "position_source": 0
      }
    },
    {
      "type": "Feature",
      "geometry": {
        "type": "Point",
        "coordinates": [
          6.6063,
          45.2143
        ]
      },
      "properties": {
        "icao24": "3c71a7",
        "callsign": "BCS082",
        "origin_country": "Germany",
        "time_position": 1780615025,
        "last_contact": 1780615025,
        "baro_altitude": 11582.4,
        "on_ground": false,
        "velocity": 257.55,
        "true_track": 352.19,
        "vertical_rate": 0,
        "geo_altitude": 11887.2,
        "squawk": "5566",
        "spi": false,
        "position_source": 0
      }
    },
    {
      "type": "Feature",
      "geometry": {
        "type": "Point",
        "coordinates": [
          17.8574,
          46.5135
        ]
      },
      "properties": {
        "icao24": "4bce15",
        "callsign": "SXS1UY",
        "origin_country": "Turkey",
        "time_position": 1780615025,
        "last_contact": 1780615026,
        "baro_altitude": 12496.8,
        "on_ground": false,
        "velocity": 247.57,
        "true_track": 127.66,
        "vertical_rate": 0,
        "geo_altitude": 12893.04,
        "squawk": "6402",
        "spi": false,
        "position_source": 0
      }
    },
    {
      "type": "Feature",
      "geometry": {
        "type": "Point",
        "coordinates": [
          9.1594,
          47.7232
        ]
      },
      "properties": {
        "icao24": "3474cb",
        "callsign": "BCS136",
        "origin_country": "Spain",
        "time_position": 1780615026,
        "last_contact": 1780615026,
        "baro_altitude": 10363.2,
        "on_ground": false,
        "velocity": 188.89,
        "true_track": 195.97,
        "vertical_rate": 0,
        "geo_altitude": 10568.94,
        "squawk": "1000",
        "spi": false,
        "position_source": 0
      }
    },
    {
      "type": "Feature",
      "geometry": {
        "type": "Point",
        "coordinates": [
          13.4472,
          42.0289
        ]
      },
      "properties": {
        "icao24": "4cafcb",
        "callsign": "MSA95S",
        "origin_country": "Ireland",
        "time_position": 1780615025,
        "last_contact": 1780615025,
        "baro_altitude": 10668,
        "on_ground": false,
        "velocity": 231.11,
        "true_track": 151.55,
        "vertical_rate": 0,
        "geo_altitude": 11102.34,
        "squawk": "1000",
        "spi": false,
        "position_source": 0
      }
    },
    {
      "type": "Feature",
      "geometry": {
        "type": "Point",
        "coordinates": [
          16.5801,
          45.8735
        ]
      },
      "properties": {
        "icao24": "01024b",
        "callsign": "MSC2932",
        "origin_country": "Egypt",
        "time_position": 1780615025,
        "last_contact": 1780615025,
        "baro_altitude": 10965.18,
        "on_ground": false,
        "velocity": 218.02,
        "true_track": 323.35,
        "vertical_rate": 0,
        "geo_altitude": 11399.52,
        "squawk": "6622",
        "spi": false,
        "position_source": 0
      }
    },
    {
      "type": "Feature",
      "geometry": {
        "type": "Point",
        "coordinates": [
          11.9813,
          45.8979
        ]
      },
      "properties": {
        "icao24": "407795",
        "callsign": "EZY34FE",
        "origin_country": "United Kingdom",
        "time_position": 1780615025,
        "last_contact": 1780615025,
        "baro_altitude": 11582.4,
        "on_ground": false,
        "velocity": 224.31,
        "true_track": 327.08,
        "vertical_rate": -0.33,
        "geo_altitude": 11963.4,
        "squawk": "7735",
        "spi": false,
        "position_source": 0
      }
    },
    {
      "type": "Feature",
      "geometry": {
        "type": "Point",
        "coordinates": [
          7.2994,
          43.7079
        ]
      },
      "properties": {
        "icao24": "407794",
        "callsign": "EZY84FD",
        "origin_country": "United Kingdom",
        "time_position": 1780615025,
        "last_contact": 1780615025,
        "baro_altitude": 11590.02,
        "on_ground": false,
        "velocity": 217.01,
        "true_track": 319.13,
        "vertical_rate": 0,
        "geo_altitude": 11978.64,
        "squawk": "4004",
        "spi": false,
        "position_source": 0
      }
    },
    {
      "type": "Feature",
      "geometry": {
        "type": "Point",
        "coordinates": [
          14.5228,
          47.1031
        ]
      },
      "properties": {
        "icao24": "40777c",
        "callsign": "EXS89KR",
        "origin_country": "United Kingdom",
        "time_position": 1780615025,
        "last_contact": 1780615025,
        "baro_altitude": 10972.8,
        "on_ground": false,
        "velocity": 217.23,
        "true_track": 319.9,
        "vertical_rate": 0,
        "geo_altitude": 11346.18,
        "squawk": "5372",
        "spi": false,
        "position_source": 0
      }
    },
    {
      "type": "Feature",
      "geometry": {
        "type": "Point",
        "coordinates": [
          14.7331,
          47.6863
        ]
      },
      "properties": {
        "icao24": "010264",
        "callsign": "MSC2934",
        "origin_country": "Egypt",
        "time_position": 1780615025,
        "last_contact": 1780615025,
        "baro_altitude": 10972.8,
        "on_ground": false,
        "velocity": 228.83,
        "true_track": 320.66,
        "vertical_rate": 0.33,
        "geo_altitude": 11353.8,
        "squawk": "2070",
        "spi": false,
        "position_source": 0
      }
    },
    {
      "type": "Feature",
      "geometry": {
        "type": "Point",
        "coordinates": [
          14.576,
          45.6774
        ]
      },
      "properties": {
        "icao24": "010204",
        "callsign": "MSR780",
        "origin_country": "Egypt",
        "time_position": 1780615025,
        "last_contact": 1780615025,
        "baro_altitude": 11277.6,
        "on_ground": false,
        "velocity": 241.93,
        "true_track": 135.78,
        "vertical_rate": 0,
        "geo_altitude": 11696.7,
        "squawk": "2242",
        "spi": false,
        "position_source": 0
      }
    },
    {
      "type": "Feature",
      "geometry": {
        "type": "Point",
        "coordinates": [
          15.6222,
          45.4158
        ]
      },
      "properties": {
        "icao24": "4075f4",
        "callsign": "TOM7AJ",
        "origin_country": "United Kingdom",
        "time_position": 1780615025,
        "last_contact": 1780615025,
        "baro_altitude": 11582.4,
        "on_ground": false,
        "velocity": 211.88,
        "true_track": 305.81,
        "vertical_rate": 0.33,
        "geo_altitude": 12009.12,
        "squawk": "2034",
        "spi": false,
        "position_source": 0
      }
    },
    {
      "type": "Feature",
      "geometry": {
        "type": "Point",
        "coordinates": [
          12.0856,
          41.7888
        ]
      },
      "properties": {
        "icao24": "717cb2",
        "callsign": "KNE660",
        "origin_country": "Saudi Arabia",
        "time_position": 1780615025,
        "last_contact": 1780615025,
        "baro_altitude": 11887.2,
        "on_ground": false,
        "velocity": 245.95,
        "true_track": 113.03,
        "vertical_rate": 0,
        "geo_altitude": 12405.36,
        "squawk": "5674",
        "spi": false,
        "position_source": 0
      }
    },
    {
      "type": "Feature",
      "geometry": {
        "type": "Point",
        "coordinates": [
          7.3565,
          37.2066
        ]
      },
      "properties": {
        "icao24": "348541",
        "callsign": "AEA1115",
        "origin_country": "Spain",
        "time_position": 1780614900,
        "last_contact": 1780614906,
        "baro_altitude": 11887.2,
        "on_ground": false,
        "velocity": 247.64,
        "true_track": 109.41,
        "vertical_rate": 0,
        "geo_altitude": 12473.94,
        "squawk": "1454",
        "spi": false,
        "position_source": 0
      }
    },
    {
      "type": "Feature",
      "geometry": {
        "type": "Point",
        "coordinates": [
          14.8441,
          46.8127
        ]
      },
      "properties": {
        "icao24": "4d23ea",
        "callsign": "CXI2R",
        "origin_country": "Malta",
        "time_position": 1780615025,
        "last_contact": 1780615026,
        "baro_altitude": 11582.4,
        "on_ground": false,
        "velocity": 218.7,
        "true_track": 320.92,
        "vertical_rate": 0,
        "geo_altitude": 11971.02,
        "squawk": "2042",
        "spi": false,
        "position_source": 0
      }
    },
    {
      "type": "Feature",
      "geometry": {
        "type": "Point",
        "coordinates": [
          17.7305,
          44.4299
        ]
      },
      "properties": {
        "icao24": "4072a4",
        "callsign": "TOM2DL",
        "origin_country": "United Kingdom",
        "time_position": 1780615025,
        "last_contact": 1780615026,
        "baro_altitude": 11582.4,
        "on_ground": false,
        "velocity": 207.22,
        "true_track": 309.46,
        "vertical_rate": 0,
        "geo_altitude": 12031.98,
        "squawk": "5502",
        "spi": false,
        "position_source": 0
      }
    },
    {
      "type": "Feature",
      "geometry": {
        "type": "Point",
        "coordinates": [
          15.2989,
          46.6618
        ]
      },
      "properties": {
        "icao24": "4072a5",
        "callsign": "TOM695",
        "origin_country": "United Kingdom",
        "time_position": 1780615025,
        "last_contact": 1780615025,
        "baro_altitude": 10972.8,
        "on_ground": false,
        "velocity": 216.37,
        "true_track": 305.13,
        "vertical_rate": 0,
        "geo_altitude": 11376.66,
        "squawk": "5610",
        "spi": false,
        "position_source": 0
      }
    },
    {
      "type": "Feature",
      "geometry": {
        "type": "Point",
        "coordinates": [
          6.4001,
          46.6322
        ]
      },
      "properties": {
        "icao24": "4cadc3",
        "callsign": "RYR53ZL",
        "origin_country": "Ireland",
        "time_position": 1780615025,
        "last_contact": 1780615026,
        "baro_altitude": 11582.4,
        "on_ground": false,
        "velocity": 223.19,
        "true_track": 321.18,
        "vertical_rate": -0.65,
        "geo_altitude": 11803.38,
        "squawk": "5747",
        "spi": false,
        "position_source": 0
      }
    },
    {
      "type": "Feature",
      "geometry": {
        "type": "Point",
        "coordinates": [
          14.0828,
          36.3237
        ]
      },
      "properties": {
        "icao24": "4cade0",
        "callsign": "RYR28QD",
        "origin_country": "Ireland",
        "time_position": 1780615026,
        "last_contact": 1780615026,
        "baro_altitude": 2895.6,
        "on_ground": false,
        "velocity": 156.94,
        "true_track": 152.26,
        "vertical_rate": -6.83,
        "geo_altitude": 3093.72,
        "squawk": "4133",
        "spi": false,
        "position_source": 0
      }
    },
    {
      "type": "Feature",
      "geometry": {
        "type": "Point",
        "coordinates": [
          8.1404,
          46.6605
        ]
      },
      "properties": {
        "icao24": "4cade2",
        "callsign": "RYR7UX",
        "origin_country": "Ireland",
        "time_position": 1780615025,
        "last_contact": 1780615025,
        "baro_altitude": 11041.38,
        "on_ground": false,
        "velocity": 227.72,
        "true_track": 146.7,
        "vertical_rate": -4.88,
        "geo_altitude": 11292.84,
        "squawk": "2255",
        "spi": false,
        "position_source": 0
      }
    },
    {
      "type": "Feature",
      "geometry": {
        "type": "Point",
        "coordinates": [
          15.0178,
          39.0973
        ]
      },
      "properties": {
        "icao24": "4cadb7",
        "callsign": "RYR1SK",
        "origin_country": "Ireland",
        "time_position": 1780615025,
        "last_contact": 1780615025,
        "baro_altitude": 11277.6,
        "on_ground": false,
        "velocity": 241.89,
        "true_track": 192.53,
        "vertical_rate": 0,
        "geo_altitude": 11811,
        "squawk": "4136",
        "spi": false,
        "position_source": 0
      }
    },
    {
      "type": "Feature",
      "geometry": {
        "type": "Point",
        "coordinates": [
          7.5108,
          47.1711
        ]
      },
      "properties": {
        "icao24": "4cae6c",
        "callsign": "RYR73VV",
        "origin_country": "Ireland",
        "time_position": 1780615025,
        "last_contact": 1780615025,
        "baro_altitude": 11277.6,
        "on_ground": false,
        "velocity": 231.46,
        "true_track": 139.87,
        "vertical_rate": 0,
        "geo_altitude": 11490.96,
        "squawk": "5220",
        "spi": false,
        "position_source": 0
      }
    },
    {
      "type": "Feature",
      "geometry": {
        "type": "Point",
        "coordinates": [
          11.2805,
          44.487
        ]
      },
      "properties": {
        "icao24": "4cae6d",
        "callsign": "RYR6JX",
        "origin_country": "Ireland",
        "time_position": 1780615025,
        "last_contact": 1780615025,
        "baro_altitude": 1920.24,
        "on_ground": false,
        "velocity": 171.32,
        "true_track": 127.56,
        "vertical_rate": 14.63,
        "geo_altitude": 1965.96,
        "squawk": "0221",
        "spi": false,
        "position_source": 0
      }
    },
    {
      "type": "Feature",
      "geometry": {
        "type": "Point",
        "coordinates": [
          9.9539,
          44.6874
        ]
      },
      "properties": {
        "icao24": "4d2302",
        "callsign": "RYR5DN",
        "origin_country": "Malta",
        "time_position": 1780615025,
        "last_contact": 1780615025,
        "baro_altitude": 7399.02,
        "on_ground": false,
        "velocity": 227.84,
        "true_track": 338.13,
        "vertical_rate": -9.75,
        "geo_altitude": 7680.96,
        "squawk": "5422",
        "spi": false,
        "position_source": 0
      }
    },
    {
      "type": "Feature",
      "geometry": {
        "type": "Point",
        "coordinates": [
          14.2292,
          36.1149
        ]
      },
      "properties": {
        "icao24": "4d2349",
        "callsign": "RYR94PB",
        "origin_country": "Malta",
        "time_position": 1780615025,
        "last_contact": 1780615025,
        "baro_altitude": 1775.46,
        "on_ground": false,
        "velocity": 144.22,
        "true_track": 156.45,
        "vertical_rate": -10.4,
        "geo_altitude": 1912.62,
        "squawk": "0561",
        "spi": false,
        "position_source": 0
      }
    },
    {
      "type": "Feature",
      "geometry": {
        "type": "Point",
        "coordinates": [
          9.2109,
          44.5434
        ]
      },
      "properties": {
        "icao24": "4cad10",
        "callsign": "RYR8512",
        "origin_country": "Ireland",
        "time_position": 1780615025,
        "last_contact": 1780615025,
        "baro_altitude": 7909.56,
        "on_ground": false,
        "velocity": 215.42,
        "true_track": 29.63,
        "vertical_rate": -5.2,
        "geo_altitude": 8199.12,
        "squawk": "3525",
        "spi": false,
        "position_source": 0
      }
    },
    {
      "type": "Feature",
      "geometry": {
        "type": "Point",
        "coordinates": [
          13.8531,
          36.6435
        ]
      },
      "properties": {
        "icao24": "4d21a2",
        "callsign": "KMM455",
        "origin_country": "Malta",
        "time_position": 1780615025,
        "last_contact": 1780615025,
        "baro_altitude": 4434.84,
        "on_ground": false,
        "velocity": 169.74,
        "true_track": 150.79,
        "vertical_rate": -6.83,
        "geo_altitude": 4701.54,
        "squawk": "4317",
        "spi": false,
        "position_source": 0
      }
    },
    {
      "type": "Feature",
      "geometry": {
        "type": "Point",
        "coordinates": [
          16.9715,
          41.198
        ]
      },
      "properties": {
        "icao24": "4d2208",
        "callsign": "RYR8KM",
        "origin_country": "Malta",
        "time_position": 1780615025,
        "last_contact": 1780615025,
        "baro_altitude": 982.98,
        "on_ground": false,
        "velocity": 104.23,
        "true_track": 248.88,
        "vertical_rate": -5.85,
        "geo_altitude": 1066.8,
        "squawk": "0531",
        "spi": false,
        "position_source": 0
      }
    },
    {
      "type": "Feature",
      "geometry": {
        "type": "Point",
        "coordinates": [
          9.5899,
          47.7403
        ]
      },
      "properties": {
        "icao24": "4d2209",
        "callsign": "RYR799",
        "origin_country": "Malta",
        "time_position": 1780615025,
        "last_contact": 1780615026,
        "baro_altitude": 11590.02,
        "on_ground": false,
        "velocity": 213.57,
        "true_track": 313.93,
        "vertical_rate": 0.33,
        "geo_altitude": 11803.38,
        "squawk": "6601",
        "spi": false,
        "position_source": 0
      }
    },
    {
      "type": "Feature",
      "geometry": {
        "type": "Point",
        "coordinates": [
          13.2157,
          38.2177
        ]
      },
      "properties": {
        "icao24": "4d221e",
        "callsign": "RYR33RN",
        "origin_country": "Malta",
        "time_position": 1780614944,
        "last_contact": 1780614944,
        "baro_altitude": 510.54,
        "on_ground": false,
        "velocity": 90.11,
        "true_track": 246.8,
        "vertical_rate": -4.23,
        "geo_altitude": 579.12,
        "squawk": "2226",
        "spi": false,
        "position_source": 0
      }
    },
    {
      "type": "Feature",
      "geometry": {
        "type": "Point",
        "coordinates": [
          6.2641,
          47.2685
        ]
      },
      "properties": {
        "icao24": "4d2217",
        "callsign": "RYR53SE",
        "origin_country": "Malta",
        "time_position": 1780615025,
        "last_contact": 1780615025,
        "baro_altitude": 11582.4,
        "on_ground": false,
        "velocity": 243.95,
        "true_track": 358.31,
        "vertical_rate": 0.33,
        "geo_altitude": 11772.9,
        "squawk": "1067",
        "spi": false,
        "position_source": 0
      }
    },
    {
      "type": "Feature",
      "geometry": {
        "type": "Point",
        "coordinates": [
          8.7347,
          45.5877
        ]
      },
      "properties": {
        "icao24": "4d2286",
        "callsign": "RYR613K",
        "origin_country": "Malta",
        "time_position": 1780614941,
        "last_contact": 1780614947,
        "baro_altitude": 419.1,
        "on_ground": false,
        "velocity": 66.59,
        "true_track": 348.86,
        "vertical_rate": -3.25,
        "geo_altitude": 441.96,
        "squawk": "1000",
        "spi": false,
        "position_source": 0
      }
    },
    {
      "type": "Feature",
      "geometry": {
        "type": "Point",
        "coordinates": [
          12.4461,
          41.9794
        ]
      },
      "properties": {
        "icao24": "4cabf8",
        "callsign": "MSA92C",
        "origin_country": "Ireland",
        "time_position": 1780615025,
        "last_contact": 1780615026,
        "baro_altitude": 11033.76,
        "on_ground": false,
        "velocity": 240.08,
        "true_track": 156.51,
        "vertical_rate": -3.9,
        "geo_altitude": 11529.06,
        "squawk": "6464",
        "spi": false,
        "position_source": 0
      }
    },
    {
      "type": "Feature",
      "geometry": {
        "type": "Point",
        "coordinates": [
          12.3205,
          43.2895
        ]
      },
      "properties": {
        "icao24": "4d216a",
        "callsign": "WMT3C",
        "origin_country": "Malta",
        "time_position": 1780615025,
        "last_contact": 1780615026,
        "baro_altitude": 10972.8,
        "on_ground": false,
        "velocity": 216.78,
        "true_track": 300.52,
        "vertical_rate": 0,
        "geo_altitude": 11430,
        "squawk": "5514",
        "spi": false,
        "position_source": 0
      }
    },
    {
      "type": "Feature",
      "geometry": {
        "type": "Point",
        "coordinates": [
          10.9549,
          46.1753
        ]
      },
      "properties": {
        "icao24": "40836b",
        "callsign": "EZY67KR",
        "origin_country": "United Kingdom",
        "time_position": 1780615025,
        "last_contact": 1780615025,
        "baro_altitude": 10363.2,
        "on_ground": false,
        "velocity": 209.27,
        "true_track": 300.92,
        "vertical_rate": 0,
        "geo_altitude": 10683.24,
        "squawk": "2051",
        "spi": false,
        "position_source": 0
      }
    },
    {
      "type": "Feature",
      "geometry": {
        "type": "Point",
        "coordinates": [
          11.7274,
          43.7926
        ]
      },
      "properties": {
        "icao24": "4d2145",
        "callsign": "WMT3318",
        "origin_country": "Malta",
        "time_position": 1780615025,
        "last_contact": 1780615025,
        "baro_altitude": 10332.72,
        "on_ground": false,
        "velocity": 260.43,
        "true_track": 103.13,
        "vertical_rate": 6.5,
        "geo_altitude": 10751.82,
        "squawk": "0465",
        "spi": false,
        "position_source": 0
      }
    },
    {
      "type": "Feature",
      "geometry": {
        "type": "Point",
        "coordinates": [
          12.1951,
          42.0942
        ]
      },
      "properties": {
        "icao24": "4d2092",
        "callsign": "WMT1001",
        "origin_country": "Malta",
        "time_position": 1780615025,
        "last_contact": 1780615025,
        "baro_altitude": 1013.46,
        "on_ground": false,
        "velocity": 115.78,
        "true_track": 215.6,
        "vertical_rate": -3.25,
        "geo_altitude": 1089.66,
        "squawk": "3572",
        "spi": true,
        "position_source": 0
      }
    },
    {
      "type": "Feature",
      "geometry": {
        "type": "Point",
        "coordinates": [
          16.6211,
          45.3657
        ]
      },
      "properties": {
        "icao24": "40717c",
        "callsign": "EXS96PS",
        "origin_country": "United Kingdom",
        "time_position": 1780615025,
        "last_contact": 1780615025,
        "baro_altitude": 11582.4,
        "on_ground": false,
        "velocity": 206.83,
        "true_track": 320.45,
        "vertical_rate": 0,
        "geo_altitude": 12009.12,
        "squawk": "5622",
        "spi": false,
        "position_source": 0
      }
    },
    {
      "type": "Feature",
      "geometry": {
        "type": "Point",
        "coordinates": [
          6.8876,
          43.8748
        ]
      },
      "properties": {
        "icao24": "7100c8",
        "callsign": "SVA022",
        "origin_country": "Saudi Arabia",
        "time_position": 1780615025,
        "last_contact": 1780615025,
        "baro_altitude": 10668,
        "on_ground": false,
        "velocity": 265.46,
        "true_track": 122.33,
        "vertical_rate": 0.33,
        "geo_altitude": 11033.76,
        "squawk": "3364",
        "spi": false,
        "position_source": 0
      }
    },
    {
      "type": "Feature",
      "geometry": {
        "type": "Point",
        "coordinates": [
          15.3417,
          45.242
        ]
      },
      "properties": {
        "icao24": "4d200c",
        "callsign": "WZZ9198",
        "origin_country": "Malta",
        "time_position": 1780615026,
        "last_contact": 1780615026,
        "baro_altitude": 10675.62,
        "on_ground": false,
        "velocity": 248.39,
        "true_track": 85.01,
        "vertical_rate": 0.65,
        "geo_altitude": 11117.58,
        "squawk": "0445",
        "spi": false,
        "position_source": 0
      }
    },
    {
      "type": "Feature",
      "geometry": {
        "type": "Point",
        "coordinates": [
          16.1744,
          45.9361
        ]
      },
      "properties": {
        "icao24": "4082e6",
        "callsign": "TOM9TD",
        "origin_country": "United Kingdom",
        "time_position": 1780615025,
        "last_contact": 1780615025,
        "baro_altitude": 10972.8,
        "on_ground": false,
        "velocity": 211.69,
        "true_track": 301.99,
        "vertical_rate": 0,
        "geo_altitude": 11391.9,
        "squawk": "5314",
        "spi": false,
        "position_source": 0
      }
    },
    {
      "type": "Feature",
      "geometry": {
        "type": "Point",
        "coordinates": [
          10.0317,
          46.3097
        ]
      },
      "properties": {
        "icao24": "4082ac",
        "callsign": "EZY2080",
        "origin_country": "United Kingdom",
        "time_position": 1780615025,
        "last_contact": 1780615025,
        "baro_altitude": 11582.4,
        "on_ground": false,
        "velocity": 205.51,
        "true_track": 310.23,
        "vertical_rate": -0.33,
        "geo_altitude": 11902.44,
        "squawk": "7523",
        "spi": false,
        "position_source": 0
      }
    },
    {
      "type": "Feature",
      "geometry": {
        "type": "Point",
        "coordinates": [
          8.5627,
          47.444
        ]
      },
      "properties": {
        "icao24": "4b17f9",
        "callsign": "SWR125A",
        "origin_country": "Switzerland",
        "time_position": 1780615024,
        "last_contact": 1780615025,
        "baro_altitude": null,
        "on_ground": true,
        "velocity": 0,
        "true_track": 334.69,
        "vertical_rate": null,
        "geo_altitude": null,
        "squawk": "2000",
        "spi": false,
        "position_source": 0
      }
    },
    {
      "type": "Feature",
      "geometry": {
        "type": "Point",
        "coordinates": [
          8.562,
          47.4409
        ]
      },
      "properties": {
        "icao24": "4b17fe",
        "callsign": "SWR",
        "origin_country": "Switzerland",
        "time_position": 1780614968,
        "last_contact": 1780615024,
        "baro_altitude": null,
        "on_ground": true,
        "velocity": 0,
        "true_track": 244.69,
        "vertical_rate": null,
        "geo_altitude": null,
        "squawk": "2000",
        "spi": false,
        "position_source": 0
      }
    }
  ]
}