{
  "type": "FeatureCollection",
  "source": "opensky",
  "dataset": "aircraft_italy",
  "generated_at": "2026-06-29T23:44:34.288084+00:00",
  "opensky_time": 1782776663,
  "count": 149,
  "features": [
    {
      "type": "Feature",
      "geometry": {
        "type": "Point",
        "coordinates": [
          14.8984,
          46.2328
        ]
      },
      "properties": {
        "icao24": "511188",
        "callsign": "MBU3ZE",
        "origin_country": "Estonia",
        "time_position": 1782776663,
        "last_contact": 1782776663,
        "baro_altitude": 11574.78,
        "on_ground": false,
        "velocity": 237.1,
        "true_track": 328.03,
        "vertical_rate": -0.65,
        "geo_altitude": 12161.52,
        "squawk": "3701",
        "spi": false,
        "position_source": 0
      }
    },
    {
      "type": "Feature",
      "geometry": {
        "type": "Point",
        "coordinates": [
          11.269,
          45.2615
        ]
      },
      "properties": {
        "icao24": "471eff",
        "callsign": "WMT5356",
        "origin_country": "Hungary",
        "time_position": 1782776663,
        "last_contact": 1782776663,
        "baro_altitude": 3695.7,
        "on_ground": false,
        "velocity": 145.21,
        "true_track": 111.84,
        "vertical_rate": -12.03,
        "geo_altitude": 3992.88,
        "squawk": "4711",
        "spi": false,
        "position_source": 0
      }
    },
    {
      "type": "Feature",
      "geometry": {
        "type": "Point",
        "coordinates": [
          14.9064,
          41.0815
        ]
      },
      "properties": {
        "icao24": "46b822",
        "callsign": "AEE609",
        "origin_country": "Greece",
        "time_position": 1782776663,
        "last_contact": 1782776663,
        "baro_altitude": 11262.36,
        "on_ground": false,
        "velocity": 232.36,
        "true_track": 110.88,
        "vertical_rate": 0,
        "geo_altitude": 11826.24,
        "squawk": "0546",
        "spi": false,
        "position_source": 0
      }
    },
    {
      "type": "Feature",
      "geometry": {
        "type": "Point",
        "coordinates": [
          16.6709,
          42.3141
        ]
      },
      "properties": {
        "icao24": "471f03",
        "callsign": "WMT4RQ",
        "origin_country": "Hungary",
        "time_position": 1782776663,
        "last_contact": 1782776663,
        "baro_altitude": 10668,
        "on_ground": false,
        "velocity": 221.56,
        "true_track": 83.6,
        "vertical_rate": 0,
        "geo_altitude": 11201.4,
        "squawk": "1221",
        "spi": false,
        "position_source": 0
      }
    },
    {
      "type": "Feature",
      "geometry": {
        "type": "Point",
        "coordinates": [
          10.9645,
          42.6179
        ]
      },
      "properties": {
        "icao24": "46c9a1",
        "callsign": "AEZ2383",
        "origin_country": "Greece",
        "time_position": 1782776662,
        "last_contact": 1782776663,
        "baro_altitude": 9456.42,
        "on_ground": false,
        "velocity": 248.35,
        "true_track": 196.86,
        "vertical_rate": 0,
        "geo_altitude": 9966.96,
        "squawk": "5441",
        "spi": false,
        "position_source": 0
      }
    },
    {
      "type": "Feature",
      "geometry": {
        "type": "Point",
        "coordinates": [
          13.5265,
          41.5887
        ]
      },
      "properties": {
        "icao24": "8015a7",
        "callsign": "AIC191",
        "origin_country": "India",
        "time_position": 1782776663,
        "last_contact": 1782776663,
        "baro_altitude": 7399.02,
        "on_ground": false,
        "velocity": 202.24,
        "true_track": 287.47,
        "vertical_rate": -5.2,
        "geo_altitude": 7840.98,
        "squawk": null,
        "spi": false,
        "position_source": 0
      }
    },
    {
      "type": "Feature",
      "geometry": {
        "type": "Point",
        "coordinates": [
          13.7699,
          45.1031
        ]
      },
      "properties": {
        "icao24": "73806e",
        "callsign": "ELY314",
        "origin_country": "Israel",
        "time_position": 1782776663,
        "last_contact": 1782776663,
        "baro_altitude": 10668,
        "on_ground": false,
        "velocity": 228.01,
        "true_track": 123.4,
        "vertical_rate": 0.33,
        "geo_altitude": 11224.26,
        "squawk": "2224",
        "spi": false,
        "position_source": 0
      }
    },
    {
      "type": "Feature",
      "geometry": {
        "type": "Point",
        "coordinates": [
          10.0151,
          45.4694
        ]
      },
      "properties": {
        "icao24": "738063",
        "callsign": "ELY388",
        "origin_country": "Israel",
        "time_position": 1782776663,
        "last_contact": 1782776663,
        "baro_altitude": 7101.84,
        "on_ground": false,
        "velocity": 216.93,
        "true_track": 114.07,
        "vertical_rate": 8.45,
        "geo_altitude": 7528.56,
        "squawk": "0401",
        "spi": false,
        "position_source": 0
      }
    },
    {
      "type": "Feature",
      "geometry": {
        "type": "Point",
        "coordinates": [
          18.3102,
          42.0973
        ]
      },
      "properties": {
        "icao24": "738073",
        "callsign": "ELY318",
        "origin_country": "Israel",
        "time_position": 1782776662,
        "last_contact": 1782776662,
        "baro_altitude": 11887.2,
        "on_ground": false,
        "velocity": 244.37,
        "true_track": 117.59,
        "vertical_rate": 0,
        "geo_altitude": 12443.46,
        "squawk": "5255",
        "spi": false,
        "position_source": 0
      }
    },
    {
      "type": "Feature",
      "geometry": {
        "type": "Point",
        "coordinates": [
          13.9335,
          39.5819
        ]
      },
      "properties": {
        "icao24": "738054",
        "callsign": "ELY398",
        "origin_country": "Israel",
        "time_position": 1782776661,
        "last_contact": 1782776661,
        "baro_altitude": 10668,
        "on_ground": false,
        "velocity": 239.69,
        "true_track": 103.53,
        "vertical_rate": 0,
        "geo_altitude": 11201.4,
        "squawk": "1441",
        "spi": false,
        "position_source": 0
      }
    },
    {
      "type": "Feature",
      "geometry": {
        "type": "Point",
        "coordinates": [
          8.6033,
          43.3874
        ]
      },
      "properties": {
        "icao24": "440053",
        "callsign": "EJU3602",
        "origin_country": "Austria",
        "time_position": 1782776663,
        "last_contact": 1782776663,
        "baro_altitude": 9144,
        "on_ground": false,
        "velocity": 233.44,
        "true_track": 6.33,
        "vertical_rate": 0.33,
        "geo_altitude": 9677.4,
        "squawk": "1000",
        "spi": false,
        "position_source": 0
      }
    },
    {
      "type": "Feature",
      "geometry": {
        "type": "Point",
        "coordinates": [
          10.3151,
          43.4506
        ]
      },
      "properties": {
        "icao24": "440075",
        "callsign": "EJU62EL",
        "origin_country": "Austria",
        "time_position": 1782776663,
        "last_contact": 1782776663,
        "baro_altitude": 11582.4,
        "on_ground": false,
        "velocity": 223.56,
        "true_track": 320.23,
        "vertical_rate": -0.33,
        "geo_altitude": 12184.38,
        "squawk": "1000",
        "spi": false,
        "position_source": 0
      }
    },
    {
      "type": "Feature",
      "geometry": {
        "type": "Point",
        "coordinates": [
          18.1787,
          42.1322
        ]
      },
      "properties": {
        "icao24": "440198",
        "callsign": "EJU3704",
        "origin_country": "Austria",
        "time_position": 1782776663,
        "last_contact": 1782776663,
        "baro_altitude": 11582.4,
        "on_ground": false,
        "velocity": 236.94,
        "true_track": 305.28,
        "vertical_rate": 0,
        "geo_altitude": 12131.04,
        "squawk": "0342",
        "spi": false,
        "position_source": 0
      }
    },
    {
      "type": "Feature",
      "geometry": {
        "type": "Point",
        "coordinates": [
          10.9232,
          44.4301
        ]
      },
      "properties": {
        "icao24": "452101",
        "callsign": "MSA65P",
        "origin_country": "Bulgaria",
        "time_position": 1782776663,
        "last_contact": 1782776663,
        "baro_altitude": 9585.96,
        "on_ground": false,
        "velocity": 233.97,
        "true_track": 162.6,
        "vertical_rate": 9.43,
        "geo_altitude": 10126.98,
        "squawk": "1000",
        "spi": false,
        "position_source": 0
      }
    },
    {
      "type": "Feature",
      "geometry": {
        "type": "Point",
        "coordinates": [
          17.0363,
          38.9454
        ]
      },
      "properties": {
        "icao24": "452134",
        "callsign": "DAH3018",
        "origin_country": "Bulgaria",
        "time_position": 1782776663,
        "last_contact": 1782776663,
        "baro_altitude": 10668,
        "on_ground": false,
        "velocity": 231.59,
        "true_track": 76.64,
        "vertical_rate": 0.33,
        "geo_altitude": 11186.16,
        "squawk": "1276",
        "spi": false,
        "position_source": 0
      }
    },
    {
      "type": "Feature",
      "geometry": {
        "type": "Point",
        "coordinates": [
          10.3558,
          46.004
        ]
      },
      "properties": {
        "icao24": "781ac5",
        "callsign": "CCA950",
        "origin_country": "China",
        "time_position": 1782776663,
        "last_contact": 1782776663,
        "baro_altitude": 7711.44,
        "on_ground": false,
        "velocity": 212.42,
        "true_track": 64.92,
        "vertical_rate": 7.8,
        "geo_altitude": 8183.88,
        "squawk": "0477",
        "spi": false,
        "position_source": 0
      }
    },
    {
      "type": "Feature",
      "geometry": {
        "type": "Point",
        "coordinates": [
          13.7396,
          47.7355
        ]
      },
      "properties": {
        "icao24": "4892c6",
        "callsign": "ENT6NT",
        "origin_country": "Poland",
        "time_position": 1782776663,
        "last_contact": 1782776663,
        "baro_altitude": 11582.4,
        "on_ground": false,
        "velocity": 210.59,
        "true_track": 50.75,
        "vertical_rate": -0.33,
        "geo_altitude": 12169.14,
        "squawk": "1000",
        "spi": false,
        "position_source": 0
      }
    },
    {
      "type": "Feature",
      "geometry": {
        "type": "Point",
        "coordinates": [
          17.5386,
          39.118
        ]
      },
      "properties": {
        "icao24": "7380c1",
        "callsign": "ELY017",
        "origin_country": "Israel",
        "time_position": 1782776663,
        "last_contact": 1782776663,
        "baro_altitude": 10363.2,
        "on_ground": false,
        "velocity": 260.62,
        "true_track": 288.65,
        "vertical_rate": 0,
        "geo_altitude": 10858.5,
        "squawk": "4154",
        "spi": false,
        "position_source": 0
      }
    },
    {
      "type": "Feature",
      "geometry": {
        "type": "Point",
        "coordinates": [
          10.4715,
          44.9287
        ]
      },
      "properties": {
        "icao24": "02010d",
        "callsign": "MAC468",
        "origin_country": "Morocco",
        "time_position": 1782776662,
        "last_contact": 1782776663,
        "baro_altitude": 5570.22,
        "on_ground": false,
        "velocity": 168.86,
        "true_track": 313.27,
        "vertical_rate": 13.33,
        "geo_altitude": 5928.36,
        "squawk": "0423",
        "spi": false,
        "position_source": 0
      }
    },
    {
      "type": "Feature",
      "geometry": {
        "type": "Point",
        "coordinates": [
          10.3238,
          36.9207
        ]
      },
      "properties": {
        "icao24": "4bb28a",
        "callsign": "THY5LY",
        "origin_country": "Turkey",
        "time_position": 1782776634,
        "last_contact": 1782776641,
        "baro_altitude": 10043.16,
        "on_ground": false,
        "velocity": 231.5,
        "true_track": 73.74,
        "vertical_rate": -0.33,
        "geo_altitude": 10599.42,
        "squawk": "4434",
        "spi": false,
        "position_source": 0
      }
    },
    {
      "type": "Feature",
      "geometry": {
        "type": "Point",
        "coordinates": [
          8.1895,
          44.1096
        ]
      },
      "properties": {
        "icao24": "020175",
        "callsign": "MAC455",
        "origin_country": "Morocco",
        "time_position": 1782776663,
        "last_contact": 1782776663,
        "baro_altitude": 9403.08,
        "on_ground": false,
        "velocity": 219.54,
        "true_track": 47.37,
        "vertical_rate": -6.5,
        "geo_altitude": 9974.58,
        "squawk": "6355",
        "spi": false,
        "position_source": 0
      }
    },
    {
      "type": "Feature",
      "geometry": {
        "type": "Point",
        "coordinates": [
          18.5398,
          47.4321
        ]
      },
      "properties": {
        "icao24": "780a8b",
        "callsign": "CPA254",
        "origin_country": "China",
        "time_position": 1782776663,
        "last_contact": 1782776663,
        "baro_altitude": 9448.8,
        "on_ground": false,
        "velocity": 239.91,
        "true_track": 114.31,
        "vertical_rate": 0,
        "geo_altitude": 10012.68,
        "squawk": "4633",
        "spi": false,
        "position_source": 0
      }
    },
    {
      "type": "Feature",
      "geometry": {
        "type": "Point",
        "coordinates": [
          9.4684,
          42.8982
        ]
      },
      "properties": {
        "icao24": "406754",
        "callsign": "EZY8284",
        "origin_country": "United Kingdom",
        "time_position": 1782776663,
        "last_contact": 1782776663,
        "baro_altitude": 11582.4,
        "on_ground": false,
        "velocity": 229.62,
        "true_track": 296.05,
        "vertical_rate": 0,
        "geo_altitude": 12184.38,
        "squawk": "4014",
        "spi": false,
        "position_source": 0
      }
    },
    {
      "type": "Feature",
      "geometry": {
        "type": "Point",
        "coordinates": [
          18.7367,
          36.0739
        ]
      },
      "properties": {
        "icao24": "8963d9",
        "callsign": "UAE194",
        "origin_country": "United Arab Emirates",
        "time_position": 1782776663,
        "last_contact": 1782776663,
        "baro_altitude": 10668,
        "on_ground": false,
        "velocity": 258.4,
        "true_track": 95.48,
        "vertical_rate": 0,
        "geo_altitude": 11170.92,
        "squawk": "4117",
        "spi": false,
        "position_source": 0
      }
    },
    {
      "type": "Feature",
      "geometry": {
        "type": "Point",
        "coordinates": [
          11.4191,
          45.8787
        ]
      },
      "properties": {
        "icao24": "4bb186",
        "callsign": "THY41J",
        "origin_country": "Turkey",
        "time_position": 1782776663,
        "last_contact": 1782776663,
        "baro_altitude": 11887.2,
        "on_ground": false,
        "velocity": 246.13,
        "true_track": 105.52,
        "vertical_rate": 0.33,
        "geo_altitude": 12504.42,
        "squawk": "3754",
        "spi": false,
        "position_source": 0
      }
    },
    {
      "type": "Feature",
      "geometry": {
        "type": "Point",
        "coordinates": [
          16.0563,
          41.9067
        ]
      },
      "properties": {
        "icao24": "3a2e24",
        "callsign": "REU972",
        "origin_country": "France",
        "time_position": 1782776663,
        "last_contact": 1782776663,
        "baro_altitude": 9448.8,
        "on_ground": false,
        "velocity": 246.77,
        "true_track": 138.63,
        "vertical_rate": 0,
        "geo_altitude": 9966.96,
        "squawk": "0652",
        "spi": false,
        "position_source": 0
      }
    },
    {
      "type": "Feature",
      "geometry": {
        "type": "Point",
        "coordinates": [
          8.7207,
          45.6077
        ]
      },
      "properties": {
        "icao24": "4ac98a",
        "callsign": "BCS7AG",
        "origin_country": "Sweden",
        "time_position": 1782776372,
        "last_contact": 1782776377,
        "baro_altitude": null,
        "on_ground": true,
        "velocity": 0,
        "true_track": 258.75,
        "vertical_rate": null,
        "geo_altitude": null,
        "squawk": "4106",
        "spi": false,
        "position_source": 0
      }
    },
    {
      "type": "Feature",
      "geometry": {
        "type": "Point",
        "coordinates": [
          17.7217,
          44.7032
        ]
      },
      "properties": {
        "icao24": "4077ba",
        "callsign": "EXS6MN",
        "origin_country": "United Kingdom",
        "time_position": 1782776663,
        "last_contact": 1782776663,
        "baro_altitude": 10972.8,
        "on_ground": false,
        "velocity": 239.23,
        "true_track": 309.85,
        "vertical_rate": -0.65,
        "geo_altitude": 11536.68,
        "squawk": "5642",
        "spi": false,
        "position_source": 0
      }
    },
    {
      "type": "Feature",
      "geometry": {
        "type": "Point",
        "coordinates": [
          17.7567,
          42.2917
        ]
      },
      "properties": {
        "icao24": "4c808d",
        "callsign": "BBG155",
        "origin_country": "Cyprus",
        "time_position": 1782776663,
        "last_contact": 1782776663,
        "baro_altitude": 10050.78,
        "on_ground": false,
        "velocity": 218.64,
        "true_track": 118.07,
        "vertical_rate": 0,
        "geo_altitude": 10576.56,
        "squawk": "3751",
        "spi": false,
        "position_source": 0
      }
    },
    {
      "type": "Feature",
      "geometry": {
        "type": "Point",
        "coordinates": [
          8.3602,
          40.1754
        ]
      },
      "properties": {
        "icao24": "345108",
        "callsign": "VLG6WL",
        "origin_country": "Spain",
        "time_position": 1782776662,
        "last_contact": 1782776663,
        "baro_altitude": 10972.8,
        "on_ground": false,
        "velocity": 239.31,
        "true_track": 291.44,
        "vertical_rate": 0,
        "geo_altitude": 11574.78,
        "squawk": null,
        "spi": false,
        "position_source": 0
      }
    },
    {
      "type": "Feature",
      "geometry": {
        "type": "Point",
        "coordinates": [
          13.7745,
          47.2057
        ]
      },
      "properties": {
        "icao24": "44cc45",
        "callsign": "BEL6LG",
        "origin_country": "Belgium",
        "time_position": 1782776663,
        "last_contact": 1782776663,
        "baro_altitude": 11582.4,
        "on_ground": false,
        "velocity": 242.45,
        "true_track": 312.76,
        "vertical_rate": 0,
        "geo_altitude": 12169.14,
        "squawk": "5515",
        "spi": false,
        "position_source": 0
      }
    },
    {
      "type": "Feature",
      "geometry": {
        "type": "Point",
        "coordinates": [
          12.8882,
          46.7822
        ]
      },
      "properties": {
        "icao24": "40796c",
        "callsign": "TOM477",
        "origin_country": "United Kingdom",
        "time_position": 1782776663,
        "last_contact": 1782776663,
        "baro_altitude": 11582.4,
        "on_ground": false,
        "velocity": 243.17,
        "true_track": 302.65,
        "vertical_rate": 0.33,
        "geo_altitude": 12184.38,
        "squawk": "2072",
        "spi": false,
        "position_source": 0
      }
    },
    {
      "type": "Feature",
      "geometry": {
        "type": "Point",
        "coordinates": [
          14.8171,
          36.1076
        ]
      },
      "properties": {
        "icao24": "040142",
        "callsign": "ETH741",
        "origin_country": "Ethiopia",
        "time_position": 1782776663,
        "last_contact": 1782776663,
        "baro_altitude": 11277.6,
        "on_ground": false,
        "velocity": 254.5,
        "true_track": 100.13,
        "vertical_rate": 0,
        "geo_altitude": 11818.62,
        "squawk": "4104",
        "spi": false,
        "position_source": 0
      }
    },
    {
      "type": "Feature",
      "geometry": {
        "type": "Point",
        "coordinates": [
          8.9365,
          39.4761
        ]
      },
      "properties": {
        "icao24": "4ca4ea",
        "callsign": "RYR34TT",
        "origin_country": "Ireland",
        "time_position": 1782776663,
        "last_contact": 1782776663,
        "baro_altitude": 11582.4,
        "on_ground": false,
        "velocity": 232.05,
        "true_track": 101.51,
        "vertical_rate": -0.33,
        "geo_altitude": 12169.14,
        "squawk": "1000",
        "spi": false,
        "position_source": 0
      }
    },
    {
      "type": "Feature",
      "geometry": {
        "type": "Point",
        "coordinates": [
          17.5815,
          45.4684
        ]
      },
      "properties": {
        "icao24": "49d3d6",
        "callsign": "TVS2131",
        "origin_country": "Czech Republic",
        "time_position": 1782776663,
        "last_contact": 1782776663,
        "baro_altitude": 11582.4,
        "on_ground": false,
        "velocity": 238.86,
        "true_track": 339.18,
        "vertical_rate": 0,
        "geo_altitude": 12161.52,
        "squawk": "5140",
        "spi": false,
        "position_source": 0
      }
    },
    {
      "type": "Feature",
      "geometry": {
        "type": "Point",
        "coordinates": [
          18.9844,
          46.9933
        ]
      },
      "properties": {
        "icao24": "406f86",
        "callsign": "EXS55LD",
        "origin_country": "United Kingdom",
        "time_position": 1782776663,
        "last_contact": 1782776663,
        "baro_altitude": 10965.18,
        "on_ground": false,
        "velocity": 252.69,
        "true_track": 304.05,
        "vertical_rate": 0,
        "geo_altitude": 11551.92,
        "squawk": "5337",
        "spi": false,
        "position_source": 0
      }
    },
    {
      "type": "Feature",
      "geometry": {
        "type": "Point",
        "coordinates": [
          13.3664,
          40.527
        ]
      },
      "properties": {
        "icao24": "040049",
        "callsign": "ETH575",
        "origin_country": "Ethiopia",
        "time_position": 1782776663,
        "last_contact": 1782776663,
        "baro_altitude": 11879.58,
        "on_ground": false,
        "velocity": 253.42,
        "true_track": 127.08,
        "vertical_rate": 0,
        "geo_altitude": 12451.08,
        "squawk": "4312",
        "spi": false,
        "position_source": 0
      }
    },
    {
      "type": "Feature",
      "geometry": {
        "type": "Point",
        "coordinates": [
          18.2037,
          38.9713
        ]
      },
      "properties": {
        "icao24": "04004c",
        "callsign": "ETH519",
        "origin_country": "Ethiopia",
        "time_position": 1782776663,
        "last_contact": 1782776663,
        "baro_altitude": 12428.22,
        "on_ground": false,
        "velocity": 249.86,
        "true_track": 125.78,
        "vertical_rate": 5.85,
        "geo_altitude": 12992.1,
        "squawk": "3741",
        "spi": false,
        "position_source": 0
      }
    },
    {
      "type": "Feature",
      "geometry": {
        "type": "Point",
        "coordinates": [
          9.3453,
          45.6479
        ]
      },
      "properties": {
        "icao24": "06a2e0",
        "callsign": "QTR8238",
        "origin_country": "Qatar",
        "time_position": 1782776663,
        "last_contact": 1782776663,
        "baro_altitude": 3863.34,
        "on_ground": false,
        "velocity": 204.75,
        "true_track": 89.71,
        "vertical_rate": 12.03,
        "geo_altitude": 4152.9,
        "squawk": null,
        "spi": false,
        "position_source": 0
      }
    },
    {
      "type": "Feature",
      "geometry": {
        "type": "Point",
        "coordinates": [
          11.5397,
          46.8232
        ]
      },
      "properties": {
        "icao24": "49d41e",
        "callsign": "TVS2TU",
        "origin_country": "Czech Republic",
        "time_position": 1782776663,
        "last_contact": 1782776663,
        "baro_altitude": 11277.6,
        "on_ground": false,
        "velocity": 219.72,
        "true_track": 45.38,
        "vertical_rate": 0,
        "geo_altitude": 11879.58,
        "squawk": "1000",
        "spi": false,
        "position_source": 0
      }
    },
    {
      "type": "Feature",
      "geometry": {
        "type": "Point",
        "coordinates": [
          10.197,
          47.4099
        ]
      },
      "properties": {
        "icao24": "4ba946",
        "callsign": "THY4",
        "origin_country": "Turkey",
        "time_position": 1782776663,
        "last_contact": 1782776663,
        "baro_altitude": 11277.6,
        "on_ground": false,
        "velocity": 241.75,
        "true_track": 105.43,
        "vertical_rate": 0,
        "geo_altitude": 11879.58,
        "squawk": "5231",
        "spi": false,
        "position_source": 0
      }
    },
    {
      "type": "Feature",
      "geometry": {
        "type": "Point",
        "coordinates": [
          7.1762,
          43.2285
        ]
      },
      "properties": {
        "icao24": "4ca303",
        "callsign": "RYR5TL",
        "origin_country": "Ireland",
        "time_position": 1782776663,
        "last_contact": 1782776663,
        "baro_altitude": 10972.8,
        "on_ground": false,
        "velocity": 228.28,
        "true_track": 80.01,
        "vertical_rate": 0,
        "geo_altitude": 11551.92,
        "squawk": "5563",
        "spi": false,
        "position_source": 0
      }
    },
    {
      "type": "Feature",
      "geometry": {
        "type": "Point",
        "coordinates": [
          6.8271,
          46.2558
        ]
      },
      "properties": {
        "icao24": "48e9f6",
        "callsign": "RYS6JZ",
        "origin_country": "Poland",
        "time_position": 1782776663,
        "last_contact": 1782776663,
        "baro_altitude": 10972.8,
        "on_ground": false,
        "velocity": 241.68,
        "true_track": 58.14,
        "vertical_rate": 0,
        "geo_altitude": 11559.54,
        "squawk": "1000",
        "spi": false,
        "position_source": 0
      }
    },
    {
      "type": "Feature",
      "geometry": {
        "type": "Point",
        "coordinates": [
          9.7551,
          45.6589
        ]
      },
      "properties": {
        "icao24": "4ca242",
        "callsign": "RYR9YF",
        "origin_country": "Ireland",
        "time_position": 1782776663,
        "last_contact": 1782776663,
        "baro_altitude": 320.04,
        "on_ground": false,
        "velocity": 83.97,
        "true_track": 284.55,
        "vertical_rate": -4.23,
        "geo_altitude": 426.72,
        "squawk": "6432",
        "spi": false,
        "position_source": 0
      }
    },
    {
      "type": "Feature",
      "geometry": {
        "type": "Point",
        "coordinates": [
          9.9542,
          45.6151
        ]
      },
      "properties": {
        "icao24": "4ca244",
        "callsign": "RYR49HY",
        "origin_country": "Ireland",
        "time_position": 1782776662,
        "last_contact": 1782776663,
        "baro_altitude": 1203.96,
        "on_ground": false,
        "velocity": 107.65,
        "true_track": 329.88,
        "vertical_rate": -5.85,
        "geo_altitude": 1363.98,
        "squawk": "4626",
        "spi": false,
        "position_source": 0
      }
    },
    {
      "type": "Feature",
      "geometry": {
        "type": "Point",
        "coordinates": [
          8.7057,
          41.9305
        ]
      },
      "properties": {
        "icao24": "44093e",
        "callsign": "EJU54MD",
        "origin_country": "Austria",
        "time_position": 1782776663,
        "last_contact": 1782776663,
        "baro_altitude": 10972.8,
        "on_ground": false,
        "velocity": 230.39,
        "true_track": 349.97,
        "vertical_rate": 0,
        "geo_altitude": 11567.16,
        "squawk": "1000",
        "spi": false,
        "position_source": 0
      }
    },
    {
      "type": "Feature",
      "geometry": {
        "type": "Point",
        "coordinates": [
          9.3552,
          47.0294
        ]
      },
      "properties": {
        "icao24": "407e60",
        "callsign": "EZY53ZG",
        "origin_country": "United Kingdom",
        "time_position": 1782776663,
        "last_contact": 1782776663,
        "baro_altitude": 10965.18,
        "on_ground": false,
        "velocity": 237.12,
        "true_track": 305.55,
        "vertical_rate": 0,
        "geo_altitude": 11582.4,
        "squawk": "2754",
        "spi": false,
        "position_source": 0
      }
    },
    {
      "type": "Feature",
      "geometry": {
        "type": "Point",
        "coordinates": [
          18.1422,
          42.9676
        ]
      },
      "properties": {
        "icao24": "407e46",
        "callsign": "EXS47K",
        "origin_country": "United Kingdom",
        "time_position": 1782776663,
        "last_contact": 1782776663,
        "baro_altitude": 10980.42,
        "on_ground": false,
        "velocity": 239.93,
        "true_track": 305.22,
        "vertical_rate": 0,
        "geo_altitude": 11513.82,
        "squawk": "5610",
        "spi": false,
        "position_source": 0
      }
    },
    {
      "type": "Feature",
      "geometry": {
        "type": "Point",
        "coordinates": [
          17.6359,
          40.8449
        ]
      },
      "properties": {
        "icao24": "44061d",
        "callsign": "EJU31LR",
        "origin_country": "Austria",
        "time_position": 1782776658,
        "last_contact": 1782776659,
        "baro_altitude": 3169.92,
        "on_ground": false,
        "velocity": 161.71,
        "true_track": 305.16,
        "vertical_rate": 10.08,
        "geo_altitude": 3406.14,
        "squawk": null,
        "spi": false,
        "position_source": 0
      }
    },
    {
      "type": "Feature",
      "geometry": {
        "type": "Point",
        "coordinates": [
          18.1203,
          43.9352
        ]
      },
      "properties": {
        "icao24": "06a078",
        "callsign": "QTR1V",
        "origin_country": "Qatar",
        "time_position": 1782776663,
        "last_contact": 1782776663,
        "baro_altitude": 10058.4,
        "on_ground": false,
        "velocity": 242.86,
        "true_track": 129.93,
        "vertical_rate": -0.33,
        "geo_altitude": 10591.8,
        "squawk": "5236",
        "spi": false,
        "position_source": 0
      }
    },
    {
      "type": "Feature",
      "geometry": {
        "type": "Point",
        "coordinates": [
          17.8147,
          47.5356
        ]
      },
      "properties": {
        "icao24": "407f38",
        "callsign": "EXS7K",
        "origin_country": "United Kingdom",
        "time_position": 1782776663,
        "last_contact": 1782776663,
        "baro_altitude": 10378.44,
        "on_ground": false,
        "velocity": 263.46,
        "true_track": 308.1,
        "vertical_rate": 0,
        "geo_altitude": 10957.56,
        "squawk": "5377",
        "spi": false,
        "position_source": 0
      }
    },
    {
      "type": "Feature",
      "geometry": {
        "type": "Point",
        "coordinates": [
          18.9591,
          43.8205
        ]
      },
      "properties": {
        "icao24": "406ade",
        "callsign": "EXS59WJ",
        "origin_country": "United Kingdom",
        "time_position": 1782776662,
        "last_contact": 1782776662,
        "baro_altitude": 10972.8,
        "on_ground": false,
        "velocity": 244.82,
        "true_track": 315.26,
        "vertical_rate": 0.65,
        "geo_altitude": 11521.44,
        "squawk": "5522",
        "spi": false,
        "position_source": 0
      }
    },
    {
      "type": "Feature",
      "geometry": {
        "type": "Point",
        "coordinates": [
          17.7627,
          44.4302
        ]
      },
      "properties": {
        "icao24": "406ae8",
        "callsign": "TOM1AB",
        "origin_country": "United Kingdom",
        "time_position": 1782776663,
        "last_contact": 1782776663,
        "baro_altitude": 11216.64,
        "on_ground": false,
        "velocity": 235.94,
        "true_track": 309.87,
        "vertical_rate": 7.15,
        "geo_altitude": 11780.52,
        "squawk": "5646",
        "spi": false,
        "position_source": 0
      }
    },
    {
      "type": "Feature",
      "geometry": {
        "type": "Point",
        "coordinates": [
          17.0072,
          44.9928
        ]
      },
      "properties": {
        "icao24": "49d006",
        "callsign": "TVS2526",
        "origin_country": "Czech Republic",
        "time_position": 1782776662,
        "last_contact": 1782776663,
        "baro_altitude": 10668,
        "on_ground": false,
        "velocity": 228.81,
        "true_track": 151.53,
        "vertical_rate": 0,
        "geo_altitude": 11216.64,
        "squawk": "2236",
        "spi": false,
        "position_source": 0
      }
    },
    {
      "type": "Feature",
      "geometry": {
        "type": "Point",
        "coordinates": [
          12.1482,
          47.6769
        ]
      },
      "properties": {
        "icao24": "407c6d",
        "callsign": "EXS7HG",
        "origin_country": "United Kingdom",
        "time_position": 1782776663,
        "last_contact": 1782776663,
        "baro_altitude": 10972.8,
        "on_ground": false,
        "velocity": 232.96,
        "true_track": 302.01,
        "vertical_rate": 0,
        "geo_altitude": 11567.16,
        "squawk": "3117",
        "spi": false,
        "position_source": 0
      }
    },
    {
      "type": "Feature",
      "geometry": {
        "type": "Point",
        "coordinates": [
          11.0898,
          46.3444
        ]
      },
      "properties": {
        "icao24": "48c139",
        "callsign": "RYR14ZD",
        "origin_country": "Poland",
        "time_position": 1782776662,
        "last_contact": 1782776663,
        "baro_altitude": 11582.4,
        "on_ground": false,
        "velocity": 228.11,
        "true_track": 52.98,
        "vertical_rate": 0,
        "geo_altitude": 12184.38,
        "squawk": "1000",
        "spi": false,
        "position_source": 0
      }
    },
    {
      "type": "Feature",
      "geometry": {
        "type": "Point",
        "coordinates": [
          9.9843,
          45.4721
        ]
      },
      "properties": {
        "icao24": "48c131",
        "callsign": "RYR399",
        "origin_country": "Poland",
        "time_position": 1782776662,
        "last_contact": 1782776662,
        "baro_altitude": 1790.7,
        "on_ground": false,
        "velocity": 122.23,
        "true_track": 331.6,
        "vertical_rate": 0,
        "geo_altitude": 1981.2,
        "squawk": "6042",
        "spi": false,
        "position_source": 0
      }
    },
    {
      "type": "Feature",
      "geometry": {
        "type": "Point",
        "coordinates": [
          14.2211,
          45.5392
        ]
      },
      "properties": {
        "icao24": "48c130",
        "callsign": "RYR53VV",
        "origin_country": "Poland",
        "time_position": 1782776662,
        "last_contact": 1782776663,
        "baro_altitude": 11582.4,
        "on_ground": false,
        "velocity": 224.01,
        "true_track": 33.29,
        "vertical_rate": -0.33,
        "geo_altitude": 12169.14,
        "squawk": "1000",
        "spi": false,
        "position_source": 0
      }
    },
    {
      "type": "Feature",
      "geometry": {
        "type": "Point",
        "coordinates": [
          14.2132,
          44.5623
        ]
      },
      "properties": {
        "icao24": "48c129",
        "callsign": "RYR67JG",
        "origin_country": "Poland",
        "time_position": 1782776663,
        "last_contact": 1782776663,
        "baro_altitude": 11003.28,
        "on_ground": false,
        "velocity": 227.67,
        "true_track": 21.06,
        "vertical_rate": 5.2,
        "geo_altitude": 11567.16,
        "squawk": "1000",
        "spi": false,
        "position_source": 0
      }
    },
    {
      "type": "Feature",
      "geometry": {
        "type": "Point",
        "coordinates": [
          9.7153,
          46.9367
        ]
      },
      "properties": {
        "icao24": "407ac3",
        "callsign": "TOM1TK",
        "origin_country": "United Kingdom",
        "time_position": 1782776663,
        "last_contact": 1782776663,
        "baro_altitude": 11582.4,
        "on_ground": false,
        "velocity": 233.23,
        "true_track": 305.3,
        "vertical_rate": 0,
        "geo_altitude": 12199.62,
        "squawk": "2751",
        "spi": false,
        "position_source": 0
      }
    },
    {
      "type": "Feature",
      "geometry": {
        "type": "Point",
        "coordinates": [
          14.0084,
          46.3999
        ]
      },
      "properties": {
        "icao24": "406a59",
        "callsign": "EXS14VP",
        "origin_country": "United Kingdom",
        "time_position": 1782776663,
        "last_contact": 1782776663,
        "baro_altitude": 10972.8,
        "on_ground": false,
        "velocity": 238.65,
        "true_track": 310.45,
        "vertical_rate": 0,
        "geo_altitude": 11567.16,
        "squawk": "2053",
        "spi": false,
        "position_source": 0
      }
    },
    {
      "type": "Feature",
      "geometry": {
        "type": "Point",
        "coordinates": [
          6.0858,
          41.166
        ]
      },
      "properties": {
        "icao24": "4cc481",
        "callsign": "ABD2617",
        "origin_country": "Iceland",
        "time_position": 1782776663,
        "last_contact": 1782776663,
        "baro_altitude": 9448.8,
        "on_ground": false,
        "velocity": 255.16,
        "true_track": 180,
        "vertical_rate": 0,
        "geo_altitude": 9982.2,
        "squawk": "0112",
        "spi": false,
        "position_source": 0
      }
    },
    {
      "type": "Feature",
      "geometry": {
        "type": "Point",
        "coordinates": [
          9.9678,
          47.5393
        ]
      },
      "properties": {
        "icao24": "48c222",
        "callsign": "RYS3T",
        "origin_country": "Poland",
        "time_position": 1782776663,
        "last_contact": 1782776663,
        "baro_altitude": 10972.8,
        "on_ground": false,
        "velocity": 237.77,
        "true_track": 58.72,
        "vertical_rate": -0.33,
        "geo_altitude": 11567.16,
        "squawk": "6237",
        "spi": false,
        "position_source": 0
      }
    },
    {
      "type": "Feature",
      "geometry": {
        "type": "Point",
        "coordinates": [
          9.1535,
          46.9473
        ]
      },
      "properties": {
        "icao24": "407d22",
        "callsign": "EZY87AK",
        "origin_country": "United Kingdom",
        "time_position": 1782776663,
        "last_contact": 1782776663,
        "baro_altitude": 11590.02,
        "on_ground": false,
        "velocity": 238.91,
        "true_track": 306.77,
        "vertical_rate": 0.33,
        "geo_altitude": 12207.24,
        "squawk": "2761",
        "spi": false,
        "position_source": 0
      }
    },
    {
      "type": "Feature",
      "geometry": {
        "type": "Point",
        "coordinates": [
          15.993,
          47.3539
        ]
      },
      "properties": {
        "icao24": "440da9",
        "callsign": "C17",
        "origin_country": "Austria",
        "time_position": 1782776420,
        "last_contact": 1782776420,
        "baro_altitude": 480.06,
        "on_ground": false,
        "velocity": 5.07,
        "true_track": 336.04,
        "vertical_rate": -1.63,
        "geo_altitude": 601.98,
        "squawk": "1657",
        "spi": false,
        "position_source": 0
      }
    },
    {
      "type": "Feature",
      "geometry": {
        "type": "Point",
        "coordinates": [
          8.5589,
          47.4479
        ]
      },
      "properties": {
        "icao24": "4b1803",
        "callsign": "SWR",
        "origin_country": "Switzerland",
        "time_position": 1782776657,
        "last_contact": 1782776662,
        "baro_altitude": null,
        "on_ground": true,
        "velocity": 0,
        "true_track": 244.69,
        "vertical_rate": null,
        "geo_altitude": null,
        "squawk": "2000",
        "spi": false,
        "position_source": 0
      }
    },
    {
      "type": "Feature",
      "geometry": {
        "type": "Point",
        "coordinates": [
          8.6704,
          45.8897
        ]
      },
      "properties": {
        "icao24": "408143",
        "callsign": "DHK524",
        "origin_country": "United Kingdom",
        "time_position": 1782776663,
        "last_contact": 1782776663,
        "baro_altitude": 4533.9,
        "on_ground": false,
        "velocity": 190.32,
        "true_track": 152.12,
        "vertical_rate": -6.5,
        "geo_altitude": 4861.56,
        "squawk": "1157",
        "spi": false,
        "position_source": 0
      }
    },
    {
      "type": "Feature",
      "geometry": {
        "type": "Point",
        "coordinates": [
          8.7261,
          45.7027
        ]
      },
      "properties": {
        "icao24": "3c5433",
        "callsign": "BCS5NR",
        "origin_country": "Germany",
        "time_position": 1782776661,
        "last_contact": 1782776662,
        "baro_altitude": 1219.2,
        "on_ground": false,
        "velocity": 103.41,
        "true_track": 359.43,
        "vertical_rate": 11.38,
        "geo_altitude": 1363.98,
        "squawk": null,
        "spi": false,
        "position_source": 0
      }
    },
    {
      "type": "Feature",
      "geometry": {
        "type": "Point",
        "coordinates": [
          8.5572,
          47.4539
        ]
      },
      "properties": {
        "icao24": "4b5da7",
        "callsign": "TE26",
        "origin_country": "Switzerland",
        "time_position": 1782768379,
        "last_contact": 1782776662,
        "baro_altitude": null,
        "on_ground": true,
        "velocity": 3.6,
        "true_track": 191.25,
        "vertical_rate": null,
        "geo_altitude": null,
        "squawk": null,
        "spi": false,
        "position_source": 0
      }
    },
    {
      "type": "Feature",
      "geometry": {
        "type": "Point",
        "coordinates": [
          16.2074,
          44.9565
        ]
      },
      "properties": {
        "icao24": "40825f",
        "callsign": "EXS2VM",
        "origin_country": "United Kingdom",
        "time_position": 1782776663,
        "last_contact": 1782776663,
        "baro_altitude": 10965.18,
        "on_ground": false,
        "velocity": 231.01,
        "true_track": 315.63,
        "vertical_rate": 0.33,
        "geo_altitude": 11559.54,
        "squawk": "2043",
        "spi": false,
        "position_source": 0
      }
    },
    {
      "type": "Feature",
      "geometry": {
        "type": "Point",
        "coordinates": [
          9.2582,
          46.9286
        ]
      },
      "properties": {
        "icao24": "408260",
        "callsign": "EXS78PB",
        "origin_country": "United Kingdom",
        "time_position": 1782776662,
        "last_contact": 1782776663,
        "baro_altitude": 10363.2,
        "on_ground": false,
        "velocity": 243.2,
        "true_track": 308.3,
        "vertical_rate": 0,
        "geo_altitude": 10957.56,
        "squawk": "7533",
        "spi": false,
        "position_source": 0
      }
    },
    {
      "type": "Feature",
      "geometry": {
        "type": "Point",
        "coordinates": [
          15.2774,
          45.8216
        ]
      },
      "properties": {
        "icao24": "40815b",
        "callsign": "EZY17EG",
        "origin_country": "United Kingdom",
        "time_position": 1782776663,
        "last_contact": 1782776663,
        "baro_altitude": 10972.8,
        "on_ground": false,
        "velocity": 233.56,
        "true_track": 308.56,
        "vertical_rate": 0,
        "geo_altitude": 11551.92,
        "squawk": "2066",
        "spi": false,
        "position_source": 0
      }
    },
    {
      "type": "Feature",
      "geometry": {
        "type": "Point",
        "coordinates": [
          11.2545,
          46.2245
        ]
      },
      "properties": {
        "icao24": "40815c",
        "callsign": "EZY75PF",
        "origin_country": "United Kingdom",
        "time_position": 1782776663,
        "last_contact": 1782776663,
        "baro_altitude": 10972.8,
        "on_ground": false,
        "velocity": 233.34,
        "true_track": 302.39,
        "vertical_rate": 0,
        "geo_altitude": 11574.78,
        "squawk": "2011",
        "spi": false,
        "position_source": 0
      }
    },
    {
      "type": "Feature",
      "geometry": {
        "type": "Point",
        "coordinates": [
          18.3551,
          36.1496
        ]
      },
      "properties": {
        "icao24": "aa9d48",
        "callsign": "CMB187",
        "origin_country": "United States",
        "time_position": 1782776662,
        "last_contact": 1782776662,
        "baro_altitude": 11269.98,
        "on_ground": false,
        "velocity": 249.94,
        "true_track": 115.09,
        "vertical_rate": 0,
        "geo_altitude": 11795.76,
        "squawk": "4305",
        "spi": false,
        "position_source": 0
      }
    },
    {
      "type": "Feature",
      "geometry": {
        "type": "Point",
        "coordinates": [
          7.4395,
          46.1784
        ]
      },
      "properties": {
        "icao24": "3c0cb2",
        "callsign": "TUI9MD",
        "origin_country": "Germany",
        "time_position": 1782776663,
        "last_contact": 1782776663,
        "baro_altitude": 11582.4,
        "on_ground": false,
        "velocity": 238.34,
        "true_track": 24.08,
        "vertical_rate": -0.33,
        "geo_altitude": 12176.76,
        "squawk": "1000",
        "spi": false,
        "position_source": 0
      }
    },
    {
      "type": "Feature",
      "geometry": {
        "type": "Point",
        "coordinates": [
          17.455,
          44.7046
        ]
      },
      "properties": {
        "icao24": "408032",
        "callsign": "EXS37G",
        "origin_country": "United Kingdom",
        "time_position": 1782776663,
        "last_contact": 1782776663,
        "baro_altitude": 10972.8,
        "on_ground": false,
        "velocity": 242.67,
        "true_track": 314.06,
        "vertical_rate": 0,
        "geo_altitude": 11544.3,
        "squawk": "5502",
        "spi": false,
        "position_source": 0
      }
    },
    {
      "type": "Feature",
      "geometry": {
        "type": "Point",
        "coordinates": [
          9.6222,
          46.9754
        ]
      },
      "properties": {
        "icao24": "408033",
        "callsign": "EXS49TA",
        "origin_country": "United Kingdom",
        "time_position": 1782776663,
        "last_contact": 1782776663,
        "baro_altitude": 10972.8,
        "on_ground": false,
        "velocity": 234.75,
        "true_track": 304.73,
        "vertical_rate": 0,
        "geo_altitude": 11574.78,
        "squawk": "7526",
        "spi": false,
        "position_source": 0
      }
    },
    {
      "type": "Feature",
      "geometry": {
        "type": "Point",
        "coordinates": [
          10.5538,
          44.6086
        ]
      },
      "properties": {
        "icao24": "4ca9c1",
        "callsign": "RYR13PK",
        "origin_country": "Ireland",
        "time_position": 1782776663,
        "last_contact": 1782776663,
        "baro_altitude": 7825.74,
        "on_ground": false,
        "velocity": 195.17,
        "true_track": 357.43,
        "vertical_rate": -10.08,
        "geo_altitude": 8313.42,
        "squawk": "5173",
        "spi": false,
        "position_source": 0
      }
    },
    {
      "type": "Feature",
      "geometry": {
        "type": "Point",
        "coordinates": [
          7.7995,
          46.8162
        ]
      },
      "properties": {
        "icao24": "440bc5",
        "callsign": "BCS7015",
        "origin_country": "Austria",
        "time_position": 1782776663,
        "last_contact": 1782776663,
        "baro_altitude": 11582.4,
        "on_ground": false,
        "velocity": 237.62,
        "true_track": 313.51,
        "vertical_rate": 0.33,
        "geo_altitude": 12184.38,
        "squawk": "7520",
        "spi": false,
        "position_source": 0
      }
    },
    {
      "type": "Feature",
      "geometry": {
        "type": "Point",
        "coordinates": [
          18.5815,
          46.1266
        ]
      },
      "properties": {
        "icao24": "4841c5",
        "callsign": "MPH8372",
        "origin_country": "Kingdom of the Netherlands",
        "time_position": 1782776663,
        "last_contact": 1782776663,
        "baro_altitude": 10363.2,
        "on_ground": false,
        "velocity": 265.33,
        "true_track": 310.36,
        "vertical_rate": 0.33,
        "geo_altitude": 10911.84,
        "squawk": "2642",
        "spi": false,
        "position_source": 0
      }
    },
    {
      "type": "Feature",
      "geometry": {
        "type": "Point",
        "coordinates": [
          13.8821,
          46.4704
        ]
      },
      "properties": {
        "icao24": "4ca8db",
        "callsign": "RYR866X",
        "origin_country": "Ireland",
        "time_position": 1782776663,
        "last_contact": 1782776663,
        "baro_altitude": 11582.4,
        "on_ground": false,
        "velocity": 230.57,
        "true_track": 1.66,
        "vertical_rate": 0,
        "geo_altitude": 12176.76,
        "squawk": "6565",
        "spi": false,
        "position_source": 0
      }
    },
    {
      "type": "Feature",
      "geometry": {
        "type": "Point",
        "coordinates": [
          12.9819,
          42.7377
        ]
      },
      "properties": {
        "icao24": "4ca907",
        "callsign": "MSA56B",
        "origin_country": "Ireland",
        "time_position": 1782776663,
        "last_contact": 1782776663,
        "baro_altitude": 10668,
        "on_ground": false,
        "velocity": 222.13,
        "true_track": 137.63,
        "vertical_rate": -0.33,
        "geo_altitude": 11178.54,
        "squawk": "1000",
        "spi": false,
        "position_source": 0
      }
    },
    {
      "type": "Feature",
      "geometry": {
        "type": "Point",
        "coordinates": [
          9.2609,
          44.111
        ]
      },
      "properties": {
        "icao24": "4ca961",
        "callsign": "NOS1446",
        "origin_country": "Ireland",
        "time_position": 1782776663,
        "last_contact": 1782776663,
        "baro_altitude": 9227.82,
        "on_ground": false,
        "velocity": 233.78,
        "true_track": 98.86,
        "vertical_rate": -5.2,
        "geo_altitude": 9761.22,
        "squawk": "1000",
        "spi": false,
        "position_source": 0
      }
    },
    {
      "type": "Feature",
      "geometry": {
        "type": "Point",
        "coordinates": [
          11.3112,
          44.5273
        ]
      },
      "properties": {
        "icao24": "4ca857",
        "callsign": "RYR7HA",
        "origin_country": "Ireland",
        "time_position": 1782776366,
        "last_contact": 1782776366,
        "baro_altitude": 60.96,
        "on_ground": false,
        "velocity": 72.93,
        "true_track": 296.38,
        "vertical_rate": -4.88,
        "geo_altitude": 160.02,
        "squawk": "5504",
        "spi": false,
        "position_source": 0
      }
    },
    {
      "type": "Feature",
      "geometry": {
        "type": "Point",
        "coordinates": [
          14.0679,
          43.5379
        ]
      },
      "properties": {
        "icao24": "3c0c0a",
        "callsign": "LUA888H",
        "origin_country": "Germany",
        "time_position": 1782776663,
        "last_contact": 1782776663,
        "baro_altitude": 11887.2,
        "on_ground": false,
        "velocity": 238.06,
        "true_track": 137.1,
        "vertical_rate": 0.33,
        "geo_altitude": 12458.7,
        "squawk": "2267",
        "spi": false,
        "position_source": 0
      }
    },
    {
      "type": "Feature",
      "geometry": {
        "type": "Point",
        "coordinates": [
          9.7692,
          38.6037
        ]
      },
      "properties": {
        "icao24": "02a198",
        "callsign": "TAR851",
        "origin_country": "Tunisia",
        "time_position": 1782776663,
        "last_contact": 1782776663,
        "baro_altitude": 10248.9,
        "on_ground": false,
        "velocity": 241.88,
        "true_track": 158.02,
        "vertical_rate": -12.03,
        "geo_altitude": 10820.4,
        "squawk": "4317",
        "spi": false,
        "position_source": 0
      }
    },
    {
      "type": "Feature",
      "geometry": {
        "type": "Point",
        "coordinates": [
          12.1494,
          42.3468
        ]
      },
      "properties": {
        "icao24": "4ca82b",
        "callsign": "MSA92C",
        "origin_country": "Ireland",
        "time_position": 1782776663,
        "last_contact": 1782776663,
        "baro_altitude": 11887.2,
        "on_ground": false,
        "velocity": 233.44,
        "true_track": 155.52,
        "vertical_rate": 0,
        "geo_altitude": 12473.94,
        "squawk": "6323",
        "spi": false,
        "position_source": 0
      }
    },
    {
      "type": "Feature",
      "geometry": {
        "type": "Point",
        "coordinates": [
          9.2339,
          41.3427
        ]
      },
      "properties": {
        "icao24": "4ca82c",
        "callsign": "MSA83E",
        "origin_country": "Ireland",
        "time_position": 1782776662,
        "last_contact": 1782776663,
        "baro_altitude": 11277.6,
        "on_ground": false,
        "velocity": 233.15,
        "true_track": 184.18,
        "vertical_rate": 0,
        "geo_altitude": 11864.34,
        "squawk": "3535",
        "spi": false,
        "position_source": 0
      }
    },
    {
      "type": "Feature",
      "geometry": {
        "type": "Point",
        "coordinates": [
          13.7689,
          47.5206
        ]
      },
      "properties": {
        "icao24": "4ca811",
        "callsign": "RYR1FA",
        "origin_country": "Ireland",
        "time_position": 1782776663,
        "last_contact": 1782776663,
        "baro_altitude": 10972.8,
        "on_ground": false,
        "velocity": 242.17,
        "true_track": 235.3,
        "vertical_rate": 0.33,
        "geo_altitude": 11559.54,
        "squawk": "1000",
        "spi": false,
        "position_source": 0
      }
    },
    {
      "type": "Feature",
      "geometry": {
        "type": "Point",
        "coordinates": [
          12.1434,
          46.3586
        ]
      },
      "properties": {
        "icao24": "4ca769",
        "callsign": "RYR123X",
        "origin_country": "Ireland",
        "time_position": 1782776662,
        "last_contact": 1782776663,
        "baro_altitude": 11277.6,
        "on_ground": false,
        "velocity": 227.5,
        "true_track": 138.85,
        "vertical_rate": 0,
        "geo_altitude": 11879.58,
        "squawk": "5204",
        "spi": false,
        "position_source": 0
      }
    },
    {
      "type": "Feature",
      "geometry": {
        "type": "Point",
        "coordinates": [
          10.4169,
          38.7218
        ]
      },
      "properties": {
        "icao24": "02a263",
        "callsign": "TAR543",
        "origin_country": "Tunisia",
        "time_position": 1782776663,
        "last_contact": 1782776663,
        "baro_altitude": 10546.08,
        "on_ground": false,
        "velocity": 237.69,
        "true_track": 188.46,
        "vertical_rate": -14.63,
        "geo_altitude": 11132.82,
        "squawk": "0617",
        "spi": false,
        "position_source": 0
      }
    },
    {
      "type": "Feature",
      "geometry": {
        "type": "Point",
        "coordinates": [
          9.8017,
          37.9298
        ]
      },
      "properties": {
        "icao24": "02a262",
        "callsign": "TAR681",
        "origin_country": "Tunisia",
        "time_position": 1782776604,
        "last_contact": 1782776614,
        "baro_altitude": 10972.8,
        "on_ground": false,
        "velocity": 245.18,
        "true_track": 165.79,
        "vertical_rate": -5.2,
        "geo_altitude": 11582.4,
        "squawk": "4311",
        "spi": false,
        "position_source": 0
      }
    },
    {
      "type": "Feature",
      "geometry": {
        "type": "Point",
        "coordinates": [
          16.6636,
          45.0042
        ]
      },
      "properties": {
        "icao24": "4bcdb3",
        "callsign": "SXS6XD",
        "origin_country": "Turkey",
        "time_position": 1782776663,
        "last_contact": 1782776663,
        "baro_altitude": 11277.6,
        "on_ground": false,
        "velocity": 226.98,
        "true_track": 131.78,
        "vertical_rate": 0.33,
        "geo_altitude": 11856.72,
        "squawk": "6423",
        "spi": false,
        "position_source": 0
      }
    },
    {
      "type": "Feature",
      "geometry": {
        "type": "Point",
        "coordinates": [
          17.6548,
          43.434
        ]
      },
      "properties": {
        "icao24": "4a5df7",
        "callsign": "HYS7108",
        "origin_country": "Romania",
        "time_position": 1782776661,
        "last_contact": 1782776662,
        "baro_altitude": 10668,
        "on_ground": false,
        "velocity": 226.85,
        "true_track": 63.03,
        "vertical_rate": 0,
        "geo_altitude": 11224.26,
        "squawk": "1266",
        "spi": false,
        "position_source": 0
      }
    },
    {
      "type": "Feature",
      "geometry": {
        "type": "Point",
        "coordinates": [
          11.3524,
          44.6213
        ]
      },
      "properties": {
        "icao24": "4ca645",
        "callsign": "RYR381",
        "origin_country": "Ireland",
        "time_position": 1782776663,
        "last_contact": 1782776663,
        "baro_altitude": 1485.9,
        "on_ground": false,
        "velocity": 137.12,
        "true_track": 116.28,
        "vertical_rate": -0.33,
        "geo_altitude": 1645.92,
        "squawk": "6441",
        "spi": false,
        "position_source": 0
      }
    },
    {
      "type": "Feature",
      "geometry": {
        "type": "Point",
        "coordinates": [
          14.4369,
          46.7915
        ]
      },
      "properties": {
        "icao24": "49d67d",
        "callsign": "TVS2721",
        "origin_country": "Czech Republic",
        "time_position": 1782776663,
        "last_contact": 1782776663,
        "baro_altitude": 11582.4,
        "on_ground": false,
        "velocity": 234.36,
        "true_track": 351.03,
        "vertical_rate": 0.33,
        "geo_altitude": 12176.76,
        "squawk": "1000",
        "spi": false,
        "position_source": 0
      }
    },
    {
      "type": "Feature",
      "geometry": {
        "type": "Point",
        "coordinates": [
          12.2738,
          47.7656
        ]
      },
      "properties": {
        "icao24": "4bce13",
        "callsign": "SXS2NB",
        "origin_country": "Turkey",
        "time_position": 1782776663,
        "last_contact": 1782776663,
        "baro_altitude": 10668,
        "on_ground": false,
        "velocity": 232.4,
        "true_track": 130.6,
        "vertical_rate": 0.33,
        "geo_altitude": 11239.5,
        "squawk": "6436",
        "spi": false,
        "position_source": 0
      }
    },
    {
      "type": "Feature",
      "geometry": {
        "type": "Point",
        "coordinates": [
          6.5746,
          45.749
        ]
      },
      "properties": {
        "icao24": "4d012f",
        "callsign": "CLX67",
        "origin_country": "Luxembourg",
        "time_position": 1782776663,
        "last_contact": 1782776663,
        "baro_altitude": 10507.98,
        "on_ground": false,
        "velocity": 231.34,
        "true_track": 121.36,
        "vertical_rate": -5.85,
        "geo_altitude": 11071.86,
        "squawk": "1000",
        "spi": false,
        "position_source": 0
      }
    },
    {
      "type": "Feature",
      "geometry": {
        "type": "Point",
        "coordinates": [
          17.9976,
          42.9958
        ]
      },
      "properties": {
        "icao24": "407642",
        "callsign": "TOM285",
        "origin_country": "United Kingdom",
        "time_position": 1782776663,
        "last_contact": 1782776663,
        "baro_altitude": 11582.4,
        "on_ground": false,
        "velocity": 245.55,
        "true_track": 305.62,
        "vertical_rate": 0,
        "geo_altitude": 12138.66,
        "squawk": "2016",
        "spi": false,
        "position_source": 0
      }
    },
    {
      "type": "Feature",
      "geometry": {
        "type": "Point",
        "coordinates": [
          17.6183,
          47.2154
        ]
      },
      "properties": {
        "icao24": "40768d",
        "callsign": "EZY2140",
        "origin_country": "United Kingdom",
        "time_position": 1782776662,
        "last_contact": 1782776663,
        "baro_altitude": 10972.8,
        "on_ground": false,
        "velocity": 260.04,
        "true_track": 297.83,
        "vertical_rate": -0.33,
        "geo_altitude": 11567.16,
        "squawk": "3253",
        "spi": false,
        "position_source": 0
      }
    },
    {
      "type": "Feature",
      "geometry": {
        "type": "Point",
        "coordinates": [
          7.5235,
          45.0854
        ]
      },
      "properties": {
        "icao24": "300813",
        "callsign": "IWOOD",
        "origin_country": "Italy",
        "time_position": 1782776663,
        "last_contact": 1782776663,
        "baro_altitude": 601.98,
        "on_ground": false,
        "velocity": 71.52,
        "true_track": 91.24,
        "vertical_rate": -2.28,
        "geo_altitude": 731.52,
        "squawk": null,
        "spi": false,
        "position_source": 0
      }
    },
    {
      "type": "Feature",
      "geometry": {
        "type": "Point",
        "coordinates": [
          8.72,
          45.6317
        ]
      },
      "properties": {
        "icao24": "3474cb",
        "callsign": "BCS136",
        "origin_country": "Spain",
        "time_position": 1782776650,
        "last_contact": 1782776650,
        "baro_altitude": null,
        "on_ground": true,
        "velocity": 13.38,
        "true_track": 168.75,
        "vertical_rate": null,
        "geo_altitude": null,
        "squawk": "1000",
        "spi": false,
        "position_source": 0
      }
    },
    {
      "type": "Feature",
      "geometry": {
        "type": "Point",
        "coordinates": [
          11.6887,
          43.8888
        ]
      },
      "properties": {
        "icao24": "4cafca",
        "callsign": "MSA95S",
        "origin_country": "Ireland",
        "time_position": 1782776663,
        "last_contact": 1782776663,
        "baro_altitude": 10447.02,
        "on_ground": false,
        "velocity": 244.58,
        "true_track": 145.54,
        "vertical_rate": 13.66,
        "geo_altitude": 10972.8,
        "squawk": "1000",
        "spi": false,
        "position_source": 0
      }
    },
    {
      "type": "Feature",
      "geometry": {
        "type": "Point",
        "coordinates": [
          10.3906,
          45.1778
        ]
      },
      "properties": {
        "icao24": "4cafcb",
        "callsign": "MSA976P",
        "origin_country": "Ireland",
        "time_position": 1782776662,
        "last_contact": 1782776663,
        "baro_altitude": 1264.92,
        "on_ground": false,
        "velocity": 138.97,
        "true_track": 33.98,
        "vertical_rate": -6.18,
        "geo_altitude": 1424.94,
        "squawk": "5434",
        "spi": false,
        "position_source": 0
      }
    },
    {
      "type": "Feature",
      "geometry": {
        "type": "Point",
        "coordinates": [
          14.5462,
          45.6953
        ]
      },
      "properties": {
        "icao24": "010207",
        "callsign": "MSR780",
        "origin_country": "Egypt",
        "time_position": 1782776663,
        "last_contact": 1782776663,
        "baro_altitude": 10675.62,
        "on_ground": false,
        "velocity": 236.83,
        "true_track": 135.79,
        "vertical_rate": 0.33,
        "geo_altitude": 11254.74,
        "squawk": "5251",
        "spi": false,
        "position_source": 0
      }
    },
    {
      "type": "Feature",
      "geometry": {
        "type": "Point",
        "coordinates": [
          15.5398,
          42.7878
        ]
      },
      "properties": {
        "icao24": "4d24a9",
        "callsign": "SVA3902",
        "origin_country": "",
        "time_position": 1782776663,
        "last_contact": 1782776663,
        "baro_altitude": 10668,
        "on_ground": false,
        "velocity": 246.58,
        "true_track": 141.86,
        "vertical_rate": 0,
        "geo_altitude": 11178.54,
        "squawk": "0104",
        "spi": false,
        "position_source": 0
      }
    },
    {
      "type": "Feature",
      "geometry": {
        "type": "Point",
        "coordinates": [
          14.2065,
          36.4924
        ]
      },
      "properties": {
        "icao24": "4d24ba",
        "callsign": "KMM455",
        "origin_country": "",
        "time_position": 1782776663,
        "last_contact": 1782776663,
        "baro_altitude": 4739.64,
        "on_ground": false,
        "velocity": 204.17,
        "true_track": 148.39,
        "vertical_rate": -13,
        "geo_altitude": 5052.06,
        "squawk": "4065",
        "spi": false,
        "position_source": 0
      }
    },
    {
      "type": "Feature",
      "geometry": {
        "type": "Point",
        "coordinates": [
          15.7019,
          44.0882
        ]
      },
      "properties": {
        "icao24": "4075f4",
        "callsign": "TOM8KM",
        "origin_country": "United Kingdom",
        "time_position": 1782776663,
        "last_contact": 1782776663,
        "baro_altitude": 11582.4,
        "on_ground": false,
        "velocity": 238.79,
        "true_track": 302.15,
        "vertical_rate": 0,
        "geo_altitude": 12153.9,
        "squawk": "5627",
        "spi": false,
        "position_source": 0
      }
    },
    {
      "type": "Feature",
      "geometry": {
        "type": "Point",
        "coordinates": [
          15.8935,
          43.6998
        ]
      },
      "properties": {
        "icao24": "4075f3",
        "callsign": "TOM451",
        "origin_country": "United Kingdom",
        "time_position": 1782776662,
        "last_contact": 1782776663,
        "baro_altitude": 11582.4,
        "on_ground": false,
        "velocity": 237.67,
        "true_track": 311.31,
        "vertical_rate": 0,
        "geo_altitude": 12161.52,
        "squawk": "6621",
        "spi": false,
        "position_source": 0
      }
    },
    {
      "type": "Feature",
      "geometry": {
        "type": "Point",
        "coordinates": [
          12.8011,
          41.348
        ]
      },
      "properties": {
        "icao24": "33fd4a",
        "callsign": "RIMA",
        "origin_country": "Italy",
        "time_position": 1782776663,
        "last_contact": 1782776663,
        "baro_altitude": 30.48,
        "on_ground": false,
        "velocity": 31.68,
        "true_track": 302.4,
        "vertical_rate": 0.33,
        "geo_altitude": 114.3,
        "squawk": null,
        "spi": false,
        "position_source": 0
      }
    },
    {
      "type": "Feature",
      "geometry": {
        "type": "Point",
        "coordinates": [
          17.7674,
          45.172
        ]
      },
      "properties": {
        "icao24": "4d2534",
        "callsign": "WZZ9198",
        "origin_country": "",
        "time_position": 1782776663,
        "last_contact": 1782776663,
        "baro_altitude": 9875.52,
        "on_ground": false,
        "velocity": 206.29,
        "true_track": 97.02,
        "vertical_rate": -8.45,
        "geo_altitude": 10431.78,
        "squawk": "0475",
        "spi": false,
        "position_source": 0
      }
    },
    {
      "type": "Feature",
      "geometry": {
        "type": "Point",
        "coordinates": [
          18.8525,
          47.1926
        ]
      },
      "properties": {
        "icao24": "4d2533",
        "callsign": "WZZ64LB",
        "origin_country": "",
        "time_position": 1782776663,
        "last_contact": 1782776663,
        "baro_altitude": 3032.76,
        "on_ground": false,
        "velocity": 155.38,
        "true_track": 85.25,
        "vertical_rate": -7.8,
        "geo_altitude": 3322.32,
        "squawk": "1000",
        "spi": false,
        "position_source": 0
      }
    },
    {
      "type": "Feature",
      "geometry": {
        "type": "Point",
        "coordinates": [
          13.683,
          36.2654
        ]
      },
      "properties": {
        "icao24": "347247",
        "callsign": "IBS1904",
        "origin_country": "Spain",
        "time_position": 1782776662,
        "last_contact": 1782776663,
        "baro_altitude": 10370.82,
        "on_ground": false,
        "velocity": 232.07,
        "true_track": 279.44,
        "vertical_rate": -0.33,
        "geo_altitude": 10896.6,
        "squawk": "6620",
        "spi": false,
        "position_source": 0
      }
    },
    {
      "type": "Feature",
      "geometry": {
        "type": "Point",
        "coordinates": [
          9.4602,
          46.0396
        ]
      },
      "properties": {
        "icao24": "4d23f9",
        "callsign": "RYR52TC",
        "origin_country": "Malta",
        "time_position": 1782776663,
        "last_contact": 1782776663,
        "baro_altitude": 5730.24,
        "on_ground": false,
        "velocity": 150.95,
        "true_track": 154.57,
        "vertical_rate": -6.83,
        "geo_altitude": 6103.62,
        "squawk": "2627",
        "spi": false,
        "position_source": 0
      }
    },
    {
      "type": "Feature",
      "geometry": {
        "type": "Point",
        "coordinates": [
          13.6758,
          46.5326
        ]
      },
      "properties": {
        "icao24": "4d23e1",
        "callsign": "CHZ112",
        "origin_country": "Malta",
        "time_position": 1782776662,
        "last_contact": 1782776663,
        "baro_altitude": 10668,
        "on_ground": false,
        "velocity": 237.88,
        "true_track": 143.35,
        "vertical_rate": 0,
        "geo_altitude": 11193.78,
        "squawk": "2271",
        "spi": false,
        "position_source": 0
      }
    },
    {
      "type": "Feature",
      "geometry": {
        "type": "Point",
        "coordinates": [
          15.5092,
          44.1064
        ]
      },
      "properties": {
        "icao24": "4d2425",
        "callsign": "WMT286",
        "origin_country": "",
        "time_position": 1782776662,
        "last_contact": 1782776662,
        "baro_altitude": 10675.62,
        "on_ground": false,
        "velocity": 224.93,
        "true_track": 126.16,
        "vertical_rate": 0,
        "geo_altitude": 11254.74,
        "squawk": "6023",
        "spi": false,
        "position_source": 0
      }
    },
    {
      "type": "Feature",
      "geometry": {
        "type": "Point",
        "coordinates": [
          9.0243,
          41.05
        ]
      },
      "properties": {
        "icao24": "4d2420",
        "callsign": "WMT7T",
        "origin_country": "",
        "time_position": 1782776663,
        "last_contact": 1782776663,
        "baro_altitude": 10972.8,
        "on_ground": false,
        "velocity": 222.13,
        "true_track": 73.03,
        "vertical_rate": 0,
        "geo_altitude": 11567.16,
        "squawk": "1000",
        "spi": false,
        "position_source": 0
      }
    },
    {
      "type": "Feature",
      "geometry": {
        "type": "Point",
        "coordinates": [
          12.3139,
          45.4756
        ]
      },
      "properties": {
        "icao24": "4cadff",
        "callsign": "RYR5TF",
        "origin_country": "Ireland",
        "time_position": 1782776513,
        "last_contact": 1782776513,
        "baro_altitude": 121.92,
        "on_ground": false,
        "velocity": 78.66,
        "true_track": 42.35,
        "vertical_rate": -3.9,
        "geo_altitude": 220.98,
        "squawk": "1000",
        "spi": false,
        "position_source": 0
      }
    },
    {
      "type": "Feature",
      "geometry": {
        "type": "Point",
        "coordinates": [
          8.2259,
          45.09
        ]
      },
      "properties": {
        "icao24": "4cadf9",
        "callsign": "RYR53QQ",
        "origin_country": "Ireland",
        "time_position": 1782776662,
        "last_contact": 1782776663,
        "baro_altitude": 6842.76,
        "on_ground": false,
        "velocity": 236.1,
        "true_track": 190.67,
        "vertical_rate": 8.45,
        "geo_altitude": 7254.24,
        "squawk": null,
        "spi": false,
        "position_source": 0
      }
    },
    {
      "type": "Feature",
      "geometry": {
        "type": "Point",
        "coordinates": [
          13.1832,
          45.1743
        ]
      },
      "properties": {
        "icao24": "4d22c1",
        "callsign": "RYR61YD",
        "origin_country": "Malta",
        "time_position": 1782776663,
        "last_contact": 1782776663,
        "baro_altitude": 10972.8,
        "on_ground": false,
        "velocity": 230.48,
        "true_track": 30,
        "vertical_rate": 0.33,
        "geo_altitude": 11544.3,
        "squawk": "1000",
        "spi": false,
        "position_source": 0
      }
    },
    {
      "type": "Feature",
      "geometry": {
        "type": "Point",
        "coordinates": [
          9.1025,
          46.8831
        ]
      },
      "properties": {
        "icao24": "4d22c2",
        "callsign": "RYR8551",
        "origin_country": "Malta",
        "time_position": 1782776663,
        "last_contact": 1782776663,
        "baro_altitude": 10675.62,
        "on_ground": false,
        "velocity": 235.13,
        "true_track": 20.89,
        "vertical_rate": 0,
        "geo_altitude": 11269.98,
        "squawk": "2750",
        "spi": false,
        "position_source": 0
      }
    },
    {
      "type": "Feature",
      "geometry": {
        "type": "Point",
        "coordinates": [
          9.2688,
          40.8161
        ]
      },
      "properties": {
        "icao24": "4cae63",
        "callsign": "RYR7406",
        "origin_country": "Ireland",
        "time_position": 1782776663,
        "last_contact": 1782776663,
        "baro_altitude": 11887.2,
        "on_ground": false,
        "velocity": 233.95,
        "true_track": 248.46,
        "vertical_rate": 0.33,
        "geo_altitude": 12489.18,
        "squawk": null,
        "spi": false,
        "position_source": 0
      }
    },
    {
      "type": "Feature",
      "geometry": {
        "type": "Point",
        "coordinates": [
          9.6337,
          45.3192
        ]
      },
      "properties": {
        "icao24": "4cae6a",
        "callsign": "RYR540G",
        "origin_country": "Ireland",
        "time_position": 1782776663,
        "last_contact": 1782776663,
        "baro_altitude": 3878.58,
        "on_ground": false,
        "velocity": 177.01,
        "true_track": 181.17,
        "vertical_rate": 10.4,
        "geo_altitude": 4152.9,
        "squawk": "4630",
        "spi": false,
        "position_source": 0
      }
    },
    {
      "type": "Feature",
      "geometry": {
        "type": "Point",
        "coordinates": [
          14.9464,
          44.3693
        ]
      },
      "properties": {
        "icao24": "4d22be",
        "callsign": "RYR2RF",
        "origin_country": "Malta",
        "time_position": 1782776418,
        "last_contact": 1782776418,
        "baro_altitude": 1927.86,
        "on_ground": false,
        "velocity": 120.56,
        "true_track": 105.34,
        "vertical_rate": -2.6,
        "geo_altitude": 2156.46,
        "squawk": "1000",
        "spi": false,
        "position_source": 0
      }
    },
    {
      "type": "Feature",
      "geometry": {
        "type": "Point",
        "coordinates": [
          13.3023,
          39.5842
        ]
      },
      "properties": {
        "icao24": "4d22ba",
        "callsign": "RYR39QQ",
        "origin_country": "Malta",
        "time_position": 1782776662,
        "last_contact": 1782776662,
        "baro_altitude": 9136.38,
        "on_ground": false,
        "velocity": 226.97,
        "true_track": 5.72,
        "vertical_rate": 9.43,
        "geo_altitude": 9616.44,
        "squawk": null,
        "spi": false,
        "position_source": 0
      }
    },
    {
      "type": "Feature",
      "geometry": {
        "type": "Point",
        "coordinates": [
          12.3582,
          47.5797
        ]
      },
      "properties": {
        "icao24": "407267",
        "callsign": "EXS94VU",
        "origin_country": "United Kingdom",
        "time_position": 1782776663,
        "last_contact": 1782776663,
        "baro_altitude": 11582.4,
        "on_ground": false,
        "velocity": 234.39,
        "true_track": 306.34,
        "vertical_rate": 0,
        "geo_altitude": 12176.76,
        "squawk": "5373",
        "spi": false,
        "position_source": 0
      }
    },
    {
      "type": "Feature",
      "geometry": {
        "type": "Point",
        "coordinates": [
          8.546,
          46.9146
        ]
      },
      "properties": {
        "icao24": "4caca2",
        "callsign": "ABR177",
        "origin_country": "Ireland",
        "time_position": 1782776663,
        "last_contact": 1782776663,
        "baro_altitude": 6096,
        "on_ground": false,
        "velocity": 131.83,
        "true_track": 333.83,
        "vertical_rate": 0,
        "geo_altitude": 6477,
        "squawk": "1000",
        "spi": false,
        "position_source": 0
      }
    },
    {
      "type": "Feature",
      "geometry": {
        "type": "Point",
        "coordinates": [
          8.4246,
          44.4471
        ]
      },
      "properties": {
        "icao24": "4d2338",
        "callsign": "TAR724",
        "origin_country": "Malta",
        "time_position": 1782776663,
        "last_contact": 1782776663,
        "baro_altitude": 10363.2,
        "on_ground": false,
        "velocity": 241.59,
        "true_track": 330.82,
        "vertical_rate": -0.33,
        "geo_altitude": 10949.94,
        "squawk": "6176",
        "spi": false,
        "position_source": 0
      }
    },
    {
      "type": "Feature",
      "geometry": {
        "type": "Point",
        "coordinates": [
          6.531,
          43.765
        ]
      },
      "properties": {
        "icao24": "4d2346",
        "callsign": "RYR9982",
        "origin_country": "Malta",
        "time_position": 1782776663,
        "last_contact": 1782776663,
        "baro_altitude": 11277.6,
        "on_ground": false,
        "velocity": 235.56,
        "true_track": 239.12,
        "vertical_rate": 0,
        "geo_altitude": 11887.2,
        "squawk": "1000",
        "spi": false,
        "position_source": 0
      }
    },
    {
      "type": "Feature",
      "geometry": {
        "type": "Point",
        "coordinates": [
          18.5525,
          35.5316
        ]
      },
      "properties": {
        "icao24": "4d2340",
        "callsign": "DAH4036",
        "origin_country": "Malta",
        "time_position": 1782776663,
        "last_contact": 1782776663,
        "baro_altitude": 10683.24,
        "on_ground": false,
        "velocity": 250.45,
        "true_track": 97.2,
        "vertical_rate": 0,
        "geo_altitude": 11201.4,
        "squawk": "4107",
        "spi": false,
        "position_source": 0
      }
    },
    {
      "type": "Feature",
      "geometry": {
        "type": "Point",
        "coordinates": [
          6.9215,
          46.2248
        ]
      },
      "properties": {
        "icao24": "4b3d0a",
        "callsign": "HBXDA",
        "origin_country": "Switzerland",
        "time_position": 1782776662,
        "last_contact": 1782776662,
        "baro_altitude": 1287.78,
        "on_ground": false,
        "velocity": 37.77,
        "true_track": 245.88,
        "vertical_rate": -5.53,
        "geo_altitude": 1470.66,
        "squawk": null,
        "spi": false,
        "position_source": 0
      }
    },
    {
      "type": "Feature",
      "geometry": {
        "type": "Point",
        "coordinates": [
          11.3105,
          44.5275
        ]
      },
      "properties": {
        "icao24": "4cad12",
        "callsign": "RYR25FL",
        "origin_country": "Ireland",
        "time_position": 1782776620,
        "last_contact": 1782776620,
        "baro_altitude": 60.96,
        "on_ground": false,
        "velocity": 69.71,
        "true_track": 296.75,
        "vertical_rate": -4.23,
        "geo_altitude": 160.02,
        "squawk": "0503",
        "spi": false,
        "position_source": 0
      }
    },
    {
      "type": "Feature",
      "geometry": {
        "type": "Point",
        "coordinates": [
          16.7245,
          44.3256
        ]
      },
      "properties": {
        "icao24": "4cad3b",
        "callsign": "RYR79HT",
        "origin_country": "Ireland",
        "time_position": 1782776663,
        "last_contact": 1782776663,
        "baro_altitude": 10972.8,
        "on_ground": false,
        "velocity": 240.14,
        "true_track": 321.44,
        "vertical_rate": 0.33,
        "geo_altitude": 11544.3,
        "squawk": "6636",
        "spi": false,
        "position_source": 0
      }
    },
    {
      "type": "Feature",
      "geometry": {
        "type": "Point",
        "coordinates": [
          11.278,
          46.3374
        ]
      },
      "properties": {
        "icao24": "347191",
        "callsign": "BCS7019",
        "origin_country": "Spain",
        "time_position": 1782776663,
        "last_contact": 1782776663,
        "baro_altitude": 10363.2,
        "on_ground": false,
        "velocity": 231.92,
        "true_track": 344.3,
        "vertical_rate": 0,
        "geo_altitude": 10957.56,
        "squawk": "0242",
        "spi": false,
        "position_source": 0
      }
    },
    {
      "type": "Feature",
      "geometry": {
        "type": "Point",
        "coordinates": [
          8.7153,
          45.6252
        ]
      },
      "properties": {
        "icao24": "4d222a",
        "callsign": "RYR9UE",
        "origin_country": "Malta",
        "time_position": 1782776461,
        "last_contact": 1782776461,
        "baro_altitude": null,
        "on_ground": true,
        "velocity": 1.03,
        "true_track": 168.75,
        "vertical_rate": null,
        "geo_altitude": null,
        "squawk": "1000",
        "spi": false,
        "position_source": 0
      }
    },
    {
      "type": "Feature",
      "geometry": {
        "type": "Point",
        "coordinates": [
          11.6254,
          45.029
        ]
      },
      "properties": {
        "icao24": "4d222c",
        "callsign": "RYR3DE",
        "origin_country": "Malta",
        "time_position": 1782776663,
        "last_contact": 1782776663,
        "baro_altitude": 5654.04,
        "on_ground": false,
        "velocity": 202.21,
        "true_track": 131.8,
        "vertical_rate": 12.35,
        "geo_altitude": 6004.56,
        "squawk": "7427",
        "spi": false,
        "position_source": 0
      }
    },
    {
      "type": "Feature",
      "geometry": {
        "type": "Point",
        "coordinates": [
          10.563,
          43.4231
        ]
      },
      "properties": {
        "icao24": "4d2216",
        "callsign": "RYR8336",
        "origin_country": "Malta",
        "time_position": 1782776663,
        "last_contact": 1782776663,
        "baro_altitude": 11277.6,
        "on_ground": false,
        "velocity": 225.34,
        "true_track": 142.61,
        "vertical_rate": 0,
        "geo_altitude": 11856.72,
        "squawk": "1000",
        "spi": false,
        "position_source": 0
      }
    },
    {
      "type": "Feature",
      "geometry": {
        "type": "Point",
        "coordinates": [
          14.5304,
          37.599
        ]
      },
      "properties": {
        "icao24": "4d2211",
        "callsign": "RYR8VE",
        "origin_country": "Malta",
        "time_position": 1782776663,
        "last_contact": 1782776663,
        "baro_altitude": 2400.3,
        "on_ground": false,
        "velocity": 148.48,
        "true_track": 129.09,
        "vertical_rate": -5.53,
        "geo_altitude": 2613.66,
        "squawk": "3533",
        "spi": false,
        "position_source": 0
      }
    },
    {
      "type": "Feature",
      "geometry": {
        "type": "Point",
        "coordinates": [
          8.9089,
          41.5765
        ]
      },
      "properties": {
        "icao24": "4d220c",
        "callsign": "RYR29CD",
        "origin_country": "Malta",
        "time_position": 1782776663,
        "last_contact": 1782776663,
        "baro_altitude": 8442.96,
        "on_ground": false,
        "velocity": 236.4,
        "true_track": 351.11,
        "vertical_rate": 11.7,
        "geo_altitude": 8938.26,
        "squawk": null,
        "spi": false,
        "position_source": 0
      }
    },
    {
      "type": "Feature",
      "geometry": {
        "type": "Point",
        "coordinates": [
          9.9858,
          39.4117
        ]
      },
      "properties": {
        "icao24": "4d226e",
        "callsign": "RYR2HP",
        "origin_country": "Malta",
        "time_position": 1782776661,
        "last_contact": 1782776662,
        "baro_altitude": 10972.8,
        "on_ground": false,
        "velocity": 233.92,
        "true_track": 314.2,
        "vertical_rate": 0.33,
        "geo_altitude": 11544.3,
        "squawk": "6575",
        "spi": false,
        "position_source": 0
      }
    },
    {
      "type": "Feature",
      "geometry": {
        "type": "Point",
        "coordinates": [
          10.0384,
          45.2877
        ]
      },
      "properties": {
        "icao24": "4d227d",
        "callsign": "RYR43PX",
        "origin_country": "Malta",
        "time_position": 1782776663,
        "last_contact": 1782776663,
        "baro_altitude": 3733.8,
        "on_ground": false,
        "velocity": 129.93,
        "true_track": 313.24,
        "vertical_rate": -6.18,
        "geo_altitude": 4023.36,
        "squawk": "5155",
        "spi": false,
        "position_source": 0
      }
    },
    {
      "type": "Feature",
      "geometry": {
        "type": "Point",
        "coordinates": [
          8.726,
          45.6192
        ]
      },
      "properties": {
        "icao24": "4d216a",
        "callsign": "WMT3C",
        "origin_country": "Malta",
        "time_position": 1782776663,
        "last_contact": 1782776663,
        "baro_altitude": 175.26,
        "on_ground": false,
        "velocity": 71.33,
        "true_track": 348.77,
        "vertical_rate": 0.33,
        "geo_altitude": 266.7,
        "squawk": "2061",
        "spi": false,
        "position_source": 0
      }
    },
    {
      "type": "Feature",
      "geometry": {
        "type": "Point",
        "coordinates": [
          18.4142,
          42.1783
        ]
      },
      "properties": {
        "icao24": "4cac36",
        "callsign": "AIZ1338",
        "origin_country": "Ireland",
        "time_position": 1782776663,
        "last_contact": 1782776663,
        "baro_altitude": 11277.6,
        "on_ground": false,
        "velocity": 226.42,
        "true_track": 117.61,
        "vertical_rate": 0.33,
        "geo_altitude": 11818.62,
        "squawk": "0463",
        "spi": false,
        "position_source": 0
      }
    },
    {
      "type": "Feature",
      "geometry": {
        "type": "Point",
        "coordinates": [
          10.0446,
          45.0594
        ]
      },
      "properties": {
        "icao24": "4cac7f",
        "callsign": "RYR90RC",
        "origin_country": "Ireland",
        "time_position": 1782776663,
        "last_contact": 1782776663,
        "baro_altitude": 5021.58,
        "on_ground": false,
        "velocity": 138.42,
        "true_track": 264.88,
        "vertical_rate": -3.9,
        "geo_altitude": 5364.48,
        "squawk": "2661",
        "spi": false,
        "position_source": 0
      }
    },
    {
      "type": "Feature",
      "geometry": {
        "type": "Point",
        "coordinates": [
          7.457,
          44.073
        ]
      },
      "properties": {
        "icao24": "4cac63",
        "callsign": "ABR420",
        "origin_country": "Ireland",
        "time_position": 1782776663,
        "last_contact": 1782776663,
        "baro_altitude": 10408.92,
        "on_ground": false,
        "velocity": 244.31,
        "true_track": 238.52,
        "vertical_rate": 5.85,
        "geo_altitude": 11010.9,
        "squawk": "1000",
        "spi": false,
        "position_source": 0
      }
    },
    {
      "type": "Feature",
      "geometry": {
        "type": "Point",
        "coordinates": [
          12.6851,
          47.1636
        ]
      },
      "properties": {
        "icao24": "40700a",
        "callsign": "EXS2DR",
        "origin_country": "United Kingdom",
        "time_position": 1782776663,
        "last_contact": 1782776663,
        "baro_altitude": 10370.82,
        "on_ground": false,
        "velocity": 233.18,
        "true_track": 309.45,
        "vertical_rate": -0.33,
        "geo_altitude": 10911.84,
        "squawk": "5521",
        "spi": false,
        "position_source": 0
      }
    },
    {
      "type": "Feature",
      "geometry": {
        "type": "Point",
        "coordinates": [
          15.6376,
          43.9539
        ]
      },
      "properties": {
        "icao24": "40833c",
        "callsign": "WUK975",
        "origin_country": "United Kingdom",
        "time_position": 1782776662,
        "last_contact": 1782776662,
        "baro_altitude": 10668,
        "on_ground": false,
        "velocity": 226.91,
        "true_track": 124.84,
        "vertical_rate": -0.33,
        "geo_altitude": 11239.5,
        "squawk": "0265",
        "spi": false,
        "position_source": 0
      }
    },
    {
      "type": "Feature",
      "geometry": {
        "type": "Point",
        "coordinates": [
          17.1678,
          45.0957
        ]
      },
      "properties": {
        "icao24": "40717a",
        "callsign": "EXS85BE",
        "origin_country": "United Kingdom",
        "time_position": 1782776663,
        "last_contact": 1782776663,
        "baro_altitude": 10972.8,
        "on_ground": false,
        "velocity": 233.99,
        "true_track": 311.43,
        "vertical_rate": 0,
        "geo_altitude": 11536.68,
        "squawk": "2237",
        "spi": false,
        "position_source": 0
      }
    },
    {
      "type": "Feature",
      "geometry": {
        "type": "Point",
        "coordinates": [
          18.6278,
          41.9174
        ]
      },
      "properties": {
        "icao24": "4082cd",
        "callsign": "TOM843",
        "origin_country": "United Kingdom",
        "time_position": 1782776663,
        "last_contact": 1782776663,
        "baro_altitude": 11582.4,
        "on_ground": false,
        "velocity": 241.93,
        "true_track": 322.08,
        "vertical_rate": 0,
        "geo_altitude": 12131.04,
        "squawk": null,
        "spi": false,
        "position_source": 0
      }
    }
  ]
}