{
  "type": "FeatureCollection",
  "source": "opensky",
  "dataset": "aircraft_italy",
  "generated_at": "2026-09-05T01:20:08.119496+00:00",
  "opensky_time": 1788571205,
  "count": 77,
  "features": [
    {
      "type": "Feature",
      "geometry": {
        "type": "Point",
        "coordinates": [
          13.2887,
          46.6102
        ]
      },
      "properties": {
        "icao24": "801666",
        "callsign": "AIC102D",
        "origin_country": "India",
        "time_position": 1788571205,
        "last_contact": 1788571205,
        "baro_altitude": 12496.8,
        "on_ground": false,
        "velocity": 266.17,
        "true_track": 126.67,
        "vertical_rate": 0,
        "geo_altitude": 13053.06,
        "squawk": "1142",
        "spi": false,
        "position_source": 0
      }
    },
    {
      "type": "Feature",
      "geometry": {
        "type": "Point",
        "coordinates": [
          17.8662,
          47.36
        ]
      },
      "properties": {
        "icao24": "4bc8e1",
        "callsign": "PGT80PT",
        "origin_country": "Turkey",
        "time_position": 1788571204,
        "last_contact": 1788571205,
        "baro_altitude": 10660.38,
        "on_ground": false,
        "velocity": 257.11,
        "true_track": 123.66,
        "vertical_rate": -0.33,
        "geo_altitude": 11186.16,
        "squawk": "1164",
        "spi": false,
        "position_source": 0
      }
    },
    {
      "type": "Feature",
      "geometry": {
        "type": "Point",
        "coordinates": [
          6.0202,
          36.7547
        ]
      },
      "properties": {
        "icao24": "4bc8cc",
        "callsign": "PGT652",
        "origin_country": "Turkey",
        "time_position": 1788571184,
        "last_contact": 1788571184,
        "baro_altitude": 10058.4,
        "on_ground": false,
        "velocity": 232.83,
        "true_track": 87.09,
        "vertical_rate": 0,
        "geo_altitude": 10728.96,
        "squawk": "6424",
        "spi": false,
        "position_source": 0
      }
    },
    {
      "type": "Feature",
      "geometry": {
        "type": "Point",
        "coordinates": [
          11.7742,
          40.0024
        ]
      },
      "properties": {
        "icao24": "46b82c",
        "callsign": "AEE713",
        "origin_country": "Greece",
        "time_position": 1788571205,
        "last_contact": 1788571205,
        "baro_altitude": 10683.24,
        "on_ground": false,
        "velocity": 238.26,
        "true_track": 102.6,
        "vertical_rate": 0,
        "geo_altitude": 11330.94,
        "squawk": "1255",
        "spi": false,
        "position_source": 0
      }
    },
    {
      "type": "Feature",
      "geometry": {
        "type": "Point",
        "coordinates": [
          12.767,
          40.4378
        ]
      },
      "properties": {
        "icao24": "46b838",
        "callsign": "AEE3LP",
        "origin_country": "Greece",
        "time_position": 1788571204,
        "last_contact": 1788571204,
        "baro_altitude": 10668,
        "on_ground": false,
        "velocity": 241.82,
        "true_track": 95.37,
        "vertical_rate": 0,
        "geo_altitude": 11315.7,
        "squawk": "2240",
        "spi": false,
        "position_source": 0
      }
    },
    {
      "type": "Feature",
      "geometry": {
        "type": "Point",
        "coordinates": [
          13.2725,
          47.0762
        ]
      },
      "properties": {
        "icao24": "46b822",
        "callsign": "AEE631",
        "origin_country": "Greece",
        "time_position": 1788571204,
        "last_contact": 1788571204,
        "baro_altitude": 10675.62,
        "on_ground": false,
        "velocity": 255.54,
        "true_track": 137.12,
        "vertical_rate": 0,
        "geo_altitude": 11216.64,
        "squawk": "2204",
        "spi": false,
        "position_source": 0
      }
    },
    {
      "type": "Feature",
      "geometry": {
        "type": "Point",
        "coordinates": [
          12.2714,
          41.8215
        ]
      },
      "properties": {
        "icao24": "801600",
        "callsign": "AIC105",
        "origin_country": "India",
        "time_position": 1788571203,
        "last_contact": 1788571203,
        "baro_altitude": null,
        "on_ground": true,
        "velocity": 18.52,
        "true_track": 174.38,
        "vertical_rate": null,
        "geo_altitude": null,
        "squawk": "4037",
        "spi": false,
        "position_source": 0
      }
    },
    {
      "type": "Feature",
      "geometry": {
        "type": "Point",
        "coordinates": [
          15.8346,
          41.598
        ]
      },
      "properties": {
        "icao24": "801612",
        "callsign": "AIC101",
        "origin_country": "India",
        "time_position": 1788571205,
        "last_contact": 1788571205,
        "baro_altitude": 12192,
        "on_ground": false,
        "velocity": 239.57,
        "true_track": 284.42,
        "vertical_rate": 0,
        "geo_altitude": 12824.46,
        "squawk": "5523",
        "spi": false,
        "position_source": 0
      }
    },
    {
      "type": "Feature",
      "geometry": {
        "type": "Point",
        "coordinates": [
          13.1757,
          42.0159
        ]
      },
      "properties": {
        "icao24": "8015a5",
        "callsign": "AIC119",
        "origin_country": "India",
        "time_position": 1788571204,
        "last_contact": 1788571204,
        "baro_altitude": 5067.3,
        "on_ground": false,
        "velocity": 181.11,
        "true_track": 280.64,
        "vertical_rate": -16.58,
        "geo_altitude": 5463.54,
        "squawk": "3564",
        "spi": false,
        "position_source": 0
      }
    },
    {
      "type": "Feature",
      "geometry": {
        "type": "Point",
        "coordinates": [
          16.9734,
          43.8975
        ]
      },
      "properties": {
        "icao24": "801859",
        "callsign": "AIC188",
        "origin_country": "India",
        "time_position": 1788571204,
        "last_contact": 1788571204,
        "baro_altitude": 11277.6,
        "on_ground": false,
        "velocity": 260.75,
        "true_track": 137.72,
        "vertical_rate": -0.33,
        "geo_altitude": 11902.44,
        "squawk": "2211",
        "spi": false,
        "position_source": 0
      }
    },
    {
      "type": "Feature",
      "geometry": {
        "type": "Point",
        "coordinates": [
          7.0541,
          39.1772
        ]
      },
      "properties": {
        "icao24": "3c4a14",
        "callsign": "DLH577",
        "origin_country": "Germany",
        "time_position": 1788571204,
        "last_contact": 1788571204,
        "baro_altitude": 11574.78,
        "on_ground": false,
        "velocity": 247.87,
        "true_track": 6.2,
        "vertical_rate": 0,
        "geo_altitude": 12275.82,
        "squawk": null,
        "spi": false,
        "position_source": 0
      }
    },
    {
      "type": "Feature",
      "geometry": {
        "type": "Point",
        "coordinates": [
          9.077,
          45.4263
        ]
      },
      "properties": {
        "icao24": "4891a6",
        "callsign": "ENT5UW",
        "origin_country": "Poland",
        "time_position": 1788571205,
        "last_contact": 1788571205,
        "baro_altitude": 10972.8,
        "on_ground": false,
        "velocity": 207.3,
        "true_track": 219.26,
        "vertical_rate": 0,
        "geo_altitude": 11567.16,
        "squawk": "1000",
        "spi": false,
        "position_source": 0
      }
    },
    {
      "type": "Feature",
      "geometry": {
        "type": "Point",
        "coordinates": [
          16.7225,
          44.2736
        ]
      },
      "properties": {
        "icao24": "45213d",
        "callsign": "MSC2967",
        "origin_country": "Bulgaria",
        "time_position": 1788571205,
        "last_contact": 1788571205,
        "baro_altitude": 10675.62,
        "on_ground": false,
        "velocity": 246.86,
        "true_track": 138.97,
        "vertical_rate": 0,
        "geo_altitude": 11285.22,
        "squawk": "5216",
        "spi": false,
        "position_source": 0
      }
    },
    {
      "type": "Feature",
      "geometry": {
        "type": "Point",
        "coordinates": [
          18.0516,
          47.7649
        ]
      },
      "properties": {
        "icao24": "45cab5",
        "callsign": "DNU951",
        "origin_country": "Denmark",
        "time_position": 1788571204,
        "last_contact": 1788571205,
        "baro_altitude": 11887.2,
        "on_ground": false,
        "velocity": 237.49,
        "true_track": 143.9,
        "vertical_rate": 0,
        "geo_altitude": 12405.36,
        "squawk": "7672",
        "spi": false,
        "position_source": 0
      }
    },
    {
      "type": "Feature",
      "geometry": {
        "type": "Point",
        "coordinates": [
          18.6551,
          46.9007
        ]
      },
      "properties": {
        "icao24": "4bb2ad",
        "callsign": "TKJ51T",
        "origin_country": "Turkey",
        "time_position": 1788571205,
        "last_contact": 1788571205,
        "baro_altitude": 10058.4,
        "on_ground": false,
        "velocity": 254.53,
        "true_track": 121.02,
        "vertical_rate": -0.33,
        "geo_altitude": 10584.18,
        "squawk": "7646",
        "spi": false,
        "position_source": 0
      }
    },
    {
      "type": "Feature",
      "geometry": {
        "type": "Point",
        "coordinates": [
          8.1007,
          47.3183
        ]
      },
      "properties": {
        "icao24": "4079a9",
        "callsign": "TOM4CK",
        "origin_country": "United Kingdom",
        "time_position": 1788571205,
        "last_contact": 1788571205,
        "baro_altitude": 10972.8,
        "on_ground": false,
        "velocity": 208.56,
        "true_track": 307.18,
        "vertical_rate": -0.33,
        "geo_altitude": 11506.2,
        "squawk": "2757",
        "spi": false,
        "position_source": 0
      }
    },
    {
      "type": "Feature",
      "geometry": {
        "type": "Point",
        "coordinates": [
          12.0401,
          42.0998
        ]
      },
      "properties": {
        "icao24": "506cb1",
        "callsign": "VIO7D",
        "origin_country": "Slovenia",
        "time_position": 1788571205,
        "last_contact": 1788571205,
        "baro_altitude": 12313.92,
        "on_ground": false,
        "velocity": 222.85,
        "true_track": 66.75,
        "vertical_rate": 2.6,
        "geo_altitude": 12961.62,
        "squawk": "0210",
        "spi": false,
        "position_source": 0
      }
    },
    {
      "type": "Feature",
      "geometry": {
        "type": "Point",
        "coordinates": [
          9.9755,
          46.3384
        ]
      },
      "properties": {
        "icao24": "4067f7",
        "callsign": "TOM94Y",
        "origin_country": "United Kingdom",
        "time_position": 1788571205,
        "last_contact": 1788571205,
        "baro_altitude": 13106.4,
        "on_ground": false,
        "velocity": 226.94,
        "true_track": 310.59,
        "vertical_rate": -0.33,
        "geo_altitude": 13677.9,
        "squawk": "7513",
        "spi": false,
        "position_source": 0
      }
    },
    {
      "type": "Feature",
      "geometry": {
        "type": "Point",
        "coordinates": [
          11.3922,
          47.7197
        ]
      },
      "properties": {
        "icao24": "89649d",
        "callsign": "ETD8MY",
        "origin_country": "United Arab Emirates",
        "time_position": 1788571205,
        "last_contact": 1788571205,
        "baro_altitude": 11277.6,
        "on_ground": false,
        "velocity": 270.97,
        "true_track": 124.32,
        "vertical_rate": 0,
        "geo_altitude": 11795.76,
        "squawk": "2250",
        "spi": false,
        "position_source": 0
      }
    },
    {
      "type": "Feature",
      "geometry": {
        "type": "Point",
        "coordinates": [
          13.7047,
          36.1832
        ]
      },
      "properties": {
        "icao24": "4bb06f",
        "callsign": "THY597",
        "origin_country": "Turkey",
        "time_position": 1788571205,
        "last_contact": 1788571205,
        "baro_altitude": 10668,
        "on_ground": false,
        "velocity": 223.08,
        "true_track": 79.23,
        "vertical_rate": 0,
        "geo_altitude": 11308.08,
        "squawk": "4111",
        "spi": false,
        "position_source": 0
      }
    },
    {
      "type": "Feature",
      "geometry": {
        "type": "Point",
        "coordinates": [
          17.1235,
          44.8757
        ]
      },
      "properties": {
        "icao24": "4b8643",
        "callsign": "TCARC",
        "origin_country": "Turkey",
        "time_position": 1788571204,
        "last_contact": 1788571204,
        "baro_altitude": 12192,
        "on_ground": false,
        "velocity": 238.65,
        "true_track": 310.45,
        "vertical_rate": -0.33,
        "geo_altitude": 12824.46,
        "squawk": "5354",
        "spi": false,
        "position_source": 0
      }
    },
    {
      "type": "Feature",
      "geometry": {
        "type": "Point",
        "coordinates": [
          7.5281,
          47.5954
        ]
      },
      "properties": {
        "icao24": "3859ff",
        "callsign": "INFRA52",
        "origin_country": "France",
        "time_position": 1788571205,
        "last_contact": 1788571205,
        "baro_altitude": null,
        "on_ground": true,
        "velocity": 13.38,
        "true_track": 351.56,
        "vertical_rate": null,
        "geo_altitude": null,
        "squawk": null,
        "spi": false,
        "position_source": 0
      }
    },
    {
      "type": "Feature",
      "geometry": {
        "type": "Point",
        "coordinates": [
          6.9033,
          38.5888
        ]
      },
      "properties": {
        "icao24": "44ccc6",
        "callsign": "BEL8LE",
        "origin_country": "Belgium",
        "time_position": 1788571204,
        "last_contact": 1788571204,
        "baro_altitude": 11582.4,
        "on_ground": false,
        "velocity": 237.94,
        "true_track": 13.89,
        "vertical_rate": 0,
        "geo_altitude": 12275.82,
        "squawk": null,
        "spi": false,
        "position_source": 0
      }
    },
    {
      "type": "Feature",
      "geometry": {
        "type": "Point",
        "coordinates": [
          6.9678,
          39.4402
        ]
      },
      "properties": {
        "icao24": "44ccc4",
        "callsign": "BEL39G",
        "origin_country": "Belgium",
        "time_position": 1788571204,
        "last_contact": 1788571205,
        "baro_altitude": 12192,
        "on_ground": false,
        "velocity": 237.11,
        "true_track": 356.39,
        "vertical_rate": 0,
        "geo_altitude": 12885.42,
        "squawk": null,
        "spi": false,
        "position_source": 0
      }
    },
    {
      "type": "Feature",
      "geometry": {
        "type": "Point",
        "coordinates": [
          12.9166,
          45.3225
        ]
      },
      "properties": {
        "icao24": "40796b",
        "callsign": "TOM345",
        "origin_country": "United Kingdom",
        "time_position": 1788571204,
        "last_contact": 1788571205,
        "baro_altitude": 11582.4,
        "on_ground": false,
        "velocity": 220.39,
        "true_track": 307.03,
        "vertical_rate": 0,
        "geo_altitude": 12192,
        "squawk": "5502",
        "spi": false,
        "position_source": 0
      }
    },
    {
      "type": "Feature",
      "geometry": {
        "type": "Point",
        "coordinates": [
          8.0927,
          47.3433
        ]
      },
      "properties": {
        "icao24": "40796c",
        "callsign": "TOM649",
        "origin_country": "United Kingdom",
        "time_position": 1788571204,
        "last_contact": 1788571204,
        "baro_altitude": 11582.4,
        "on_ground": false,
        "velocity": 205.78,
        "true_track": 306.87,
        "vertical_rate": 0.98,
        "geo_altitude": 12146.28,
        "squawk": "2766",
        "spi": false,
        "position_source": 0
      }
    },
    {
      "type": "Feature",
      "geometry": {
        "type": "Point",
        "coordinates": [
          17.7822,
          40.0557
        ]
      },
      "properties": {
        "icao24": "3a4494",
        "callsign": "REU975",
        "origin_country": "France",
        "time_position": 1788571205,
        "last_contact": 1788571205,
        "baro_altitude": 10972.8,
        "on_ground": false,
        "velocity": 242.31,
        "true_track": 308.62,
        "vertical_rate": 0,
        "geo_altitude": 11605.26,
        "squawk": null,
        "spi": false,
        "position_source": 0
      }
    },
    {
      "type": "Feature",
      "geometry": {
        "type": "Point",
        "coordinates": [
          8.7351,
          45.5954
        ]
      },
      "properties": {
        "icao24": "78021a",
        "callsign": "CPA038",
        "origin_country": "China",
        "time_position": 1788571204,
        "last_contact": 1788571204,
        "baro_altitude": 708.66,
        "on_ground": false,
        "velocity": 101.68,
        "true_track": 197.98,
        "vertical_rate": 12.35,
        "geo_altitude": 784.86,
        "squawk": "0472",
        "spi": false,
        "position_source": 0
      }
    },
    {
      "type": "Feature",
      "geometry": {
        "type": "Point",
        "coordinates": [
          18.2908,
          38.2521
        ]
      },
      "properties": {
        "icao24": "4ba9cb",
        "callsign": "THY5YP",
        "origin_country": "Turkey",
        "time_position": 1788571167,
        "last_contact": 1788571167,
        "baro_altitude": 12496.8,
        "on_ground": false,
        "velocity": 229.5,
        "true_track": 49.45,
        "vertical_rate": 0,
        "geo_altitude": 13121.64,
        "squawk": "4116",
        "spi": false,
        "position_source": 0
      }
    },
    {
      "type": "Feature",
      "geometry": {
        "type": "Point",
        "coordinates": [
          15.1802,
          40.8399
        ]
      },
      "properties": {
        "icao24": "040101",
        "callsign": "ETH574",
        "origin_country": "Ethiopia",
        "time_position": 1788571205,
        "last_contact": 1788571205,
        "baro_altitude": 12184.38,
        "on_ground": false,
        "velocity": 239.05,
        "true_track": 297.01,
        "vertical_rate": 0,
        "geo_altitude": 12854.94,
        "squawk": null,
        "spi": false,
        "position_source": 0
      }
    },
    {
      "type": "Feature",
      "geometry": {
        "type": "Point",
        "coordinates": [
          8.5872,
          45.9387
        ]
      },
      "properties": {
        "icao24": "aa7f8d",
        "callsign": "CKS221",
        "origin_country": "United States",
        "time_position": 1788571204,
        "last_contact": 1788571204,
        "baro_altitude": 4762.5,
        "on_ground": false,
        "velocity": 176.84,
        "true_track": 159.03,
        "vertical_rate": -6.83,
        "geo_altitude": 5097.78,
        "squawk": "2261",
        "spi": false,
        "position_source": 0
      }
    },
    {
      "type": "Feature",
      "geometry": {
        "type": "Point",
        "coordinates": [
          14.214,
          46.1445
        ]
      },
      "properties": {
        "icao24": "407fae",
        "callsign": "TOM62L",
        "origin_country": "United Kingdom",
        "time_position": 1788571205,
        "last_contact": 1788571205,
        "baro_altitude": 11582.4,
        "on_ground": false,
        "velocity": 217.61,
        "true_track": 313.47,
        "vertical_rate": 0,
        "geo_altitude": 12176.76,
        "squawk": "1144",
        "spi": false,
        "position_source": 0
      }
    },
    {
      "type": "Feature",
      "geometry": {
        "type": "Point",
        "coordinates": [
          9.2956,
          47.4097
        ]
      },
      "properties": {
        "icao24": "4b32ff",
        "callsign": "RGA07",
        "origin_country": "Switzerland",
        "time_position": 1788570902,
        "last_contact": 1788570902,
        "baro_altitude": 670.56,
        "on_ground": false,
        "velocity": 40.33,
        "true_track": 240.16,
        "vertical_rate": -3.9,
        "geo_altitude": 784.86,
        "squawk": null,
        "spi": false,
        "position_source": 0
      }
    },
    {
      "type": "Feature",
      "geometry": {
        "type": "Point",
        "coordinates": [
          18.2925,
          46.2626
        ]
      },
      "properties": {
        "icao24": "4ba945",
        "callsign": "THY4",
        "origin_country": "Turkey",
        "time_position": 1788571205,
        "last_contact": 1788571205,
        "baro_altitude": 10668,
        "on_ground": false,
        "velocity": 270.71,
        "true_track": 126.5,
        "vertical_rate": 0,
        "geo_altitude": 11224.26,
        "squawk": "4612",
        "spi": false,
        "position_source": 0
      }
    },
    {
      "type": "Feature",
      "geometry": {
        "type": "Point",
        "coordinates": [
          16.6125,
          35.8612
        ]
      },
      "properties": {
        "icao24": "74482f",
        "callsign": "RJA517",
        "origin_country": "Jordan",
        "time_position": 1788571204,
        "last_contact": 1788571204,
        "baro_altitude": 9753.6,
        "on_ground": false,
        "velocity": 242.86,
        "true_track": 273.89,
        "vertical_rate": 0,
        "geo_altitude": 10370.82,
        "squawk": null,
        "spi": false,
        "position_source": 0
      }
    },
    {
      "type": "Feature",
      "geometry": {
        "type": "Point",
        "coordinates": [
          15.5046,
          40.4928
        ]
      },
      "properties": {
        "icao24": "040240",
        "callsign": "ETH500",
        "origin_country": "Ethiopia",
        "time_position": 1788571204,
        "last_contact": 1788571205,
        "baro_altitude": 11582.4,
        "on_ground": false,
        "velocity": 245.08,
        "true_track": 305.26,
        "vertical_rate": 0,
        "geo_altitude": 12237.72,
        "squawk": null,
        "spi": false,
        "position_source": 0
      }
    },
    {
      "type": "Feature",
      "geometry": {
        "type": "Point",
        "coordinates": [
          16.4655,
          40.1533
        ]
      },
      "properties": {
        "icao24": "468e45",
        "callsign": "SEH923",
        "origin_country": "Greece",
        "time_position": 1788571204,
        "last_contact": 1788571204,
        "baro_altitude": 11277.6,
        "on_ground": false,
        "velocity": 233.78,
        "true_track": 98.86,
        "vertical_rate": 0,
        "geo_altitude": 11940.54,
        "squawk": "2215",
        "spi": false,
        "position_source": 0
      }
    },
    {
      "type": "Feature",
      "geometry": {
        "type": "Point",
        "coordinates": [
          17.7493,
          44.4496
        ]
      },
      "properties": {
        "icao24": "48c126",
        "callsign": "RYS3093",
        "origin_country": "Poland",
        "time_position": 1788571205,
        "last_contact": 1788571205,
        "baro_altitude": 11277.6,
        "on_ground": false,
        "velocity": 242.4,
        "true_track": 161.18,
        "vertical_rate": 0,
        "geo_altitude": 11887.2,
        "squawk": "6032",
        "spi": false,
        "position_source": 0
      }
    },
    {
      "type": "Feature",
      "geometry": {
        "type": "Point",
        "coordinates": [
          6.6962,
          39.9459
        ]
      },
      "properties": {
        "icao24": "3444c9",
        "callsign": "VLG2691",
        "origin_country": "Spain",
        "time_position": 1788571204,
        "last_contact": 1788571204,
        "baro_altitude": 10972.8,
        "on_ground": false,
        "velocity": 236.25,
        "true_track": 307.57,
        "vertical_rate": 0,
        "geo_altitude": 11658.6,
        "squawk": "1000",
        "spi": false,
        "position_source": 0
      }
    },
    {
      "type": "Feature",
      "geometry": {
        "type": "Point",
        "coordinates": [
          12.775,
          45.8276
        ]
      },
      "properties": {
        "icao24": "407c0b",
        "callsign": "TOM811",
        "origin_country": "United Kingdom",
        "time_position": 1788571205,
        "last_contact": 1788571205,
        "baro_altitude": 11330.94,
        "on_ground": false,
        "velocity": 220.13,
        "true_track": 319.83,
        "vertical_rate": 4.55,
        "geo_altitude": 11917.68,
        "squawk": "5352",
        "spi": false,
        "position_source": 0
      }
    },
    {
      "type": "Feature",
      "geometry": {
        "type": "Point",
        "coordinates": [
          18.3586,
          45.4848
        ]
      },
      "properties": {
        "icao24": "4bb861",
        "callsign": "PGT5056",
        "origin_country": "Turkey",
        "time_position": 1788571205,
        "last_contact": 1788571205,
        "baro_altitude": 11277.6,
        "on_ground": false,
        "velocity": 247.45,
        "true_track": 126.63,
        "vertical_rate": 0.33,
        "geo_altitude": 11856.72,
        "squawk": "7704",
        "spi": false,
        "position_source": 0
      }
    },
    {
      "type": "Feature",
      "geometry": {
        "type": "Point",
        "coordinates": [
          16.8843,
          47.0213
        ]
      },
      "properties": {
        "icao24": "4bb868",
        "callsign": "PGT66L",
        "origin_country": "Turkey",
        "time_position": 1788571205,
        "last_contact": 1788571205,
        "baro_altitude": 10668,
        "on_ground": false,
        "velocity": 254.34,
        "true_track": 126.78,
        "vertical_rate": -0.33,
        "geo_altitude": 11201.4,
        "squawk": "6430",
        "spi": false,
        "position_source": 0
      }
    },
    {
      "type": "Feature",
      "geometry": {
        "type": "Point",
        "coordinates": [
          18.2638,
          40.6438
        ]
      },
      "properties": {
        "icao24": "4bb873",
        "callsign": "PGT1562",
        "origin_country": "Turkey",
        "time_position": 1788571204,
        "last_contact": 1788571204,
        "baro_altitude": 11894.82,
        "on_ground": false,
        "velocity": 229.08,
        "true_track": 94.38,
        "vertical_rate": 0,
        "geo_altitude": 12527.28,
        "squawk": "1163",
        "spi": false,
        "position_source": 0
      }
    },
    {
      "type": "Feature",
      "geometry": {
        "type": "Point",
        "coordinates": [
          10.3054,
          39.5692
        ]
      },
      "properties": {
        "icao24": "46b8b6",
        "callsign": "AEE7VH",
        "origin_country": "Greece",
        "time_position": 1788571205,
        "last_contact": 1788571205,
        "baro_altitude": 11582.4,
        "on_ground": false,
        "velocity": 228.9,
        "true_track": 93.74,
        "vertical_rate": -0.33,
        "geo_altitude": 12260.58,
        "squawk": "1410",
        "spi": false,
        "position_source": 0
      }
    },
    {
      "type": "Feature",
      "geometry": {
        "type": "Point",
        "coordinates": [
          14.7197,
          39.9433
        ]
      },
      "properties": {
        "icao24": "46b8a6",
        "callsign": "AEE3EM",
        "origin_country": "Greece",
        "time_position": 1788571204,
        "last_contact": 1788571204,
        "baro_altitude": 11277.6,
        "on_ground": false,
        "velocity": 233.85,
        "true_track": 99.75,
        "vertical_rate": 0.33,
        "geo_altitude": 11940.54,
        "squawk": "1235",
        "spi": false,
        "position_source": 0
      }
    },
    {
      "type": "Feature",
      "geometry": {
        "type": "Point",
        "coordinates": [
          10.0041,
          35.2838
        ]
      },
      "properties": {
        "icao24": "4952c6",
        "callsign": "TAP9003",
        "origin_country": "Portugal",
        "time_position": 1788570930,
        "last_contact": 1788570955,
        "baro_altitude": 8633.46,
        "on_ground": false,
        "velocity": 203.2,
        "true_track": 162.16,
        "vertical_rate": -9.75,
        "geo_altitude": 9220.2,
        "squawk": "2235",
        "spi": false,
        "position_source": 0
      }
    },
    {
      "type": "Feature",
      "geometry": {
        "type": "Point",
        "coordinates": [
          9.8014,
          38.929
        ]
      },
      "properties": {
        "icao24": "3c65c9",
        "callsign": "DLH1327",
        "origin_country": "Germany",
        "time_position": 1788571197,
        "last_contact": 1788571197,
        "baro_altitude": 10568.94,
        "on_ground": false,
        "velocity": 228.95,
        "true_track": 0.77,
        "vertical_rate": 7.15,
        "geo_altitude": 11178.54,
        "squawk": "6172",
        "spi": false,
        "position_source": 0
      }
    },
    {
      "type": "Feature",
      "geometry": {
        "type": "Point",
        "coordinates": [
          8.203,
          44.832
        ]
      },
      "properties": {
        "icao24": "3c5421",
        "callsign": "BCS7CK",
        "origin_country": "Germany",
        "time_position": 1788571205,
        "last_contact": 1788571205,
        "baro_altitude": 7421.88,
        "on_ground": false,
        "velocity": 217.48,
        "true_track": 211.36,
        "vertical_rate": 8.78,
        "geo_altitude": 7879.08,
        "squawk": "1000",
        "spi": false,
        "position_source": 0
      }
    },
    {
      "type": "Feature",
      "geometry": {
        "type": "Point",
        "coordinates": [
          12.9563,
          47.6516
        ]
      },
      "properties": {
        "icao24": "4690f9",
        "callsign": "AEE507",
        "origin_country": "Greece",
        "time_position": 1788571205,
        "last_contact": 1788571205,
        "baro_altitude": 11887.2,
        "on_ground": false,
        "velocity": 251.41,
        "true_track": 128.02,
        "vertical_rate": 0,
        "geo_altitude": 12428.22,
        "squawk": "6003",
        "spi": false,
        "position_source": 0
      }
    },
    {
      "type": "Feature",
      "geometry": {
        "type": "Point",
        "coordinates": [
          8.8807,
          39.1863
        ]
      },
      "properties": {
        "icao24": "3c6569",
        "callsign": "OCN133",
        "origin_country": "Germany",
        "time_position": 1788571204,
        "last_contact": 1788571204,
        "baro_altitude": 12192,
        "on_ground": false,
        "velocity": 233.63,
        "true_track": 358.61,
        "vertical_rate": 0,
        "geo_altitude": 12870.18,
        "squawk": null,
        "spi": false,
        "position_source": 0
      }
    },
    {
      "type": "Feature",
      "geometry": {
        "type": "Point",
        "coordinates": [
          17.573,
          47.7681
        ]
      },
      "properties": {
        "icao24": "4a08a5",
        "callsign": "HYS258",
        "origin_country": "Romania",
        "time_position": 1788571205,
        "last_contact": 1788571205,
        "baro_altitude": 11262.36,
        "on_ground": false,
        "velocity": 263.01,
        "true_track": 121.48,
        "vertical_rate": 0.33,
        "geo_altitude": 11795.76,
        "squawk": "2227",
        "spi": false,
        "position_source": 0
      }
    },
    {
      "type": "Feature",
      "geometry": {
        "type": "Point",
        "coordinates": [
          6.8697,
          36.8428
        ]
      },
      "properties": {
        "icao24": "3c64ee",
        "callsign": "DLH595",
        "origin_country": "Germany",
        "time_position": 1788571202,
        "last_contact": 1788571202,
        "baro_altitude": 11582.4,
        "on_ground": false,
        "velocity": 232.94,
        "true_track": 3.42,
        "vertical_rate": 0,
        "geo_altitude": 12283.44,
        "squawk": null,
        "spi": false,
        "position_source": 0
      }
    },
    {
      "type": "Feature",
      "geometry": {
        "type": "Point",
        "coordinates": [
          8.5668,
          47.445
        ]
      },
      "properties": {
        "icao24": "4b5d9a",
        "callsign": "ATL783",
        "origin_country": "Switzerland",
        "time_position": 1788570480,
        "last_contact": 1788571204,
        "baro_altitude": null,
        "on_ground": true,
        "velocity": 0.39,
        "true_track": 348.75,
        "vertical_rate": null,
        "geo_altitude": null,
        "squawk": null,
        "spi": false,
        "position_source": 0
      }
    },
    {
      "type": "Feature",
      "geometry": {
        "type": "Point",
        "coordinates": [
          18.5901,
          42.6956
        ]
      },
      "properties": {
        "icao24": "408041",
        "callsign": "WUK26NJ",
        "origin_country": "United Kingdom",
        "time_position": 1788571203,
        "last_contact": 1788571205,
        "baro_altitude": 10165.08,
        "on_ground": false,
        "velocity": 225.69,
        "true_track": 321.85,
        "vertical_rate": 3.25,
        "geo_altitude": 10782.3,
        "squawk": null,
        "spi": false,
        "position_source": 0
      }
    },
    {
      "type": "Feature",
      "geometry": {
        "type": "Point",
        "coordinates": [
          18.0334,
          35.3774
        ]
      },
      "properties": {
        "icao24": "7105ac",
        "callsign": "SVA377",
        "origin_country": "Saudi Arabia",
        "time_position": 1788571202,
        "last_contact": 1788571202,
        "baro_altitude": 10965.18,
        "on_ground": false,
        "velocity": 261,
        "true_track": 279.07,
        "vertical_rate": 0,
        "geo_altitude": 11605.26,
        "squawk": null,
        "spi": false,
        "position_source": 0
      }
    },
    {
      "type": "Feature",
      "geometry": {
        "type": "Point",
        "coordinates": [
          12.4819,
          35.995
        ]
      },
      "properties": {
        "icao24": "4ca8e3",
        "callsign": "GJI098",
        "origin_country": "Ireland",
        "time_position": 1788571205,
        "last_contact": 1788571205,
        "baro_altitude": 12496.8,
        "on_ground": false,
        "velocity": 245.71,
        "true_track": 96.01,
        "vertical_rate": -0.33,
        "geo_altitude": 13129.26,
        "squawk": "7761",
        "spi": false,
        "position_source": 0
      }
    },
    {
      "type": "Feature",
      "geometry": {
        "type": "Point",
        "coordinates": [
          16.2239,
          41.8034
        ]
      },
      "properties": {
        "icao24": "4ca960",
        "callsign": "NOS5500",
        "origin_country": "Ireland",
        "time_position": 1788571205,
        "last_contact": 1788571205,
        "baro_altitude": 10972.8,
        "on_ground": false,
        "velocity": 230.83,
        "true_track": 308.94,
        "vertical_rate": 0,
        "geo_altitude": 11612.88,
        "squawk": "6627",
        "spi": false,
        "position_source": 0
      }
    },
    {
      "type": "Feature",
      "geometry": {
        "type": "Point",
        "coordinates": [
          18.7412,
          46.0395
        ]
      },
      "properties": {
        "icao24": "4bceb5",
        "callsign": "SXS7GP",
        "origin_country": "Turkey",
        "time_position": 1788571204,
        "last_contact": 1788571204,
        "baro_altitude": 10972.8,
        "on_ground": false,
        "velocity": 216.38,
        "true_track": 309.4,
        "vertical_rate": 0,
        "geo_altitude": 11536.68,
        "squawk": "3207",
        "spi": false,
        "position_source": 0
      }
    },
    {
      "type": "Feature",
      "geometry": {
        "type": "Point",
        "coordinates": [
          17.5606,
          46.7284
        ]
      },
      "properties": {
        "icao24": "4bcda2",
        "callsign": "SXS79Y",
        "origin_country": "Turkey",
        "time_position": 1788571204,
        "last_contact": 1788571204,
        "baro_altitude": 11277.6,
        "on_ground": false,
        "velocity": 252.87,
        "true_track": 129.55,
        "vertical_rate": 0.65,
        "geo_altitude": 11849.1,
        "squawk": "6007",
        "spi": false,
        "position_source": 0
      }
    },
    {
      "type": "Feature",
      "geometry": {
        "type": "Point",
        "coordinates": [
          18.8544,
          44.7642
        ]
      },
      "properties": {
        "icao24": "4bcdb3",
        "callsign": "SXS9WA",
        "origin_country": "Turkey",
        "time_position": 1788571204,
        "last_contact": 1788571204,
        "baro_altitude": 11277.6,
        "on_ground": false,
        "velocity": 248.59,
        "true_track": 133.07,
        "vertical_rate": 0,
        "geo_altitude": 11879.58,
        "squawk": "7715",
        "spi": false,
        "position_source": 0
      }
    },
    {
      "type": "Feature",
      "geometry": {
        "type": "Point",
        "coordinates": [
          8.233,
          36.8271
        ]
      },
      "properties": {
        "icao24": "8940c3",
        "callsign": "GFA021",
        "origin_country": "Bahrain",
        "time_position": 1788571204,
        "last_contact": 1788571204,
        "baro_altitude": 10972.8,
        "on_ground": false,
        "velocity": 232.62,
        "true_track": 268.35,
        "vertical_rate": 0.33,
        "geo_altitude": 11650.98,
        "squawk": null,
        "spi": false,
        "position_source": 0
      }
    },
    {
      "type": "Feature",
      "geometry": {
        "type": "Point",
        "coordinates": [
          14.0883,
          41.4635
        ]
      },
      "properties": {
        "icao24": "4cafcb",
        "callsign": "MSA9725",
        "origin_country": "Ireland",
        "time_position": 1788571204,
        "last_contact": 1788571204,
        "baro_altitude": 10363.2,
        "on_ground": false,
        "velocity": 222.89,
        "true_track": 327.15,
        "vertical_rate": 0.33,
        "geo_altitude": 10957.56,
        "squawk": null,
        "spi": false,
        "position_source": 0
      }
    },
    {
      "type": "Feature",
      "geometry": {
        "type": "Point",
        "coordinates": [
          16.0454,
          44.6787
        ]
      },
      "properties": {
        "icao24": "010283",
        "callsign": "MSR948",
        "origin_country": "Egypt",
        "time_position": 1788571205,
        "last_contact": 1788571205,
        "baro_altitude": 12496.8,
        "on_ground": false,
        "velocity": 258.91,
        "true_track": 130.97,
        "vertical_rate": 0,
        "geo_altitude": 13083.54,
        "squawk": "1150",
        "spi": false,
        "position_source": 0
      }
    },
    {
      "type": "Feature",
      "geometry": {
        "type": "Point",
        "coordinates": [
          12.1041,
          46.3559
        ]
      },
      "properties": {
        "icao24": "4075f3",
        "callsign": "TOM9VE",
        "origin_country": "United Kingdom",
        "time_position": 1788571204,
        "last_contact": 1788571205,
        "baro_altitude": 10363.2,
        "on_ground": false,
        "velocity": 220.13,
        "true_track": 319.83,
        "vertical_rate": 0,
        "geo_altitude": 10927.08,
        "squawk": "1157",
        "spi": false,
        "position_source": 0
      }
    },
    {
      "type": "Feature",
      "geometry": {
        "type": "Point",
        "coordinates": [
          13.409,
          45.9845
        ]
      },
      "properties": {
        "icao24": "300936",
        "callsign": "ICREW",
        "origin_country": "Italy",
        "time_position": 1788571205,
        "last_contact": 1788571205,
        "baro_altitude": 251.46,
        "on_ground": false,
        "velocity": 51.97,
        "true_track": 291.49,
        "vertical_rate": 2.6,
        "geo_altitude": 335.28,
        "squawk": "1040",
        "spi": false,
        "position_source": 0
      }
    },
    {
      "type": "Feature",
      "geometry": {
        "type": "Point",
        "coordinates": [
          18.8653,
          39.2679
        ]
      },
      "properties": {
        "icao24": "4d23b8",
        "callsign": "DAH3015",
        "origin_country": "Malta",
        "time_position": 1788571202,
        "last_contact": 1788571205,
        "baro_altitude": 10972.8,
        "on_ground": false,
        "velocity": 242.68,
        "true_track": 256.14,
        "vertical_rate": 0,
        "geo_altitude": 11597.64,
        "squawk": "2337",
        "spi": false,
        "position_source": 0
      }
    },
    {
      "type": "Feature",
      "geometry": {
        "type": "Point",
        "coordinates": [
          7.5283,
          47.5952
        ]
      },
      "properties": {
        "icao24": "390bff",
        "callsign": "INFRA51",
        "origin_country": "France",
        "time_position": 1788571204,
        "last_contact": 1788571204,
        "baro_altitude": null,
        "on_ground": true,
        "velocity": 13.38,
        "true_track": 2.81,
        "vertical_rate": null,
        "geo_altitude": null,
        "squawk": null,
        "spi": false,
        "position_source": 0
      }
    },
    {
      "type": "Feature",
      "geometry": {
        "type": "Point",
        "coordinates": [
          12.8227,
          45.5728
        ]
      },
      "properties": {
        "icao24": "40753d",
        "callsign": "TOM7PV",
        "origin_country": "United Kingdom",
        "time_position": 1788571204,
        "last_contact": 1788571204,
        "baro_altitude": 10972.8,
        "on_ground": false,
        "velocity": 219.91,
        "true_track": 310.92,
        "vertical_rate": 0,
        "geo_altitude": 11559.54,
        "squawk": "2047",
        "spi": false,
        "position_source": 0
      }
    },
    {
      "type": "Feature",
      "geometry": {
        "type": "Point",
        "coordinates": [
          18.8505,
          45.9751
        ]
      },
      "properties": {
        "icao24": "4bd156",
        "callsign": "CAI6CP",
        "origin_country": "Turkey",
        "time_position": 1788571205,
        "last_contact": 1788571205,
        "baro_altitude": 11277.6,
        "on_ground": false,
        "velocity": 248.58,
        "true_track": 128.53,
        "vertical_rate": 0,
        "geo_altitude": 11849.1,
        "squawk": "5431",
        "spi": false,
        "position_source": 0
      }
    },
    {
      "type": "Feature",
      "geometry": {
        "type": "Point",
        "coordinates": [
          15.9754,
          43.6751
        ]
      },
      "properties": {
        "icao24": "40837c",
        "callsign": "EXS23FH",
        "origin_country": "United Kingdom",
        "time_position": 1788571204,
        "last_contact": 1788571204,
        "baro_altitude": 11582.4,
        "on_ground": false,
        "velocity": 222.81,
        "true_track": 310.97,
        "vertical_rate": 0.33,
        "geo_altitude": 12192,
        "squawk": "2076",
        "spi": false,
        "position_source": 0
      }
    },
    {
      "type": "Feature",
      "geometry": {
        "type": "Point",
        "coordinates": [
          17.3931,
          43.9348
        ]
      },
      "properties": {
        "icao24": "408388",
        "callsign": "EZY52DQ",
        "origin_country": "United Kingdom",
        "time_position": 1788571204,
        "last_contact": 1788571205,
        "baro_altitude": 10363.2,
        "on_ground": false,
        "velocity": 226.85,
        "true_track": 296.39,
        "vertical_rate": 0,
        "geo_altitude": 10965.18,
        "squawk": "5315",
        "spi": false,
        "position_source": 0
      }
    },
    {
      "type": "Feature",
      "geometry": {
        "type": "Point",
        "coordinates": [
          15.927,
          38.0433
        ]
      },
      "properties": {
        "icao24": "4691c5",
        "callsign": "AEE715",
        "origin_country": "Greece",
        "time_position": 1788571205,
        "last_contact": 1788571205,
        "baro_altitude": 11277.6,
        "on_ground": false,
        "velocity": 224.1,
        "true_track": 77.94,
        "vertical_rate": 0,
        "geo_altitude": 11948.16,
        "squawk": "4313",
        "spi": false,
        "position_source": 0
      }
    },
    {
      "type": "Feature",
      "geometry": {
        "type": "Point",
        "coordinates": [
          18.6723,
          43.6392
        ]
      },
      "properties": {
        "icao24": "47ae38",
        "callsign": "NBT50P",
        "origin_country": "Norway",
        "time_position": 1788571204,
        "last_contact": 1788571205,
        "baro_altitude": 11887.2,
        "on_ground": false,
        "velocity": 259.79,
        "true_track": 131.71,
        "vertical_rate": -0.33,
        "geo_altitude": 12534.9,
        "squawk": "5213",
        "spi": false,
        "position_source": 0
      }
    },
    {
      "type": "Feature",
      "geometry": {
        "type": "Point",
        "coordinates": [
          13.8736,
          42.9392
        ]
      },
      "properties": {
        "icao24": "4d203d",
        "callsign": "CHZ606",
        "origin_country": "Malta",
        "time_position": 1788571204,
        "last_contact": 1788571205,
        "baro_altitude": 10660.38,
        "on_ground": false,
        "velocity": 246.72,
        "true_track": 131.53,
        "vertical_rate": -0.33,
        "geo_altitude": 11254.74,
        "squawk": "0116",
        "spi": false,
        "position_source": 0
      }
    },
    {
      "type": "Feature",
      "geometry": {
        "type": "Point",
        "coordinates": [
          9.7652,
          46.9124
        ]
      },
      "properties": {
        "icao24": "4082cb",
        "callsign": "TOM643",
        "origin_country": "United Kingdom",
        "time_position": 1788571204,
        "last_contact": 1788571204,
        "baro_altitude": 10363.2,
        "on_ground": false,
        "velocity": 220.38,
        "true_track": 305.21,
        "vertical_rate": 0,
        "geo_altitude": 10896.6,
        "squawk": "2761",
        "spi": false,
        "position_source": 0
      }
    },
    {
      "type": "Feature",
      "geometry": {
        "type": "Point",
        "coordinates": [
          6.3011,
          36.6643
        ]
      },
      "properties": {
        "icao24": "7114d5",
        "callsign": "KNE661",
        "origin_country": "Saudi Arabia",
        "time_position": 1788571203,
        "last_contact": 1788571203,
        "baro_altitude": 10363.2,
        "on_ground": false,
        "velocity": 235.14,
        "true_track": 282.64,
        "vertical_rate": 0,
        "geo_altitude": 11041.38,
        "squawk": null,
        "spi": false,
        "position_source": 0
      }
    },
    {
      "type": "Feature",
      "geometry": {
        "type": "Point",
        "coordinates": [
          8.5644,
          47.4411
        ]
      },
      "properties": {
        "icao24": "4b17fa",
        "callsign": "SWR",
        "origin_country": "Switzerland",
        "time_position": 1788571200,
        "last_contact": 1788571204,
        "baro_altitude": null,
        "on_ground": true,
        "velocity": 0.06,
        "true_track": 146.25,
        "vertical_rate": null,
        "geo_altitude": null,
        "squawk": null,
        "spi": false,
        "position_source": 0
      }
    }
  ]
}