{
  "type": "FeatureCollection",
  "source": "opensky",
  "dataset": "aircraft_italy",
  "generated_at": "2026-08-18T03:33:18.894929+00:00",
  "opensky_time": 1787023995,
  "count": 157,
  "features": [
    {
      "type": "Feature",
      "geometry": {
        "type": "Point",
        "coordinates": [
          6.1402,
          45.455
        ]
      },
      "properties": {
        "icao24": "511195",
        "callsign": "MBU5AW",
        "origin_country": "Estonia",
        "time_position": 1787023994,
        "last_contact": 1787023994,
        "baro_altitude": 11285.22,
        "on_ground": false,
        "velocity": 246.02,
        "true_track": 202.76,
        "vertical_rate": 0,
        "geo_altitude": 11879.58,
        "squawk": "0616",
        "spi": false,
        "position_source": 0
      }
    },
    {
      "type": "Feature",
      "geometry": {
        "type": "Point",
        "coordinates": [
          7.531,
          47.5929
        ]
      },
      "properties": {
        "icao24": "440201",
        "callsign": "TAY7BS",
        "origin_country": "Austria",
        "time_position": 1787023994,
        "last_contact": 1787023994,
        "baro_altitude": null,
        "on_ground": true,
        "velocity": 4.12,
        "true_track": 334.69,
        "vertical_rate": null,
        "geo_altitude": null,
        "squawk": "1000",
        "spi": false,
        "position_source": 0
      }
    },
    {
      "type": "Feature",
      "geometry": {
        "type": "Point",
        "coordinates": [
          8.3491,
          47.1715
        ]
      },
      "properties": {
        "icao24": "4520ea",
        "callsign": "ADZ4093",
        "origin_country": "Bulgaria",
        "time_position": 1787023995,
        "last_contact": 1787023995,
        "baro_altitude": 10668,
        "on_ground": false,
        "velocity": 264.18,
        "true_track": 120.16,
        "vertical_rate": 1.3,
        "geo_altitude": 11209.02,
        "squawk": "7555",
        "spi": false,
        "position_source": 0
      }
    },
    {
      "type": "Feature",
      "geometry": {
        "type": "Point",
        "coordinates": [
          6.683,
          45.1116
        ]
      },
      "properties": {
        "icao24": "a16ff1",
        "callsign": "DAL286",
        "origin_country": "United States",
        "time_position": 1787023995,
        "last_contact": 1787023995,
        "baro_altitude": 7620,
        "on_ground": false,
        "velocity": 210.75,
        "true_track": 111.18,
        "vertical_rate": 0,
        "geo_altitude": 8069.58,
        "squawk": "1142",
        "spi": false,
        "position_source": 0
      }
    },
    {
      "type": "Feature",
      "geometry": {
        "type": "Point",
        "coordinates": [
          16.4069,
          43.3043
        ]
      },
      "properties": {
        "icao24": "471f58",
        "callsign": "WMT1041",
        "origin_country": "Hungary",
        "time_position": 1787023994,
        "last_contact": 1787023995,
        "baro_altitude": 11582.4,
        "on_ground": false,
        "velocity": 228,
        "true_track": 243.03,
        "vertical_rate": 0,
        "geo_altitude": 12070.08,
        "squawk": "6020",
        "spi": false,
        "position_source": 0
      }
    },
    {
      "type": "Feature",
      "geometry": {
        "type": "Point",
        "coordinates": [
          18.3288,
          44.3759
        ]
      },
      "properties": {
        "icao24": "471f02",
        "callsign": "WMT924",
        "origin_country": "Hungary",
        "time_position": 1787023995,
        "last_contact": 1787023995,
        "baro_altitude": 10370.82,
        "on_ground": false,
        "velocity": 225.52,
        "true_track": 272.35,
        "vertical_rate": 0,
        "geo_altitude": 10805.16,
        "squawk": "0517",
        "spi": false,
        "position_source": 0
      }
    },
    {
      "type": "Feature",
      "geometry": {
        "type": "Point",
        "coordinates": [
          6.7794,
          43.2393
        ]
      },
      "properties": {
        "icao24": "4401e9",
        "callsign": "EJU59VN",
        "origin_country": "Austria",
        "time_position": 1787023995,
        "last_contact": 1787023995,
        "baro_altitude": 10965.18,
        "on_ground": false,
        "velocity": 233.83,
        "true_track": 50.36,
        "vertical_rate": 0,
        "geo_altitude": 11574.78,
        "squawk": "1451",
        "spi": false,
        "position_source": 0
      }
    },
    {
      "type": "Feature",
      "geometry": {
        "type": "Point",
        "coordinates": [
          15.572,
          40.7735
        ]
      },
      "properties": {
        "icao24": "4bb470",
        "callsign": "MNB546",
        "origin_country": "Turkey",
        "time_position": 1787023995,
        "last_contact": 1787023995,
        "baro_altitude": 10972.8,
        "on_ground": false,
        "velocity": 222.64,
        "true_track": 273.44,
        "vertical_rate": 0,
        "geo_altitude": 11475.72,
        "squawk": "2303",
        "spi": false,
        "position_source": 0
      }
    },
    {
      "type": "Feature",
      "geometry": {
        "type": "Point",
        "coordinates": [
          18.8403,
          47.4364
        ]
      },
      "properties": {
        "icao24": "4891b3",
        "callsign": "ENT7132",
        "origin_country": "Poland",
        "time_position": 1787023995,
        "last_contact": 1787023995,
        "baro_altitude": 11582.4,
        "on_ground": false,
        "velocity": 224.21,
        "true_track": 17.35,
        "vertical_rate": 0,
        "geo_altitude": 11902.44,
        "squawk": "6132",
        "spi": false,
        "position_source": 0
      }
    },
    {
      "type": "Feature",
      "geometry": {
        "type": "Point",
        "coordinates": [
          7.5311,
          47.5938
        ]
      },
      "properties": {
        "icao24": "3849ff",
        "callsign": "M02",
        "origin_country": "France",
        "time_position": 1787023995,
        "last_contact": 1787023995,
        "baro_altitude": null,
        "on_ground": true,
        "velocity": 3.6,
        "true_track": 53.44,
        "vertical_rate": null,
        "geo_altitude": null,
        "squawk": null,
        "spi": false,
        "position_source": 0
      }
    },
    {
      "type": "Feature",
      "geometry": {
        "type": "Point",
        "coordinates": [
          15.6533,
          46.9993
        ]
      },
      "properties": {
        "icao24": "471dbc",
        "callsign": "WZZ8686",
        "origin_country": "Hungary",
        "time_position": 1787023994,
        "last_contact": 1787023994,
        "baro_altitude": 10965.18,
        "on_ground": false,
        "velocity": 200.52,
        "true_track": 283.5,
        "vertical_rate": 0,
        "geo_altitude": 11376.66,
        "squawk": "1000",
        "spi": false,
        "position_source": 0
      }
    },
    {
      "type": "Feature",
      "geometry": {
        "type": "Point",
        "coordinates": [
          13.2509,
          45.2898
        ]
      },
      "properties": {
        "icao24": "8018b6",
        "callsign": "VTBFS",
        "origin_country": "India",
        "time_position": 1787023995,
        "last_contact": 1787023995,
        "baro_altitude": 12184.38,
        "on_ground": false,
        "velocity": 211.13,
        "true_track": 307.18,
        "vertical_rate": 0.98,
        "geo_altitude": 12710.16,
        "squawk": "2012",
        "spi": false,
        "position_source": 0
      }
    },
    {
      "type": "Feature",
      "geometry": {
        "type": "Point",
        "coordinates": [
          16.4532,
          45.6024
        ]
      },
      "properties": {
        "icao24": "471db0",
        "callsign": "WZZ2MR",
        "origin_country": "Hungary",
        "time_position": 1787023995,
        "last_contact": 1787023995,
        "baro_altitude": 10363.2,
        "on_ground": false,
        "velocity": 237.91,
        "true_track": 225.53,
        "vertical_rate": 0,
        "geo_altitude": 10782.3,
        "squawk": "4151",
        "spi": false,
        "position_source": 0
      }
    },
    {
      "type": "Feature",
      "geometry": {
        "type": "Point",
        "coordinates": [
          10.1744,
          41.269
        ]
      },
      "properties": {
        "icao24": "345618",
        "callsign": "LAV990P",
        "origin_country": "Spain",
        "time_position": 1787023995,
        "last_contact": 1787023995,
        "baro_altitude": 8854.44,
        "on_ground": false,
        "velocity": 226.94,
        "true_track": 71.36,
        "vertical_rate": -10.08,
        "geo_altitude": 9387.84,
        "squawk": "1000",
        "spi": false,
        "position_source": 0
      }
    },
    {
      "type": "Feature",
      "geometry": {
        "type": "Point",
        "coordinates": [
          12.6832,
          38.8369
        ]
      },
      "properties": {
        "icao24": "020121",
        "callsign": "RAM217",
        "origin_country": "Morocco",
        "time_position": 1787023995,
        "last_contact": 1787023995,
        "baro_altitude": 12192,
        "on_ground": false,
        "velocity": 239.59,
        "true_track": 284.93,
        "vertical_rate": -0.33,
        "geo_altitude": 12763.5,
        "squawk": "5532",
        "spi": false,
        "position_source": 0
      }
    },
    {
      "type": "Feature",
      "geometry": {
        "type": "Point",
        "coordinates": [
          13.1285,
          45.1883
        ]
      },
      "properties": {
        "icao24": "3465d8",
        "callsign": "VOE1452",
        "origin_country": "Spain",
        "time_position": 1787023995,
        "last_contact": 1787023995,
        "baro_altitude": 5615.94,
        "on_ground": false,
        "velocity": 196.33,
        "true_track": 123.57,
        "vertical_rate": 9.75,
        "geo_altitude": 5875.02,
        "squawk": "0242",
        "spi": false,
        "position_source": 0
      }
    },
    {
      "type": "Feature",
      "geometry": {
        "type": "Point",
        "coordinates": [
          10.528,
          45.2606
        ]
      },
      "properties": {
        "icao24": "399e86",
        "callsign": "CRL959",
        "origin_country": "France",
        "time_position": 1787023994,
        "last_contact": 1787023994,
        "baro_altitude": 10972.8,
        "on_ground": false,
        "velocity": 224.56,
        "true_track": 295.8,
        "vertical_rate": 0,
        "geo_altitude": 11498.58,
        "squawk": "2062",
        "spi": false,
        "position_source": 0
      }
    },
    {
      "type": "Feature",
      "geometry": {
        "type": "Point",
        "coordinates": [
          17.9391,
          45.6332
        ]
      },
      "properties": {
        "icao24": "896489",
        "callsign": "ETD6PX",
        "origin_country": "United Arab Emirates",
        "time_position": 1787023995,
        "last_contact": 1787023995,
        "baro_altitude": 11879.58,
        "on_ground": false,
        "velocity": 282.16,
        "true_track": 125.95,
        "vertical_rate": -0.33,
        "geo_altitude": 12306.3,
        "squawk": "2222",
        "spi": false,
        "position_source": 0
      }
    },
    {
      "type": "Feature",
      "geometry": {
        "type": "Point",
        "coordinates": [
          8.5592,
          47.7952
        ]
      },
      "properties": {
        "icao24": "3e0fe2",
        "callsign": "CHX11",
        "origin_country": "Germany",
        "time_position": 1787023995,
        "last_contact": 1787023995,
        "baro_altitude": 1043.94,
        "on_ground": false,
        "velocity": 48.73,
        "true_track": 280.95,
        "vertical_rate": 0,
        "geo_altitude": 1135.38,
        "squawk": "0020",
        "spi": false,
        "position_source": 0
      }
    },
    {
      "type": "Feature",
      "geometry": {
        "type": "Point",
        "coordinates": [
          17.8281,
          35.8572
        ]
      },
      "properties": {
        "icao24": "020095",
        "callsign": "RAM272C",
        "origin_country": "Morocco",
        "time_position": 1787023994,
        "last_contact": 1787023995,
        "baro_altitude": 10675.62,
        "on_ground": false,
        "velocity": 257.05,
        "true_track": 104.84,
        "vertical_rate": 0,
        "geo_altitude": 11201.4,
        "squawk": "1213",
        "spi": false,
        "position_source": 0
      }
    },
    {
      "type": "Feature",
      "geometry": {
        "type": "Point",
        "coordinates": [
          14.7504,
          38.1497
        ]
      },
      "properties": {
        "icao24": "89644b",
        "callsign": "UAE213",
        "origin_country": "United Arab Emirates",
        "time_position": 1787023995,
        "last_contact": 1787023995,
        "baro_altitude": 9753.6,
        "on_ground": false,
        "velocity": 255.49,
        "true_track": 299.56,
        "vertical_rate": 0,
        "geo_altitude": 10241.28,
        "squawk": "5511",
        "spi": false,
        "position_source": 0
      }
    },
    {
      "type": "Feature",
      "geometry": {
        "type": "Point",
        "coordinates": [
          15.4149,
          43.906
        ]
      },
      "properties": {
        "icao24": "406890",
        "callsign": "BAW138",
        "origin_country": "United Kingdom",
        "time_position": 1787023995,
        "last_contact": 1787023995,
        "baro_altitude": 12184.38,
        "on_ground": false,
        "velocity": 213.96,
        "true_track": 309.05,
        "vertical_rate": -0.33,
        "geo_altitude": 12672.06,
        "squawk": "2037",
        "spi": false,
        "position_source": 0
      }
    },
    {
      "type": "Feature",
      "geometry": {
        "type": "Point",
        "coordinates": [
          17.6534,
          44.2797
        ]
      },
      "properties": {
        "icao24": "896463",
        "callsign": "ETD3F4",
        "origin_country": "United Arab Emirates",
        "time_position": 1787023995,
        "last_contact": 1787023995,
        "baro_altitude": 11582.4,
        "on_ground": false,
        "velocity": 225.76,
        "true_track": 306.01,
        "vertical_rate": 0.33,
        "geo_altitude": 12031.98,
        "squawk": "5601",
        "spi": false,
        "position_source": 0
      }
    },
    {
      "type": "Feature",
      "geometry": {
        "type": "Point",
        "coordinates": [
          17.4459,
          47.3441
        ]
      },
      "properties": {
        "icao24": "89649d",
        "callsign": "ETD5W2",
        "origin_country": "United Arab Emirates",
        "time_position": 1787023995,
        "last_contact": 1787023995,
        "baro_altitude": 12199.62,
        "on_ground": false,
        "velocity": 224.55,
        "true_track": 296.68,
        "vertical_rate": -0.33,
        "geo_altitude": 12550.14,
        "squawk": "3225",
        "spi": false,
        "position_source": 0
      }
    },
    {
      "type": "Feature",
      "geometry": {
        "type": "Point",
        "coordinates": [
          13.3668,
          36.4083
        ]
      },
      "properties": {
        "icao24": "8964fb",
        "callsign": "ETD7LG",
        "origin_country": "United Arab Emirates",
        "time_position": 1787023995,
        "last_contact": 1787023995,
        "baro_altitude": 11574.78,
        "on_ground": false,
        "velocity": 233.82,
        "true_track": 274.67,
        "vertical_rate": 0,
        "geo_altitude": 12169.14,
        "squawk": "7736",
        "spi": false,
        "position_source": 0
      }
    },
    {
      "type": "Feature",
      "geometry": {
        "type": "Point",
        "coordinates": [
          18.4505,
          37.5775
        ]
      },
      "properties": {
        "icao24": "8964be",
        "callsign": "ETD3P1",
        "origin_country": "United Arab Emirates",
        "time_position": 1787023995,
        "last_contact": 1787023995,
        "baro_altitude": 11574.78,
        "on_ground": false,
        "velocity": 235.18,
        "true_track": 295.39,
        "vertical_rate": 0,
        "geo_altitude": 12123.42,
        "squawk": "7741",
        "spi": false,
        "position_source": 0
      }
    },
    {
      "type": "Feature",
      "geometry": {
        "type": "Point",
        "coordinates": [
          17.1381,
          42.9851
        ]
      },
      "properties": {
        "icao24": "89656e",
        "callsign": "ETD49D",
        "origin_country": "United Arab Emirates",
        "time_position": 1787023991,
        "last_contact": 1787023994,
        "baro_altitude": 10965.18,
        "on_ground": false,
        "velocity": 240.92,
        "true_track": 313.27,
        "vertical_rate": -0.33,
        "geo_altitude": 11437.62,
        "squawk": "5516",
        "spi": false,
        "position_source": 0
      }
    },
    {
      "type": "Feature",
      "geometry": {
        "type": "Point",
        "coordinates": [
          16.781,
          37.8399
        ]
      },
      "properties": {
        "icao24": "89653c",
        "callsign": "ETD5H3",
        "origin_country": "United Arab Emirates",
        "time_position": 1787023994,
        "last_contact": 1787023994,
        "baro_altitude": 10972.8,
        "on_ground": false,
        "velocity": 245.14,
        "true_track": 267.35,
        "vertical_rate": 0,
        "geo_altitude": 11490.96,
        "squawk": "2013",
        "spi": false,
        "position_source": 0
      }
    },
    {
      "type": "Feature",
      "geometry": {
        "type": "Point",
        "coordinates": [
          8.7145,
          45.6316
        ]
      },
      "properties": {
        "icao24": "781ec3",
        "callsign": "CCA949",
        "origin_country": "China",
        "time_position": 1787023995,
        "last_contact": 1787023995,
        "baro_altitude": null,
        "on_ground": true,
        "velocity": 0.77,
        "true_track": 199.69,
        "vertical_rate": null,
        "geo_altitude": null,
        "squawk": "6007",
        "spi": false,
        "position_source": 0
      }
    },
    {
      "type": "Feature",
      "geometry": {
        "type": "Point",
        "coordinates": [
          17.7106,
          46.8233
        ]
      },
      "properties": {
        "icao24": "3c48e8",
        "callsign": "LHX1CF",
        "origin_country": "Germany",
        "time_position": 1787023994,
        "last_contact": 1787023995,
        "baro_altitude": 11582.4,
        "on_ground": false,
        "velocity": 197.04,
        "true_track": 289.52,
        "vertical_rate": 0,
        "geo_altitude": 11955.78,
        "squawk": "1000",
        "spi": false,
        "position_source": 0
      }
    },
    {
      "type": "Feature",
      "geometry": {
        "type": "Point",
        "coordinates": [
          6.5471,
          46.4435
        ]
      },
      "properties": {
        "icao24": "44ccc6",
        "callsign": "BEL28A",
        "origin_country": "Belgium",
        "time_position": 1787023995,
        "last_contact": 1787023995,
        "baro_altitude": 11582.4,
        "on_ground": false,
        "velocity": 222.71,
        "true_track": 341.27,
        "vertical_rate": 0,
        "geo_altitude": 12169.14,
        "squawk": "1000",
        "spi": false,
        "position_source": 0
      }
    },
    {
      "type": "Feature",
      "geometry": {
        "type": "Point",
        "coordinates": [
          6.2502,
          47.7071
        ]
      },
      "properties": {
        "icao24": "44ccc5",
        "callsign": "BEL38K",
        "origin_country": "Belgium",
        "time_position": 1787023995,
        "last_contact": 1787023995,
        "baro_altitude": 11582.4,
        "on_ground": false,
        "velocity": 220.34,
        "true_track": 357.86,
        "vertical_rate": 0,
        "geo_altitude": 12131.04,
        "squawk": "1000",
        "spi": false,
        "position_source": 0
      }
    },
    {
      "type": "Feature",
      "geometry": {
        "type": "Point",
        "coordinates": [
          6.4567,
          42.0189
        ]
      },
      "properties": {
        "icao24": "44ccc4",
        "callsign": "BEL1NA",
        "origin_country": "Belgium",
        "time_position": 1787023995,
        "last_contact": 1787023995,
        "baro_altitude": 11582.4,
        "on_ground": false,
        "velocity": 233.39,
        "true_track": 4.93,
        "vertical_rate": 0,
        "geo_altitude": 12222.48,
        "squawk": "1000",
        "spi": false,
        "position_source": 0
      }
    },
    {
      "type": "Feature",
      "geometry": {
        "type": "Point",
        "coordinates": [
          10.2683,
          46.7065
        ]
      },
      "properties": {
        "icao24": "407992",
        "callsign": "BAW12",
        "origin_country": "United Kingdom",
        "time_position": 1787023995,
        "last_contact": 1787023995,
        "baro_altitude": 10972.8,
        "on_ground": false,
        "velocity": 232.25,
        "true_track": 291.17,
        "vertical_rate": 0,
        "geo_altitude": 11506.2,
        "squawk": "0520",
        "spi": false,
        "position_source": 0
      }
    },
    {
      "type": "Feature",
      "geometry": {
        "type": "Point",
        "coordinates": [
          7.9052,
          39.6625
        ]
      },
      "properties": {
        "icao24": "0201cd",
        "callsign": "RAM246",
        "origin_country": "Morocco",
        "time_position": 1787023995,
        "last_contact": 1787023995,
        "baro_altitude": 11574.78,
        "on_ground": false,
        "velocity": 249.06,
        "true_track": 96.52,
        "vertical_rate": 0,
        "geo_altitude": 12192,
        "squawk": "1424",
        "spi": false,
        "position_source": 0
      }
    },
    {
      "type": "Feature",
      "geometry": {
        "type": "Point",
        "coordinates": [
          12.5271,
          44.3007
        ]
      },
      "properties": {
        "icao24": "040170",
        "callsign": "ETH738",
        "origin_country": "Ethiopia",
        "time_position": 1787023994,
        "last_contact": 1787023995,
        "baro_altitude": 12192,
        "on_ground": false,
        "velocity": 224.42,
        "true_track": 292.51,
        "vertical_rate": 0,
        "geo_altitude": 12733.02,
        "squawk": "2075",
        "spi": false,
        "position_source": 0
      }
    },
    {
      "type": "Feature",
      "geometry": {
        "type": "Point",
        "coordinates": [
          14.9662,
          44.4281
        ]
      },
      "properties": {
        "icao24": "040172",
        "callsign": "ETH750",
        "origin_country": "Ethiopia",
        "time_position": 1787023995,
        "last_contact": 1787023995,
        "baro_altitude": 12192,
        "on_ground": false,
        "velocity": 218.57,
        "true_track": 311.95,
        "vertical_rate": 0,
        "geo_altitude": 12672.06,
        "squawk": "5605",
        "spi": false,
        "position_source": 0
      }
    },
    {
      "type": "Feature",
      "geometry": {
        "type": "Point",
        "coordinates": [
          18.7141,
          46.055
        ]
      },
      "properties": {
        "icao24": "4bcd86",
        "callsign": "SXS1XP",
        "origin_country": "Turkey",
        "time_position": 1787023995,
        "last_contact": 1787023995,
        "baro_altitude": 11117.58,
        "on_ground": false,
        "velocity": 201.36,
        "true_track": 309.51,
        "vertical_rate": 3.9,
        "geo_altitude": 11498.58,
        "squawk": "3206",
        "spi": false,
        "position_source": 0
      }
    },
    {
      "type": "Feature",
      "geometry": {
        "type": "Point",
        "coordinates": [
          6.7077,
          41.8006
        ]
      },
      "properties": {
        "icao24": "04014c",
        "callsign": "ETH726",
        "origin_country": "Ethiopia",
        "time_position": 1787023995,
        "last_contact": 1787023995,
        "baro_altitude": 10698.48,
        "on_ground": false,
        "velocity": 225.92,
        "true_track": 314.17,
        "vertical_rate": -10.08,
        "geo_altitude": 11277.6,
        "squawk": "7735",
        "spi": false,
        "position_source": 0
      }
    },
    {
      "type": "Feature",
      "geometry": {
        "type": "Point",
        "coordinates": [
          16.3906,
          47.6658
        ]
      },
      "properties": {
        "icao24": "899020",
        "callsign": "CAL061",
        "origin_country": "Taiwan",
        "time_position": 1787023994,
        "last_contact": 1787023995,
        "baro_altitude": 11582.4,
        "on_ground": false,
        "velocity": 212.65,
        "true_track": 291.72,
        "vertical_rate": 0,
        "geo_altitude": 11963.4,
        "squawk": "3222",
        "spi": false,
        "position_source": 0
      }
    },
    {
      "type": "Feature",
      "geometry": {
        "type": "Point",
        "coordinates": [
          13.9084,
          44.4143
        ]
      },
      "properties": {
        "icao24": "040124",
        "callsign": "ETH718",
        "origin_country": "Ethiopia",
        "time_position": 1787023995,
        "last_contact": 1787023995,
        "baro_altitude": 12192,
        "on_ground": false,
        "velocity": 219.35,
        "true_track": 314.71,
        "vertical_rate": 0,
        "geo_altitude": 12702.54,
        "squawk": "2076",
        "spi": false,
        "position_source": 0
      }
    },
    {
      "type": "Feature",
      "geometry": {
        "type": "Point",
        "coordinates": [
          18.5235,
          46.9802
        ]
      },
      "properties": {
        "icao24": "040123",
        "callsign": "ETH730",
        "origin_country": "Ethiopia",
        "time_position": 1787023994,
        "last_contact": 1787023995,
        "baro_altitude": 10370.82,
        "on_ground": false,
        "velocity": 202.59,
        "true_track": 318.29,
        "vertical_rate": -9.75,
        "geo_altitude": 10698.48,
        "squawk": "5205",
        "spi": false,
        "position_source": 0
      }
    },
    {
      "type": "Feature",
      "geometry": {
        "type": "Point",
        "coordinates": [
          10.1834,
          45.5546
        ]
      },
      "properties": {
        "icao24": "49d3d3",
        "callsign": "TVP7605",
        "origin_country": "Czech Republic",
        "time_position": 1787023995,
        "last_contact": 1787023995,
        "baro_altitude": 10972.8,
        "on_ground": false,
        "velocity": 229.75,
        "true_track": 47.45,
        "vertical_rate": 0,
        "geo_altitude": 11498.58,
        "squawk": "1000",
        "spi": false,
        "position_source": 0
      }
    },
    {
      "type": "Feature",
      "geometry": {
        "type": "Point",
        "coordinates": [
          7.6658,
          46.0044
        ]
      },
      "properties": {
        "icao24": "04012b",
        "callsign": "ETH734",
        "origin_country": "Ethiopia",
        "time_position": 1787023995,
        "last_contact": 1787023995,
        "baro_altitude": 12192,
        "on_ground": false,
        "velocity": 234.54,
        "true_track": 301.91,
        "vertical_rate": 0.33,
        "geo_altitude": 12763.5,
        "squawk": "1000",
        "spi": false,
        "position_source": 0
      }
    },
    {
      "type": "Feature",
      "geometry": {
        "type": "Point",
        "coordinates": [
          10.9832,
          46.4238
        ]
      },
      "properties": {
        "icao24": "406f74",
        "callsign": "BAW16",
        "origin_country": "United Kingdom",
        "time_position": 1787023995,
        "last_contact": 1787023995,
        "baro_altitude": 11582.4,
        "on_ground": false,
        "velocity": 233.56,
        "true_track": 308.56,
        "vertical_rate": 0,
        "geo_altitude": 12115.8,
        "squawk": "6620",
        "spi": false,
        "position_source": 0
      }
    },
    {
      "type": "Feature",
      "geometry": {
        "type": "Point",
        "coordinates": [
          12.8544,
          44.5218
        ]
      },
      "properties": {
        "icao24": "394a07",
        "callsign": "AFR829",
        "origin_country": "France",
        "time_position": 1787023995,
        "last_contact": 1787023995,
        "baro_altitude": 10972.8,
        "on_ground": false,
        "velocity": 236.31,
        "true_track": 293.89,
        "vertical_rate": 0,
        "geo_altitude": 11490.96,
        "squawk": "5506",
        "spi": false,
        "position_source": 0
      }
    },
    {
      "type": "Feature",
      "geometry": {
        "type": "Point",
        "coordinates": [
          17.1018,
          46.0699
        ]
      },
      "properties": {
        "icao24": "49d418",
        "callsign": "TVQ6316",
        "origin_country": "Czech Republic",
        "time_position": 1787023995,
        "last_contact": 1787023995,
        "baro_altitude": 11231.88,
        "on_ground": false,
        "velocity": 264.49,
        "true_track": 167.53,
        "vertical_rate": 4.23,
        "geo_altitude": 11643.36,
        "squawk": "5624",
        "spi": false,
        "position_source": 0
      }
    },
    {
      "type": "Feature",
      "geometry": {
        "type": "Point",
        "coordinates": [
          14.7048,
          38.0891
        ]
      },
      "properties": {
        "icao24": "06a2ff",
        "callsign": "QTR1E",
        "origin_country": "Qatar",
        "time_position": 1787023994,
        "last_contact": 1787023994,
        "baro_altitude": 11574.78,
        "on_ground": false,
        "velocity": 240.94,
        "true_track": 288.94,
        "vertical_rate": 0,
        "geo_altitude": 12131.04,
        "squawk": "2072",
        "spi": false,
        "position_source": 0
      }
    },
    {
      "type": "Feature",
      "geometry": {
        "type": "Point",
        "coordinates": [
          16.4,
          41.0212
        ]
      },
      "properties": {
        "icao24": "39ae97",
        "callsign": "CRL775",
        "origin_country": "France",
        "time_position": 1787023994,
        "last_contact": 1787023994,
        "baro_altitude": 11582.4,
        "on_ground": false,
        "velocity": 217.9,
        "true_track": 310.31,
        "vertical_rate": 0,
        "geo_altitude": 12092.94,
        "squawk": "2043",
        "spi": false,
        "position_source": 0
      }
    },
    {
      "type": "Feature",
      "geometry": {
        "type": "Point",
        "coordinates": [
          17.3313,
          40.8212
        ]
      },
      "properties": {
        "icao24": "a07dc8",
        "callsign": "UAL124",
        "origin_country": "United States",
        "time_position": 1787023991,
        "last_contact": 1787023991,
        "baro_altitude": 11887.2,
        "on_ground": false,
        "velocity": 271.54,
        "true_track": 127.46,
        "vertical_rate": -0.65,
        "geo_altitude": 12397.74,
        "squawk": "2250",
        "spi": false,
        "position_source": 0
      }
    },
    {
      "type": "Feature",
      "geometry": {
        "type": "Point",
        "coordinates": [
          11.4533,
          46.4745
        ]
      },
      "properties": {
        "icao24": "49d327",
        "callsign": "TVS2000",
        "origin_country": "Czech Republic",
        "time_position": 1787023995,
        "last_contact": 1787023995,
        "baro_altitude": 10668,
        "on_ground": false,
        "velocity": 228.89,
        "true_track": 239.92,
        "vertical_rate": -0.33,
        "geo_altitude": 11163.3,
        "squawk": "2224",
        "spi": false,
        "position_source": 0
      }
    },
    {
      "type": "Feature",
      "geometry": {
        "type": "Point",
        "coordinates": [
          10.6309,
          43.9144
        ]
      },
      "properties": {
        "icao24": "040261",
        "callsign": "ETH736",
        "origin_country": "Ethiopia",
        "time_position": 1787023995,
        "last_contact": 1787023995,
        "baro_altitude": 10843.26,
        "on_ground": false,
        "velocity": 227.71,
        "true_track": 309.41,
        "vertical_rate": -4.88,
        "geo_altitude": 11369.04,
        "squawk": "2040",
        "spi": false,
        "position_source": 0
      }
    },
    {
      "type": "Feature",
      "geometry": {
        "type": "Point",
        "coordinates": [
          15.0053,
          44.4186
        ]
      },
      "properties": {
        "icao24": "040249",
        "callsign": "ETH3731",
        "origin_country": "Ethiopia",
        "time_position": 1787023995,
        "last_contact": 1787023995,
        "baro_altitude": 10370.82,
        "on_ground": false,
        "velocity": 214.25,
        "true_track": 311.69,
        "vertical_rate": 0,
        "geo_altitude": 10828.02,
        "squawk": "2051",
        "spi": false,
        "position_source": 0
      }
    },
    {
      "type": "Feature",
      "geometry": {
        "type": "Point",
        "coordinates": [
          8.718,
          45.6316
        ]
      },
      "properties": {
        "icao24": "4ca24f",
        "callsign": "RYR66GL",
        "origin_country": "Ireland",
        "time_position": 1787023992,
        "last_contact": 1787023992,
        "baro_altitude": null,
        "on_ground": true,
        "velocity": 0,
        "true_track": 78.75,
        "vertical_rate": null,
        "geo_altitude": null,
        "squawk": null,
        "spi": false,
        "position_source": 0
      }
    },
    {
      "type": "Feature",
      "geometry": {
        "type": "Point",
        "coordinates": [
          10.5767,
          46.2166
        ]
      },
      "properties": {
        "icao24": "49d26c",
        "callsign": "TVS2148",
        "origin_country": "Czech Republic",
        "time_position": 1787023994,
        "last_contact": 1787023994,
        "baro_altitude": 11277.6,
        "on_ground": false,
        "velocity": 234.68,
        "true_track": 226.15,
        "vertical_rate": 0,
        "geo_altitude": 11803.38,
        "squawk": "0525",
        "spi": false,
        "position_source": 0
      }
    },
    {
      "type": "Feature",
      "geometry": {
        "type": "Point",
        "coordinates": [
          18.7304,
          42.6778
        ]
      },
      "properties": {
        "icao24": "44065c",
        "callsign": "AUA835",
        "origin_country": "Austria",
        "time_position": 1787023992,
        "last_contact": 1787023992,
        "baro_altitude": 10675.62,
        "on_ground": false,
        "velocity": 235.75,
        "true_track": 167.27,
        "vertical_rate": 0,
        "geo_altitude": 11117.58,
        "squawk": "7105",
        "spi": false,
        "position_source": 0
      }
    },
    {
      "type": "Feature",
      "geometry": {
        "type": "Point",
        "coordinates": [
          17.6111,
          44.592
        ]
      },
      "properties": {
        "icao24": "440607",
        "callsign": "AUA78VE",
        "origin_country": "Austria",
        "time_position": 1787023995,
        "last_contact": 1787023995,
        "baro_altitude": 10980.42,
        "on_ground": false,
        "velocity": 207.31,
        "true_track": 332.67,
        "vertical_rate": 0,
        "geo_altitude": 11414.76,
        "squawk": "0070",
        "spi": false,
        "position_source": 0
      }
    },
    {
      "type": "Feature",
      "geometry": {
        "type": "Point",
        "coordinates": [
          14.4421,
          42.1982
        ]
      },
      "properties": {
        "icao24": "7c806b",
        "callsign": "QFA5",
        "origin_country": "Australia",
        "time_position": 1787023994,
        "last_contact": 1787023994,
        "baro_altitude": 11376.66,
        "on_ground": false,
        "velocity": 250.33,
        "true_track": 254.99,
        "vertical_rate": -11.05,
        "geo_altitude": 11902.44,
        "squawk": "7045",
        "spi": false,
        "position_source": 0
      }
    },
    {
      "type": "Feature",
      "geometry": {
        "type": "Point",
        "coordinates": [
          16.1857,
          46.6405
        ]
      },
      "properties": {
        "icao24": "49d006",
        "callsign": "TVS31R",
        "origin_country": "Czech Republic",
        "time_position": 1787023995,
        "last_contact": 1787023995,
        "baro_altitude": 11277.6,
        "on_ground": false,
        "velocity": 269.41,
        "true_track": 166.87,
        "vertical_rate": 0,
        "geo_altitude": 11673.84,
        "squawk": "1333",
        "spi": false,
        "position_source": 0
      }
    },
    {
      "type": "Feature",
      "geometry": {
        "type": "Point",
        "coordinates": [
          6.8946,
          42.4968
        ]
      },
      "properties": {
        "icao24": "4cc58a",
        "callsign": "ABD2601",
        "origin_country": "Iceland",
        "time_position": 1787023994,
        "last_contact": 1787023995,
        "baro_altitude": 10363.2,
        "on_ground": false,
        "velocity": 236.77,
        "true_track": 358.13,
        "vertical_rate": 0,
        "geo_altitude": 10934.7,
        "squawk": "1000",
        "spi": false,
        "position_source": 0
      }
    },
    {
      "type": "Feature",
      "geometry": {
        "type": "Point",
        "coordinates": [
          14.358,
          40.0975
        ]
      },
      "properties": {
        "icao24": "06a10e",
        "callsign": "QTR24V",
        "origin_country": "Qatar",
        "time_position": 1787023995,
        "last_contact": 1787023995,
        "baro_altitude": 10972.8,
        "on_ground": false,
        "velocity": 241.13,
        "true_track": 281.07,
        "vertical_rate": 0,
        "geo_altitude": 11498.58,
        "squawk": "2046",
        "spi": false,
        "position_source": 0
      }
    },
    {
      "type": "Feature",
      "geometry": {
        "type": "Point",
        "coordinates": [
          15.2963,
          43.9037
        ]
      },
      "properties": {
        "icao24": "06a145",
        "callsign": "QTR38P",
        "origin_country": "Qatar",
        "time_position": 1787023995,
        "last_contact": 1787023995,
        "baro_altitude": 11582.4,
        "on_ground": false,
        "velocity": 225.43,
        "true_track": 290.3,
        "vertical_rate": 0,
        "geo_altitude": 12077.7,
        "squawk": "7350",
        "spi": false,
        "position_source": 0
      }
    },
    {
      "type": "Feature",
      "geometry": {
        "type": "Point",
        "coordinates": [
          18.3695,
          46.2436
        ]
      },
      "properties": {
        "icao24": "48c226",
        "callsign": "RYR67HQ",
        "origin_country": "Poland",
        "time_position": 1787023994,
        "last_contact": 1787023994,
        "baro_altitude": 10972.8,
        "on_ground": false,
        "velocity": 199.25,
        "true_track": 308.29,
        "vertical_rate": 0.65,
        "geo_altitude": 11330.94,
        "squawk": "4517",
        "spi": false,
        "position_source": 0
      }
    },
    {
      "type": "Feature",
      "geometry": {
        "type": "Point",
        "coordinates": [
          17.5866,
          44.4984
        ]
      },
      "properties": {
        "icao24": "06a0b8",
        "callsign": "QTR195",
        "origin_country": "Qatar",
        "time_position": 1787023995,
        "last_contact": 1787023995,
        "baro_altitude": 12184.38,
        "on_ground": false,
        "velocity": 232.06,
        "true_track": 309.51,
        "vertical_rate": -0.33,
        "geo_altitude": 12656.82,
        "squawk": "1342",
        "spi": false,
        "position_source": 0
      }
    },
    {
      "type": "Feature",
      "geometry": {
        "type": "Point",
        "coordinates": [
          10.8353,
          39.2009
        ]
      },
      "properties": {
        "icao24": "06a0be",
        "callsign": "QTR343",
        "origin_country": "Qatar",
        "time_position": 1787023994,
        "last_contact": 1787023994,
        "baro_altitude": 12192,
        "on_ground": false,
        "velocity": 247.3,
        "true_track": 283.72,
        "vertical_rate": -0.33,
        "geo_altitude": 12763.5,
        "squawk": "6635",
        "spi": false,
        "position_source": 0
      }
    },
    {
      "type": "Feature",
      "geometry": {
        "type": "Point",
        "coordinates": [
          17.5408,
          47.4027
        ]
      },
      "properties": {
        "icao24": "88516e",
        "callsign": "THA920",
        "origin_country": "Thailand",
        "time_position": 1787023994,
        "last_contact": 1787023995,
        "baro_altitude": 10972.8,
        "on_ground": false,
        "velocity": 216.38,
        "true_track": 291.62,
        "vertical_rate": 0,
        "geo_altitude": 11300.46,
        "squawk": "6110",
        "spi": false,
        "position_source": 0
      }
    },
    {
      "type": "Feature",
      "geometry": {
        "type": "Point",
        "coordinates": [
          16.5588,
          44.6579
        ]
      },
      "properties": {
        "icao24": "885172",
        "callsign": "THA930",
        "origin_country": "Thailand",
        "time_position": 1787023994,
        "last_contact": 1787023994,
        "baro_altitude": 10965.18,
        "on_ground": false,
        "velocity": 235.58,
        "true_track": 284.67,
        "vertical_rate": 0,
        "geo_altitude": 11422.38,
        "squawk": "3201",
        "spi": false,
        "position_source": 0
      }
    },
    {
      "type": "Feature",
      "geometry": {
        "type": "Point",
        "coordinates": [
          8.5678,
          47.4577
        ]
      },
      "properties": {
        "icao24": "4b1803",
        "callsign": "SWR",
        "origin_country": "Switzerland",
        "time_position": 1787023690,
        "last_contact": 1787023978,
        "baro_altitude": 403.86,
        "on_ground": true,
        "velocity": 108.55,
        "true_track": 0.54,
        "vertical_rate": 52.67,
        "geo_altitude": null,
        "squawk": "2000",
        "spi": false,
        "position_source": 0
      }
    },
    {
      "type": "Feature",
      "geometry": {
        "type": "Point",
        "coordinates": [
          11.5447,
          46.7235
        ]
      },
      "properties": {
        "icao24": "4b1887",
        "callsign": "SWR155",
        "origin_country": "Switzerland",
        "time_position": 1787023995,
        "last_contact": 1787023995,
        "baro_altitude": 11361.42,
        "on_ground": false,
        "velocity": 213.2,
        "true_track": 314.02,
        "vertical_rate": -4.88,
        "geo_altitude": 11879.58,
        "squawk": "2036",
        "spi": false,
        "position_source": 0
      }
    },
    {
      "type": "Feature",
      "geometry": {
        "type": "Point",
        "coordinates": [
          15.1773,
          47.0905
        ]
      },
      "properties": {
        "icao24": "4b1880",
        "callsign": "SWR147",
        "origin_country": "Switzerland",
        "time_position": 1787023995,
        "last_contact": 1787023995,
        "baro_altitude": 11582.4,
        "on_ground": false,
        "velocity": 213.77,
        "true_track": 282.93,
        "vertical_rate": 0,
        "geo_altitude": 12001.5,
        "squawk": "0551",
        "spi": false,
        "position_source": 0
      }
    },
    {
      "type": "Feature",
      "geometry": {
        "type": "Point",
        "coordinates": [
          11.961,
          42.2113
        ]
      },
      "properties": {
        "icao24": "440ced",
        "callsign": "TAY9VX",
        "origin_country": "Austria",
        "time_position": 1787023995,
        "last_contact": 1787023995,
        "baro_altitude": 1661.16,
        "on_ground": false,
        "velocity": 145.51,
        "true_track": 142.04,
        "vertical_rate": -2.28,
        "geo_altitude": 1775.46,
        "squawk": "1000",
        "spi": false,
        "position_source": 0
      }
    },
    {
      "type": "Feature",
      "geometry": {
        "type": "Point",
        "coordinates": [
          16.0468,
          44.5959
        ]
      },
      "properties": {
        "icao24": "02a1a6",
        "callsign": "LBT7614",
        "origin_country": "Tunisia",
        "time_position": 1787023995,
        "last_contact": 1787023995,
        "baro_altitude": 11292.84,
        "on_ground": false,
        "velocity": 214,
        "true_track": 21.14,
        "vertical_rate": 0,
        "geo_altitude": 11772.9,
        "squawk": "1000",
        "spi": false,
        "position_source": 0
      }
    },
    {
      "type": "Feature",
      "geometry": {
        "type": "Point",
        "coordinates": [
          10.0792,
          45.8123
        ]
      },
      "properties": {
        "icao24": "39d30d",
        "callsign": "TVF31LA",
        "origin_country": "France",
        "time_position": 1787023995,
        "last_contact": 1787023995,
        "baro_altitude": 11582.4,
        "on_ground": false,
        "velocity": 211.87,
        "true_track": 281.2,
        "vertical_rate": 0,
        "geo_altitude": 12115.8,
        "squawk": "3255",
        "spi": false,
        "position_source": 0
      }
    },
    {
      "type": "Feature",
      "geometry": {
        "type": "Point",
        "coordinates": [
          8.5571,
          47.4541
        ]
      },
      "properties": {
        "icao24": "4b5da6",
        "callsign": "TE25",
        "origin_country": "Switzerland",
        "time_position": 1787023107,
        "last_contact": 1787023995,
        "baro_altitude": null,
        "on_ground": true,
        "velocity": 5.92,
        "true_track": 185.62,
        "vertical_rate": null,
        "geo_altitude": null,
        "squawk": null,
        "spi": false,
        "position_source": 0
      }
    },
    {
      "type": "Feature",
      "geometry": {
        "type": "Point",
        "coordinates": [
          8.5574,
          47.4537
        ]
      },
      "properties": {
        "icao24": "4b5da7",
        "callsign": "TE26",
        "origin_country": "Switzerland",
        "time_position": 1787023991,
        "last_contact": 1787023991,
        "baro_altitude": null,
        "on_ground": true,
        "velocity": 0,
        "true_track": 59.06,
        "vertical_rate": null,
        "geo_altitude": null,
        "squawk": null,
        "spi": false,
        "position_source": 0
      }
    },
    {
      "type": "Feature",
      "geometry": {
        "type": "Point",
        "coordinates": [
          8.5563,
          47.4542
        ]
      },
      "properties": {
        "icao24": "4b5da2",
        "callsign": "TE21",
        "origin_country": "Switzerland",
        "time_position": 1787023994,
        "last_contact": 1787023994,
        "baro_altitude": null,
        "on_ground": true,
        "velocity": 2.31,
        "true_track": 137.81,
        "vertical_rate": null,
        "geo_altitude": null,
        "squawk": null,
        "spi": false,
        "position_source": 0
      }
    },
    {
      "type": "Feature",
      "geometry": {
        "type": "Point",
        "coordinates": [
          8.5584,
          47.4605
        ]
      },
      "properties": {
        "icao24": "4b5daf",
        "callsign": "RTT8",
        "origin_country": "Switzerland",
        "time_position": 1787023994,
        "last_contact": 1787023995,
        "baro_altitude": null,
        "on_ground": true,
        "velocity": 0.06,
        "true_track": 191.25,
        "vertical_rate": null,
        "geo_altitude": null,
        "squawk": null,
        "spi": false,
        "position_source": 0
      }
    },
    {
      "type": "Feature",
      "geometry": {
        "type": "Point",
        "coordinates": [
          10.8672,
          45.5639
        ]
      },
      "properties": {
        "icao24": "3c6563",
        "callsign": "OCN143Y",
        "origin_country": "Germany",
        "time_position": 1787023995,
        "last_contact": 1787023995,
        "baro_altitude": 12192,
        "on_ground": false,
        "velocity": 221.75,
        "true_track": 9.62,
        "vertical_rate": 0,
        "geo_altitude": 12725.4,
        "squawk": "1246",
        "spi": false,
        "position_source": 0
      }
    },
    {
      "type": "Feature",
      "geometry": {
        "type": "Point",
        "coordinates": [
          15.6349,
          35.7144
        ]
      },
      "properties": {
        "icao24": "0a008f",
        "callsign": "DAH4651",
        "origin_country": "Algeria",
        "time_position": 1787023994,
        "last_contact": 1787023994,
        "baro_altitude": 10972.8,
        "on_ground": false,
        "velocity": 219.64,
        "true_track": 276.73,
        "vertical_rate": 0,
        "geo_altitude": 11529.06,
        "squawk": "5514",
        "spi": false,
        "position_source": 0
      }
    },
    {
      "type": "Feature",
      "geometry": {
        "type": "Point",
        "coordinates": [
          12.6155,
          35.9534
        ]
      },
      "properties": {
        "icao24": "0a0084",
        "callsign": "DAH461",
        "origin_country": "Algeria",
        "time_position": 1787023995,
        "last_contact": 1787023995,
        "baro_altitude": 12192,
        "on_ground": false,
        "velocity": 215.66,
        "true_track": 275.89,
        "vertical_rate": 0,
        "geo_altitude": 12854.94,
        "squawk": "5504",
        "spi": false,
        "position_source": 0
      }
    },
    {
      "type": "Feature",
      "geometry": {
        "type": "Point",
        "coordinates": [
          7.0213,
          38.8392
        ]
      },
      "properties": {
        "icao24": "3c64c5",
        "callsign": "DLH561",
        "origin_country": "Germany",
        "time_position": 1787023993,
        "last_contact": 1787023995,
        "baro_altitude": 11582.4,
        "on_ground": false,
        "velocity": 220.59,
        "true_track": 3.48,
        "vertical_rate": 0.33,
        "geo_altitude": 12192,
        "squawk": null,
        "spi": false,
        "position_source": 0
      }
    },
    {
      "type": "Feature",
      "geometry": {
        "type": "Point",
        "coordinates": [
          9.333,
          46.7817
        ]
      },
      "properties": {
        "icao24": "4080bf",
        "callsign": "BAW64",
        "origin_country": "United Kingdom",
        "time_position": 1787023995,
        "last_contact": 1787023995,
        "baro_altitude": 11574.78,
        "on_ground": false,
        "velocity": 231.7,
        "true_track": 301.75,
        "vertical_rate": 0,
        "geo_altitude": 12138.66,
        "squawk": "7525",
        "spi": false,
        "position_source": 0
      }
    },
    {
      "type": "Feature",
      "geometry": {
        "type": "Point",
        "coordinates": [
          7.1816,
          39.8547
        ]
      },
      "properties": {
        "icao24": "4b15db",
        "callsign": "EDW83",
        "origin_country": "Switzerland",
        "time_position": 1787023994,
        "last_contact": 1787023994,
        "baro_altitude": 13106.4,
        "on_ground": false,
        "velocity": 235.48,
        "true_track": 11.21,
        "vertical_rate": 0,
        "geo_altitude": 13723.62,
        "squawk": null,
        "spi": false,
        "position_source": 0
      }
    },
    {
      "type": "Feature",
      "geometry": {
        "type": "Point",
        "coordinates": [
          8.5593,
          47.4478
        ]
      },
      "properties": {
        "icao24": "4b5d9c",
        "callsign": "TE782",
        "origin_country": "Switzerland",
        "time_position": 1787023991,
        "last_contact": 1787023991,
        "baro_altitude": null,
        "on_ground": true,
        "velocity": 5.14,
        "true_track": 61.88,
        "vertical_rate": null,
        "geo_altitude": null,
        "squawk": null,
        "spi": false,
        "position_source": 0
      }
    },
    {
      "type": "Feature",
      "geometry": {
        "type": "Point",
        "coordinates": [
          9.7161,
          43.3708
        ]
      },
      "properties": {
        "icao24": "440af5",
        "callsign": "TAY7FO",
        "origin_country": "Austria",
        "time_position": 1787023994,
        "last_contact": 1787023994,
        "baro_altitude": 11887.2,
        "on_ground": false,
        "velocity": 247.02,
        "true_track": 124.65,
        "vertical_rate": 0,
        "geo_altitude": 12451.08,
        "squawk": "1000",
        "spi": false,
        "position_source": 0
      }
    },
    {
      "type": "Feature",
      "geometry": {
        "type": "Point",
        "coordinates": [
          18.4218,
          39.7378
        ]
      },
      "properties": {
        "icao24": "060041",
        "callsign": "MAU14",
        "origin_country": "Mauritius",
        "time_position": 1787023975,
        "last_contact": 1787023995,
        "baro_altitude": 12192,
        "on_ground": false,
        "velocity": 246.65,
        "true_track": 314.32,
        "vertical_rate": -0.33,
        "geo_altitude": 12877.8,
        "squawk": "5503",
        "spi": false,
        "position_source": 0
      }
    },
    {
      "type": "Feature",
      "geometry": {
        "type": "Point",
        "coordinates": [
          8.5656,
          47.4434
        ]
      },
      "properties": {
        "icao24": "4b5d6f",
        "callsign": "VIKTOR33",
        "origin_country": "Switzerland",
        "time_position": 1787023985,
        "last_contact": 1787023985,
        "baro_altitude": null,
        "on_ground": true,
        "velocity": 2.31,
        "true_track": 81.56,
        "vertical_rate": null,
        "geo_altitude": null,
        "squawk": null,
        "spi": false,
        "position_source": 0
      }
    },
    {
      "type": "Feature",
      "geometry": {
        "type": "Point",
        "coordinates": [
          9.0331,
          45.0082
        ]
      },
      "properties": {
        "icao24": "42476c",
        "callsign": "VPCZB",
        "origin_country": "United Kingdom",
        "time_position": 1787023995,
        "last_contact": 1787023995,
        "baro_altitude": 12931.14,
        "on_ground": false,
        "velocity": 235.86,
        "true_track": 304.24,
        "vertical_rate": -7.8,
        "geo_altitude": 13472.16,
        "squawk": "2031",
        "spi": false,
        "position_source": 0
      }
    },
    {
      "type": "Feature",
      "geometry": {
        "type": "Point",
        "coordinates": [
          8.5669,
          47.4442
        ]
      },
      "properties": {
        "icao24": "4b5d98",
        "callsign": "ATL779",
        "origin_country": "Switzerland",
        "time_position": 1787023957,
        "last_contact": 1787023957,
        "baro_altitude": null,
        "on_ground": true,
        "velocity": 2.31,
        "true_track": 33.75,
        "vertical_rate": null,
        "geo_altitude": null,
        "squawk": null,
        "spi": false,
        "position_source": 0
      }
    },
    {
      "type": "Feature",
      "geometry": {
        "type": "Point",
        "coordinates": [
          18.092,
          44.3964
        ]
      },
      "properties": {
        "icao24": "392af3",
        "callsign": "AFR1391",
        "origin_country": "France",
        "time_position": 1787023995,
        "last_contact": 1787023995,
        "baro_altitude": 10363.2,
        "on_ground": false,
        "velocity": 227.63,
        "true_track": 285.2,
        "vertical_rate": 0,
        "geo_altitude": 10789.92,
        "squawk": "3204",
        "spi": false,
        "position_source": 0
      }
    },
    {
      "type": "Feature",
      "geometry": {
        "type": "Point",
        "coordinates": [
          8.722,
          45.6085
        ]
      },
      "properties": {
        "icao24": "440bca",
        "callsign": "BCS138",
        "origin_country": "Austria",
        "time_position": 1787023994,
        "last_contact": 1787023994,
        "baro_altitude": null,
        "on_ground": true,
        "velocity": 7.72,
        "true_track": 168.75,
        "vertical_rate": null,
        "geo_altitude": null,
        "squawk": "1000",
        "spi": false,
        "position_source": 0
      }
    },
    {
      "type": "Feature",
      "geometry": {
        "type": "Point",
        "coordinates": [
          6.8599,
          47.7269
        ]
      },
      "properties": {
        "icao24": "440bce",
        "callsign": "BCS30A",
        "origin_country": "Austria",
        "time_position": 1787023995,
        "last_contact": 1787023995,
        "baro_altitude": 2415.54,
        "on_ground": false,
        "velocity": 149.83,
        "true_track": 95.32,
        "vertical_rate": -7.8,
        "geo_altitude": 2552.7,
        "squawk": "4122",
        "spi": false,
        "position_source": 0
      }
    },
    {
      "type": "Feature",
      "geometry": {
        "type": "Point",
        "coordinates": [
          17.4115,
          35.5551
        ]
      },
      "properties": {
        "icao24": "0a00e3",
        "callsign": "DAH4733",
        "origin_country": "Algeria",
        "time_position": 1787023994,
        "last_contact": 1787023995,
        "baro_altitude": 11582.4,
        "on_ground": false,
        "velocity": 217.4,
        "true_track": 277.48,
        "vertical_rate": 0,
        "geo_altitude": 12199.62,
        "squawk": null,
        "spi": false,
        "position_source": 0
      }
    },
    {
      "type": "Feature",
      "geometry": {
        "type": "Point",
        "coordinates": [
          8.5739,
          47.4542
        ]
      },
      "properties": {
        "icao24": "4b5c1e",
        "callsign": "ZEBRA2",
        "origin_country": "Switzerland",
        "time_position": 1787023993,
        "last_contact": 1787023993,
        "baro_altitude": null,
        "on_ground": true,
        "velocity": 3.6,
        "true_track": 343.12,
        "vertical_rate": null,
        "geo_altitude": null,
        "squawk": null,
        "spi": false,
        "position_source": 0
      }
    },
    {
      "type": "Feature",
      "geometry": {
        "type": "Point",
        "coordinates": [
          8.5571,
          47.4491
        ]
      },
      "properties": {
        "icao24": "4b5c26",
        "callsign": "EUGEN5",
        "origin_country": "Switzerland",
        "time_position": 1787023994,
        "last_contact": 1787023994,
        "baro_altitude": null,
        "on_ground": true,
        "velocity": 22.12,
        "true_track": 337.5,
        "vertical_rate": null,
        "geo_altitude": null,
        "squawk": null,
        "spi": false,
        "position_source": 0
      }
    },
    {
      "type": "Feature",
      "geometry": {
        "type": "Point",
        "coordinates": [
          8.9138,
          45.922
        ]
      },
      "properties": {
        "icao24": "a8d3b4",
        "callsign": "UAL964",
        "origin_country": "United States",
        "time_position": 1787023994,
        "last_contact": 1787023995,
        "baro_altitude": 11887.2,
        "on_ground": false,
        "velocity": 246.64,
        "true_track": 138.13,
        "vertical_rate": 0,
        "geo_altitude": 12420.6,
        "squawk": "5237",
        "spi": false,
        "position_source": 0
      }
    },
    {
      "type": "Feature",
      "geometry": {
        "type": "Point",
        "coordinates": [
          17.9249,
          43.4967
        ]
      },
      "properties": {
        "icao24": "3c7426",
        "callsign": "TUI8XD",
        "origin_country": "Germany",
        "time_position": 1787023995,
        "last_contact": 1787023995,
        "baro_altitude": 11887.2,
        "on_ground": false,
        "velocity": 256.9,
        "true_track": 156.52,
        "vertical_rate": 0.33,
        "geo_altitude": 12367.26,
        "squawk": "4533",
        "spi": false,
        "position_source": 0
      }
    },
    {
      "type": "Feature",
      "geometry": {
        "type": "Point",
        "coordinates": [
          18.1599,
          46.6334
        ]
      },
      "properties": {
        "icao24": "49d5d6",
        "callsign": "TVS3PR",
        "origin_country": "Czech Republic",
        "time_position": 1787023995,
        "last_contact": 1787023995,
        "baro_altitude": 10668,
        "on_ground": false,
        "velocity": 271.13,
        "true_track": 142.48,
        "vertical_rate": 0,
        "geo_altitude": 11018.52,
        "squawk": "1343",
        "spi": false,
        "position_source": 0
      }
    },
    {
      "type": "Feature",
      "geometry": {
        "type": "Point",
        "coordinates": [
          6.9837,
          46.8464
        ]
      },
      "properties": {
        "icao24": "501d20",
        "callsign": "CFG2XR",
        "origin_country": "Croatia",
        "time_position": 1787023995,
        "last_contact": 1787023995,
        "baro_altitude": 10675.62,
        "on_ground": false,
        "velocity": 250.84,
        "true_track": 207.88,
        "vertical_rate": 0,
        "geo_altitude": 11224.26,
        "squawk": "1000",
        "spi": false,
        "position_source": 0
      }
    },
    {
      "type": "Feature",
      "geometry": {
        "type": "Point",
        "coordinates": [
          17.8849,
          45.2936
        ]
      },
      "properties": {
        "icao24": "4bcdf6",
        "callsign": "SXS7KP",
        "origin_country": "Turkey",
        "time_position": 1787023994,
        "last_contact": 1787023994,
        "baro_altitude": 11582.4,
        "on_ground": false,
        "velocity": 201.07,
        "true_track": 304.79,
        "vertical_rate": 0,
        "geo_altitude": 12009.12,
        "squawk": "3213",
        "spi": false,
        "position_source": 0
      }
    },
    {
      "type": "Feature",
      "geometry": {
        "type": "Point",
        "coordinates": [
          16.1729,
          47.1416
        ]
      },
      "properties": {
        "icao24": "4bcdeb",
        "callsign": "SXS3TR",
        "origin_country": "Turkey",
        "time_position": 1787023995,
        "last_contact": 1787023995,
        "baro_altitude": 11582.4,
        "on_ground": false,
        "velocity": 195.19,
        "true_track": 303.61,
        "vertical_rate": 0,
        "geo_altitude": 11978.64,
        "squawk": "3253",
        "spi": false,
        "position_source": 0
      }
    },
    {
      "type": "Feature",
      "geometry": {
        "type": "Point",
        "coordinates": [
          18.5273,
          44.245
        ]
      },
      "properties": {
        "icao24": "4851ad",
        "callsign": "KLM880",
        "origin_country": "Kingdom of the Netherlands",
        "time_position": 1787023995,
        "last_contact": 1787023995,
        "baro_altitude": 11582.4,
        "on_ground": false,
        "velocity": 225.68,
        "true_track": 317.03,
        "vertical_rate": 0,
        "geo_altitude": 12024.36,
        "squawk": "5533",
        "spi": false,
        "position_source": 0
      }
    },
    {
      "type": "Feature",
      "geometry": {
        "type": "Point",
        "coordinates": [
          17.2052,
          46.9655
        ]
      },
      "properties": {
        "icao24": "8880f8",
        "callsign": "HVN33",
        "origin_country": "Viet Nam",
        "time_position": 1787023995,
        "last_contact": 1787023995,
        "baro_altitude": 12184.38,
        "on_ground": false,
        "velocity": 235.14,
        "true_track": 287.05,
        "vertical_rate": 0.33,
        "geo_altitude": 12573,
        "squawk": "1000",
        "spi": false,
        "position_source": 0
      }
    },
    {
      "type": "Feature",
      "geometry": {
        "type": "Point",
        "coordinates": [
          17.7593,
          45.4359
        ]
      },
      "properties": {
        "icao24": "4bccad",
        "callsign": "SXS5TM",
        "origin_country": "Turkey",
        "time_position": 1787023995,
        "last_contact": 1787023995,
        "baro_altitude": 11277.6,
        "on_ground": false,
        "velocity": 255.19,
        "true_track": 138.76,
        "vertical_rate": 0,
        "geo_altitude": 11689.08,
        "squawk": "7661",
        "spi": false,
        "position_source": 0
      }
    },
    {
      "type": "Feature",
      "geometry": {
        "type": "Point",
        "coordinates": [
          16.9127,
          45.3835
        ]
      },
      "properties": {
        "icao24": "47340e",
        "callsign": "TVL5434",
        "origin_country": "Hungary",
        "time_position": 1787023995,
        "last_contact": 1787023995,
        "baro_altitude": 10972.8,
        "on_ground": false,
        "velocity": 250.62,
        "true_track": 203.72,
        "vertical_rate": 0,
        "geo_altitude": 11384.28,
        "squawk": "4156",
        "spi": false,
        "position_source": 0
      }
    },
    {
      "type": "Feature",
      "geometry": {
        "type": "Point",
        "coordinates": [
          15.7802,
          47.6856
        ]
      },
      "properties": {
        "icao24": "8940c2",
        "callsign": "GFA17J",
        "origin_country": "Bahrain",
        "time_position": 1787023995,
        "last_contact": 1787023995,
        "baro_altitude": 10363.2,
        "on_ground": false,
        "velocity": 204.35,
        "true_track": 295.34,
        "vertical_rate": 0,
        "geo_altitude": 10736.58,
        "squawk": "3233",
        "spi": false,
        "position_source": 0
      }
    },
    {
      "type": "Feature",
      "geometry": {
        "type": "Point",
        "coordinates": [
          6.0997,
          46.4986
        ]
      },
      "properties": {
        "icao24": "3c496a",
        "callsign": "TUI3NG",
        "origin_country": "Germany",
        "time_position": 1787023994,
        "last_contact": 1787023995,
        "baro_altitude": 11277.6,
        "on_ground": false,
        "velocity": 245.5,
        "true_track": 185.53,
        "vertical_rate": -0.33,
        "geo_altitude": 11856.72,
        "squawk": "1000",
        "spi": false,
        "position_source": 0
      }
    },
    {
      "type": "Feature",
      "geometry": {
        "type": "Point",
        "coordinates": [
          16.6771,
          37.817
        ]
      },
      "properties": {
        "icao24": "407637",
        "callsign": "EKT33",
        "origin_country": "United Kingdom",
        "time_position": 1787023994,
        "last_contact": 1787023994,
        "baro_altitude": 3352.8,
        "on_ground": false,
        "velocity": 76.74,
        "true_track": 50.44,
        "vertical_rate": 0.65,
        "geo_altitude": 3535.68,
        "squawk": "6565",
        "spi": false,
        "position_source": 0
      }
    },
    {
      "type": "Feature",
      "geometry": {
        "type": "Point",
        "coordinates": [
          17.9247,
          46.6834
        ]
      },
      "properties": {
        "icao24": "76cdb5",
        "callsign": "SIA328",
        "origin_country": "Singapore",
        "time_position": 1787023995,
        "last_contact": 1787023995,
        "baro_altitude": 12192,
        "on_ground": false,
        "velocity": 226.06,
        "true_track": 285.71,
        "vertical_rate": 0,
        "geo_altitude": 12611.1,
        "squawk": "1000",
        "spi": false,
        "position_source": 0
      }
    },
    {
      "type": "Feature",
      "geometry": {
        "type": "Point",
        "coordinates": [
          18.9687,
          46.9528
        ]
      },
      "properties": {
        "icao24": "76cdb2",
        "callsign": "SIA312",
        "origin_country": "Singapore",
        "time_position": 1787023994,
        "last_contact": 1787023994,
        "baro_altitude": 12192,
        "on_ground": false,
        "velocity": 232.84,
        "true_track": 295.94,
        "vertical_rate": 0,
        "geo_altitude": 12534.9,
        "squawk": "2640",
        "spi": false,
        "position_source": 0
      }
    },
    {
      "type": "Feature",
      "geometry": {
        "type": "Point",
        "coordinates": [
          11.5326,
          46.4662
        ]
      },
      "properties": {
        "icao24": "76cdad",
        "callsign": "SIA356",
        "origin_country": "Singapore",
        "time_position": 1787023995,
        "last_contact": 1787023995,
        "baro_altitude": 10972.8,
        "on_ground": false,
        "velocity": 255.38,
        "true_track": 232.53,
        "vertical_rate": 0,
        "geo_altitude": 11452.86,
        "squawk": "1000",
        "spi": false,
        "position_source": 0
      }
    },
    {
      "type": "Feature",
      "geometry": {
        "type": "Point",
        "coordinates": [
          18.0343,
          47.6168
        ]
      },
      "properties": {
        "icao24": "76cdba",
        "callsign": "SIA304",
        "origin_country": "Singapore",
        "time_position": 1787023994,
        "last_contact": 1787023994,
        "baro_altitude": 12192,
        "on_ground": false,
        "velocity": 223.52,
        "true_track": 293.32,
        "vertical_rate": -0.65,
        "geo_altitude": 12611.1,
        "squawk": "1000",
        "spi": false,
        "position_source": 0
      }
    },
    {
      "type": "Feature",
      "geometry": {
        "type": "Point",
        "coordinates": [
          15.4506,
          44.6669
        ]
      },
      "properties": {
        "icao24": "8940a3",
        "callsign": "GFA029",
        "origin_country": "Bahrain",
        "time_position": 1787023994,
        "last_contact": 1787023995,
        "baro_altitude": 10363.2,
        "on_ground": false,
        "velocity": 216.37,
        "true_track": 288.87,
        "vertical_rate": 0,
        "geo_altitude": 10812.78,
        "squawk": "6021",
        "spi": false,
        "position_source": 0
      }
    },
    {
      "type": "Feature",
      "geometry": {
        "type": "Point",
        "coordinates": [
          11.1926,
          44.989
        ]
      },
      "properties": {
        "icao24": "8940a5",
        "callsign": "BCS7916",
        "origin_country": "Bahrain",
        "time_position": 1787023995,
        "last_contact": 1787023995,
        "baro_altitude": 3406.14,
        "on_ground": false,
        "velocity": 163.82,
        "true_track": 193.99,
        "vertical_rate": -13.98,
        "geo_altitude": 3573.78,
        "squawk": "1000",
        "spi": false,
        "position_source": 0
      }
    },
    {
      "type": "Feature",
      "geometry": {
        "type": "Point",
        "coordinates": [
          17.2054,
          45.2735
        ]
      },
      "properties": {
        "icao24": "8966c3",
        "callsign": "ETD16",
        "origin_country": "United Arab Emirates",
        "time_position": 1787023995,
        "last_contact": 1787023995,
        "baro_altitude": 11879.58,
        "on_ground": false,
        "velocity": 278.9,
        "true_track": 117.7,
        "vertical_rate": 0,
        "geo_altitude": 12329.16,
        "squawk": "1171",
        "spi": false,
        "position_source": 0
      }
    },
    {
      "type": "Feature",
      "geometry": {
        "type": "Point",
        "coordinates": [
          6.0861,
          39.0969
        ]
      },
      "properties": {
        "icao24": "06e00f",
        "callsign": "RWD712",
        "origin_country": "Rwanda",
        "time_position": 1787023994,
        "last_contact": 1787023994,
        "baro_altitude": 12496.8,
        "on_ground": false,
        "velocity": 228.86,
        "true_track": 350.69,
        "vertical_rate": 0,
        "geo_altitude": 13159.74,
        "squawk": null,
        "spi": false,
        "position_source": 0
      }
    },
    {
      "type": "Feature",
      "geometry": {
        "type": "Point",
        "coordinates": [
          11.8718,
          38.1403
        ]
      },
      "properties": {
        "icao24": "010244",
        "callsign": "MSR862",
        "origin_country": "Egypt",
        "time_position": 1787023995,
        "last_contact": 1787023995,
        "baro_altitude": 10668,
        "on_ground": false,
        "velocity": 223.35,
        "true_track": 61.07,
        "vertical_rate": 0,
        "geo_altitude": 11216.64,
        "squawk": "3737",
        "spi": false,
        "position_source": 0
      }
    },
    {
      "type": "Feature",
      "geometry": {
        "type": "Point",
        "coordinates": [
          10.0597,
          40.6823
        ]
      },
      "properties": {
        "icao24": "abd336",
        "callsign": "GTI563",
        "origin_country": "United States",
        "time_position": 1787023995,
        "last_contact": 1787023995,
        "baro_altitude": 9144,
        "on_ground": false,
        "velocity": 251.75,
        "true_track": 87.77,
        "vertical_rate": 0,
        "geo_altitude": 9669.78,
        "squawk": "1443",
        "spi": false,
        "position_source": 0
      }
    },
    {
      "type": "Feature",
      "geometry": {
        "type": "Point",
        "coordinates": [
          17.1308,
          45.5555
        ]
      },
      "properties": {
        "icao24": "485e2f",
        "callsign": "KLM569",
        "origin_country": "Kingdom of the Netherlands",
        "time_position": 1787023995,
        "last_contact": 1787023995,
        "baro_altitude": 11582.4,
        "on_ground": false,
        "velocity": 220.81,
        "true_track": 315.09,
        "vertical_rate": 0,
        "geo_altitude": 12024.36,
        "squawk": "7737",
        "spi": false,
        "position_source": 0
      }
    },
    {
      "type": "Feature",
      "geometry": {
        "type": "Point",
        "coordinates": [
          16.1568,
          47.7684
        ]
      },
      "properties": {
        "icao24": "76ceea",
        "callsign": "SIA26",
        "origin_country": "Singapore",
        "time_position": 1787023995,
        "last_contact": 1787023995,
        "baro_altitude": 10972.8,
        "on_ground": false,
        "velocity": 214.23,
        "true_track": 290.52,
        "vertical_rate": 0,
        "geo_altitude": 11353.8,
        "squawk": "3226",
        "spi": false,
        "position_source": 0
      }
    },
    {
      "type": "Feature",
      "geometry": {
        "type": "Point",
        "coordinates": [
          12.2131,
          45.3969
        ]
      },
      "properties": {
        "icao24": "39a202",
        "callsign": "FPO3JU",
        "origin_country": "France",
        "time_position": 1787023994,
        "last_contact": 1787023995,
        "baro_altitude": 792.48,
        "on_ground": false,
        "velocity": 100.15,
        "true_track": 42.29,
        "vertical_rate": -5.2,
        "geo_altitude": 853.44,
        "squawk": "1000",
        "spi": false,
        "position_source": 0
      }
    },
    {
      "type": "Feature",
      "geometry": {
        "type": "Point",
        "coordinates": [
          8.3181,
          47.7228
        ]
      },
      "properties": {
        "icao24": "39a209",
        "callsign": "FPO3UD",
        "origin_country": "France",
        "time_position": 1787023994,
        "last_contact": 1787023995,
        "baro_altitude": 11887.2,
        "on_ground": false,
        "velocity": 254.61,
        "true_track": 112.58,
        "vertical_rate": 0,
        "geo_altitude": 12443.46,
        "squawk": "1000",
        "spi": false,
        "position_source": 0
      }
    },
    {
      "type": "Feature",
      "geometry": {
        "type": "Point",
        "coordinates": [
          8.5897,
          42.8815
        ]
      },
      "properties": {
        "icao24": "347308",
        "callsign": "SWT5784",
        "origin_country": "Spain",
        "time_position": 1787023995,
        "last_contact": 1787023995,
        "baro_altitude": 7315.2,
        "on_ground": false,
        "velocity": 191.15,
        "true_track": 283.7,
        "vertical_rate": 0,
        "geo_altitude": 7734.3,
        "squawk": null,
        "spi": false,
        "position_source": 0
      }
    },
    {
      "type": "Feature",
      "geometry": {
        "type": "Point",
        "coordinates": [
          11.2429,
          40.4822
        ]
      },
      "properties": {
        "icao24": "34860c",
        "callsign": "AEA35SY",
        "origin_country": "Spain",
        "time_position": 1787023995,
        "last_contact": 1787023995,
        "baro_altitude": 11582.4,
        "on_ground": false,
        "velocity": 235.62,
        "true_track": 269.75,
        "vertical_rate": 0,
        "geo_altitude": 12153.9,
        "squawk": "5526",
        "spi": false,
        "position_source": 0
      }
    },
    {
      "type": "Feature",
      "geometry": {
        "type": "Point",
        "coordinates": [
          9.2772,
          45.0803
        ]
      },
      "properties": {
        "icao24": "4d23a4",
        "callsign": "EWG2981",
        "origin_country": "Malta",
        "time_position": 1787023995,
        "last_contact": 1787023995,
        "baro_altitude": 10965.18,
        "on_ground": false,
        "velocity": 219.07,
        "true_track": 351.36,
        "vertical_rate": 0,
        "geo_altitude": 11513.82,
        "squawk": "6175",
        "spi": false,
        "position_source": 0
      }
    },
    {
      "type": "Feature",
      "geometry": {
        "type": "Point",
        "coordinates": [
          11.6579,
          45.5287
        ]
      },
      "properties": {
        "icao24": "39b22e",
        "callsign": "CMA841",
        "origin_country": "France",
        "time_position": 1787023995,
        "last_contact": 1787023995,
        "baro_altitude": 10363.2,
        "on_ground": false,
        "velocity": 233.33,
        "true_track": 283.52,
        "vertical_rate": 0.33,
        "geo_altitude": 10866.12,
        "squawk": "3257",
        "spi": false,
        "position_source": 0
      }
    },
    {
      "type": "Feature",
      "geometry": {
        "type": "Point",
        "coordinates": [
          9.2633,
          44.1525
        ]
      },
      "properties": {
        "icao24": "4d2406",
        "callsign": "EWG31G",
        "origin_country": "Malta",
        "time_position": 1787023994,
        "last_contact": 1787023995,
        "baro_altitude": 11277.6,
        "on_ground": false,
        "velocity": 231,
        "true_track": 210.22,
        "vertical_rate": 0,
        "geo_altitude": 11833.86,
        "squawk": "6650",
        "spi": false,
        "position_source": 0
      }
    },
    {
      "type": "Feature",
      "geometry": {
        "type": "Point",
        "coordinates": [
          11.509,
          45.8015
        ]
      },
      "properties": {
        "icao24": "4d241f",
        "callsign": "WMT5GC",
        "origin_country": "Malta",
        "time_position": 1787023995,
        "last_contact": 1787023995,
        "baro_altitude": 10477.5,
        "on_ground": false,
        "velocity": 240.11,
        "true_track": 82.74,
        "vertical_rate": 7.48,
        "geo_altitude": 10988.04,
        "squawk": "1000",
        "spi": false,
        "position_source": 0
      }
    },
    {
      "type": "Feature",
      "geometry": {
        "type": "Point",
        "coordinates": [
          8.4226,
          40.0268
        ]
      },
      "properties": {
        "icao24": "4cadc9",
        "callsign": "ITY675",
        "origin_country": "Ireland",
        "time_position": 1787023995,
        "last_contact": 1787023995,
        "baro_altitude": 11277.6,
        "on_ground": false,
        "velocity": 228.9,
        "true_track": 60.96,
        "vertical_rate": 0,
        "geo_altitude": 11887.2,
        "squawk": "1000",
        "spi": false,
        "position_source": 0
      }
    },
    {
      "type": "Feature",
      "geometry": {
        "type": "Point",
        "coordinates": [
          6.491,
          39.0882
        ]
      },
      "properties": {
        "icao24": "4cadc8",
        "callsign": "ITY681",
        "origin_country": "Ireland",
        "time_position": 1787023994,
        "last_contact": 1787023994,
        "baro_altitude": 12192,
        "on_ground": false,
        "velocity": 232.65,
        "true_track": 58.84,
        "vertical_rate": -0.33,
        "geo_altitude": 12839.7,
        "squawk": "4214",
        "spi": false,
        "position_source": 0
      }
    },
    {
      "type": "Feature",
      "geometry": {
        "type": "Point",
        "coordinates": [
          18.6149,
          44.7367
        ]
      },
      "properties": {
        "icao24": "4bd159",
        "callsign": "CAI245",
        "origin_country": "Turkey",
        "time_position": 1787023995,
        "last_contact": 1787023995,
        "baro_altitude": 11277.6,
        "on_ground": false,
        "velocity": 242.62,
        "true_track": 139.39,
        "vertical_rate": 0,
        "geo_altitude": 11727.18,
        "squawk": "7645",
        "spi": false,
        "position_source": 0
      }
    },
    {
      "type": "Feature",
      "geometry": {
        "type": "Point",
        "coordinates": [
          18.6064,
          46.5124
        ]
      },
      "properties": {
        "icao24": "4d245a",
        "callsign": "WMT5899",
        "origin_country": "Malta",
        "time_position": 1787023995,
        "last_contact": 1787023995,
        "baro_altitude": 11582.4,
        "on_ground": false,
        "velocity": 202.34,
        "true_track": 277.45,
        "vertical_rate": 0,
        "geo_altitude": 11955.78,
        "squawk": "1000",
        "spi": false,
        "position_source": 0
      }
    },
    {
      "type": "Feature",
      "geometry": {
        "type": "Point",
        "coordinates": [
          16.9581,
          42.4119
        ]
      },
      "properties": {
        "icao24": "4cadf5",
        "callsign": "RYR5575",
        "origin_country": "Ireland",
        "time_position": 1787023992,
        "last_contact": 1787023993,
        "baro_altitude": 11582.4,
        "on_ground": false,
        "velocity": 219.91,
        "true_track": 335.83,
        "vertical_rate": 0,
        "geo_altitude": 12085.32,
        "squawk": null,
        "spi": false,
        "position_source": 0
      }
    },
    {
      "type": "Feature",
      "geometry": {
        "type": "Point",
        "coordinates": [
          17.9942,
          46.4393
        ]
      },
      "properties": {
        "icao24": "a49e9a",
        "callsign": "UPS268",
        "origin_country": "United States",
        "time_position": 1787023994,
        "last_contact": 1787023994,
        "baro_altitude": 11887.2,
        "on_ground": false,
        "velocity": 268.46,
        "true_track": 127.68,
        "vertical_rate": 0,
        "geo_altitude": 12252.96,
        "squawk": "7713",
        "spi": false,
        "position_source": 0
      }
    },
    {
      "type": "Feature",
      "geometry": {
        "type": "Point",
        "coordinates": [
          11.5246,
          41.2933
        ]
      },
      "properties": {
        "icao24": "4cae1c",
        "callsign": "ITY853",
        "origin_country": "Ireland",
        "time_position": 1787023995,
        "last_contact": 1787023995,
        "baro_altitude": 5966.46,
        "on_ground": false,
        "velocity": 211.83,
        "true_track": 19.14,
        "vertical_rate": -7.8,
        "geo_altitude": 6309.36,
        "squawk": "7022",
        "spi": false,
        "position_source": 0
      }
    },
    {
      "type": "Feature",
      "geometry": {
        "type": "Point",
        "coordinates": [
          8.7231,
          45.6295
        ]
      },
      "properties": {
        "icao24": "4cae87",
        "callsign": "ABR7XP",
        "origin_country": "Ireland",
        "time_position": 1787023995,
        "last_contact": 1787023995,
        "baro_altitude": null,
        "on_ground": true,
        "velocity": 11.32,
        "true_track": 351.56,
        "vertical_rate": null,
        "geo_altitude": null,
        "squawk": "1000",
        "spi": false,
        "position_source": 0
      }
    },
    {
      "type": "Feature",
      "geometry": {
        "type": "Point",
        "coordinates": [
          16.7028,
          45.2069
        ]
      },
      "properties": {
        "icao24": "3c56eb",
        "callsign": "EWG2GR",
        "origin_country": "Germany",
        "time_position": 1787023994,
        "last_contact": 1787023995,
        "baro_altitude": 11285.22,
        "on_ground": false,
        "velocity": 254.65,
        "true_track": 134.51,
        "vertical_rate": 0.33,
        "geo_altitude": 11727.18,
        "squawk": "7665",
        "spi": false,
        "position_source": 0
      }
    },
    {
      "type": "Feature",
      "geometry": {
        "type": "Point",
        "coordinates": [
          15.5918,
          46.8641
        ]
      },
      "properties": {
        "icao24": "4d239a",
        "callsign": "CXI33MY",
        "origin_country": "Malta",
        "time_position": 1787023995,
        "last_contact": 1787023995,
        "baro_altitude": 11277.6,
        "on_ground": false,
        "velocity": 271.01,
        "true_track": 143.41,
        "vertical_rate": 0.33,
        "geo_altitude": 11666.22,
        "squawk": "0527",
        "spi": false,
        "position_source": 0
      }
    },
    {
      "type": "Feature",
      "geometry": {
        "type": "Point",
        "coordinates": [
          13.9996,
          47.4002
        ]
      },
      "properties": {
        "icao24": "4d21b1",
        "callsign": "FHM5345",
        "origin_country": "Malta",
        "time_position": 1787023995,
        "last_contact": 1787023995,
        "baro_altitude": 10675.62,
        "on_ground": false,
        "velocity": 265.22,
        "true_track": 131.86,
        "vertical_rate": -0.65,
        "geo_altitude": 11102.34,
        "squawk": "7640",
        "spi": false,
        "position_source": 0
      }
    },
    {
      "type": "Feature",
      "geometry": {
        "type": "Point",
        "coordinates": [
          10.5368,
          44.6532
        ]
      },
      "properties": {
        "icao24": "4d21e0",
        "callsign": "VCJ94H",
        "origin_country": "Malta",
        "time_position": 1787023995,
        "last_contact": 1787023995,
        "baro_altitude": 13106.4,
        "on_ground": false,
        "velocity": 241.18,
        "true_track": 297.99,
        "vertical_rate": 0.33,
        "geo_altitude": 13639.8,
        "squawk": "7743",
        "spi": false,
        "position_source": 0
      }
    },
    {
      "type": "Feature",
      "geometry": {
        "type": "Point",
        "coordinates": [
          6.0309,
          45.293
        ]
      },
      "properties": {
        "icao24": "ab0a9d",
        "callsign": "DAL112",
        "origin_country": "United States",
        "time_position": 1787023995,
        "last_contact": 1787023995,
        "baro_altitude": 11887.2,
        "on_ground": false,
        "velocity": 247.12,
        "true_track": 113.95,
        "vertical_rate": 0,
        "geo_altitude": 12489.18,
        "squawk": "2272",
        "spi": false,
        "position_source": 0
      }
    },
    {
      "type": "Feature",
      "geometry": {
        "type": "Point",
        "coordinates": [
          15.6361,
          45.2677
        ]
      },
      "properties": {
        "icao24": "347191",
        "callsign": "BCS7552",
        "origin_country": "Spain",
        "time_position": 1787023995,
        "last_contact": 1787023995,
        "baro_altitude": 11277.6,
        "on_ground": false,
        "velocity": 255.91,
        "true_track": 140.71,
        "vertical_rate": 0,
        "geo_altitude": 11750.04,
        "squawk": "6423",
        "spi": false,
        "position_source": 0
      }
    },
    {
      "type": "Feature",
      "geometry": {
        "type": "Point",
        "coordinates": [
          11.2339,
          47.022
        ]
      },
      "properties": {
        "icao24": "348516",
        "callsign": "BCS7510",
        "origin_country": "Spain",
        "time_position": 1787023995,
        "last_contact": 1787023995,
        "baro_altitude": 10066.02,
        "on_ground": false,
        "velocity": 250.33,
        "true_track": 191.98,
        "vertical_rate": -0.33,
        "geo_altitude": 10530.84,
        "squawk": "1000",
        "spi": false,
        "position_source": 0
      }
    },
    {
      "type": "Feature",
      "geometry": {
        "type": "Point",
        "coordinates": [
          10.1749,
          45.2195
        ]
      },
      "properties": {
        "icao24": "71002c",
        "callsign": "SVA131",
        "origin_country": "Saudi Arabia",
        "time_position": 1787023995,
        "last_contact": 1787023995,
        "baro_altitude": 11582.4,
        "on_ground": false,
        "velocity": 231.63,
        "true_track": 293.15,
        "vertical_rate": -0.33,
        "geo_altitude": 12123.42,
        "squawk": "2060",
        "spi": false,
        "position_source": 0
      }
    },
    {
      "type": "Feature",
      "geometry": {
        "type": "Point",
        "coordinates": [
          6.0485,
          39.2812
        ]
      },
      "properties": {
        "icao24": "39c428",
        "callsign": "AFR736",
        "origin_country": "France",
        "time_position": 1787023995,
        "last_contact": 1787023995,
        "baro_altitude": 10965.18,
        "on_ground": false,
        "velocity": 243.36,
        "true_track": 354.66,
        "vertical_rate": 0,
        "geo_altitude": 11605.26,
        "squawk": null,
        "spi": false,
        "position_source": 0
      }
    },
    {
      "type": "Feature",
      "geometry": {
        "type": "Point",
        "coordinates": [
          12.101,
          44.761
        ]
      },
      "properties": {
        "icao24": "39c420",
        "callsign": "AFR551",
        "origin_country": "France",
        "time_position": 1787023995,
        "last_contact": 1787023995,
        "baro_altitude": 11582.4,
        "on_ground": false,
        "velocity": 233.48,
        "true_track": 292.27,
        "vertical_rate": 0,
        "geo_altitude": 12123.42,
        "squawk": "5510",
        "spi": false,
        "position_source": 0
      }
    },
    {
      "type": "Feature",
      "geometry": {
        "type": "Point",
        "coordinates": [
          16.8813,
          43.9498
        ]
      },
      "properties": {
        "icao24": "710106",
        "callsign": "SVA143",
        "origin_country": "Saudi Arabia",
        "time_position": 1787023995,
        "last_contact": 1787023995,
        "baro_altitude": 10972.8,
        "on_ground": false,
        "velocity": 240.65,
        "true_track": 292.23,
        "vertical_rate": 0,
        "geo_altitude": 11437.62,
        "squawk": "6632",
        "spi": false,
        "position_source": 0
      }
    },
    {
      "type": "Feature",
      "geometry": {
        "type": "Point",
        "coordinates": [
          18.8291,
          46.8211
        ]
      },
      "properties": {
        "icao24": "710110",
        "callsign": "SVA111",
        "origin_country": "Saudi Arabia",
        "time_position": 1787023995,
        "last_contact": 1787023995,
        "baro_altitude": 10972.8,
        "on_ground": false,
        "velocity": 211.74,
        "true_track": 298.12,
        "vertical_rate": 0,
        "geo_altitude": 11315.7,
        "squawk": "3266",
        "spi": false,
        "position_source": 0
      }
    },
    {
      "type": "Feature",
      "geometry": {
        "type": "Point",
        "coordinates": [
          16.9828,
          43.0105
        ]
      },
      "properties": {
        "icao24": "710101",
        "callsign": "SVA923",
        "origin_country": "Saudi Arabia",
        "time_position": 1787023991,
        "last_contact": 1787023994,
        "baro_altitude": 11582.4,
        "on_ground": false,
        "velocity": 224.83,
        "true_track": 314.26,
        "vertical_rate": 0,
        "geo_altitude": 12054.84,
        "squawk": "2006",
        "spi": false,
        "position_source": 0
      }
    },
    {
      "type": "Feature",
      "geometry": {
        "type": "Point",
        "coordinates": [
          12.3376,
          45.6358
        ]
      },
      "properties": {
        "icao24": "4d2159",
        "callsign": "BRD140",
        "origin_country": "Malta",
        "time_position": 1787023995,
        "last_contact": 1787023995,
        "baro_altitude": 11277.6,
        "on_ground": false,
        "velocity": 260.88,
        "true_track": 147.56,
        "vertical_rate": -0.33,
        "geo_altitude": 11772.9,
        "squawk": "3546",
        "spi": false,
        "position_source": 0
      }
    },
    {
      "type": "Feature",
      "geometry": {
        "type": "Point",
        "coordinates": [
          11.9125,
          47.5093
        ]
      },
      "properties": {
        "icao24": "4b191a",
        "callsign": "SWR139",
        "origin_country": "Switzerland",
        "time_position": 1787023995,
        "last_contact": 1787023995,
        "baro_altitude": 10972.8,
        "on_ground": false,
        "velocity": 226.58,
        "true_track": 279.01,
        "vertical_rate": 0,
        "geo_altitude": 11452.86,
        "squawk": "3220",
        "spi": false,
        "position_source": 0
      }
    },
    {
      "type": "Feature",
      "geometry": {
        "type": "Point",
        "coordinates": [
          8.5583,
          47.4605
        ]
      },
      "properties": {
        "icao24": "4b1942",
        "callsign": "CSW6KP",
        "origin_country": "Switzerland",
        "time_position": 1787023992,
        "last_contact": 1787023992,
        "baro_altitude": null,
        "on_ground": true,
        "velocity": 0,
        "true_track": 5.62,
        "vertical_rate": null,
        "geo_altitude": null,
        "squawk": "3002",
        "spi": false,
        "position_source": 0
      }
    },
    {
      "type": "Feature",
      "geometry": {
        "type": "Point",
        "coordinates": [
          7.4149,
          47.3286
        ]
      },
      "properties": {
        "icao24": "3c79b9",
        "callsign": "CFG9FV",
        "origin_country": "Germany",
        "time_position": 1787023995,
        "last_contact": 1787023995,
        "baro_altitude": 10668,
        "on_ground": false,
        "velocity": 243.37,
        "true_track": 209.93,
        "vertical_rate": 0.33,
        "geo_altitude": 11201.4,
        "squawk": "1000",
        "spi": false,
        "position_source": 0
      }
    },
    {
      "type": "Feature",
      "geometry": {
        "type": "Point",
        "coordinates": [
          9.036,
          46.9307
        ]
      },
      "properties": {
        "icao24": "4d203d",
        "callsign": "CHZ4995",
        "origin_country": "Malta",
        "time_position": 1787023994,
        "last_contact": 1787023995,
        "baro_altitude": 10058.4,
        "on_ground": false,
        "velocity": 261.44,
        "true_track": 122.63,
        "vertical_rate": 0.33,
        "geo_altitude": 10515.6,
        "squawk": "7554",
        "spi": false,
        "position_source": 0
      }
    },
    {
      "type": "Feature",
      "geometry": {
        "type": "Point",
        "coordinates": [
          18.8514,
          41.992
        ]
      },
      "properties": {
        "icao24": "4d200c",
        "callsign": "WZZ95CH",
        "origin_country": "Malta",
        "time_position": 1787023993,
        "last_contact": 1787023995,
        "baro_altitude": 10363.2,
        "on_ground": false,
        "velocity": 215.41,
        "true_track": 275.21,
        "vertical_rate": 0.33,
        "geo_altitude": 10828.02,
        "squawk": null,
        "spi": false,
        "position_source": 0
      }
    },
    {
      "type": "Feature",
      "geometry": {
        "type": "Point",
        "coordinates": [
          12.781,
          47.4124
        ]
      },
      "properties": {
        "icao24": "4b1916",
        "callsign": "SWR177",
        "origin_country": "Switzerland",
        "time_position": 1787023995,
        "last_contact": 1787023995,
        "baro_altitude": 10972.8,
        "on_ground": false,
        "velocity": 226.67,
        "true_track": 279.93,
        "vertical_rate": 0.33,
        "geo_altitude": 11437.62,
        "squawk": "3263",
        "spi": false,
        "position_source": 0
      }
    },
    {
      "type": "Feature",
      "geometry": {
        "type": "Point",
        "coordinates": [
          8.4084,
          43.4919
        ]
      },
      "properties": {
        "icao24": "4b1904",
        "callsign": "SWR283",
        "origin_country": "Switzerland",
        "time_position": 1787023995,
        "last_contact": 1787023995,
        "baro_altitude": 11590.02,
        "on_ground": false,
        "velocity": 225.5,
        "true_track": 7.08,
        "vertical_rate": 0,
        "geo_altitude": 12176.76,
        "squawk": "1000",
        "spi": false,
        "position_source": 0
      }
    }
  ]
}