{
  "type": "FeatureCollection",
  "source": "opensky",
  "dataset": "aircraft_italy",
  "generated_at": "2026-08-19T00:05:38.758278+00:00",
  "opensky_time": 1787097929,
  "count": 89,
  "features": [
    {
      "type": "Feature",
      "geometry": {
        "type": "Point",
        "coordinates": [
          17.3763,
          47.6421
        ]
      },
      "properties": {
        "icao24": "511172",
        "callsign": "MBU3EL",
        "origin_country": "Estonia",
        "time_position": 1787097928,
        "last_contact": 1787097929,
        "baro_altitude": 10972.8,
        "on_ground": false,
        "velocity": 174.71,
        "true_track": 316.91,
        "vertical_rate": 0,
        "geo_altitude": 11376.66,
        "squawk": "2647",
        "spi": false,
        "position_source": 0
      }
    },
    {
      "type": "Feature",
      "geometry": {
        "type": "Point",
        "coordinates": [
          16.1386,
          45.2795
        ]
      },
      "properties": {
        "icao24": "440251",
        "callsign": "ICL853",
        "origin_country": "Austria",
        "time_position": 1787097927,
        "last_contact": 1787097928,
        "baro_altitude": 11582.4,
        "on_ground": false,
        "velocity": 211.78,
        "true_track": 304.81,
        "vertical_rate": 0,
        "geo_altitude": 12115.8,
        "squawk": "5602",
        "spi": false,
        "position_source": 0
      }
    },
    {
      "type": "Feature",
      "geometry": {
        "type": "Point",
        "coordinates": [
          9.8273,
          40.348
        ]
      },
      "properties": {
        "icao24": "73806d",
        "callsign": "ELY372",
        "origin_country": "Israel",
        "time_position": 1787097928,
        "last_contact": 1787097928,
        "baro_altitude": 10972.8,
        "on_ground": false,
        "velocity": 231.55,
        "true_track": 101.53,
        "vertical_rate": 0,
        "geo_altitude": 11635.74,
        "squawk": "4303",
        "spi": false,
        "position_source": 0
      }
    },
    {
      "type": "Feature",
      "geometry": {
        "type": "Point",
        "coordinates": [
          8.4844,
          40.5647
        ]
      },
      "properties": {
        "icao24": "738056",
        "callsign": "ELY398",
        "origin_country": "Israel",
        "time_position": 1787097928,
        "last_contact": 1787097928,
        "baro_altitude": 10363.2,
        "on_ground": false,
        "velocity": 232.06,
        "true_track": 100.86,
        "vertical_rate": 0,
        "geo_altitude": 11018.52,
        "squawk": "1443",
        "spi": false,
        "position_source": 0
      }
    },
    {
      "type": "Feature",
      "geometry": {
        "type": "Point",
        "coordinates": [
          16.3448,
          46.0724
        ]
      },
      "properties": {
        "icao24": "80189d",
        "callsign": "AIC188",
        "origin_country": "India",
        "time_position": 1787097928,
        "last_contact": 1787097928,
        "baro_altitude": 11277.6,
        "on_ground": false,
        "velocity": 296.15,
        "true_track": 144.05,
        "vertical_rate": -0.33,
        "geo_altitude": 11803.38,
        "squawk": "2224",
        "spi": false,
        "position_source": 0
      }
    },
    {
      "type": "Feature",
      "geometry": {
        "type": "Point",
        "coordinates": [
          14.6103,
          47.7578
        ]
      },
      "properties": {
        "icao24": "4891a6",
        "callsign": "ENT3LE",
        "origin_country": "Poland",
        "time_position": 1787097928,
        "last_contact": 1787097928,
        "baro_altitude": 11582.4,
        "on_ground": false,
        "velocity": 228.62,
        "true_track": 53.23,
        "vertical_rate": 0,
        "geo_altitude": 12085.32,
        "squawk": "1000",
        "spi": false,
        "position_source": 0
      }
    },
    {
      "type": "Feature",
      "geometry": {
        "type": "Point",
        "coordinates": [
          10.3877,
          45.4997
        ]
      },
      "properties": {
        "icao24": "300a44",
        "callsign": "LSI166",
        "origin_country": "Italy",
        "time_position": 1787097927,
        "last_contact": 1787097928,
        "baro_altitude": 6362.7,
        "on_ground": false,
        "velocity": 205.37,
        "true_track": 263.96,
        "vertical_rate": -6.83,
        "geo_altitude": 6736.08,
        "squawk": "2332",
        "spi": false,
        "position_source": 0
      }
    },
    {
      "type": "Feature",
      "geometry": {
        "type": "Point",
        "coordinates": [
          18.5415,
          46.8961
        ]
      },
      "properties": {
        "icao24": "4bb2ad",
        "callsign": "TKJ3MQ",
        "origin_country": "Turkey",
        "time_position": 1787097928,
        "last_contact": 1787097928,
        "baro_altitude": 10675.62,
        "on_ground": false,
        "velocity": 287.81,
        "true_track": 118.86,
        "vertical_rate": 0,
        "geo_altitude": 11064.24,
        "squawk": "4701",
        "spi": false,
        "position_source": 0
      }
    },
    {
      "type": "Feature",
      "geometry": {
        "type": "Point",
        "coordinates": [
          13.1425,
          38.006
        ]
      },
      "properties": {
        "icao24": "4bb1c4",
        "callsign": "THY1CT",
        "origin_country": "Turkey",
        "time_position": 1787097928,
        "last_contact": 1787097928,
        "baro_altitude": 11582.4,
        "on_ground": false,
        "velocity": 255.87,
        "true_track": 238.48,
        "vertical_rate": 0,
        "geo_altitude": 12245.34,
        "squawk": "2305",
        "spi": false,
        "position_source": 0
      }
    },
    {
      "type": "Feature",
      "geometry": {
        "type": "Point",
        "coordinates": [
          17.0082,
          38.928
        ]
      },
      "properties": {
        "icao24": "7380c3",
        "callsign": "ELY027",
        "origin_country": "Israel",
        "time_position": 1787097928,
        "last_contact": 1787097928,
        "baro_altitude": 10363.2,
        "on_ground": false,
        "velocity": 253.91,
        "true_track": 283.95,
        "vertical_rate": 0,
        "geo_altitude": 10965.18,
        "squawk": "2207",
        "spi": false,
        "position_source": 0
      }
    },
    {
      "type": "Feature",
      "geometry": {
        "type": "Point",
        "coordinates": [
          14.5231,
          39.5047
        ]
      },
      "properties": {
        "icao24": "7380c8",
        "callsign": "ELY017",
        "origin_country": "Israel",
        "time_position": 1787097928,
        "last_contact": 1787097928,
        "baro_altitude": 10363.2,
        "on_ground": false,
        "velocity": 253.83,
        "true_track": 287.33,
        "vertical_rate": -0.33,
        "geo_altitude": 11003.28,
        "squawk": "4131",
        "spi": false,
        "position_source": 0
      }
    },
    {
      "type": "Feature",
      "geometry": {
        "type": "Point",
        "coordinates": [
          18.6597,
          38.5696
        ]
      },
      "properties": {
        "icao24": "738288",
        "callsign": "ISR152",
        "origin_country": "Israel",
        "time_position": 1787097928,
        "last_contact": 1787097928,
        "baro_altitude": 10675.62,
        "on_ground": false,
        "velocity": 231.45,
        "true_track": 100.76,
        "vertical_rate": 0,
        "geo_altitude": 11254.74,
        "squawk": "1455",
        "spi": false,
        "position_source": 0
      }
    },
    {
      "type": "Feature",
      "geometry": {
        "type": "Point",
        "coordinates": [
          9.0843,
          40.3319
        ]
      },
      "properties": {
        "icao24": "4bb28e",
        "callsign": "THY5LY",
        "origin_country": "Turkey",
        "time_position": 1787097928,
        "last_contact": 1787097928,
        "baro_altitude": 10355.58,
        "on_ground": false,
        "velocity": 231.45,
        "true_track": 57.16,
        "vertical_rate": 0,
        "geo_altitude": 11033.76,
        "squawk": null,
        "spi": false,
        "position_source": 0
      }
    },
    {
      "type": "Feature",
      "geometry": {
        "type": "Point",
        "coordinates": [
          17.6517,
          39.0636
        ]
      },
      "properties": {
        "icao24": "4bb279",
        "callsign": "THY658",
        "origin_country": "Turkey",
        "time_position": 1787097929,
        "last_contact": 1787097929,
        "baro_altitude": 10668,
        "on_ground": false,
        "velocity": 223.14,
        "true_track": 77.21,
        "vertical_rate": 0,
        "geo_altitude": 11262.36,
        "squawk": "6130",
        "spi": false,
        "position_source": 0
      }
    },
    {
      "type": "Feature",
      "geometry": {
        "type": "Point",
        "coordinates": [
          18.1012,
          40.6227
        ]
      },
      "properties": {
        "icao24": "020175",
        "callsign": "MAC438",
        "origin_country": "Morocco",
        "time_position": 1787097928,
        "last_contact": 1787097928,
        "baro_altitude": 10363.2,
        "on_ground": false,
        "velocity": 226.98,
        "true_track": 271.82,
        "vertical_rate": 0,
        "geo_altitude": 10957.56,
        "squawk": "2334",
        "spi": false,
        "position_source": 0
      }
    },
    {
      "type": "Feature",
      "geometry": {
        "type": "Point",
        "coordinates": [
          10.7237,
          46.4384
        ]
      },
      "properties": {
        "icao24": "406753",
        "callsign": "EZY21FA",
        "origin_country": "United Kingdom",
        "time_position": 1787097928,
        "last_contact": 1787097928,
        "baro_altitude": 10972.8,
        "on_ground": false,
        "velocity": 203.83,
        "true_track": 306.38,
        "vertical_rate": 0.33,
        "geo_altitude": 11574.78,
        "squawk": "1164",
        "spi": false,
        "position_source": 0
      }
    },
    {
      "type": "Feature",
      "geometry": {
        "type": "Point",
        "coordinates": [
          14.8575,
          45.8385
        ]
      },
      "properties": {
        "icao24": "4067f7",
        "callsign": "TOM50W",
        "origin_country": "United Kingdom",
        "time_position": 1787097928,
        "last_contact": 1787097928,
        "baro_altitude": 11582.4,
        "on_ground": false,
        "velocity": 211.78,
        "true_track": 304.81,
        "vertical_rate": -0.33,
        "geo_altitude": 12146.28,
        "squawk": "5536",
        "spi": false,
        "position_source": 0
      }
    },
    {
      "type": "Feature",
      "geometry": {
        "type": "Point",
        "coordinates": [
          13.975,
          35.4437
        ]
      },
      "properties": {
        "icao24": "018097",
        "callsign": "5ALEX",
        "origin_country": "Libyan Arab Jamahiriya",
        "time_position": 1787097928,
        "last_contact": 1787097929,
        "baro_altitude": 8534.4,
        "on_ground": false,
        "velocity": 129.96,
        "true_track": 301.24,
        "vertical_rate": 0,
        "geo_altitude": 9044.94,
        "squawk": "4102",
        "spi": false,
        "position_source": 0
      }
    },
    {
      "type": "Feature",
      "geometry": {
        "type": "Point",
        "coordinates": [
          9.0877,
          46.9363
        ]
      },
      "properties": {
        "icao24": "40655b",
        "callsign": "EXS41HS",
        "origin_country": "United Kingdom",
        "time_position": 1787097929,
        "last_contact": 1787097929,
        "baro_altitude": 11582.4,
        "on_ground": false,
        "velocity": 208.19,
        "true_track": 311.09,
        "vertical_rate": 0,
        "geo_altitude": 12199.62,
        "squawk": "2754",
        "spi": false,
        "position_source": 0
      }
    },
    {
      "type": "Feature",
      "geometry": {
        "type": "Point",
        "coordinates": [
          14.4878,
          35.1965
        ]
      },
      "properties": {
        "icao24": "4bb072",
        "callsign": "THY3KA",
        "origin_country": "Turkey",
        "time_position": 1787097929,
        "last_contact": 1787097929,
        "baro_altitude": 11277.6,
        "on_ground": false,
        "velocity": 227.57,
        "true_track": 50.23,
        "vertical_rate": 0,
        "geo_altitude": 11925.3,
        "squawk": "3150",
        "spi": false,
        "position_source": 0
      }
    },
    {
      "type": "Feature",
      "geometry": {
        "type": "Point",
        "coordinates": [
          8.0609,
          47.3497
        ]
      },
      "properties": {
        "icao24": "4078fd",
        "callsign": "EXS89NW",
        "origin_country": "United Kingdom",
        "time_position": 1787097928,
        "last_contact": 1787097928,
        "baro_altitude": 10972.8,
        "on_ground": false,
        "velocity": 203.89,
        "true_track": 310.81,
        "vertical_rate": -0.33,
        "geo_altitude": 11567.16,
        "squawk": "2762",
        "spi": false,
        "position_source": 0
      }
    },
    {
      "type": "Feature",
      "geometry": {
        "type": "Point",
        "coordinates": [
          11.6349,
          47.4013
        ]
      },
      "properties": {
        "icao24": "400ff4",
        "callsign": "TOM721",
        "origin_country": "United Kingdom",
        "time_position": 1787097929,
        "last_contact": 1787097929,
        "baro_altitude": 11582.4,
        "on_ground": false,
        "velocity": 194.84,
        "true_track": 309.32,
        "vertical_rate": -0.33,
        "geo_altitude": 12123.42,
        "squawk": "3123",
        "spi": false,
        "position_source": 0
      }
    },
    {
      "type": "Feature",
      "geometry": {
        "type": "Point",
        "coordinates": [
          15.7276,
          40.8512
        ]
      },
      "properties": {
        "icao24": "4ca4f4",
        "callsign": "RYR42LK",
        "origin_country": "Ireland",
        "time_position": 1787097928,
        "last_contact": 1787097928,
        "baro_altitude": 4183.38,
        "on_ground": false,
        "velocity": 202.8,
        "true_track": 69.82,
        "vertical_rate": -12.35,
        "geo_altitude": 4480.56,
        "squawk": null,
        "spi": false,
        "position_source": 0
      }
    },
    {
      "type": "Feature",
      "geometry": {
        "type": "Point",
        "coordinates": [
          15.4607,
          36.4487
        ]
      },
      "properties": {
        "icao24": "4ba9ca",
        "callsign": "THY571",
        "origin_country": "Turkey",
        "time_position": 1787097928,
        "last_contact": 1787097929,
        "baro_altitude": 11574.78,
        "on_ground": false,
        "velocity": 243.89,
        "true_track": 247.82,
        "vertical_rate": 0,
        "geo_altitude": 12214.86,
        "squawk": "2303",
        "spi": false,
        "position_source": 0
      }
    },
    {
      "type": "Feature",
      "geometry": {
        "type": "Point",
        "coordinates": [
          15.3593,
          45.0564
        ]
      },
      "properties": {
        "icao24": "040102",
        "callsign": "ETH575",
        "origin_country": "Ethiopia",
        "time_position": 1787097928,
        "last_contact": 1787097928,
        "baro_altitude": 11887.2,
        "on_ground": false,
        "velocity": 285.05,
        "true_track": 137.27,
        "vertical_rate": -0.33,
        "geo_altitude": 12451.08,
        "squawk": "1175",
        "spi": false,
        "position_source": 0
      }
    },
    {
      "type": "Feature",
      "geometry": {
        "type": "Point",
        "coordinates": [
          14.8776,
          45.7289
        ]
      },
      "properties": {
        "icao24": "744841",
        "callsign": "RJA266",
        "origin_country": "Jordan",
        "time_position": 1787097928,
        "last_contact": 1787097928,
        "baro_altitude": 11887.2,
        "on_ground": false,
        "velocity": 290.87,
        "true_track": 127.09,
        "vertical_rate": 0,
        "geo_altitude": 12458.7,
        "squawk": "2264",
        "spi": false,
        "position_source": 0
      }
    },
    {
      "type": "Feature",
      "geometry": {
        "type": "Point",
        "coordinates": [
          8.7242,
          45.6432
        ]
      },
      "properties": {
        "icao24": "31d7a6",
        "callsign": "ECHO10",
        "origin_country": "Italy",
        "time_position": 1787097851,
        "last_contact": 1787097858,
        "baro_altitude": null,
        "on_ground": true,
        "velocity": 9.26,
        "true_track": 168.75,
        "vertical_rate": null,
        "geo_altitude": null,
        "squawk": null,
        "spi": false,
        "position_source": 0
      }
    },
    {
      "type": "Feature",
      "geometry": {
        "type": "Point",
        "coordinates": [
          8.7395,
          45.6107
        ]
      },
      "properties": {
        "icao24": "31d7a4",
        "callsign": "ECHO8",
        "origin_country": "Italy",
        "time_position": 1787097855,
        "last_contact": 1787097855,
        "baro_altitude": null,
        "on_ground": true,
        "velocity": 4.63,
        "true_track": 168.75,
        "vertical_rate": null,
        "geo_altitude": null,
        "squawk": null,
        "spi": false,
        "position_source": 0
      }
    },
    {
      "type": "Feature",
      "geometry": {
        "type": "Point",
        "coordinates": [
          16.1407,
          42.8444
        ]
      },
      "properties": {
        "icao24": "407fff",
        "callsign": "EZY75EJ",
        "origin_country": "United Kingdom",
        "time_position": 1787097927,
        "last_contact": 1787097928,
        "baro_altitude": 11582.4,
        "on_ground": false,
        "velocity": 202.13,
        "true_track": 317.79,
        "vertical_rate": 0,
        "geo_altitude": 12192,
        "squawk": "5502",
        "spi": false,
        "position_source": 0
      }
    },
    {
      "type": "Feature",
      "geometry": {
        "type": "Point",
        "coordinates": [
          12.1169,
          45.0857
        ]
      },
      "properties": {
        "icao24": "407e7b",
        "callsign": "TOM2EB",
        "origin_country": "United Kingdom",
        "time_position": 1787097928,
        "last_contact": 1787097928,
        "baro_altitude": 10972.8,
        "on_ground": false,
        "velocity": 210.51,
        "true_track": 305.05,
        "vertical_rate": 0,
        "geo_altitude": 11574.78,
        "squawk": "0222",
        "spi": false,
        "position_source": 0
      }
    },
    {
      "type": "Feature",
      "geometry": {
        "type": "Point",
        "coordinates": [
          9.3121,
          46.3632
        ]
      },
      "properties": {
        "icao24": "407e71",
        "callsign": "EXS86FT",
        "origin_country": "United Kingdom",
        "time_position": 1787097928,
        "last_contact": 1787097929,
        "baro_altitude": 11582.4,
        "on_ground": false,
        "velocity": 203.54,
        "true_track": 307.71,
        "vertical_rate": 0,
        "geo_altitude": 12184.38,
        "squawk": "5212",
        "spi": false,
        "position_source": 0
      }
    },
    {
      "type": "Feature",
      "geometry": {
        "type": "Point",
        "coordinates": [
          9.1055,
          46.4814
        ]
      },
      "properties": {
        "icao24": "407e5f",
        "callsign": "EZY75PF",
        "origin_country": "United Kingdom",
        "time_position": 1787097928,
        "last_contact": 1787097928,
        "baro_altitude": 10980.42,
        "on_ground": false,
        "velocity": 215.24,
        "true_track": 308.6,
        "vertical_rate": 0,
        "geo_altitude": 11597.64,
        "squawk": "7531",
        "spi": false,
        "position_source": 0
      }
    },
    {
      "type": "Feature",
      "geometry": {
        "type": "Point",
        "coordinates": [
          10.4622,
          45.9243
        ]
      },
      "properties": {
        "icao24": "407f8c",
        "callsign": "EXS7JF",
        "origin_country": "United Kingdom",
        "time_position": 1787097928,
        "last_contact": 1787097928,
        "baro_altitude": 11582.4,
        "on_ground": false,
        "velocity": 200.5,
        "true_track": 309.9,
        "vertical_rate": 0,
        "geo_altitude": 12199.62,
        "squawk": "7737",
        "spi": false,
        "position_source": 0
      }
    },
    {
      "type": "Feature",
      "geometry": {
        "type": "Point",
        "coordinates": [
          14.2671,
          44.5359
        ]
      },
      "properties": {
        "icao24": "407f96",
        "callsign": "TOM9WJ",
        "origin_country": "United Kingdom",
        "time_position": 1787097929,
        "last_contact": 1787097929,
        "baro_altitude": 11582.4,
        "on_ground": false,
        "velocity": 201.22,
        "true_track": 298.73,
        "vertical_rate": 0,
        "geo_altitude": 12184.38,
        "squawk": "7344",
        "spi": false,
        "position_source": 0
      }
    },
    {
      "type": "Feature",
      "geometry": {
        "type": "Point",
        "coordinates": [
          12.9899,
          44.6545
        ]
      },
      "properties": {
        "icao24": "407c0a",
        "callsign": "TOM8FL",
        "origin_country": "United Kingdom",
        "time_position": 1787097928,
        "last_contact": 1787097928,
        "baro_altitude": 10972.8,
        "on_ground": false,
        "velocity": 209.13,
        "true_track": 305.49,
        "vertical_rate": 0,
        "geo_altitude": 11574.78,
        "squawk": "2061",
        "spi": false,
        "position_source": 0
      }
    },
    {
      "type": "Feature",
      "geometry": {
        "type": "Point",
        "coordinates": [
          12.1439,
          46.0112
        ]
      },
      "properties": {
        "icao24": "407ac1",
        "callsign": "TOM30A",
        "origin_country": "United Kingdom",
        "time_position": 1787097929,
        "last_contact": 1787097929,
        "baro_altitude": 9753.6,
        "on_ground": false,
        "velocity": 216.95,
        "true_track": 318.94,
        "vertical_rate": 0,
        "geo_altitude": 10287,
        "squawk": "0225",
        "spi": false,
        "position_source": 0
      }
    },
    {
      "type": "Feature",
      "geometry": {
        "type": "Point",
        "coordinates": [
          13.9084,
          40.777
        ]
      },
      "properties": {
        "icao24": "4bb86a",
        "callsign": "PGT1742",
        "origin_country": "Turkey",
        "time_position": 1787097929,
        "last_contact": 1787097929,
        "baro_altitude": 10972.8,
        "on_ground": false,
        "velocity": 229.99,
        "true_track": 91.03,
        "vertical_rate": 0,
        "geo_altitude": 11628.12,
        "squawk": "2223",
        "spi": false,
        "position_source": 0
      }
    },
    {
      "type": "Feature",
      "geometry": {
        "type": "Point",
        "coordinates": [
          17.061,
          46.7638
        ]
      },
      "properties": {
        "icao24": "4b9c61",
        "callsign": "BBT202",
        "origin_country": "Turkey",
        "time_position": 1787097928,
        "last_contact": 1787097928,
        "baro_altitude": 11879.58,
        "on_ground": false,
        "velocity": 270.2,
        "true_track": 122.09,
        "vertical_rate": 0,
        "geo_altitude": 12344.4,
        "squawk": "7645",
        "spi": false,
        "position_source": 0
      }
    },
    {
      "type": "Feature",
      "geometry": {
        "type": "Point",
        "coordinates": [
          8.721,
          45.6069
        ]
      },
      "properties": {
        "icao24": "408142",
        "callsign": "DHK528",
        "origin_country": "United Kingdom",
        "time_position": 1787097748,
        "last_contact": 1787097748,
        "baro_altitude": null,
        "on_ground": true,
        "velocity": 0,
        "true_track": 258.75,
        "vertical_rate": null,
        "geo_altitude": null,
        "squawk": "1154",
        "spi": false,
        "position_source": 0
      }
    },
    {
      "type": "Feature",
      "geometry": {
        "type": "Point",
        "coordinates": [
          8.7315,
          47.1739
        ]
      },
      "properties": {
        "icao24": "40812e",
        "callsign": "EZY89KT",
        "origin_country": "United Kingdom",
        "time_position": 1787097929,
        "last_contact": 1787097929,
        "baro_altitude": 11582.4,
        "on_ground": false,
        "velocity": 203.91,
        "true_track": 304.41,
        "vertical_rate": 0,
        "geo_altitude": 12192,
        "squawk": "7520",
        "spi": false,
        "position_source": 0
      }
    },
    {
      "type": "Feature",
      "geometry": {
        "type": "Point",
        "coordinates": [
          12.2624,
          47.3059
        ]
      },
      "properties": {
        "icao24": "40812d",
        "callsign": "EZY85DA",
        "origin_country": "United Kingdom",
        "time_position": 1787097929,
        "last_contact": 1787097929,
        "baro_altitude": 11887.2,
        "on_ground": false,
        "velocity": 270.7,
        "true_track": 124.63,
        "vertical_rate": 0,
        "geo_altitude": 12451.08,
        "squawk": "0512",
        "spi": false,
        "position_source": 0
      }
    },
    {
      "type": "Feature",
      "geometry": {
        "type": "Point",
        "coordinates": [
          7.1403,
          45.3656
        ]
      },
      "properties": {
        "icao24": "440cff",
        "callsign": "EJU96HC",
        "origin_country": "Austria",
        "time_position": 1787097928,
        "last_contact": 1787097928,
        "baro_altitude": 8397.24,
        "on_ground": false,
        "velocity": 200.92,
        "true_track": 273.08,
        "vertical_rate": -5.2,
        "geo_altitude": 8923.02,
        "squawk": "1000",
        "spi": false,
        "position_source": 0
      }
    },
    {
      "type": "Feature",
      "geometry": {
        "type": "Point",
        "coordinates": [
          11.8149,
          46.5635
        ]
      },
      "properties": {
        "icao24": "408064",
        "callsign": "WUK8QH",
        "origin_country": "United Kingdom",
        "time_position": 1787097928,
        "last_contact": 1787097928,
        "baro_altitude": 10965.18,
        "on_ground": false,
        "velocity": 201.34,
        "true_track": 312.62,
        "vertical_rate": 0,
        "geo_altitude": 11559.54,
        "squawk": "0513",
        "spi": false,
        "position_source": 0
      }
    },
    {
      "type": "Feature",
      "geometry": {
        "type": "Point",
        "coordinates": [
          10.3626,
          37.6021
        ]
      },
      "properties": {
        "icao24": "02a1a4",
        "callsign": "LBT719",
        "origin_country": "Tunisia",
        "time_position": 1787097778,
        "last_contact": 1787097778,
        "baro_altitude": 4686.3,
        "on_ground": false,
        "velocity": 191.63,
        "true_track": 172.13,
        "vertical_rate": -9.1,
        "geo_altitude": 5052.06,
        "squawk": "1223",
        "spi": false,
        "position_source": 0
      }
    },
    {
      "type": "Feature",
      "geometry": {
        "type": "Point",
        "coordinates": [
          8.2528,
          43.5352
        ]
      },
      "properties": {
        "icao24": "4a2aac",
        "callsign": "DNA412",
        "origin_country": "Romania",
        "time_position": 1787097928,
        "last_contact": 1787097928,
        "baro_altitude": 9753.6,
        "on_ground": false,
        "velocity": 236.68,
        "true_track": 65.61,
        "vertical_rate": 0,
        "geo_altitude": 10378.44,
        "squawk": "0416",
        "spi": false,
        "position_source": 0
      }
    },
    {
      "type": "Feature",
      "geometry": {
        "type": "Point",
        "coordinates": [
          9.0476,
          46.6737
        ]
      },
      "properties": {
        "icao24": "40823f",
        "callsign": "EXS42YS",
        "origin_country": "United Kingdom",
        "time_position": 1787097928,
        "last_contact": 1787097928,
        "baro_altitude": 10980.42,
        "on_ground": false,
        "velocity": 213.32,
        "true_track": 312.85,
        "vertical_rate": 0.33,
        "geo_altitude": 11590.02,
        "squawk": "7533",
        "spi": false,
        "position_source": 0
      }
    },
    {
      "type": "Feature",
      "geometry": {
        "type": "Point",
        "coordinates": [
          17.2759,
          39.1832
        ]
      },
      "properties": {
        "icao24": "acd589",
        "callsign": "N926MB",
        "origin_country": "United States",
        "time_position": 1787097928,
        "last_contact": 1787097929,
        "baro_altitude": 13716,
        "on_ground": false,
        "velocity": 227.11,
        "true_track": 295.64,
        "vertical_rate": -0.33,
        "geo_altitude": 14348.46,
        "squawk": "1171",
        "spi": false,
        "position_source": 0
      }
    },
    {
      "type": "Feature",
      "geometry": {
        "type": "Point",
        "coordinates": [
          9.7324,
          41.4828
        ]
      },
      "properties": {
        "icao24": "4ca9cf",
        "callsign": "RYR7DE",
        "origin_country": "Ireland",
        "time_position": 1787097928,
        "last_contact": 1787097928,
        "baro_altitude": 7155.18,
        "on_ground": false,
        "velocity": 235.57,
        "true_track": 33.24,
        "vertical_rate": 10.4,
        "geo_altitude": 7635.24,
        "squawk": null,
        "spi": false,
        "position_source": 0
      }
    },
    {
      "type": "Feature",
      "geometry": {
        "type": "Point",
        "coordinates": [
          15.469,
          46.9832
        ]
      },
      "properties": {
        "icao24": "4bab30",
        "callsign": "THY3393",
        "origin_country": "Turkey",
        "time_position": 1787097928,
        "last_contact": 1787097929,
        "baro_altitude": 10668,
        "on_ground": false,
        "velocity": 280.11,
        "true_track": 135.45,
        "vertical_rate": 0,
        "geo_altitude": 11132.82,
        "squawk": "4521",
        "spi": false,
        "position_source": 0
      }
    },
    {
      "type": "Feature",
      "geometry": {
        "type": "Point",
        "coordinates": [
          17.6535,
          42.3922
        ]
      },
      "properties": {
        "icao24": "4ca960",
        "callsign": "NOS2610",
        "origin_country": "Ireland",
        "time_position": 1787097928,
        "last_contact": 1787097928,
        "baro_altitude": 10668,
        "on_ground": false,
        "velocity": 259.26,
        "true_track": 119.87,
        "vertical_rate": -0.33,
        "geo_altitude": 11239.5,
        "squawk": "0263",
        "spi": false,
        "position_source": 0
      }
    },
    {
      "type": "Feature",
      "geometry": {
        "type": "Point",
        "coordinates": [
          10.4802,
          40.2926
        ]
      },
      "properties": {
        "icao24": "4ca961",
        "callsign": "NOS9030",
        "origin_country": "Ireland",
        "time_position": 1787097928,
        "last_contact": 1787097928,
        "baro_altitude": 10363.2,
        "on_ground": false,
        "velocity": 236.51,
        "true_track": 100.53,
        "vertical_rate": 0,
        "geo_altitude": 11018.52,
        "squawk": "2250",
        "spi": false,
        "position_source": 0
      }
    },
    {
      "type": "Feature",
      "geometry": {
        "type": "Point",
        "coordinates": [
          7.5421,
          43.7363
        ]
      },
      "properties": {
        "icao24": "4ca6aa",
        "callsign": "RYR4LN",
        "origin_country": "Ireland",
        "time_position": 1787097929,
        "last_contact": 1787097929,
        "baro_altitude": 10149.84,
        "on_ground": false,
        "velocity": 240.65,
        "true_track": 42.66,
        "vertical_rate": -4.55,
        "geo_altitude": 10782.3,
        "squawk": "1000",
        "spi": false,
        "position_source": 0
      }
    },
    {
      "type": "Feature",
      "geometry": {
        "type": "Point",
        "coordinates": [
          14.8297,
          40.4133
        ]
      },
      "properties": {
        "icao24": "4ca760",
        "callsign": "RYR68QQ",
        "origin_country": "Ireland",
        "time_position": 1787097928,
        "last_contact": 1787097929,
        "baro_altitude": 10218.42,
        "on_ground": false,
        "velocity": 242.99,
        "true_track": 148.33,
        "vertical_rate": -11.05,
        "geo_altitude": 10835.64,
        "squawk": "1000",
        "spi": false,
        "position_source": 0
      }
    },
    {
      "type": "Feature",
      "geometry": {
        "type": "Point",
        "coordinates": [
          15.4454,
          46.639
        ]
      },
      "properties": {
        "icao24": "48664a",
        "callsign": "CND35SY",
        "origin_country": "Kingdom of the Netherlands",
        "time_position": 1787097928,
        "last_contact": 1787097928,
        "baro_altitude": 10363.2,
        "on_ground": false,
        "velocity": 196.01,
        "true_track": 318.19,
        "vertical_rate": 0,
        "geo_altitude": 10835.64,
        "squawk": "5517",
        "spi": false,
        "position_source": 0
      }
    },
    {
      "type": "Feature",
      "geometry": {
        "type": "Point",
        "coordinates": [
          16.0351,
          42.5604
        ]
      },
      "properties": {
        "icao24": "48ea3a",
        "callsign": "ENT9GP",
        "origin_country": "Poland",
        "time_position": 1787097928,
        "last_contact": 1787097928,
        "baro_altitude": 11582.4,
        "on_ground": false,
        "velocity": 256.77,
        "true_track": 190.97,
        "vertical_rate": 0,
        "geo_altitude": 12192,
        "squawk": "1000",
        "spi": false,
        "position_source": 0
      }
    },
    {
      "type": "Feature",
      "geometry": {
        "type": "Point",
        "coordinates": [
          12.2974,
          41.9951
        ]
      },
      "properties": {
        "icao24": "4ca708",
        "callsign": "RYR77DM",
        "origin_country": "Ireland",
        "time_position": 1787097928,
        "last_contact": 1787097928,
        "baro_altitude": 1127.76,
        "on_ground": false,
        "velocity": 110.15,
        "true_track": 271.87,
        "vertical_rate": -5.2,
        "geo_altitude": 1242.06,
        "squawk": null,
        "spi": false,
        "position_source": 0
      }
    },
    {
      "type": "Feature",
      "geometry": {
        "type": "Point",
        "coordinates": [
          9.1166,
          46.6142
        ]
      },
      "properties": {
        "icao24": "40769a",
        "callsign": "TOM17E",
        "origin_country": "United Kingdom",
        "time_position": 1787097928,
        "last_contact": 1787097928,
        "baro_altitude": 11582.4,
        "on_ground": false,
        "velocity": 203.84,
        "true_track": 312.95,
        "vertical_rate": 0,
        "geo_altitude": 12199.62,
        "squawk": "7532",
        "spi": false,
        "position_source": 0
      }
    },
    {
      "type": "Feature",
      "geometry": {
        "type": "Point",
        "coordinates": [
          7.5311,
          47.5955
        ]
      },
      "properties": {
        "icao24": "389dff",
        "callsign": "COBRA02",
        "origin_country": "France",
        "time_position": 1787097696,
        "last_contact": 1787097696,
        "baro_altitude": null,
        "on_ground": true,
        "velocity": 10.29,
        "true_track": 64.69,
        "vertical_rate": null,
        "geo_altitude": null,
        "squawk": null,
        "spi": false,
        "position_source": 0
      }
    },
    {
      "type": "Feature",
      "geometry": {
        "type": "Point",
        "coordinates": [
          11.2453,
          44.0191
        ]
      },
      "properties": {
        "icao24": "4cafd0",
        "callsign": "RYR33XW",
        "origin_country": "Ireland",
        "time_position": 1787097929,
        "last_contact": 1787097929,
        "baro_altitude": 10668,
        "on_ground": false,
        "velocity": 252.42,
        "true_track": 117.56,
        "vertical_rate": 0,
        "geo_altitude": 11285.22,
        "squawk": "1000",
        "spi": false,
        "position_source": 0
      }
    },
    {
      "type": "Feature",
      "geometry": {
        "type": "Point",
        "coordinates": [
          14.6352,
          46.041
        ]
      },
      "properties": {
        "icao24": "01025d",
        "callsign": "MSR996",
        "origin_country": "Egypt",
        "time_position": 1787097928,
        "last_contact": 1787097928,
        "baro_altitude": 11277.6,
        "on_ground": false,
        "velocity": 294.53,
        "true_track": 132.66,
        "vertical_rate": 0,
        "geo_altitude": 11841.48,
        "squawk": "2222",
        "spi": false,
        "position_source": 0
      }
    },
    {
      "type": "Feature",
      "geometry": {
        "type": "Point",
        "coordinates": [
          18.3247,
          46.8885
        ]
      },
      "properties": {
        "icao24": "010265",
        "callsign": "MSC2938",
        "origin_country": "Egypt",
        "time_position": 1787097928,
        "last_contact": 1787097928,
        "baro_altitude": 10972.8,
        "on_ground": false,
        "velocity": 173.98,
        "true_track": 319.2,
        "vertical_rate": -0.33,
        "geo_altitude": 11376.66,
        "squawk": "1735",
        "spi": false,
        "position_source": 0
      }
    },
    {
      "type": "Feature",
      "geometry": {
        "type": "Point",
        "coordinates": [
          16.065,
          40.1926
        ]
      },
      "properties": {
        "icao24": "3007d1",
        "callsign": "SLJ118",
        "origin_country": "Italy",
        "time_position": 1787097928,
        "last_contact": 1787097928,
        "baro_altitude": 7620,
        "on_ground": false,
        "velocity": 194.73,
        "true_track": 5.15,
        "vertical_rate": 0,
        "geo_altitude": 8092.44,
        "squawk": null,
        "spi": false,
        "position_source": 0
      }
    },
    {
      "type": "Feature",
      "geometry": {
        "type": "Point",
        "coordinates": [
          14.2394,
          45.9122
        ]
      },
      "properties": {
        "icao24": "01028a",
        "callsign": "MSR986",
        "origin_country": "Egypt",
        "time_position": 1787097928,
        "last_contact": 1787097929,
        "baro_altitude": 11887.2,
        "on_ground": false,
        "velocity": 287.75,
        "true_track": 135.51,
        "vertical_rate": 0,
        "geo_altitude": 12428.22,
        "squawk": "5226",
        "spi": false,
        "position_source": 0
      }
    },
    {
      "type": "Feature",
      "geometry": {
        "type": "Point",
        "coordinates": [
          6.0348,
          47.684
        ]
      },
      "properties": {
        "icao24": "4d24fe",
        "callsign": "AIZ994",
        "origin_country": "Malta",
        "time_position": 1787097928,
        "last_contact": 1787097928,
        "baro_altitude": 11887.2,
        "on_ground": false,
        "velocity": 264.15,
        "true_track": 112.32,
        "vertical_rate": 0,
        "geo_altitude": 12504.42,
        "squawk": "2266",
        "spi": false,
        "position_source": 0
      }
    },
    {
      "type": "Feature",
      "geometry": {
        "type": "Point",
        "coordinates": [
          12.3785,
          43.1266
        ]
      },
      "properties": {
        "icao24": "4caec8",
        "callsign": "EIHNH",
        "origin_country": "Ireland",
        "time_position": 1787097929,
        "last_contact": 1787097929,
        "baro_altitude": 853.44,
        "on_ground": false,
        "velocity": 65.26,
        "true_track": 202.72,
        "vertical_rate": -3.25,
        "geo_altitude": 929.64,
        "squawk": null,
        "spi": false,
        "position_source": 0
      }
    },
    {
      "type": "Feature",
      "geometry": {
        "type": "Point",
        "coordinates": [
          12.9174,
          41.7704
        ]
      },
      "properties": {
        "icao24": "4cae05",
        "callsign": "NOS2875",
        "origin_country": "Ireland",
        "time_position": 1787097929,
        "last_contact": 1787097929,
        "baro_altitude": 3268.98,
        "on_ground": false,
        "velocity": 171.95,
        "true_track": 298.41,
        "vertical_rate": -3.58,
        "geo_altitude": 3497.58,
        "squawk": "5501",
        "spi": false,
        "position_source": 0
      }
    },
    {
      "type": "Feature",
      "geometry": {
        "type": "Point",
        "coordinates": [
          7.6021,
          47.7021
        ]
      },
      "properties": {
        "icao24": "4caca2",
        "callsign": "ABR177",
        "origin_country": "Ireland",
        "time_position": 1787097928,
        "last_contact": 1787097928,
        "baro_altitude": 6088.38,
        "on_ground": false,
        "velocity": 117.47,
        "true_track": 336.24,
        "vertical_rate": 0,
        "geo_altitude": 6408.42,
        "squawk": "1000",
        "spi": false,
        "position_source": 0
      }
    },
    {
      "type": "Feature",
      "geometry": {
        "type": "Point",
        "coordinates": [
          7.4347,
          41.5675
        ]
      },
      "properties": {
        "icao24": "4d2338",
        "callsign": "TAR629",
        "origin_country": "Malta",
        "time_position": 1787097928,
        "last_contact": 1787097928,
        "baro_altitude": 10668,
        "on_ground": false,
        "velocity": 225.24,
        "true_track": 126.27,
        "vertical_rate": 0,
        "geo_altitude": 11346.18,
        "squawk": "3376",
        "spi": false,
        "position_source": 0
      }
    },
    {
      "type": "Feature",
      "geometry": {
        "type": "Point",
        "coordinates": [
          10.2845,
          44.857
        ]
      },
      "properties": {
        "icao24": "4d2346",
        "callsign": "RYR13PK",
        "origin_country": "Malta",
        "time_position": 1787097928,
        "last_contact": 1787097928,
        "baro_altitude": 5516.88,
        "on_ground": false,
        "velocity": 209.42,
        "true_track": 342.86,
        "vertical_rate": -15.61,
        "geo_altitude": 5859.78,
        "squawk": "1000",
        "spi": false,
        "position_source": 0
      }
    },
    {
      "type": "Feature",
      "geometry": {
        "type": "Point",
        "coordinates": [
          11.7975,
          45.5515
        ]
      },
      "properties": {
        "icao24": "4070eb",
        "callsign": "EXS87ET",
        "origin_country": "United Kingdom",
        "time_position": 1787097928,
        "last_contact": 1787097928,
        "baro_altitude": 11582.4,
        "on_ground": false,
        "velocity": 203.69,
        "true_track": 305.34,
        "vertical_rate": 0,
        "geo_altitude": 12176.76,
        "squawk": "2010",
        "spi": false,
        "position_source": 0
      }
    },
    {
      "type": "Feature",
      "geometry": {
        "type": "Point",
        "coordinates": [
          8.7527,
          46.9422
        ]
      },
      "properties": {
        "icao24": "4070e8",
        "callsign": "EXS72P",
        "origin_country": "United Kingdom",
        "time_position": 1787097929,
        "last_contact": 1787097929,
        "baro_altitude": 10972.8,
        "on_ground": false,
        "velocity": 205.45,
        "true_track": 311.96,
        "vertical_rate": 0,
        "geo_altitude": 11559.54,
        "squawk": "2753",
        "spi": false,
        "position_source": 0
      }
    },
    {
      "type": "Feature",
      "geometry": {
        "type": "Point",
        "coordinates": [
          7.8598,
          45.2327
        ]
      },
      "properties": {
        "icao24": "4cad4f",
        "callsign": "RYR9P",
        "origin_country": "Ireland",
        "time_position": 1787097928,
        "last_contact": 1787097929,
        "baro_altitude": 11582.4,
        "on_ground": false,
        "velocity": 219.93,
        "true_track": 327.61,
        "vertical_rate": 0,
        "geo_altitude": 12230.1,
        "squawk": "0203",
        "spi": false,
        "position_source": 0
      }
    },
    {
      "type": "Feature",
      "geometry": {
        "type": "Point",
        "coordinates": [
          6.9957,
          40.9304
        ]
      },
      "properties": {
        "icao24": "4d2218",
        "callsign": "RYR8AA",
        "origin_country": "Malta",
        "time_position": 1787097928,
        "last_contact": 1787097929,
        "baro_altitude": 11277.6,
        "on_ground": false,
        "velocity": 239.54,
        "true_track": 274.8,
        "vertical_rate": 0,
        "geo_altitude": 11963.4,
        "squawk": "1000",
        "spi": false,
        "position_source": 0
      }
    },
    {
      "type": "Feature",
      "geometry": {
        "type": "Point",
        "coordinates": [
          8.7345,
          45.5887
        ]
      },
      "properties": {
        "icao24": "4d2229",
        "callsign": "RYR5XE",
        "origin_country": "Malta",
        "time_position": 1787097929,
        "last_contact": 1787097929,
        "baro_altitude": 381,
        "on_ground": false,
        "velocity": 75.97,
        "true_track": 349.07,
        "vertical_rate": -3.9,
        "geo_altitude": 426.72,
        "squawk": "1000",
        "spi": false,
        "position_source": 0
      }
    },
    {
      "type": "Feature",
      "geometry": {
        "type": "Point",
        "coordinates": [
          16.7846,
          42.5017
        ]
      },
      "properties": {
        "icao24": "406011",
        "callsign": "EZY41FQ",
        "origin_country": "United Kingdom",
        "time_position": 1787097927,
        "last_contact": 1787097927,
        "baro_altitude": 10972.8,
        "on_ground": false,
        "velocity": 210.52,
        "true_track": 309.45,
        "vertical_rate": 0,
        "geo_altitude": 11567.16,
        "squawk": "5505",
        "spi": false,
        "position_source": 0
      }
    },
    {
      "type": "Feature",
      "geometry": {
        "type": "Point",
        "coordinates": [
          13.0939,
          42.72
        ]
      },
      "properties": {
        "icao24": "4cac8c",
        "callsign": "NOS14RP",
        "origin_country": "Ireland",
        "time_position": 1787097928,
        "last_contact": 1787097929,
        "baro_altitude": 11582.4,
        "on_ground": false,
        "velocity": 218.23,
        "true_track": 306.95,
        "vertical_rate": 0,
        "geo_altitude": 12237.72,
        "squawk": "5530",
        "spi": false,
        "position_source": 0
      }
    },
    {
      "type": "Feature",
      "geometry": {
        "type": "Point",
        "coordinates": [
          10.8344,
          45.3584
        ]
      },
      "properties": {
        "icao24": "4cac8d",
        "callsign": "NOS2563",
        "origin_country": "Ireland",
        "time_position": 1787097777,
        "last_contact": 1787097777,
        "baro_altitude": 335.28,
        "on_ground": false,
        "velocity": 73.85,
        "true_track": 45.85,
        "vertical_rate": -4.23,
        "geo_altitude": 396.24,
        "squawk": "7732",
        "spi": false,
        "position_source": 0
      }
    },
    {
      "type": "Feature",
      "geometry": {
        "type": "Point",
        "coordinates": [
          7.9322,
          47.4233
        ]
      },
      "properties": {
        "icao24": "408347",
        "callsign": "EXS8HQ",
        "origin_country": "United Kingdom",
        "time_position": 1787097928,
        "last_contact": 1787097928,
        "baro_altitude": 11582.4,
        "on_ground": false,
        "velocity": 204.81,
        "true_track": 311.54,
        "vertical_rate": 0,
        "geo_altitude": 12192,
        "squawk": "2766",
        "spi": false,
        "position_source": 0
      }
    },
    {
      "type": "Feature",
      "geometry": {
        "type": "Point",
        "coordinates": [
          16.9384,
          42.345
        ]
      },
      "properties": {
        "icao24": "408388",
        "callsign": "EZY41GE",
        "origin_country": "United Kingdom",
        "time_position": 1787097926,
        "last_contact": 1787097928,
        "baro_altitude": 10972.8,
        "on_ground": false,
        "velocity": 210.53,
        "true_track": 310.54,
        "vertical_rate": -0.33,
        "geo_altitude": 11574.78,
        "squawk": null,
        "spi": false,
        "position_source": 0
      }
    },
    {
      "type": "Feature",
      "geometry": {
        "type": "Point",
        "coordinates": [
          16.2975,
          35.5893
        ]
      },
      "properties": {
        "icao24": "710104",
        "callsign": "SVA342",
        "origin_country": "Saudi Arabia",
        "time_position": 1787097929,
        "last_contact": 1787097929,
        "baro_altitude": 10668,
        "on_ground": false,
        "velocity": 254.06,
        "true_track": 98.03,
        "vertical_rate": 0,
        "geo_altitude": 11269.98,
        "squawk": "4116",
        "spi": false,
        "position_source": 0
      }
    },
    {
      "type": "Feature",
      "geometry": {
        "type": "Point",
        "coordinates": [
          11.5894,
          45.2508
        ]
      },
      "properties": {
        "icao24": "408329",
        "callsign": "TOM871",
        "origin_country": "United Kingdom",
        "time_position": 1787097928,
        "last_contact": 1787097928,
        "baro_altitude": 11582.4,
        "on_ground": false,
        "velocity": 205.27,
        "true_track": 307.16,
        "vertical_rate": 0,
        "geo_altitude": 12207.24,
        "squawk": "2013",
        "spi": false,
        "position_source": 0
      }
    },
    {
      "type": "Feature",
      "geometry": {
        "type": "Point",
        "coordinates": [
          13.677,
          39.7779
        ]
      },
      "properties": {
        "icao24": "4d206e",
        "callsign": "AIZ991",
        "origin_country": "Malta",
        "time_position": 1787097928,
        "last_contact": 1787097928,
        "baro_altitude": 10972.8,
        "on_ground": false,
        "velocity": 244.78,
        "true_track": 285.73,
        "vertical_rate": 0,
        "geo_altitude": 11635.74,
        "squawk": "4145",
        "spi": false,
        "position_source": 0
      }
    },
    {
      "type": "Feature",
      "geometry": {
        "type": "Point",
        "coordinates": [
          6.8403,
          47.7646
        ]
      },
      "properties": {
        "icao24": "4081cf",
        "callsign": "WUK7PY",
        "origin_country": "United Kingdom",
        "time_position": 1787097929,
        "last_contact": 1787097929,
        "baro_altitude": 10972.8,
        "on_ground": false,
        "velocity": 204.36,
        "true_track": 306.09,
        "vertical_rate": 0,
        "geo_altitude": 11559.54,
        "squawk": "2742",
        "spi": false,
        "position_source": 0
      }
    },
    {
      "type": "Feature",
      "geometry": {
        "type": "Point",
        "coordinates": [
          13.918,
          41.5722
        ]
      },
      "properties": {
        "icao24": "3001ca",
        "callsign": "LSA214",
        "origin_country": "Italy",
        "time_position": 1787097928,
        "last_contact": 1787097929,
        "baro_altitude": 6987.54,
        "on_ground": false,
        "velocity": 238.93,
        "true_track": 291.21,
        "vertical_rate": -11.05,
        "geo_altitude": 7429.5,
        "squawk": null,
        "spi": false,
        "position_source": 0
      }
    },
    {
      "type": "Feature",
      "geometry": {
        "type": "Point",
        "coordinates": [
          8.7204,
          45.6098
        ]
      },
      "properties": {
        "icao24": "451dbd",
        "callsign": "BCS136",
        "origin_country": "Bulgaria",
        "time_position": 1787097862,
        "last_contact": 1787097862,
        "baro_altitude": null,
        "on_ground": true,
        "velocity": 1.03,
        "true_track": 258.75,
        "vertical_rate": null,
        "geo_altitude": null,
        "squawk": "1000",
        "spi": false,
        "position_source": 0
      }
    },
    {
      "type": "Feature",
      "geometry": {
        "type": "Point",
        "coordinates": [
          10.2185,
          45.8961
        ]
      },
      "properties": {
        "icao24": "407176",
        "callsign": "EXS3TJ",
        "origin_country": "United Kingdom",
        "time_position": 1787097928,
        "last_contact": 1787097928,
        "baro_altitude": 10972.8,
        "on_ground": false,
        "velocity": 208.4,
        "true_track": 311.8,
        "vertical_rate": 0,
        "geo_altitude": 11574.78,
        "squawk": "6624",
        "spi": false,
        "position_source": 0
      }
    },
    {
      "type": "Feature",
      "geometry": {
        "type": "Point",
        "coordinates": [
          10.9303,
          45.5547
        ]
      },
      "properties": {
        "icao24": "4082e6",
        "callsign": "TOM627",
        "origin_country": "United Kingdom",
        "time_position": 1787097929,
        "last_contact": 1787097929,
        "baro_altitude": 10972.8,
        "on_ground": false,
        "velocity": 207.37,
        "true_track": 311.48,
        "vertical_rate": 0,
        "geo_altitude": 11574.78,
        "squawk": "5355",
        "spi": false,
        "position_source": 0
      }
    },
    {
      "type": "Feature",
      "geometry": {
        "type": "Point",
        "coordinates": [
          13.1721,
          45.419
        ]
      },
      "properties": {
        "icao24": "4082cd",
        "callsign": "TOM2PY",
        "origin_country": "United Kingdom",
        "time_position": 1787097928,
        "last_contact": 1787097929,
        "baro_altitude": 11536.68,
        "on_ground": false,
        "velocity": 200.8,
        "true_track": 315.21,
        "vertical_rate": 2.93,
        "geo_altitude": 12131.04,
        "squawk": "5524",
        "spi": false,
        "position_source": 0
      }
    },
    {
      "type": "Feature",
      "geometry": {
        "type": "Point",
        "coordinates": [
          7.5927,
          45.5294
        ]
      },
      "properties": {
        "icao24": "4caa59",
        "callsign": "RYR51TU",
        "origin_country": "Ireland",
        "time_position": 1787097928,
        "last_contact": 1787097928,
        "baro_altitude": 9875.52,
        "on_ground": false,
        "velocity": 224.89,
        "true_track": 320.85,
        "vertical_rate": 3.9,
        "geo_altitude": 10447.02,
        "squawk": "5716",
        "spi": false,
        "position_source": 0
      }
    }
  ]
}