{
  "type": "FeatureCollection",
  "source": "opensky",
  "dataset": "aircraft_italy",
  "generated_at": "2026-08-19T01:49:45.905052+00:00",
  "opensky_time": 1787104185,
  "count": 70,
  "features": [
    {
      "type": "Feature",
      "geometry": {
        "type": "Point",
        "coordinates": [
          15.9413,
          37.4677
        ]
      },
      "properties": {
        "icao24": "4bc8e1",
        "callsign": "PGT652",
        "origin_country": "Turkey",
        "time_position": 1787104184,
        "last_contact": 1787104184,
        "baro_altitude": 10058.4,
        "on_ground": false,
        "velocity": 222.82,
        "true_track": 61.6,
        "vertical_rate": 0,
        "geo_altitude": 10652.76,
        "squawk": "4107",
        "spi": false,
        "position_source": 0
      }
    },
    {
      "type": "Feature",
      "geometry": {
        "type": "Point",
        "coordinates": [
          15.048,
          39.5467
        ]
      },
      "properties": {
        "icao24": "46b83a",
        "callsign": "AEE713",
        "origin_country": "Greece",
        "time_position": 1787104185,
        "last_contact": 1787104185,
        "baro_altitude": 10660.38,
        "on_ground": false,
        "velocity": 231.83,
        "true_track": 103.6,
        "vertical_rate": 0,
        "geo_altitude": 11292.84,
        "squawk": "1266",
        "spi": false,
        "position_source": 0
      }
    },
    {
      "type": "Feature",
      "geometry": {
        "type": "Point",
        "coordinates": [
          9.4562,
          40.4361
        ]
      },
      "properties": {
        "icao24": "46b82c",
        "callsign": "AEE5RT",
        "origin_country": "Greece",
        "time_position": 1787104184,
        "last_contact": 1787104184,
        "baro_altitude": 10675.62,
        "on_ground": false,
        "velocity": 234.53,
        "true_track": 99.98,
        "vertical_rate": 0,
        "geo_altitude": 11353.8,
        "squawk": "2265",
        "spi": false,
        "position_source": 0
      }
    },
    {
      "type": "Feature",
      "geometry": {
        "type": "Point",
        "coordinates": [
          16.2363,
          39.2966
        ]
      },
      "properties": {
        "icao24": "46b825",
        "callsign": "AEE3EM",
        "origin_country": "Greece",
        "time_position": 1787104185,
        "last_contact": 1787104185,
        "baro_altitude": 11277.6,
        "on_ground": false,
        "velocity": 231.7,
        "true_track": 104.01,
        "vertical_rate": 0,
        "geo_altitude": 11925.3,
        "squawk": "1444",
        "spi": false,
        "position_source": 0
      }
    },
    {
      "type": "Feature",
      "geometry": {
        "type": "Point",
        "coordinates": [
          15.5654,
          39.4432
        ]
      },
      "properties": {
        "icao24": "46b822",
        "callsign": "AEE727",
        "origin_country": "Greece",
        "time_position": 1787104184,
        "last_contact": 1787104184,
        "baro_altitude": 11277.6,
        "on_ground": false,
        "velocity": 232.7,
        "true_track": 103.94,
        "vertical_rate": 0,
        "geo_altitude": 11925.3,
        "squawk": "2201",
        "spi": false,
        "position_source": 0
      }
    },
    {
      "type": "Feature",
      "geometry": {
        "type": "Point",
        "coordinates": [
          15.8671,
          45.0637
        ]
      },
      "properties": {
        "icao24": "407b54",
        "callsign": "WUK26NJ",
        "origin_country": "United Kingdom",
        "time_position": 1787104184,
        "last_contact": 1787104185,
        "baro_altitude": 10972.8,
        "on_ground": false,
        "velocity": 201.6,
        "true_track": 322.05,
        "vertical_rate": 0,
        "geo_altitude": 11536.68,
        "squawk": "0501",
        "spi": false,
        "position_source": 0
      }
    },
    {
      "type": "Feature",
      "geometry": {
        "type": "Point",
        "coordinates": [
          12.2498,
          42.039
        ]
      },
      "properties": {
        "icao24": "8015f7",
        "callsign": "AIC101",
        "origin_country": "India",
        "time_position": 1787104185,
        "last_contact": 1787104185,
        "baro_altitude": 769.62,
        "on_ground": false,
        "velocity": 96.88,
        "true_track": 236.48,
        "vertical_rate": 0,
        "geo_altitude": 845.82,
        "squawk": "2003",
        "spi": false,
        "position_source": 0
      }
    },
    {
      "type": "Feature",
      "geometry": {
        "type": "Point",
        "coordinates": [
          14.284,
          44.2113
        ]
      },
      "properties": {
        "icao24": "4bc84c",
        "callsign": "PGT038",
        "origin_country": "Turkey",
        "time_position": 1787104184,
        "last_contact": 1787104185,
        "baro_altitude": 11894.82,
        "on_ground": false,
        "velocity": 239.66,
        "true_track": 102.4,
        "vertical_rate": -0.33,
        "geo_altitude": 12512.04,
        "squawk": "1341",
        "spi": false,
        "position_source": 0
      }
    },
    {
      "type": "Feature",
      "geometry": {
        "type": "Point",
        "coordinates": [
          8.8763,
          42.1209
        ]
      },
      "properties": {
        "icao24": "3c4a0d",
        "callsign": "DLH577",
        "origin_country": "Germany",
        "time_position": 1787104184,
        "last_contact": 1787104184,
        "baro_altitude": 11574.78,
        "on_ground": false,
        "velocity": 244.56,
        "true_track": 2.29,
        "vertical_rate": 0,
        "geo_altitude": 12268.2,
        "squawk": "1000",
        "spi": false,
        "position_source": 0
      }
    },
    {
      "type": "Feature",
      "geometry": {
        "type": "Point",
        "coordinates": [
          15.4522,
          39.4086
        ]
      },
      "properties": {
        "icao24": "738102",
        "callsign": "ELY003",
        "origin_country": "Israel",
        "time_position": 1787104184,
        "last_contact": 1787104184,
        "baro_altitude": 10972.8,
        "on_ground": false,
        "velocity": 251.79,
        "true_track": 286.62,
        "vertical_rate": 0,
        "geo_altitude": 11605.26,
        "squawk": "1155",
        "spi": false,
        "position_source": 0
      }
    },
    {
      "type": "Feature",
      "geometry": {
        "type": "Point",
        "coordinates": [
          8.9081,
          38.114
        ]
      },
      "properties": {
        "icao24": "3c4b21",
        "callsign": "DLH573",
        "origin_country": "Germany",
        "time_position": 1787104184,
        "last_contact": 1787104184,
        "baro_altitude": 10972.8,
        "on_ground": false,
        "velocity": 255.95,
        "true_track": 357.35,
        "vertical_rate": 0.33,
        "geo_altitude": 11643.36,
        "squawk": "4267",
        "spi": false,
        "position_source": 0
      }
    },
    {
      "type": "Feature",
      "geometry": {
        "type": "Point",
        "coordinates": [
          13.096,
          47.7181
        ]
      },
      "properties": {
        "icao24": "896187",
        "callsign": "UAE242",
        "origin_country": "United Arab Emirates",
        "time_position": 1787104185,
        "last_contact": 1787104185,
        "baro_altitude": 11277.6,
        "on_ground": false,
        "velocity": 283.78,
        "true_track": 121.96,
        "vertical_rate": 0,
        "geo_altitude": 11795.76,
        "squawk": "1151",
        "spi": false,
        "position_source": 0
      }
    },
    {
      "type": "Feature",
      "geometry": {
        "type": "Point",
        "coordinates": [
          11.0977,
          44.0562
        ]
      },
      "properties": {
        "icao24": "345617",
        "callsign": "LAV3153",
        "origin_country": "Spain",
        "time_position": 1787104184,
        "last_contact": 1787104184,
        "baro_altitude": 11902.44,
        "on_ground": false,
        "velocity": 245.92,
        "true_track": 126.15,
        "vertical_rate": 0,
        "geo_altitude": 12542.52,
        "squawk": "0422",
        "spi": false,
        "position_source": 0
      }
    },
    {
      "type": "Feature",
      "geometry": {
        "type": "Point",
        "coordinates": [
          12.4782,
          46.0959
        ]
      },
      "properties": {
        "icao24": "4066d0",
        "callsign": "TOM513",
        "origin_country": "United Kingdom",
        "time_position": 1787104184,
        "last_contact": 1787104184,
        "baro_altitude": 10972.8,
        "on_ground": false,
        "velocity": 206.63,
        "true_track": 289.34,
        "vertical_rate": 0,
        "geo_altitude": 11536.68,
        "squawk": "3277",
        "spi": false,
        "position_source": 0
      }
    },
    {
      "type": "Feature",
      "geometry": {
        "type": "Point",
        "coordinates": [
          15.5075,
          41.4025
        ]
      },
      "properties": {
        "icao24": "3a2e22",
        "callsign": "REU973",
        "origin_country": "France",
        "time_position": 1787104184,
        "last_contact": 1787104184,
        "baro_altitude": 11582.4,
        "on_ground": false,
        "velocity": 236.54,
        "true_track": 309.26,
        "vertical_rate": -0.33,
        "geo_altitude": 12230.1,
        "squawk": "2047",
        "spi": false,
        "position_source": 0
      }
    },
    {
      "type": "Feature",
      "geometry": {
        "type": "Point",
        "coordinates": [
          15.0935,
          44.7205
        ]
      },
      "properties": {
        "icao24": "3965a8",
        "callsign": "AFR111",
        "origin_country": "France",
        "time_position": 1787104184,
        "last_contact": 1787104184,
        "baro_altitude": 10972.8,
        "on_ground": false,
        "velocity": 226.3,
        "true_track": 280.88,
        "vertical_rate": 0,
        "geo_altitude": 11551.92,
        "squawk": "7343",
        "spi": false,
        "position_source": 0
      }
    },
    {
      "type": "Feature",
      "geometry": {
        "type": "Point",
        "coordinates": [
          15.9633,
          44.5983
        ]
      },
      "properties": {
        "icao24": "3965aa",
        "callsign": "AFR257",
        "origin_country": "France",
        "time_position": 1787104184,
        "last_contact": 1787104184,
        "baro_altitude": 10972.8,
        "on_ground": false,
        "velocity": 225.19,
        "true_track": 281.46,
        "vertical_rate": 0,
        "geo_altitude": 11544.3,
        "squawk": "7346",
        "spi": false,
        "position_source": 0
      }
    },
    {
      "type": "Feature",
      "geometry": {
        "type": "Point",
        "coordinates": [
          6.0807,
          42.791
        ]
      },
      "properties": {
        "icao24": "396669",
        "callsign": "FPO775",
        "origin_country": "France",
        "time_position": 1787104184,
        "last_contact": 1787104184,
        "baro_altitude": 8450.58,
        "on_ground": false,
        "velocity": 224.21,
        "true_track": 118.51,
        "vertical_rate": 8.45,
        "geo_altitude": 8976.36,
        "squawk": "1000",
        "spi": false,
        "position_source": 0
      }
    },
    {
      "type": "Feature",
      "geometry": {
        "type": "Point",
        "coordinates": [
          7.028,
          38.9515
        ]
      },
      "properties": {
        "icao24": "44ccc5",
        "callsign": "BEL8VB",
        "origin_country": "Belgium",
        "time_position": 1787104184,
        "last_contact": 1787104185,
        "baro_altitude": 11574.78,
        "on_ground": false,
        "velocity": 248.27,
        "true_track": 2.85,
        "vertical_rate": -0.33,
        "geo_altitude": 12275.82,
        "squawk": null,
        "spi": false,
        "position_source": 0
      }
    },
    {
      "type": "Feature",
      "geometry": {
        "type": "Point",
        "coordinates": [
          17.7235,
          45.8078
        ]
      },
      "properties": {
        "icao24": "896723",
        "callsign": "A6FAM",
        "origin_country": "United Arab Emirates",
        "time_position": 1787104185,
        "last_contact": 1787104185,
        "baro_altitude": 11277.6,
        "on_ground": false,
        "velocity": 276.33,
        "true_track": 120.67,
        "vertical_rate": 0,
        "geo_altitude": 11795.76,
        "squawk": "0106",
        "spi": false,
        "position_source": 0
      }
    },
    {
      "type": "Feature",
      "geometry": {
        "type": "Point",
        "coordinates": [
          14.4274,
          41.0907
        ]
      },
      "properties": {
        "icao24": "040140",
        "callsign": "ETH552",
        "origin_country": "Ethiopia",
        "time_position": 1787104184,
        "last_contact": 1787104184,
        "baro_altitude": 11490.96,
        "on_ground": false,
        "velocity": 236.34,
        "true_track": 297.9,
        "vertical_rate": -8.13,
        "geo_altitude": 12138.66,
        "squawk": "2033",
        "spi": false,
        "position_source": 0
      }
    },
    {
      "type": "Feature",
      "geometry": {
        "type": "Point",
        "coordinates": [
          17.0521,
          39.9947
        ]
      },
      "properties": {
        "icao24": "040128",
        "callsign": "ETH574",
        "origin_country": "Ethiopia",
        "time_position": 1787104185,
        "last_contact": 1787104185,
        "baro_altitude": 12192,
        "on_ground": false,
        "velocity": 237.92,
        "true_track": 297.56,
        "vertical_rate": 0,
        "geo_altitude": 12816.84,
        "squawk": "7741",
        "spi": false,
        "position_source": 0
      }
    },
    {
      "type": "Feature",
      "geometry": {
        "type": "Point",
        "coordinates": [
          13.2195,
          42.7603
        ]
      },
      "properties": {
        "icao24": "3a4494",
        "callsign": "REU975",
        "origin_country": "France",
        "time_position": 1787104184,
        "last_contact": 1787104184,
        "baro_altitude": 10972.8,
        "on_ground": false,
        "velocity": 231.01,
        "true_track": 307.76,
        "vertical_rate": 0,
        "geo_altitude": 11605.26,
        "squawk": "2066",
        "spi": false,
        "position_source": 0
      }
    },
    {
      "type": "Feature",
      "geometry": {
        "type": "Point",
        "coordinates": [
          17.6008,
          47.3768
        ]
      },
      "properties": {
        "icao24": "3c70c9",
        "callsign": "GEC8467",
        "origin_country": "Germany",
        "time_position": 1787104184,
        "last_contact": 1787104184,
        "baro_altitude": 10363.2,
        "on_ground": false,
        "velocity": 205.01,
        "true_track": 291.8,
        "vertical_rate": 0,
        "geo_altitude": 10767.06,
        "squawk": "1000",
        "spi": false,
        "position_source": 0
      }
    },
    {
      "type": "Feature",
      "geometry": {
        "type": "Point",
        "coordinates": [
          14.1695,
          47.276
        ]
      },
      "properties": {
        "icao24": "4ba9f9",
        "callsign": "THY6426",
        "origin_country": "Turkey",
        "time_position": 1787104184,
        "last_contact": 1787104184,
        "baro_altitude": 12496.8,
        "on_ground": false,
        "velocity": 271.3,
        "true_track": 131,
        "vertical_rate": 0,
        "geo_altitude": 13045.44,
        "squawk": "2241",
        "spi": false,
        "position_source": 0
      }
    },
    {
      "type": "Feature",
      "geometry": {
        "type": "Point",
        "coordinates": [
          8.2069,
          40.3564
        ]
      },
      "properties": {
        "icao24": "04008b",
        "callsign": "ETH3559",
        "origin_country": "Ethiopia",
        "time_position": 1787104184,
        "last_contact": 1787104185,
        "baro_altitude": 12192,
        "on_ground": false,
        "velocity": 233.1,
        "true_track": 111.36,
        "vertical_rate": 0,
        "geo_altitude": 12870.18,
        "squawk": "1230",
        "spi": false,
        "position_source": 0
      }
    },
    {
      "type": "Feature",
      "geometry": {
        "type": "Point",
        "coordinates": [
          16.2269,
          36.3499
        ]
      },
      "properties": {
        "icao24": "4ba9c2",
        "callsign": "THY633",
        "origin_country": "Turkey",
        "time_position": 1787104184,
        "last_contact": 1787104185,
        "baro_altitude": 11887.2,
        "on_ground": false,
        "velocity": 226.85,
        "true_track": 50.24,
        "vertical_rate": 0,
        "geo_altitude": 12519.66,
        "squawk": "4104",
        "spi": false,
        "position_source": 0
      }
    },
    {
      "type": "Feature",
      "geometry": {
        "type": "Point",
        "coordinates": [
          16.5772,
          43.2306
        ]
      },
      "properties": {
        "icao24": "406d79",
        "callsign": "BAW34",
        "origin_country": "United Kingdom",
        "time_position": 1787104184,
        "last_contact": 1787104184,
        "baro_altitude": 12184.38,
        "on_ground": false,
        "velocity": 220.73,
        "true_track": 309.51,
        "vertical_rate": -0.33,
        "geo_altitude": 12793.98,
        "squawk": "2064",
        "spi": false,
        "position_source": 0
      }
    },
    {
      "type": "Feature",
      "geometry": {
        "type": "Point",
        "coordinates": [
          12.7016,
          41.7867
        ]
      },
      "properties": {
        "icao24": "040240",
        "callsign": "ETH500",
        "origin_country": "Ethiopia",
        "time_position": 1787104185,
        "last_contact": 1787104185,
        "baro_altitude": 2994.66,
        "on_ground": false,
        "velocity": 153.08,
        "true_track": 301.39,
        "vertical_rate": -3.9,
        "geo_altitude": 3192.78,
        "squawk": "6634",
        "spi": false,
        "position_source": 0
      }
    },
    {
      "type": "Feature",
      "geometry": {
        "type": "Point",
        "coordinates": [
          14.2226,
          36.0785
        ]
      },
      "properties": {
        "icao24": "744827",
        "callsign": "RJA517",
        "origin_country": "Jordan",
        "time_position": 1787104184,
        "last_contact": 1787104185,
        "baro_altitude": 10972.8,
        "on_ground": false,
        "velocity": 237.16,
        "true_track": 269.75,
        "vertical_rate": 0,
        "geo_altitude": 11620.5,
        "squawk": "5612",
        "spi": false,
        "position_source": 0
      }
    },
    {
      "type": "Feature",
      "geometry": {
        "type": "Point",
        "coordinates": [
          11.5556,
          41.1274
        ]
      },
      "properties": {
        "icao24": "49d283",
        "callsign": "TVS2855",
        "origin_country": "Czech Republic",
        "time_position": 1787104184,
        "last_contact": 1787104185,
        "baro_altitude": 10363.2,
        "on_ground": false,
        "velocity": 226.39,
        "true_track": 1.04,
        "vertical_rate": 0,
        "geo_altitude": 10995.66,
        "squawk": "6162",
        "spi": false,
        "position_source": 0
      }
    },
    {
      "type": "Feature",
      "geometry": {
        "type": "Point",
        "coordinates": [
          16.5129,
          38.8488
        ]
      },
      "properties": {
        "icao24": "46b8a2",
        "callsign": "AEE9BZ",
        "origin_country": "Greece",
        "time_position": 1787104184,
        "last_contact": 1787104184,
        "baro_altitude": 11887.2,
        "on_ground": false,
        "velocity": 224.9,
        "true_track": 98.82,
        "vertical_rate": 0,
        "geo_altitude": 12527.28,
        "squawk": "1417",
        "spi": false,
        "position_source": 0
      }
    },
    {
      "type": "Feature",
      "geometry": {
        "type": "Point",
        "coordinates": [
          7.8218,
          42.7956
        ]
      },
      "properties": {
        "icao24": "48c26c",
        "callsign": "RYS5JR",
        "origin_country": "Poland",
        "time_position": 1787104184,
        "last_contact": 1787104184,
        "baro_altitude": 11887.2,
        "on_ground": false,
        "velocity": 229.25,
        "true_track": 221.45,
        "vertical_rate": 0,
        "geo_altitude": 12557.76,
        "squawk": "1000",
        "spi": false,
        "position_source": 0
      }
    },
    {
      "type": "Feature",
      "geometry": {
        "type": "Point",
        "coordinates": [
          10.0053,
          45.567
        ]
      },
      "properties": {
        "icao24": "48c220",
        "callsign": "RYS24",
        "origin_country": "Poland",
        "time_position": 1787104184,
        "last_contact": 1787104184,
        "baro_altitude": 11887.2,
        "on_ground": false,
        "velocity": 220.47,
        "true_track": 230.78,
        "vertical_rate": 0,
        "geo_altitude": 12512.04,
        "squawk": "1000",
        "spi": false,
        "position_source": 0
      }
    },
    {
      "type": "Feature",
      "geometry": {
        "type": "Point",
        "coordinates": [
          13.0291,
          40.2281
        ]
      },
      "properties": {
        "icao24": "4b9c63",
        "callsign": "RAM8913",
        "origin_country": "Turkey",
        "time_position": 1787104184,
        "last_contact": 1787104185,
        "baro_altitude": 11582.4,
        "on_ground": false,
        "velocity": 236.5,
        "true_track": 263.76,
        "vertical_rate": 0,
        "geo_altitude": 12245.34,
        "squawk": "2306",
        "spi": false,
        "position_source": 0
      }
    },
    {
      "type": "Feature",
      "geometry": {
        "type": "Point",
        "coordinates": [
          8.9206,
          42.2607
        ]
      },
      "properties": {
        "icao24": "3c6671",
        "callsign": "DLH1327",
        "origin_country": "Germany",
        "time_position": 1787104185,
        "last_contact": 1787104185,
        "baro_altitude": 10363.2,
        "on_ground": false,
        "velocity": 227.95,
        "true_track": 1.16,
        "vertical_rate": 0,
        "geo_altitude": 10995.66,
        "squawk": "1000",
        "spi": false,
        "position_source": 0
      }
    },
    {
      "type": "Feature",
      "geometry": {
        "type": "Point",
        "coordinates": [
          12.2813,
          39.0963
        ]
      },
      "properties": {
        "icao24": "02a1a7",
        "callsign": "LBT819",
        "origin_country": "Tunisia",
        "time_position": 1787104184,
        "last_contact": 1787104184,
        "baro_altitude": 11582.4,
        "on_ground": false,
        "velocity": 243.95,
        "true_track": 211.11,
        "vertical_rate": 0,
        "geo_altitude": 12268.2,
        "squawk": "6007",
        "spi": false,
        "position_source": 0
      }
    },
    {
      "type": "Feature",
      "geometry": {
        "type": "Point",
        "coordinates": [
          7.6415,
          43.1712
        ]
      },
      "properties": {
        "icao24": "3c6561",
        "callsign": "OCN133",
        "origin_country": "Germany",
        "time_position": 1787104185,
        "last_contact": 1787104185,
        "baro_altitude": 12192,
        "on_ground": false,
        "velocity": 235.97,
        "true_track": 7.26,
        "vertical_rate": 0,
        "geo_altitude": 12870.18,
        "squawk": "1000",
        "spi": false,
        "position_source": 0
      }
    },
    {
      "type": "Feature",
      "geometry": {
        "type": "Point",
        "coordinates": [
          15.2351,
          38.3046
        ]
      },
      "properties": {
        "icao24": "0a0075",
        "callsign": "DAH3023",
        "origin_country": "Algeria",
        "time_position": 1787104184,
        "last_contact": 1787104184,
        "baro_altitude": 10980.42,
        "on_ground": false,
        "velocity": 248.29,
        "true_track": 250.51,
        "vertical_rate": 0,
        "geo_altitude": 11612.88,
        "squawk": "2317",
        "spi": false,
        "position_source": 0
      }
    },
    {
      "type": "Feature",
      "geometry": {
        "type": "Point",
        "coordinates": [
          8.5734,
          47.4552
        ]
      },
      "properties": {
        "icao24": "4b5d6f",
        "callsign": "VIKTOR33",
        "origin_country": "Switzerland",
        "time_position": 1787104178,
        "last_contact": 1787104178,
        "baro_altitude": null,
        "on_ground": true,
        "velocity": 4.12,
        "true_track": 95.62,
        "vertical_rate": null,
        "geo_altitude": null,
        "squawk": null,
        "spi": false,
        "position_source": 0
      }
    },
    {
      "type": "Feature",
      "geometry": {
        "type": "Point",
        "coordinates": [
          10.3871,
          36.1861
        ]
      },
      "properties": {
        "icao24": "7105ab",
        "callsign": "SVA377",
        "origin_country": "Saudi Arabia",
        "time_position": 1787104038,
        "last_contact": 1787104038,
        "baro_altitude": 10972.8,
        "on_ground": false,
        "velocity": 252.16,
        "true_track": 278.33,
        "vertical_rate": -0.33,
        "geo_altitude": 11650.98,
        "squawk": "2077",
        "spi": false,
        "position_source": 0
      }
    },
    {
      "type": "Feature",
      "geometry": {
        "type": "Point",
        "coordinates": [
          8.5565,
          47.4603
        ]
      },
      "properties": {
        "icao24": "4b5c1b",
        "callsign": "URSULA8",
        "origin_country": "Switzerland",
        "time_position": 1787104184,
        "last_contact": 1787104184,
        "baro_altitude": null,
        "on_ground": true,
        "velocity": 8.75,
        "true_track": 16.88,
        "vertical_rate": null,
        "geo_altitude": null,
        "squawk": null,
        "spi": false,
        "position_source": 0
      }
    },
    {
      "type": "Feature",
      "geometry": {
        "type": "Point",
        "coordinates": [
          8.5553,
          47.468
        ]
      },
      "properties": {
        "icao24": "4b5c27",
        "callsign": "EUGEN11",
        "origin_country": "Switzerland",
        "time_position": 1787104184,
        "last_contact": 1787104184,
        "baro_altitude": null,
        "on_ground": true,
        "velocity": 5.66,
        "true_track": 137.81,
        "vertical_rate": null,
        "geo_altitude": null,
        "squawk": null,
        "spi": false,
        "position_source": 0
      }
    },
    {
      "type": "Feature",
      "geometry": {
        "type": "Point",
        "coordinates": [
          6.9582,
          45.3203
        ]
      },
      "properties": {
        "icao24": "3c61f3",
        "callsign": "VJH784",
        "origin_country": "Germany",
        "time_position": 1787104184,
        "last_contact": 1787104184,
        "baro_altitude": 10668,
        "on_ground": false,
        "velocity": 237.84,
        "true_track": 175.66,
        "vertical_rate": 0.33,
        "geo_altitude": 11308.08,
        "squawk": "6703",
        "spi": false,
        "position_source": 0
      }
    },
    {
      "type": "Feature",
      "geometry": {
        "type": "Point",
        "coordinates": [
          18.0409,
          46.4199
        ]
      },
      "properties": {
        "icao24": "4bcdf0",
        "callsign": "SXS619",
        "origin_country": "Turkey",
        "time_position": 1787104184,
        "last_contact": 1787104184,
        "baro_altitude": 11277.6,
        "on_ground": false,
        "velocity": 283.62,
        "true_track": 128.08,
        "vertical_rate": 0,
        "geo_altitude": 11750.04,
        "squawk": "6435",
        "spi": false,
        "position_source": 0
      }
    },
    {
      "type": "Feature",
      "geometry": {
        "type": "Point",
        "coordinates": [
          17.7095,
          47.6444
        ]
      },
      "properties": {
        "icao24": "4851b0",
        "callsign": "KLM888",
        "origin_country": "Kingdom of the Netherlands",
        "time_position": 1787104184,
        "last_contact": 1787104185,
        "baro_altitude": 12192,
        "on_ground": false,
        "velocity": 210.03,
        "true_track": 293.99,
        "vertical_rate": -0.33,
        "geo_altitude": 12618.72,
        "squawk": "5313",
        "spi": false,
        "position_source": 0
      }
    },
    {
      "type": "Feature",
      "geometry": {
        "type": "Point",
        "coordinates": [
          16.167,
          38.9145
        ]
      },
      "properties": {
        "icao24": "48ea3a",
        "callsign": "ENT4KM",
        "origin_country": "Poland",
        "time_position": 1787104184,
        "last_contact": 1787104185,
        "baro_altitude": 617.22,
        "on_ground": false,
        "velocity": 103.77,
        "true_track": 279.42,
        "vertical_rate": 4.55,
        "geo_altitude": 678.18,
        "squawk": null,
        "spi": false,
        "position_source": 0
      }
    },
    {
      "type": "Feature",
      "geometry": {
        "type": "Point",
        "coordinates": [
          18.0709,
          46.3937
        ]
      },
      "properties": {
        "icao24": "4bcda6",
        "callsign": "SXS2ZN",
        "origin_country": "Turkey",
        "time_position": 1787104184,
        "last_contact": 1787104184,
        "baro_altitude": 10660.38,
        "on_ground": false,
        "velocity": 284.4,
        "true_track": 127.43,
        "vertical_rate": 0,
        "geo_altitude": 11109.96,
        "squawk": "6037",
        "spi": false,
        "position_source": 0
      }
    },
    {
      "type": "Feature",
      "geometry": {
        "type": "Point",
        "coordinates": [
          10.8442,
          41.5432
        ]
      },
      "properties": {
        "icao24": "4a5df7",
        "callsign": "HYS7202",
        "origin_country": "Romania",
        "time_position": 1787104185,
        "last_contact": 1787104185,
        "baro_altitude": 10675.62,
        "on_ground": false,
        "velocity": 234.28,
        "true_track": 70.77,
        "vertical_rate": 0,
        "geo_altitude": 11338.56,
        "squawk": "1427",
        "spi": false,
        "position_source": 0
      }
    },
    {
      "type": "Feature",
      "geometry": {
        "type": "Point",
        "coordinates": [
          16.1685,
          47.4597
        ]
      },
      "properties": {
        "icao24": "4bccaf",
        "callsign": "SXS1PJ",
        "origin_country": "Turkey",
        "time_position": 1787104185,
        "last_contact": 1787104185,
        "baro_altitude": 11277.6,
        "on_ground": false,
        "velocity": 271.76,
        "true_track": 127.69,
        "vertical_rate": 0,
        "geo_altitude": 11734.8,
        "squawk": "7641",
        "spi": false,
        "position_source": 0
      }
    },
    {
      "type": "Feature",
      "geometry": {
        "type": "Point",
        "coordinates": [
          7.5289,
          47.5946
        ]
      },
      "properties": {
        "icao24": "3869ff",
        "callsign": "TECH37",
        "origin_country": "France",
        "time_position": 1787104184,
        "last_contact": 1787104184,
        "baro_altitude": null,
        "on_ground": true,
        "velocity": 20.06,
        "true_track": 154.69,
        "vertical_rate": null,
        "geo_altitude": null,
        "squawk": null,
        "spi": false,
        "position_source": 0
      }
    },
    {
      "type": "Feature",
      "geometry": {
        "type": "Point",
        "coordinates": [
          8.8069,
          45.9369
        ]
      },
      "properties": {
        "icao24": "8940cf",
        "callsign": "DHX755",
        "origin_country": "Bahrain",
        "time_position": 1787104184,
        "last_contact": 1787104184,
        "baro_altitude": 4709.16,
        "on_ground": false,
        "velocity": 180.15,
        "true_track": 171.13,
        "vertical_rate": -13.33,
        "geo_altitude": 4983.48,
        "squawk": "1000",
        "spi": false,
        "position_source": 0
      }
    },
    {
      "type": "Feature",
      "geometry": {
        "type": "Point",
        "coordinates": [
          18.3112,
          44.2429
        ]
      },
      "properties": {
        "icao24": "4d010c",
        "callsign": "ICV736",
        "origin_country": "Luxembourg",
        "time_position": 1787104184,
        "last_contact": 1787104184,
        "baro_altitude": 9776.46,
        "on_ground": false,
        "velocity": 228.85,
        "true_track": 283.26,
        "vertical_rate": 0,
        "geo_altitude": 10218.42,
        "squawk": "0341",
        "spi": false,
        "position_source": 0
      }
    },
    {
      "type": "Feature",
      "geometry": {
        "type": "Point",
        "coordinates": [
          14.3573,
          40.3455
        ]
      },
      "properties": {
        "icao24": "3007d1",
        "callsign": "SLJ401",
        "origin_country": "Italy",
        "time_position": 1787104184,
        "last_contact": 1787104184,
        "baro_altitude": 5204.46,
        "on_ground": false,
        "velocity": 193.15,
        "true_track": 174.96,
        "vertical_rate": 5.2,
        "geo_altitude": 5524.5,
        "squawk": null,
        "spi": false,
        "position_source": 0
      }
    },
    {
      "type": "Feature",
      "geometry": {
        "type": "Point",
        "coordinates": [
          10.4355,
          36.1668
        ]
      },
      "properties": {
        "icao24": "0101bc",
        "callsign": "MSR862",
        "origin_country": "Egypt",
        "time_position": 1787104167,
        "last_contact": 1787104177,
        "baro_altitude": 10668,
        "on_ground": false,
        "velocity": 236.81,
        "true_track": 97.87,
        "vertical_rate": 0,
        "geo_altitude": 11323.32,
        "squawk": "6433",
        "spi": false,
        "position_source": 0
      }
    },
    {
      "type": "Feature",
      "geometry": {
        "type": "Point",
        "coordinates": [
          11.4348,
          39.5067
        ]
      },
      "properties": {
        "icao24": "348609",
        "callsign": "AEA35SY",
        "origin_country": "Spain",
        "time_position": 1787104183,
        "last_contact": 1787104184,
        "baro_altitude": 11582.4,
        "on_ground": false,
        "velocity": 241.77,
        "true_track": 275.25,
        "vertical_rate": 0,
        "geo_altitude": 12260.58,
        "squawk": "2035",
        "spi": false,
        "position_source": 0
      }
    },
    {
      "type": "Feature",
      "geometry": {
        "type": "Point",
        "coordinates": [
          18.5199,
          44.1988
        ]
      },
      "properties": {
        "icao24": "39b225",
        "callsign": "CMA561",
        "origin_country": "France",
        "time_position": 1787104184,
        "last_contact": 1787104184,
        "baro_altitude": 10363.2,
        "on_ground": false,
        "velocity": 223.61,
        "true_track": 283.3,
        "vertical_rate": 0,
        "geo_altitude": 10873.74,
        "squawk": "3213",
        "spi": false,
        "position_source": 0
      }
    },
    {
      "type": "Feature",
      "geometry": {
        "type": "Point",
        "coordinates": [
          7.7775,
          47.5752
        ]
      },
      "properties": {
        "icao24": "4d240c",
        "callsign": "EWG31G",
        "origin_country": "Malta",
        "time_position": 1787104184,
        "last_contact": 1787104185,
        "baro_altitude": 11277.6,
        "on_ground": false,
        "velocity": 228.6,
        "true_track": 211.47,
        "vertical_rate": -0.33,
        "geo_altitude": 11864.34,
        "squawk": "0615",
        "spi": false,
        "position_source": 0
      }
    },
    {
      "type": "Feature",
      "geometry": {
        "type": "Point",
        "coordinates": [
          7.0203,
          38.8442
        ]
      },
      "properties": {
        "icao24": "3c7a4d",
        "callsign": "CFG289",
        "origin_country": "Germany",
        "time_position": 1787104184,
        "last_contact": 1787104185,
        "baro_altitude": 12192,
        "on_ground": false,
        "velocity": 238.78,
        "true_track": 6.68,
        "vertical_rate": 0,
        "geo_altitude": 12885.42,
        "squawk": null,
        "spi": false,
        "position_source": 0
      }
    },
    {
      "type": "Feature",
      "geometry": {
        "type": "Point",
        "coordinates": [
          6.8048,
          46.5878
        ]
      },
      "properties": {
        "icao24": "4b3e95",
        "callsign": "LAS3",
        "origin_country": "Switzerland",
        "time_position": 1787104184,
        "last_contact": 1787104184,
        "baro_altitude": 1341.12,
        "on_ground": false,
        "velocity": 59.82,
        "true_track": 229.18,
        "vertical_rate": 0,
        "geo_altitude": 1440.18,
        "squawk": "7100",
        "spi": false,
        "position_source": 0
      }
    },
    {
      "type": "Feature",
      "geometry": {
        "type": "Point",
        "coordinates": [
          8.9874,
          45.394
        ]
      },
      "properties": {
        "icao24": "348358",
        "callsign": "BCS8UM",
        "origin_country": "Spain",
        "time_position": 1787104184,
        "last_contact": 1787104184,
        "baro_altitude": 3992.88,
        "on_ground": false,
        "velocity": 181.03,
        "true_track": 119.26,
        "vertical_rate": 13.66,
        "geo_altitude": 4221.48,
        "squawk": "0441",
        "spi": false,
        "position_source": 0
      }
    },
    {
      "type": "Feature",
      "geometry": {
        "type": "Point",
        "coordinates": [
          17.4751,
          45.2422
        ]
      },
      "properties": {
        "icao24": "4d232c",
        "callsign": "CXI7FR",
        "origin_country": "Malta",
        "time_position": 1787104185,
        "last_contact": 1787104185,
        "baro_altitude": 11277.6,
        "on_ground": false,
        "velocity": 274.82,
        "true_track": 146.99,
        "vertical_rate": 0,
        "geo_altitude": 11803.38,
        "squawk": "6005",
        "spi": false,
        "position_source": 0
      }
    },
    {
      "type": "Feature",
      "geometry": {
        "type": "Point",
        "coordinates": [
          16.7039,
          47.1484
        ]
      },
      "properties": {
        "icao24": "4c0221",
        "callsign": "ASL501",
        "origin_country": "Serbia",
        "time_position": 1787104184,
        "last_contact": 1787104184,
        "baro_altitude": 11277.6,
        "on_ground": false,
        "velocity": 291.3,
        "true_track": 127.54,
        "vertical_rate": 0,
        "geo_altitude": 11772.9,
        "squawk": "1161",
        "spi": false,
        "position_source": 0
      }
    },
    {
      "type": "Feature",
      "geometry": {
        "type": "Point",
        "coordinates": [
          8.7177,
          45.6243
        ]
      },
      "properties": {
        "icao24": "4d216a",
        "callsign": "WMT3MA",
        "origin_country": "Malta",
        "time_position": 1787104180,
        "last_contact": 1787104185,
        "baro_altitude": null,
        "on_ground": true,
        "velocity": 0,
        "true_track": 323.44,
        "vertical_rate": null,
        "geo_altitude": null,
        "squawk": null,
        "spi": false,
        "position_source": 0
      }
    },
    {
      "type": "Feature",
      "geometry": {
        "type": "Point",
        "coordinates": [
          14.4737,
          35.8582
        ]
      },
      "properties": {
        "icao24": "4d2155",
        "callsign": "VJT993",
        "origin_country": "Malta",
        "time_position": 1787104183,
        "last_contact": 1787104183,
        "baro_altitude": null,
        "on_ground": true,
        "velocity": 0,
        "true_track": 323.44,
        "vertical_rate": null,
        "geo_altitude": null,
        "squawk": null,
        "spi": false,
        "position_source": 0
      }
    },
    {
      "type": "Feature",
      "geometry": {
        "type": "Point",
        "coordinates": [
          6.2352,
          38.3502
        ]
      },
      "properties": {
        "icao24": "39d2b0",
        "callsign": "AFR995",
        "origin_country": "France",
        "time_position": 1787104185,
        "last_contact": 1787104185,
        "baro_altitude": 12192,
        "on_ground": false,
        "velocity": 246.54,
        "true_track": 350.03,
        "vertical_rate": 0,
        "geo_altitude": 12870.18,
        "squawk": null,
        "spi": false,
        "position_source": 0
      }
    },
    {
      "type": "Feature",
      "geometry": {
        "type": "Point",
        "coordinates": [
          6.2903,
          43.66
        ]
      },
      "properties": {
        "icao24": "451dbd",
        "callsign": "BCS460",
        "origin_country": "Bulgaria",
        "time_position": 1787104185,
        "last_contact": 1787104185,
        "baro_altitude": 10058.4,
        "on_ground": false,
        "velocity": 228.52,
        "true_track": 233.05,
        "vertical_rate": 0.33,
        "geo_altitude": 10675.62,
        "squawk": "1000",
        "spi": false,
        "position_source": 0
      }
    },
    {
      "type": "Feature",
      "geometry": {
        "type": "Point",
        "coordinates": [
          7.5253,
          47.6012
        ]
      },
      "properties": {
        "icao24": "38c7ff",
        "callsign": "TECH18",
        "origin_country": "France",
        "time_position": 1787104184,
        "last_contact": 1787104184,
        "baro_altitude": null,
        "on_ground": true,
        "velocity": 8.75,
        "true_track": 334.69,
        "vertical_rate": null,
        "geo_altitude": null,
        "squawk": null,
        "spi": false,
        "position_source": 0
      }
    },
    {
      "type": "Feature",
      "geometry": {
        "type": "Point",
        "coordinates": [
          8.5609,
          47.4424
        ]
      },
      "properties": {
        "icao24": "4b17e3",
        "callsign": "SWR",
        "origin_country": "Switzerland",
        "time_position": 1787104180,
        "last_contact": 1787104180,
        "baro_altitude": null,
        "on_ground": true,
        "velocity": 0,
        "true_track": 244.69,
        "vertical_rate": null,
        "geo_altitude": null,
        "squawk": "2000",
        "spi": false,
        "position_source": 0
      }
    },
    {
      "type": "Feature",
      "geometry": {
        "type": "Point",
        "coordinates": [
          8.5678,
          47.455
        ]
      },
      "properties": {
        "icao24": "4b17fa",
        "callsign": "SWR9EX",
        "origin_country": "Switzerland",
        "time_position": 1787104175,
        "last_contact": 1787104183,
        "baro_altitude": 426.72,
        "on_ground": true,
        "velocity": 0,
        "true_track": 129.38,
        "vertical_rate": null,
        "geo_altitude": null,
        "squawk": "2000",
        "spi": false,
        "position_source": 0
      }
    }
  ]
}