{
  "type": "FeatureCollection",
  "source": "opensky",
  "dataset": "aircraft_italy",
  "generated_at": "2026-06-16T23:59:37.577621+00:00",
  "opensky_time": 1781654364,
  "count": 67,
  "features": [
    {
      "type": "Feature",
      "geometry": {
        "type": "Point",
        "coordinates": [
          7.1394,
          47.4076
        ]
      },
      "properties": {
        "icao24": "801666",
        "callsign": "AIC102",
        "origin_country": "India",
        "time_position": 1781654364,
        "last_contact": 1781654364,
        "baro_altitude": 11277.6,
        "on_ground": false,
        "velocity": 268.53,
        "true_track": 113.96,
        "vertical_rate": 0,
        "geo_altitude": 11734.8,
        "squawk": "1154",
        "spi": false,
        "position_source": 0
      }
    },
    {
      "type": "Feature",
      "geometry": {
        "type": "Point",
        "coordinates": [
          11.7027,
          47.7587
        ]
      },
      "properties": {
        "icao24": "407b8b",
        "callsign": "WUK8QH",
        "origin_country": "United Kingdom",
        "time_position": 1781654364,
        "last_contact": 1781654364,
        "baro_altitude": 10972.8,
        "on_ground": false,
        "velocity": 202.49,
        "true_track": 306.84,
        "vertical_rate": 0,
        "geo_altitude": 11353.8,
        "squawk": "3577",
        "spi": false,
        "position_source": 0
      }
    },
    {
      "type": "Feature",
      "geometry": {
        "type": "Point",
        "coordinates": [
          11.6485,
          42.4255
        ]
      },
      "properties": {
        "icao24": "440300",
        "callsign": "OEILS",
        "origin_country": "Austria",
        "time_position": 1781654364,
        "last_contact": 1781654364,
        "baro_altitude": 12192,
        "on_ground": false,
        "velocity": 238.64,
        "true_track": 291.37,
        "vertical_rate": 0,
        "geo_altitude": 12641.58,
        "squawk": "4135",
        "spi": false,
        "position_source": 0
      }
    },
    {
      "type": "Feature",
      "geometry": {
        "type": "Point",
        "coordinates": [
          7.5058,
          47.262
        ]
      },
      "properties": {
        "icao24": "738072",
        "callsign": "ELY004",
        "origin_country": "Israel",
        "time_position": 1781654363,
        "last_contact": 1781654364,
        "baro_altitude": 11277.6,
        "on_ground": false,
        "velocity": 265,
        "true_track": 113.33,
        "vertical_rate": 0,
        "geo_altitude": 11742.42,
        "squawk": "2357",
        "spi": false,
        "position_source": 0
      }
    },
    {
      "type": "Feature",
      "geometry": {
        "type": "Point",
        "coordinates": [
          15.9034,
          39.2319
        ]
      },
      "properties": {
        "icao24": "738055",
        "callsign": "ELY398",
        "origin_country": "Israel",
        "time_position": 1781654364,
        "last_contact": 1781654364,
        "baro_altitude": 10668,
        "on_ground": false,
        "velocity": 243.38,
        "true_track": 105.45,
        "vertical_rate": 0,
        "geo_altitude": 11094.72,
        "squawk": "1446",
        "spi": false,
        "position_source": 0
      }
    },
    {
      "type": "Feature",
      "geometry": {
        "type": "Point",
        "coordinates": [
          16.3357,
          44.8963
        ]
      },
      "properties": {
        "icao24": "4891ab",
        "callsign": "ENT5MT",
        "origin_country": "Poland",
        "time_position": 1781654364,
        "last_contact": 1781654364,
        "baro_altitude": 11894.82,
        "on_ground": false,
        "velocity": 238.61,
        "true_track": 185.07,
        "vertical_rate": 0,
        "geo_altitude": 12260.58,
        "squawk": "1000",
        "spi": false,
        "position_source": 0
      }
    },
    {
      "type": "Feature",
      "geometry": {
        "type": "Point",
        "coordinates": [
          13.45,
          47.7697
        ]
      },
      "properties": {
        "icao24": "406900",
        "callsign": "EXS3TJ",
        "origin_country": "United Kingdom",
        "time_position": 1781654363,
        "last_contact": 1781654364,
        "baro_altitude": 11582.4,
        "on_ground": false,
        "velocity": 202.98,
        "true_track": 315.21,
        "vertical_rate": 0,
        "geo_altitude": 11925.3,
        "squawk": "2023",
        "spi": false,
        "position_source": 0
      }
    },
    {
      "type": "Feature",
      "geometry": {
        "type": "Point",
        "coordinates": [
          16.9033,
          44.5391
        ]
      },
      "properties": {
        "icao24": "738100",
        "callsign": "ELY003",
        "origin_country": "Israel",
        "time_position": 1781654364,
        "last_contact": 1781654364,
        "baro_altitude": 11582.4,
        "on_ground": false,
        "velocity": 236.14,
        "true_track": 303.45,
        "vertical_rate": -0.33,
        "geo_altitude": 11948.16,
        "squawk": "2224",
        "spi": false,
        "position_source": 0
      }
    },
    {
      "type": "Feature",
      "geometry": {
        "type": "Point",
        "coordinates": [
          18.9069,
          40.2614
        ]
      },
      "properties": {
        "icao24": "452153",
        "callsign": "VAW9514",
        "origin_country": "Bulgaria",
        "time_position": 1781654364,
        "last_contact": 1781654364,
        "baro_altitude": 11887.2,
        "on_ground": false,
        "velocity": 225.45,
        "true_track": 47.87,
        "vertical_rate": 0,
        "geo_altitude": 12321.54,
        "squawk": "4112",
        "spi": false,
        "position_source": 0
      }
    },
    {
      "type": "Feature",
      "geometry": {
        "type": "Point",
        "coordinates": [
          17.3037,
          47.3696
        ]
      },
      "properties": {
        "icao24": "4bb2aa",
        "callsign": "TKJ3MQ",
        "origin_country": "Turkey",
        "time_position": 1781654364,
        "last_contact": 1781654364,
        "baro_altitude": 10660.38,
        "on_ground": false,
        "velocity": 250.66,
        "true_track": 118.3,
        "vertical_rate": 0,
        "geo_altitude": 10949.94,
        "squawk": "5205",
        "spi": false,
        "position_source": 0
      }
    },
    {
      "type": "Feature",
      "geometry": {
        "type": "Point",
        "coordinates": [
          12.089,
          46.3742
        ]
      },
      "properties": {
        "icao24": "4892c8",
        "callsign": "ENT4YH",
        "origin_country": "Poland",
        "time_position": 1781654364,
        "last_contact": 1781654364,
        "baro_altitude": 10972.8,
        "on_ground": false,
        "velocity": 217.98,
        "true_track": 51.8,
        "vertical_rate": 0,
        "geo_altitude": 11369.04,
        "squawk": "1000",
        "spi": false,
        "position_source": 0
      }
    },
    {
      "type": "Feature",
      "geometry": {
        "type": "Point",
        "coordinates": [
          10.2066,
          44.3843
        ]
      },
      "properties": {
        "icao24": "02019d",
        "callsign": "MAC466C",
        "origin_country": "Morocco",
        "time_position": 1781654364,
        "last_contact": 1781654364,
        "baro_altitude": 6484.62,
        "on_ground": false,
        "velocity": 205.78,
        "true_track": 247.67,
        "vertical_rate": 11.05,
        "geo_altitude": 6827.52,
        "squawk": "3752",
        "spi": false,
        "position_source": 0
      }
    },
    {
      "type": "Feature",
      "geometry": {
        "type": "Point",
        "coordinates": [
          12.6846,
          37.5846
        ]
      },
      "properties": {
        "icao24": "4bb204",
        "callsign": "THY5LY",
        "origin_country": "Turkey",
        "time_position": 1781654364,
        "last_contact": 1781654364,
        "baro_altitude": 10668,
        "on_ground": false,
        "velocity": 236.57,
        "true_track": 69.24,
        "vertical_rate": 0,
        "geo_altitude": 11140.44,
        "squawk": "0214",
        "spi": false,
        "position_source": 0
      }
    },
    {
      "type": "Feature",
      "geometry": {
        "type": "Point",
        "coordinates": [
          14.7865,
          37.3334
        ]
      },
      "properties": {
        "icao24": "0201a4",
        "callsign": "RAM2131",
        "origin_country": "Morocco",
        "time_position": 1781654364,
        "last_contact": 1781654364,
        "baro_altitude": 11582.4,
        "on_ground": false,
        "velocity": 242.5,
        "true_track": 296.18,
        "vertical_rate": -0.33,
        "geo_altitude": 12062.46,
        "squawk": "7742",
        "spi": false,
        "position_source": 0
      }
    },
    {
      "type": "Feature",
      "geometry": {
        "type": "Point",
        "coordinates": [
          14.3023,
          36.2256
        ]
      },
      "properties": {
        "icao24": "040188",
        "callsign": "ETH741",
        "origin_country": "Ethiopia",
        "time_position": 1781654364,
        "last_contact": 1781654364,
        "baro_altitude": 10668,
        "on_ground": false,
        "velocity": 275.99,
        "true_track": 100.2,
        "vertical_rate": 0,
        "geo_altitude": 11140.44,
        "squawk": "4117",
        "spi": false,
        "position_source": 0
      }
    },
    {
      "type": "Feature",
      "geometry": {
        "type": "Point",
        "coordinates": [
          8.6821,
          45.5106
        ]
      },
      "properties": {
        "icao24": "4ca4ef",
        "callsign": "RYR3008",
        "origin_country": "Ireland",
        "time_position": 1781654364,
        "last_contact": 1781654364,
        "baro_altitude": 1600.2,
        "on_ground": false,
        "velocity": 136.81,
        "true_track": 209.26,
        "vertical_rate": 5.2,
        "geo_altitude": 1760.22,
        "squawk": null,
        "spi": false,
        "position_source": 0
      }
    },
    {
      "type": "Feature",
      "geometry": {
        "type": "Point",
        "coordinates": [
          13.332,
          35.718
        ]
      },
      "properties": {
        "icao24": "4ba9cb",
        "callsign": "THY571",
        "origin_country": "Turkey",
        "time_position": 1781654364,
        "last_contact": 1781654364,
        "baro_altitude": 11582.4,
        "on_ground": false,
        "velocity": 229,
        "true_track": 246.43,
        "vertical_rate": 0,
        "geo_altitude": 12077.7,
        "squawk": "2351",
        "spi": false,
        "position_source": 0
      }
    },
    {
      "type": "Feature",
      "geometry": {
        "type": "Point",
        "coordinates": [
          6.1547,
          36.5271
        ]
      },
      "properties": {
        "icao24": "4ba9e9",
        "callsign": "THY3RU",
        "origin_country": "Turkey",
        "time_position": 1781654353,
        "last_contact": 1781654353,
        "baro_altitude": 11887.2,
        "on_ground": false,
        "velocity": 246.91,
        "true_track": 79.56,
        "vertical_rate": 0,
        "geo_altitude": 12428.22,
        "squawk": "6431",
        "spi": false,
        "position_source": 0
      }
    },
    {
      "type": "Feature",
      "geometry": {
        "type": "Point",
        "coordinates": [
          15.8019,
          43.5739
        ]
      },
      "properties": {
        "icao24": "502d9f",
        "callsign": "BTI8CH",
        "origin_country": "Latvia",
        "time_position": 1781654364,
        "last_contact": 1781654364,
        "baro_altitude": 11582.4,
        "on_ground": false,
        "velocity": 218.86,
        "true_track": 2.56,
        "vertical_rate": 0,
        "geo_altitude": 11955.78,
        "squawk": "6563",
        "spi": false,
        "position_source": 0
      }
    },
    {
      "type": "Feature",
      "geometry": {
        "type": "Point",
        "coordinates": [
          11.7364,
          46.7371
        ]
      },
      "properties": {
        "icao24": "406d92",
        "callsign": "EZY2158",
        "origin_country": "United Kingdom",
        "time_position": 1781654364,
        "last_contact": 1781654364,
        "baro_altitude": 10980.42,
        "on_ground": false,
        "velocity": 207.89,
        "true_track": 299.99,
        "vertical_rate": -0.33,
        "geo_altitude": 11407.14,
        "squawk": "3111",
        "spi": false,
        "position_source": 0
      }
    },
    {
      "type": "Feature",
      "geometry": {
        "type": "Point",
        "coordinates": [
          14.4806,
          47.0576
        ]
      },
      "properties": {
        "icao24": "407fae",
        "callsign": "TOM8FL",
        "origin_country": "United Kingdom",
        "time_position": 1781654364,
        "last_contact": 1781654364,
        "baro_altitude": 11590.02,
        "on_ground": false,
        "velocity": 208.09,
        "true_track": 315.8,
        "vertical_rate": -0.33,
        "geo_altitude": 11925.3,
        "squawk": "2045",
        "spi": false,
        "position_source": 0
      }
    },
    {
      "type": "Feature",
      "geometry": {
        "type": "Point",
        "coordinates": [
          9.1989,
          42.6826
        ]
      },
      "properties": {
        "icao24": "4ca304",
        "callsign": "RYR9P",
        "origin_country": "Ireland",
        "time_position": 1781654364,
        "last_contact": 1781654364,
        "baro_altitude": 11582.4,
        "on_ground": false,
        "velocity": 209.42,
        "true_track": 337.47,
        "vertical_rate": 0,
        "geo_altitude": 12062.46,
        "squawk": null,
        "spi": false,
        "position_source": 0
      }
    },
    {
      "type": "Feature",
      "geometry": {
        "type": "Point",
        "coordinates": [
          16.6908,
          45.8069
        ]
      },
      "properties": {
        "icao24": "49d38c",
        "callsign": "TVS22H",
        "origin_country": "Czech Republic",
        "time_position": 1781654363,
        "last_contact": 1781654364,
        "baro_altitude": 10058.4,
        "on_ground": false,
        "velocity": 248.25,
        "true_track": 153.81,
        "vertical_rate": 0,
        "geo_altitude": 10355.58,
        "squawk": "4430",
        "spi": false,
        "position_source": 0
      }
    },
    {
      "type": "Feature",
      "geometry": {
        "type": "Point",
        "coordinates": [
          18.9999,
          37.0317
        ]
      },
      "properties": {
        "icao24": "040241",
        "callsign": "ETH501",
        "origin_country": "Ethiopia",
        "time_position": 1781654341,
        "last_contact": 1781654341,
        "baro_altitude": 11277.6,
        "on_ground": false,
        "velocity": 267,
        "true_track": 122.65,
        "vertical_rate": 0.33,
        "geo_altitude": 11719.56,
        "squawk": "4312",
        "spi": false,
        "position_source": 0
      }
    },
    {
      "type": "Feature",
      "geometry": {
        "type": "Point",
        "coordinates": [
          12.2586,
          47.5156
        ]
      },
      "properties": {
        "icao24": "406e9f",
        "callsign": "EXS7GT",
        "origin_country": "United Kingdom",
        "time_position": 1781654364,
        "last_contact": 1781654364,
        "baro_altitude": 12192,
        "on_ground": false,
        "velocity": 220.29,
        "true_track": 306.55,
        "vertical_rate": 0.33,
        "geo_altitude": 12588.24,
        "squawk": "5360",
        "spi": false,
        "position_source": 0
      }
    },
    {
      "type": "Feature",
      "geometry": {
        "type": "Point",
        "coordinates": [
          8.7179,
          45.6396
        ]
      },
      "properties": {
        "icao24": "31d7ac",
        "callsign": "MIKE3",
        "origin_country": "Italy",
        "time_position": 1781654310,
        "last_contact": 1781654315,
        "baro_altitude": null,
        "on_ground": true,
        "velocity": 8.23,
        "true_track": 140.62,
        "vertical_rate": null,
        "geo_altitude": null,
        "squawk": null,
        "spi": false,
        "position_source": 0
      }
    },
    {
      "type": "Feature",
      "geometry": {
        "type": "Point",
        "coordinates": [
          7.203,
          43.6531
        ]
      },
      "properties": {
        "icao24": "064313",
        "callsign": "5NPPB",
        "origin_country": "Nigeria",
        "time_position": 1781654364,
        "last_contact": 1781654364,
        "baro_altitude": null,
        "on_ground": true,
        "velocity": 5.4,
        "true_track": 191.25,
        "vertical_rate": null,
        "geo_altitude": null,
        "squawk": null,
        "spi": false,
        "position_source": 0
      }
    },
    {
      "type": "Feature",
      "geometry": {
        "type": "Point",
        "coordinates": [
          8.731,
          45.6202
        ]
      },
      "properties": {
        "icao24": "407fd2",
        "callsign": "DHK528",
        "origin_country": "United Kingdom",
        "time_position": 1781654364,
        "last_contact": 1781654364,
        "baro_altitude": null,
        "on_ground": true,
        "velocity": 15.43,
        "true_track": 168.75,
        "vertical_rate": null,
        "geo_altitude": null,
        "squawk": "5214",
        "spi": false,
        "position_source": 0
      }
    },
    {
      "type": "Feature",
      "geometry": {
        "type": "Point",
        "coordinates": [
          11.9093,
          39.9281
        ]
      },
      "properties": {
        "icao24": "49d287",
        "callsign": "TVS2788",
        "origin_country": "Czech Republic",
        "time_position": 1781654364,
        "last_contact": 1781654364,
        "baro_altitude": 11887.2,
        "on_ground": false,
        "velocity": 247.39,
        "true_track": 191.64,
        "vertical_rate": 0,
        "geo_altitude": 12352.02,
        "squawk": "1166",
        "spi": false,
        "position_source": 0
      }
    },
    {
      "type": "Feature",
      "geometry": {
        "type": "Point",
        "coordinates": [
          14.3965,
          46.187
        ]
      },
      "properties": {
        "icao24": "407e54",
        "callsign": "EXS4SL",
        "origin_country": "United Kingdom",
        "time_position": 1781654364,
        "last_contact": 1781654364,
        "baro_altitude": 10957.56,
        "on_ground": false,
        "velocity": 206.98,
        "true_track": 315.1,
        "vertical_rate": -0.33,
        "geo_altitude": 11323.32,
        "squawk": "5303",
        "spi": false,
        "position_source": 0
      }
    },
    {
      "type": "Feature",
      "geometry": {
        "type": "Point",
        "coordinates": [
          16.7417,
          44.9942
        ]
      },
      "properties": {
        "icao24": "406b13",
        "callsign": "TOM50W",
        "origin_country": "United Kingdom",
        "time_position": 1781654364,
        "last_contact": 1781654364,
        "baro_altitude": 13106.4,
        "on_ground": false,
        "velocity": 233.65,
        "true_track": 309.19,
        "vertical_rate": 0,
        "geo_altitude": 13487.4,
        "squawk": "2024",
        "spi": false,
        "position_source": 0
      }
    },
    {
      "type": "Feature",
      "geometry": {
        "type": "Point",
        "coordinates": [
          9.8803,
          45.4985
        ]
      },
      "properties": {
        "icao24": "44079a",
        "callsign": "EJU18NT",
        "origin_country": "Austria",
        "time_position": 1781654363,
        "last_contact": 1781654364,
        "baro_altitude": 5791.2,
        "on_ground": false,
        "velocity": 198.74,
        "true_track": 265.25,
        "vertical_rate": -13.98,
        "geo_altitude": 6111.24,
        "squawk": "6621",
        "spi": false,
        "position_source": 0
      }
    },
    {
      "type": "Feature",
      "geometry": {
        "type": "Point",
        "coordinates": [
          6.9514,
          40.8473
        ]
      },
      "properties": {
        "icao24": "4cc58a",
        "callsign": "ABD2623",
        "origin_country": "Iceland",
        "time_position": 1781654364,
        "last_contact": 1781654364,
        "baro_altitude": 12192,
        "on_ground": false,
        "velocity": 230.07,
        "true_track": 358.21,
        "vertical_rate": -0.33,
        "geo_altitude": 12702.54,
        "squawk": "1000",
        "spi": false,
        "position_source": 0
      }
    },
    {
      "type": "Feature",
      "geometry": {
        "type": "Point",
        "coordinates": [
          11.4206,
          46.1637
        ]
      },
      "properties": {
        "icao24": "407ac3",
        "callsign": "TOM30A",
        "origin_country": "United Kingdom",
        "time_position": 1781654364,
        "last_contact": 1781654364,
        "baro_altitude": 12192,
        "on_ground": false,
        "velocity": 207.17,
        "true_track": 301.6,
        "vertical_rate": 0,
        "geo_altitude": 12618.72,
        "squawk": "2260",
        "spi": false,
        "position_source": 0
      }
    },
    {
      "type": "Feature",
      "geometry": {
        "type": "Point",
        "coordinates": [
          11.2587,
          36.7177
        ]
      },
      "properties": {
        "icao24": "4b9c63",
        "callsign": "THY6114",
        "origin_country": "Turkey",
        "time_position": 1781654358,
        "last_contact": 1781654358,
        "baro_altitude": 5402.58,
        "on_ground": false,
        "velocity": 192.41,
        "true_track": 269.39,
        "vertical_rate": -10.4,
        "geo_altitude": 5737.86,
        "squawk": "2311",
        "spi": false,
        "position_source": 0
      }
    },
    {
      "type": "Feature",
      "geometry": {
        "type": "Point",
        "coordinates": [
          8.5581,
          47.4534
        ]
      },
      "properties": {
        "icao24": "4b1802",
        "callsign": "SWR57Z",
        "origin_country": "Switzerland",
        "time_position": 1781654360,
        "last_contact": 1781654363,
        "baro_altitude": 373.38,
        "on_ground": true,
        "velocity": 0,
        "true_track": 5.62,
        "vertical_rate": null,
        "geo_altitude": null,
        "squawk": "2000",
        "spi": false,
        "position_source": 0
      }
    },
    {
      "type": "Feature",
      "geometry": {
        "type": "Point",
        "coordinates": [
          8.5532,
          47.4634
        ]
      },
      "properties": {
        "icao24": "4b180a",
        "callsign": "SWR5155",
        "origin_country": "Switzerland",
        "time_position": 1781654360,
        "last_contact": 1781654364,
        "baro_altitude": null,
        "on_ground": true,
        "velocity": 0,
        "true_track": 5.62,
        "vertical_rate": null,
        "geo_altitude": null,
        "squawk": "2000",
        "spi": false,
        "position_source": 0
      }
    },
    {
      "type": "Feature",
      "geometry": {
        "type": "Point",
        "coordinates": [
          16.9414,
          43.1323
        ]
      },
      "properties": {
        "icao24": "40812d",
        "callsign": "EZY41GE",
        "origin_country": "United Kingdom",
        "time_position": 1781654363,
        "last_contact": 1781654363,
        "baro_altitude": 10965.18,
        "on_ground": false,
        "velocity": 218.03,
        "true_track": 312.99,
        "vertical_rate": 0,
        "geo_altitude": 11353.8,
        "squawk": "5513",
        "spi": false,
        "position_source": 0
      }
    },
    {
      "type": "Feature",
      "geometry": {
        "type": "Point",
        "coordinates": [
          13.1171,
          45.3604
        ]
      },
      "properties": {
        "icao24": "40803f",
        "callsign": "TOM9WJ",
        "origin_country": "United Kingdom",
        "time_position": 1781654363,
        "last_contact": 1781654364,
        "baro_altitude": 11582.4,
        "on_ground": false,
        "velocity": 202.82,
        "true_track": 298.65,
        "vertical_rate": 0,
        "geo_altitude": 11971.02,
        "squawk": "2205",
        "spi": false,
        "position_source": 0
      }
    },
    {
      "type": "Feature",
      "geometry": {
        "type": "Point",
        "coordinates": [
          9.2575,
          45.4972
        ]
      },
      "properties": {
        "icao24": "440cbe",
        "callsign": "EJU15ZP",
        "origin_country": "Austria",
        "time_position": 1781654364,
        "last_contact": 1781654364,
        "baro_altitude": 2377.44,
        "on_ground": false,
        "velocity": 147.66,
        "true_track": 270.8,
        "vertical_rate": -3.9,
        "geo_altitude": 2567.94,
        "squawk": "2326",
        "spi": false,
        "position_source": 0
      }
    },
    {
      "type": "Feature",
      "geometry": {
        "type": "Point",
        "coordinates": [
          15.2078,
          35.7166
        ]
      },
      "properties": {
        "icao24": "0a0045",
        "callsign": "DAH304",
        "origin_country": "Algeria",
        "time_position": 1781654364,
        "last_contact": 1781654364,
        "baro_altitude": 11887.2,
        "on_ground": false,
        "velocity": 255.95,
        "true_track": 97.74,
        "vertical_rate": 0,
        "geo_altitude": 12390.12,
        "squawk": "4101",
        "spi": false,
        "position_source": 0
      }
    },
    {
      "type": "Feature",
      "geometry": {
        "type": "Point",
        "coordinates": [
          7.157,
          38.2253
        ]
      },
      "properties": {
        "icao24": "0a0074",
        "callsign": "DAH1545",
        "origin_country": "Algeria",
        "time_position": 1781654224,
        "last_contact": 1781654224,
        "baro_altitude": 8092.44,
        "on_ground": false,
        "velocity": 239.91,
        "true_track": 155.69,
        "vertical_rate": -13,
        "geo_altitude": 8641.08,
        "squawk": "7647",
        "spi": false,
        "position_source": 0
      }
    },
    {
      "type": "Feature",
      "geometry": {
        "type": "Point",
        "coordinates": [
          12.8503,
          45.4802
        ]
      },
      "properties": {
        "icao24": "408183",
        "callsign": "EZY75EJ",
        "origin_country": "United Kingdom",
        "time_position": 1781654363,
        "last_contact": 1781654364,
        "baro_altitude": 11590.02,
        "on_ground": false,
        "velocity": 210.35,
        "true_track": 298.01,
        "vertical_rate": 0,
        "geo_altitude": 11978.64,
        "squawk": "5502",
        "spi": false,
        "position_source": 0
      }
    },
    {
      "type": "Feature",
      "geometry": {
        "type": "Point",
        "coordinates": [
          8.2269,
          47.5511
        ]
      },
      "properties": {
        "icao24": "408181",
        "callsign": "EZY89KT",
        "origin_country": "United Kingdom",
        "time_position": 1781654364,
        "last_contact": 1781654364,
        "baro_altitude": 11574.78,
        "on_ground": false,
        "velocity": 205.5,
        "true_track": 304.8,
        "vertical_rate": 0,
        "geo_altitude": 12039.6,
        "squawk": "2766",
        "spi": false,
        "position_source": 0
      }
    },
    {
      "type": "Feature",
      "geometry": {
        "type": "Point",
        "coordinates": [
          17.3948,
          39.1997
        ]
      },
      "properties": {
        "icao24": "7103d7",
        "callsign": "SVA118",
        "origin_country": "Saudi Arabia",
        "time_position": 1781654364,
        "last_contact": 1781654364,
        "baro_altitude": 11879.58,
        "on_ground": false,
        "velocity": 254.03,
        "true_track": 149.85,
        "vertical_rate": 0.33,
        "geo_altitude": 12329.16,
        "squawk": "5206",
        "spi": false,
        "position_source": 0
      }
    },
    {
      "type": "Feature",
      "geometry": {
        "type": "Point",
        "coordinates": [
          17.6868,
          41.8417
        ]
      },
      "properties": {
        "icao24": "408011",
        "callsign": "EZY63MD",
        "origin_country": "United Kingdom",
        "time_position": 1781654364,
        "last_contact": 1781654364,
        "baro_altitude": 10957.56,
        "on_ground": false,
        "velocity": 216.81,
        "true_track": 314.62,
        "vertical_rate": -0.33,
        "geo_altitude": 11361.42,
        "squawk": "6626",
        "spi": false,
        "position_source": 0
      }
    },
    {
      "type": "Feature",
      "geometry": {
        "type": "Point",
        "coordinates": [
          18.2269,
          46.5879
        ]
      },
      "properties": {
        "icao24": "4bcde8",
        "callsign": "SXS11A",
        "origin_country": "Turkey",
        "time_position": 1781654363,
        "last_contact": 1781654364,
        "baro_altitude": 11277.6,
        "on_ground": false,
        "velocity": 248.06,
        "true_track": 143.18,
        "vertical_rate": 0,
        "geo_altitude": 11567.16,
        "squawk": "7607",
        "spi": false,
        "position_source": 0
      }
    },
    {
      "type": "Feature",
      "geometry": {
        "type": "Point",
        "coordinates": [
          18.2221,
          46.3322
        ]
      },
      "properties": {
        "icao24": "4bce0e",
        "callsign": "SXS4QP",
        "origin_country": "Turkey",
        "time_position": 1781654364,
        "last_contact": 1781654364,
        "baro_altitude": 11277.6,
        "on_ground": false,
        "velocity": 254.29,
        "true_track": 128.84,
        "vertical_rate": 0,
        "geo_altitude": 11567.16,
        "squawk": "6412",
        "spi": false,
        "position_source": 0
      }
    },
    {
      "type": "Feature",
      "geometry": {
        "type": "Point",
        "coordinates": [
          7.2127,
          43.6499
        ]
      },
      "properties": {
        "icao24": "388c21",
        "callsign": "FAUCH2",
        "origin_country": "France",
        "time_position": 1781654034,
        "last_contact": 1781654281,
        "baro_altitude": null,
        "on_ground": true,
        "velocity": 1.03,
        "true_track": 154.69,
        "vertical_rate": null,
        "geo_altitude": null,
        "squawk": null,
        "spi": false,
        "position_source": 0
      }
    },
    {
      "type": "Feature",
      "geometry": {
        "type": "Point",
        "coordinates": [
          14.2984,
          45.2083
        ]
      },
      "properties": {
        "icao24": "4d010b",
        "callsign": "ICV736",
        "origin_country": "Luxembourg",
        "time_position": 1781654364,
        "last_contact": 1781654364,
        "baro_altitude": 10363.2,
        "on_ground": false,
        "velocity": 232.53,
        "true_track": 273.81,
        "vertical_rate": 0,
        "geo_altitude": 10683.24,
        "squawk": "2321",
        "spi": false,
        "position_source": 0
      }
    },
    {
      "type": "Feature",
      "geometry": {
        "type": "Point",
        "coordinates": [
          8.7243,
          45.6064
        ]
      },
      "properties": {
        "icao24": "3474cb",
        "callsign": "BCS136",
        "origin_country": "Spain",
        "time_position": 1781654364,
        "last_contact": 1781654364,
        "baro_altitude": null,
        "on_ground": true,
        "velocity": 3.34,
        "true_track": 270,
        "vertical_rate": null,
        "geo_altitude": null,
        "squawk": "1000",
        "spi": false,
        "position_source": 0
      }
    },
    {
      "type": "Feature",
      "geometry": {
        "type": "Point",
        "coordinates": [
          14.1636,
          41.0992
        ]
      },
      "properties": {
        "icao24": "01025d",
        "callsign": "MSR982",
        "origin_country": "Egypt",
        "time_position": 1781654364,
        "last_contact": 1781654364,
        "baro_altitude": 11269.98,
        "on_ground": false,
        "velocity": 263.63,
        "true_track": 114.31,
        "vertical_rate": -0.33,
        "geo_altitude": 11727.18,
        "squawk": "4302",
        "spi": false,
        "position_source": 0
      }
    },
    {
      "type": "Feature",
      "geometry": {
        "type": "Point",
        "coordinates": [
          7.8628,
          46.6547
        ]
      },
      "properties": {
        "icao24": "010288",
        "callsign": "MSR986",
        "origin_country": "Egypt",
        "time_position": 1781654364,
        "last_contact": 1781654364,
        "baro_altitude": 11887.2,
        "on_ground": false,
        "velocity": 270.29,
        "true_track": 134.46,
        "vertical_rate": 0,
        "geo_altitude": 12344.4,
        "squawk": "1147",
        "spi": false,
        "position_source": 0
      }
    },
    {
      "type": "Feature",
      "geometry": {
        "type": "Point",
        "coordinates": [
          16.0508,
          45.4316
        ]
      },
      "properties": {
        "icao24": "407731",
        "callsign": "EXS24JS",
        "origin_country": "United Kingdom",
        "time_position": 1781654364,
        "last_contact": 1781654364,
        "baro_altitude": 11582.4,
        "on_ground": false,
        "velocity": 216.91,
        "true_track": 311.25,
        "vertical_rate": 0,
        "geo_altitude": 11910.06,
        "squawk": "5322",
        "spi": false,
        "position_source": 0
      }
    },
    {
      "type": "Feature",
      "geometry": {
        "type": "Point",
        "coordinates": [
          14.3925,
          43.4912
        ]
      },
      "properties": {
        "icao24": "a02faf",
        "callsign": "N1108M",
        "origin_country": "United States",
        "time_position": 1781654364,
        "last_contact": 1781654364,
        "baro_altitude": 12496.8,
        "on_ground": false,
        "velocity": 275.01,
        "true_track": 135,
        "vertical_rate": 0,
        "geo_altitude": 12885.42,
        "squawk": "6015",
        "spi": false,
        "position_source": 0
      }
    },
    {
      "type": "Feature",
      "geometry": {
        "type": "Point",
        "coordinates": [
          17.1423,
          38.8383
        ]
      },
      "properties": {
        "icao24": "4d23b8",
        "callsign": "DAH3018",
        "origin_country": "Malta",
        "time_position": 1781654363,
        "last_contact": 1781654364,
        "baro_altitude": 10660.38,
        "on_ground": false,
        "velocity": 247.28,
        "true_track": 71.94,
        "vertical_rate": 0,
        "geo_altitude": 11079.48,
        "squawk": "1267",
        "spi": false,
        "position_source": 0
      }
    },
    {
      "type": "Feature",
      "geometry": {
        "type": "Point",
        "coordinates": [
          17.2309,
          45.2534
        ]
      },
      "properties": {
        "icao24": "4d22a0",
        "callsign": "AIZ991",
        "origin_country": "Malta",
        "time_position": 1781654363,
        "last_contact": 1781654364,
        "baro_altitude": 10972.8,
        "on_ground": false,
        "velocity": 230.33,
        "true_track": 316.36,
        "vertical_rate": 0,
        "geo_altitude": 11315.7,
        "squawk": "1165",
        "spi": false,
        "position_source": 0
      }
    },
    {
      "type": "Feature",
      "geometry": {
        "type": "Point",
        "coordinates": [
          17.1198,
          45.3794
        ]
      },
      "properties": {
        "icao24": "4070e6",
        "callsign": "EXS11KE",
        "origin_country": "United Kingdom",
        "time_position": 1781654364,
        "last_contact": 1781654364,
        "baro_altitude": 10363.2,
        "on_ground": false,
        "velocity": 214.37,
        "true_track": 316.85,
        "vertical_rate": -0.33,
        "geo_altitude": 10683.24,
        "squawk": "5361",
        "spi": false,
        "position_source": 0
      }
    },
    {
      "type": "Feature",
      "geometry": {
        "type": "Point",
        "coordinates": [
          13.6381,
          42.5936
        ]
      },
      "properties": {
        "icao24": "4cac8c",
        "callsign": "NOS14RP",
        "origin_country": "Ireland",
        "time_position": 1781654364,
        "last_contact": 1781654364,
        "baro_altitude": 10972.8,
        "on_ground": false,
        "velocity": 219.66,
        "true_track": 305.18,
        "vertical_rate": 0,
        "geo_altitude": 11391.9,
        "squawk": "2037",
        "spi": false,
        "position_source": 0
      }
    },
    {
      "type": "Feature",
      "geometry": {
        "type": "Point",
        "coordinates": [
          6.3317,
          43.6674
        ]
      },
      "properties": {
        "icao24": "4cac63",
        "callsign": "ABR420",
        "origin_country": "Ireland",
        "time_position": 1781654364,
        "last_contact": 1781654364,
        "baro_altitude": 11277.6,
        "on_ground": false,
        "velocity": 236.44,
        "true_track": 233.4,
        "vertical_rate": 0,
        "geo_altitude": 11811,
        "squawk": "1000",
        "spi": false,
        "position_source": 0
      }
    },
    {
      "type": "Feature",
      "geometry": {
        "type": "Point",
        "coordinates": [
          17.6731,
          44.3791
        ]
      },
      "properties": {
        "icao24": "40832b",
        "callsign": "TOM871",
        "origin_country": "United Kingdom",
        "time_position": 1781654363,
        "last_contact": 1781654363,
        "baro_altitude": 11582.4,
        "on_ground": false,
        "velocity": 219.1,
        "true_track": 321.87,
        "vertical_rate": 0,
        "geo_altitude": 11940.54,
        "squawk": "2041",
        "spi": false,
        "position_source": 0
      }
    },
    {
      "type": "Feature",
      "geometry": {
        "type": "Point",
        "coordinates": [
          9.9971,
          38.8002
        ]
      },
      "properties": {
        "icao24": "4d210b",
        "callsign": "VJT904",
        "origin_country": "Malta",
        "time_position": 1781654364,
        "last_contact": 1781654364,
        "baro_altitude": 13098.78,
        "on_ground": false,
        "velocity": 237.6,
        "true_track": 300.73,
        "vertical_rate": 0.33,
        "geo_altitude": 13616.94,
        "squawk": "2214",
        "spi": false,
        "position_source": 0
      }
    },
    {
      "type": "Feature",
      "geometry": {
        "type": "Point",
        "coordinates": [
          12.335,
          45.658
        ]
      },
      "properties": {
        "icao24": "408329",
        "callsign": "TOM627",
        "origin_country": "United Kingdom",
        "time_position": 1781654364,
        "last_contact": 1781654364,
        "baro_altitude": 11582.4,
        "on_ground": false,
        "velocity": 209.2,
        "true_track": 298.01,
        "vertical_rate": 0,
        "geo_altitude": 11986.26,
        "squawk": "5316",
        "spi": false,
        "position_source": 0
      }
    },
    {
      "type": "Feature",
      "geometry": {
        "type": "Point",
        "coordinates": [
          12.9905,
          47.1571
        ]
      },
      "properties": {
        "icao24": "408305",
        "callsign": "EXS56HW",
        "origin_country": "United Kingdom",
        "time_position": 1781654364,
        "last_contact": 1781654364,
        "baro_altitude": 11590.02,
        "on_ground": false,
        "velocity": 203,
        "true_track": 307.28,
        "vertical_rate": 0.33,
        "geo_altitude": 11963.4,
        "squawk": "5357",
        "spi": false,
        "position_source": 0
      }
    },
    {
      "type": "Feature",
      "geometry": {
        "type": "Point",
        "coordinates": [
          16.4301,
          41.416
        ]
      },
      "properties": {
        "icao24": "4d2007",
        "callsign": "WMT892",
        "origin_country": "Malta",
        "time_position": 1781654364,
        "last_contact": 1781654364,
        "baro_altitude": 11590.02,
        "on_ground": false,
        "velocity": 216.92,
        "true_track": 304.86,
        "vertical_rate": -0.33,
        "geo_altitude": 12009.12,
        "squawk": "6573",
        "spi": false,
        "position_source": 0
      }
    },
    {
      "type": "Feature",
      "geometry": {
        "type": "Point",
        "coordinates": [
          13.6969,
          45.2247
        ]
      },
      "properties": {
        "icao24": "4082e6",
        "callsign": "TOM2PY",
        "origin_country": "United Kingdom",
        "time_position": 1781654363,
        "last_contact": 1781654364,
        "baro_altitude": 10972.8,
        "on_ground": false,
        "velocity": 210.54,
        "true_track": 302.02,
        "vertical_rate": 0,
        "geo_altitude": 11346.18,
        "squawk": "2062",
        "spi": false,
        "position_source": 0
      }
    },
    {
      "type": "Feature",
      "geometry": {
        "type": "Point",
        "coordinates": [
          8.5662,
          47.4424
        ]
      },
      "properties": {
        "icao24": "4b17de",
        "callsign": "SWR",
        "origin_country": "Switzerland",
        "time_position": 1781654233,
        "last_contact": 1781654233,
        "baro_altitude": null,
        "on_ground": true,
        "velocity": 0,
        "true_track": 146.25,
        "vertical_rate": null,
        "geo_altitude": null,
        "squawk": null,
        "spi": false,
        "position_source": 0
      }
    }
  ]
}