{
  "type": "FeatureCollection",
  "source": "opensky",
  "dataset": "aircraft_italy",
  "generated_at": "2026-06-16T02:01:42.539595+00:00",
  "opensky_time": 1781575300,
  "count": 57,
  "features": [
    {
      "type": "Feature",
      "geometry": {
        "type": "Point",
        "coordinates": [
          13.4401,
          39.3551
        ]
      },
      "properties": {
        "icao24": "46b82a",
        "callsign": "AEE3LP",
        "origin_country": "Greece",
        "time_position": 1781575299,
        "last_contact": 1781575299,
        "baro_altitude": 11292.84,
        "on_ground": false,
        "velocity": 262.81,
        "true_track": 96.07,
        "vertical_rate": 0,
        "geo_altitude": 11742.42,
        "squawk": "2216",
        "spi": false,
        "position_source": 0
      }
    },
    {
      "type": "Feature",
      "geometry": {
        "type": "Point",
        "coordinates": [
          11.4007,
          47.0083
        ]
      },
      "properties": {
        "icao24": "800463",
        "callsign": "AIC188",
        "origin_country": "India",
        "time_position": 1781575299,
        "last_contact": 1781575299,
        "baro_altitude": 10058.4,
        "on_ground": false,
        "velocity": 268.82,
        "true_track": 132.05,
        "vertical_rate": 0.33,
        "geo_altitude": 10363.2,
        "squawk": "1153",
        "spi": false,
        "position_source": 0
      }
    },
    {
      "type": "Feature",
      "geometry": {
        "type": "Point",
        "coordinates": [
          11.6566,
          37.7362
        ]
      },
      "properties": {
        "icao24": "452134",
        "callsign": "DAH3015",
        "origin_country": "Bulgaria",
        "time_position": 1781575299,
        "last_contact": 1781575299,
        "baro_altitude": 10965.18,
        "on_ground": false,
        "velocity": 205.89,
        "true_track": 232.61,
        "vertical_rate": 0,
        "geo_altitude": 11437.62,
        "squawk": "2335",
        "spi": false,
        "position_source": 0
      }
    },
    {
      "type": "Feature",
      "geometry": {
        "type": "Point",
        "coordinates": [
          8.8959,
          41.7293
        ]
      },
      "properties": {
        "icao24": "3c5b31",
        "callsign": "OCN133",
        "origin_country": "Germany",
        "time_position": 1781575300,
        "last_contact": 1781575300,
        "baro_altitude": 11582.4,
        "on_ground": false,
        "velocity": 237.24,
        "true_track": 1.49,
        "vertical_rate": 0,
        "geo_altitude": 11978.64,
        "squawk": "4403",
        "spi": false,
        "position_source": 0
      }
    },
    {
      "type": "Feature",
      "geometry": {
        "type": "Point",
        "coordinates": [
          15.5185,
          43.422
        ]
      },
      "properties": {
        "icao24": "489223",
        "callsign": "ENT7132",
        "origin_country": "Poland",
        "time_position": 1781575299,
        "last_contact": 1781575300,
        "baro_altitude": 12184.38,
        "on_ground": false,
        "velocity": 235.4,
        "true_track": 29.31,
        "vertical_rate": 0,
        "geo_altitude": 12542.52,
        "squawk": "6134",
        "spi": false,
        "position_source": 0
      }
    },
    {
      "type": "Feature",
      "geometry": {
        "type": "Point",
        "coordinates": [
          6.4545,
          47.5448
        ]
      },
      "properties": {
        "icao24": "a50adc",
        "callsign": "DAL240",
        "origin_country": "United States",
        "time_position": 1781575299,
        "last_contact": 1781575299,
        "baro_altitude": 11277.6,
        "on_ground": false,
        "velocity": 260.51,
        "true_track": 112.16,
        "vertical_rate": 0,
        "geo_altitude": 11628.12,
        "squawk": "2242",
        "spi": false,
        "position_source": 0
      }
    },
    {
      "type": "Feature",
      "geometry": {
        "type": "Point",
        "coordinates": [
          10.8956,
          43.5789
        ]
      },
      "properties": {
        "icao24": "3a2e23",
        "callsign": "REU975",
        "origin_country": "France",
        "time_position": 1781575299,
        "last_contact": 1781575299,
        "baro_altitude": 10363.2,
        "on_ground": false,
        "velocity": 221.02,
        "true_track": 312.45,
        "vertical_rate": 0,
        "geo_altitude": 10721.34,
        "squawk": "5515",
        "spi": false,
        "position_source": 0
      }
    },
    {
      "type": "Feature",
      "geometry": {
        "type": "Point",
        "coordinates": [
          12.1827,
          43.4047
        ]
      },
      "properties": {
        "icao24": "3965ad",
        "callsign": "AFR673",
        "origin_country": "France",
        "time_position": 1781575299,
        "last_contact": 1781575299,
        "baro_altitude": 10972.8,
        "on_ground": false,
        "velocity": 238.4,
        "true_track": 306.4,
        "vertical_rate": 0,
        "geo_altitude": 11353.8,
        "squawk": "6624",
        "spi": false,
        "position_source": 0
      }
    },
    {
      "type": "Feature",
      "geometry": {
        "type": "Point",
        "coordinates": [
          7.1505,
          43.4143
        ]
      },
      "properties": {
        "icao24": "461f63",
        "callsign": "FIN24Q",
        "origin_country": "Finland",
        "time_position": 1781575299,
        "last_contact": 1781575299,
        "baro_altitude": 10363.2,
        "on_ground": false,
        "velocity": 232.6,
        "true_track": 47.06,
        "vertical_rate": 0,
        "geo_altitude": 10736.58,
        "squawk": "5351",
        "spi": false,
        "position_source": 0
      }
    },
    {
      "type": "Feature",
      "geometry": {
        "type": "Point",
        "coordinates": [
          6.532,
          44.4557
        ]
      },
      "properties": {
        "icao24": "44ccc3",
        "callsign": "BEL39G",
        "origin_country": "Belgium",
        "time_position": 1781575299,
        "last_contact": 1781575299,
        "baro_altitude": 11582.4,
        "on_ground": false,
        "velocity": 226.88,
        "true_track": 356.1,
        "vertical_rate": 0,
        "geo_altitude": 11986.26,
        "squawk": "1000",
        "spi": false,
        "position_source": 0
      }
    },
    {
      "type": "Feature",
      "geometry": {
        "type": "Point",
        "coordinates": [
          6.9179,
          37.5777
        ]
      },
      "properties": {
        "icao24": "44ccd1",
        "callsign": "BEL28A",
        "origin_country": "Belgium",
        "time_position": 1781575299,
        "last_contact": 1781575299,
        "baro_altitude": 11582.4,
        "on_ground": false,
        "velocity": 238.69,
        "true_track": 3.71,
        "vertical_rate": 0,
        "geo_altitude": 12039.6,
        "squawk": null,
        "spi": false,
        "position_source": 0
      }
    },
    {
      "type": "Feature",
      "geometry": {
        "type": "Point",
        "coordinates": [
          6.8935,
          43.9377
        ]
      },
      "properties": {
        "icao24": "44ccd8",
        "callsign": "BEL5TA",
        "origin_country": "Belgium",
        "time_position": 1781575299,
        "last_contact": 1781575299,
        "baro_altitude": 11582.4,
        "on_ground": false,
        "velocity": 231.81,
        "true_track": 355.16,
        "vertical_rate": 0,
        "geo_altitude": 11917.68,
        "squawk": "1000",
        "spi": false,
        "position_source": 0
      }
    },
    {
      "type": "Feature",
      "geometry": {
        "type": "Point",
        "coordinates": [
          12.4814,
          41.9067
        ]
      },
      "properties": {
        "icao24": "040190",
        "callsign": "ETH552",
        "origin_country": "Ethiopia",
        "time_position": 1781575299,
        "last_contact": 1781575299,
        "baro_altitude": 2590.8,
        "on_ground": false,
        "velocity": 149.06,
        "true_track": 299.57,
        "vertical_rate": -6.5,
        "geo_altitude": 2758.44,
        "squawk": "2072",
        "spi": false,
        "position_source": 0
      }
    },
    {
      "type": "Feature",
      "geometry": {
        "type": "Point",
        "coordinates": [
          16.5288,
          36.7077
        ]
      },
      "properties": {
        "icao24": "04018f",
        "callsign": "ETH726",
        "origin_country": "Ethiopia",
        "time_position": 1781575300,
        "last_contact": 1781575300,
        "baro_altitude": 12192,
        "on_ground": false,
        "velocity": 243.44,
        "true_track": 304.5,
        "vertical_rate": -0.33,
        "geo_altitude": 12687.3,
        "squawk": "2032",
        "spi": false,
        "position_source": 0
      }
    },
    {
      "type": "Feature",
      "geometry": {
        "type": "Point",
        "coordinates": [
          6.3253,
          37.9438
        ]
      },
      "properties": {
        "icao24": "406ec9",
        "callsign": "BAW56",
        "origin_country": "United Kingdom",
        "time_position": 1781575299,
        "last_contact": 1781575299,
        "baro_altitude": 12192,
        "on_ground": false,
        "velocity": 253.22,
        "true_track": 350.17,
        "vertical_rate": 0,
        "geo_altitude": 12633.96,
        "squawk": null,
        "spi": false,
        "position_source": 0
      }
    },
    {
      "type": "Feature",
      "geometry": {
        "type": "Point",
        "coordinates": [
          14.7927,
          47.0907
        ]
      },
      "properties": {
        "icao24": "06a390",
        "callsign": "QTR8057",
        "origin_country": "Qatar",
        "time_position": 1781575298,
        "last_contact": 1781575299,
        "baro_altitude": 10668,
        "on_ground": false,
        "velocity": 276.27,
        "true_track": 122.68,
        "vertical_rate": 0,
        "geo_altitude": 10927.08,
        "squawk": "7123",
        "spi": false,
        "position_source": 0
      }
    },
    {
      "type": "Feature",
      "geometry": {
        "type": "Point",
        "coordinates": [
          11.5219,
          38.1341
        ]
      },
      "properties": {
        "icao24": "49d421",
        "callsign": "TVQ6460",
        "origin_country": "Czech Republic",
        "time_position": 1781575299,
        "last_contact": 1781575299,
        "baro_altitude": 11277.6,
        "on_ground": false,
        "velocity": 203.52,
        "true_track": 198.57,
        "vertical_rate": 0,
        "geo_altitude": 11727.18,
        "squawk": "6012",
        "spi": false,
        "position_source": 0
      }
    },
    {
      "type": "Feature",
      "geometry": {
        "type": "Point",
        "coordinates": [
          8.2246,
          41.4927
        ]
      },
      "properties": {
        "icao24": "3b7569",
        "callsign": "CTM1082",
        "origin_country": "France",
        "time_position": 1781575298,
        "last_contact": 1781575299,
        "baro_altitude": 10972.8,
        "on_ground": false,
        "velocity": 233.69,
        "true_track": 291.03,
        "vertical_rate": 0,
        "geo_altitude": 11376.66,
        "squawk": "2015",
        "spi": false,
        "position_source": 0
      }
    },
    {
      "type": "Feature",
      "geometry": {
        "type": "Point",
        "coordinates": [
          12.2653,
          41.9836
        ]
      },
      "properties": {
        "icao24": "040241",
        "callsign": "ETH500",
        "origin_country": "Ethiopia",
        "time_position": 1781575299,
        "last_contact": 1781575299,
        "baro_altitude": 906.78,
        "on_ground": false,
        "velocity": 113.59,
        "true_track": 306.71,
        "vertical_rate": 0,
        "geo_altitude": 998.22,
        "squawk": "2047",
        "spi": false,
        "position_source": 0
      }
    },
    {
      "type": "Feature",
      "geometry": {
        "type": "Point",
        "coordinates": [
          15.1083,
          45.6775
        ]
      },
      "properties": {
        "icao24": "407e7b",
        "callsign": "TOM843",
        "origin_country": "United Kingdom",
        "time_position": 1781575299,
        "last_contact": 1781575299,
        "baro_altitude": 10972.8,
        "on_ground": false,
        "velocity": 211.73,
        "true_track": 315.79,
        "vertical_rate": 0,
        "geo_altitude": 11277.6,
        "squawk": "2067",
        "spi": false,
        "position_source": 0
      }
    },
    {
      "type": "Feature",
      "geometry": {
        "type": "Point",
        "coordinates": [
          6.8372,
          41.8027
        ]
      },
      "properties": {
        "icao24": "48e979",
        "callsign": "LOT6608",
        "origin_country": "Poland",
        "time_position": 1781575299,
        "last_contact": 1781575299,
        "baro_altitude": 11582.4,
        "on_ground": false,
        "velocity": 233.94,
        "true_track": 44.02,
        "vertical_rate": 0,
        "geo_altitude": 11986.26,
        "squawk": "1000",
        "spi": false,
        "position_source": 0
      }
    },
    {
      "type": "Feature",
      "geometry": {
        "type": "Point",
        "coordinates": [
          9.644,
          45.0647
        ]
      },
      "properties": {
        "icao24": "3420c6",
        "callsign": "BCS8UM",
        "origin_country": "Spain",
        "time_position": 1781575299,
        "last_contact": 1781575299,
        "baro_altitude": 7475.22,
        "on_ground": false,
        "velocity": 226.15,
        "true_track": 123.87,
        "vertical_rate": 11.05,
        "geo_altitude": 7780.02,
        "squawk": "0471",
        "spi": false,
        "position_source": 0
      }
    },
    {
      "type": "Feature",
      "geometry": {
        "type": "Point",
        "coordinates": [
          18.5249,
          47.2614
        ]
      },
      "properties": {
        "icao24": "7c806b",
        "callsign": "QFA255",
        "origin_country": "Australia",
        "time_position": 1781575299,
        "last_contact": 1781575299,
        "baro_altitude": 12192,
        "on_ground": false,
        "velocity": 229.81,
        "true_track": 293.06,
        "vertical_rate": 0.33,
        "geo_altitude": 12397.74,
        "squawk": "3205",
        "spi": false,
        "position_source": 0
      }
    },
    {
      "type": "Feature",
      "geometry": {
        "type": "Point",
        "coordinates": [
          18.0172,
          44.8501
        ]
      },
      "properties": {
        "icao24": "4bb861",
        "callsign": "PGT99HZ",
        "origin_country": "Turkey",
        "time_position": 1781575298,
        "last_contact": 1781575299,
        "baro_altitude": 11277.6,
        "on_ground": false,
        "velocity": 256.18,
        "true_track": 133.54,
        "vertical_rate": 0,
        "geo_altitude": 11567.16,
        "squawk": "7656",
        "spi": false,
        "position_source": 0
      }
    },
    {
      "type": "Feature",
      "geometry": {
        "type": "Point",
        "coordinates": [
          17.981,
          46.4451
        ]
      },
      "properties": {
        "icao24": "4bb872",
        "callsign": "PGT23AG",
        "origin_country": "Turkey",
        "time_position": 1781575299,
        "last_contact": 1781575299,
        "baro_altitude": 11269.98,
        "on_ground": false,
        "velocity": 258.18,
        "true_track": 127.71,
        "vertical_rate": 0,
        "geo_altitude": 11483.34,
        "squawk": "6435",
        "spi": false,
        "position_source": 0
      }
    },
    {
      "type": "Feature",
      "geometry": {
        "type": "Point",
        "coordinates": [
          16.638,
          47.1379
        ]
      },
      "properties": {
        "icao24": "4bb86e",
        "callsign": "PGT609P",
        "origin_country": "Turkey",
        "time_position": 1781575299,
        "last_contact": 1781575300,
        "baro_altitude": 11277.6,
        "on_ground": false,
        "velocity": 260.72,
        "true_track": 126.58,
        "vertical_rate": 0,
        "geo_altitude": 11506.2,
        "squawk": "6417",
        "spi": false,
        "position_source": 0
      }
    },
    {
      "type": "Feature",
      "geometry": {
        "type": "Point",
        "coordinates": [
          12.1361,
          37.3445
        ]
      },
      "properties": {
        "icao24": "46b8b5",
        "callsign": "AEE9PM",
        "origin_country": "Greece",
        "time_position": 1781575299,
        "last_contact": 1781575299,
        "baro_altitude": 11902.44,
        "on_ground": false,
        "velocity": 251.04,
        "true_track": 75.76,
        "vertical_rate": 0.33,
        "geo_altitude": 12382.5,
        "squawk": "1246",
        "spi": false,
        "position_source": 0
      }
    },
    {
      "type": "Feature",
      "geometry": {
        "type": "Point",
        "coordinates": [
          12.2228,
          41.7968
        ]
      },
      "properties": {
        "icao24": "80159e",
        "callsign": "AIC191",
        "origin_country": "India",
        "time_position": 1781575296,
        "last_contact": 1781575298,
        "baro_altitude": 175.26,
        "on_ground": false,
        "velocity": 98.76,
        "true_track": 250.53,
        "vertical_rate": 12.68,
        "geo_altitude": 236.22,
        "squawk": null,
        "spi": false,
        "position_source": 0
      }
    },
    {
      "type": "Feature",
      "geometry": {
        "type": "Point",
        "coordinates": [
          15.3393,
          46.2465
        ]
      },
      "properties": {
        "icao24": "06a0df",
        "callsign": "QTR8282",
        "origin_country": "Qatar",
        "time_position": 1781575299,
        "last_contact": 1781575299,
        "baro_altitude": 10668,
        "on_ground": false,
        "velocity": 271.37,
        "true_track": 110.53,
        "vertical_rate": 0,
        "geo_altitude": 10934.7,
        "squawk": "0106",
        "spi": false,
        "position_source": 0
      }
    },
    {
      "type": "Feature",
      "geometry": {
        "type": "Point",
        "coordinates": [
          8.5575,
          47.4559
        ]
      },
      "properties": {
        "icao24": "4b1806",
        "callsign": "SWR",
        "origin_country": "Switzerland",
        "time_position": 1781575293,
        "last_contact": 1781575298,
        "baro_altitude": 381,
        "on_ground": true,
        "velocity": 0,
        "true_track": 5.62,
        "vertical_rate": null,
        "geo_altitude": null,
        "squawk": "2000",
        "spi": false,
        "position_source": 0
      }
    },
    {
      "type": "Feature",
      "geometry": {
        "type": "Point",
        "coordinates": [
          8.2907,
          46.4387
        ]
      },
      "properties": {
        "icao24": "3c5430",
        "callsign": "BCS6GA",
        "origin_country": "Germany",
        "time_position": 1781575299,
        "last_contact": 1781575299,
        "baro_altitude": 5775.96,
        "on_ground": false,
        "velocity": 214.74,
        "true_track": 161.57,
        "vertical_rate": -6.83,
        "geo_altitude": 6035.04,
        "squawk": "1000",
        "spi": false,
        "position_source": 0
      }
    },
    {
      "type": "Feature",
      "geometry": {
        "type": "Point",
        "coordinates": [
          13.3844,
          45.5481
        ]
      },
      "properties": {
        "icao24": "40804e",
        "callsign": "WUK26NJ",
        "origin_country": "United Kingdom",
        "time_position": 1781575299,
        "last_contact": 1781575299,
        "baro_altitude": 10965.18,
        "on_ground": false,
        "velocity": 211.42,
        "true_track": 313.52,
        "vertical_rate": 0,
        "geo_altitude": 11292.84,
        "squawk": "0252",
        "spi": false,
        "position_source": 0
      }
    },
    {
      "type": "Feature",
      "geometry": {
        "type": "Point",
        "coordinates": [
          7.2139,
          43.6635
        ]
      },
      "properties": {
        "icao24": "399541",
        "callsign": "AGH21A",
        "origin_country": "France",
        "time_position": 1781575219,
        "last_contact": 1781575219,
        "baro_altitude": null,
        "on_ground": true,
        "velocity": 6.69,
        "true_track": 261.56,
        "vertical_rate": null,
        "geo_altitude": null,
        "squawk": null,
        "spi": false,
        "position_source": 0
      }
    },
    {
      "type": "Feature",
      "geometry": {
        "type": "Point",
        "coordinates": [
          12.4002,
          41.4497
        ]
      },
      "properties": {
        "icao24": "02a1a7",
        "callsign": "LBT809",
        "origin_country": "Tunisia",
        "time_position": 1781575298,
        "last_contact": 1781575299,
        "baro_altitude": 11285.22,
        "on_ground": false,
        "velocity": 220.64,
        "true_track": 192.93,
        "vertical_rate": 0,
        "geo_altitude": 11696.7,
        "squawk": "6033",
        "spi": false,
        "position_source": 0
      }
    },
    {
      "type": "Feature",
      "geometry": {
        "type": "Point",
        "coordinates": [
          18.1508,
          39.0878
        ]
      },
      "properties": {
        "icao24": "0a0049",
        "callsign": "DAH3023",
        "origin_country": "Algeria",
        "time_position": 1781575300,
        "last_contact": 1781575300,
        "baro_altitude": 10363.2,
        "on_ground": false,
        "velocity": 208.26,
        "true_track": 252.46,
        "vertical_rate": 0,
        "geo_altitude": 10812.78,
        "squawk": "2342",
        "spi": false,
        "position_source": 0
      }
    },
    {
      "type": "Feature",
      "geometry": {
        "type": "Point",
        "coordinates": [
          16.1484,
          35.6065
        ]
      },
      "properties": {
        "icao24": "0a0048",
        "callsign": "DAH461",
        "origin_country": "Algeria",
        "time_position": 1781575299,
        "last_contact": 1781575299,
        "baro_altitude": 11582.4,
        "on_ground": false,
        "velocity": 223.86,
        "true_track": 277.93,
        "vertical_rate": 0,
        "geo_altitude": 12108.18,
        "squawk": null,
        "spi": false,
        "position_source": 0
      }
    },
    {
      "type": "Feature",
      "geometry": {
        "type": "Point",
        "coordinates": [
          8.3189,
          43.7288
        ]
      },
      "properties": {
        "icao24": "3c64c5",
        "callsign": "DLH595",
        "origin_country": "Germany",
        "time_position": 1781575299,
        "last_contact": 1781575299,
        "baro_altitude": 11887.2,
        "on_ground": false,
        "velocity": 235.89,
        "true_track": 11.7,
        "vertical_rate": -0.33,
        "geo_altitude": 12260.58,
        "squawk": "1000",
        "spi": false,
        "position_source": 0
      }
    },
    {
      "type": "Feature",
      "geometry": {
        "type": "Point",
        "coordinates": [
          18.3706,
          47.4742
        ]
      },
      "properties": {
        "icao24": "4006c3",
        "callsign": "BAW2160",
        "origin_country": "United Kingdom",
        "time_position": 1781575299,
        "last_contact": 1781575299,
        "baro_altitude": 12176.76,
        "on_ground": false,
        "velocity": 227.44,
        "true_track": 293.32,
        "vertical_rate": 0,
        "geo_altitude": 12374.88,
        "squawk": "3273",
        "spi": false,
        "position_source": 0
      }
    },
    {
      "type": "Feature",
      "geometry": {
        "type": "Point",
        "coordinates": [
          8.5545,
          47.4553
        ]
      },
      "properties": {
        "icao24": "4b5d55",
        "callsign": "GALA7",
        "origin_country": "Switzerland",
        "time_position": 1781575289,
        "last_contact": 1781575289,
        "baro_altitude": null,
        "on_ground": true,
        "velocity": 0.06,
        "true_track": 177.19,
        "vertical_rate": null,
        "geo_altitude": null,
        "squawk": null,
        "spi": false,
        "position_source": 0
      }
    },
    {
      "type": "Feature",
      "geometry": {
        "type": "Point",
        "coordinates": [
          8.5569,
          47.4554
        ]
      },
      "properties": {
        "icao24": "4b5d6e",
        "callsign": "VIKTOR31",
        "origin_country": "Switzerland",
        "time_position": 1781575299,
        "last_contact": 1781575299,
        "baro_altitude": null,
        "on_ground": true,
        "velocity": 7.2,
        "true_track": 270,
        "vertical_rate": null,
        "geo_altitude": null,
        "squawk": null,
        "spi": false,
        "position_source": 0
      }
    },
    {
      "type": "Feature",
      "geometry": {
        "type": "Point",
        "coordinates": [
          8.5564,
          47.4626
        ]
      },
      "properties": {
        "icao24": "4b5c36",
        "callsign": "URSULA3",
        "origin_country": "Switzerland",
        "time_position": 1781575299,
        "last_contact": 1781575299,
        "baro_altitude": null,
        "on_ground": true,
        "velocity": 9.77,
        "true_track": 272.81,
        "vertical_rate": null,
        "geo_altitude": null,
        "squawk": null,
        "spi": false,
        "position_source": 0
      }
    },
    {
      "type": "Feature",
      "geometry": {
        "type": "Point",
        "coordinates": [
          8.8739,
          45.5492
        ]
      },
      "properties": {
        "icao24": "440bc3",
        "callsign": "BCS7332",
        "origin_country": "Austria",
        "time_position": 1781575299,
        "last_contact": 1781575299,
        "baro_altitude": 2956.56,
        "on_ground": false,
        "velocity": 144.5,
        "true_track": 152.43,
        "vertical_rate": -7.48,
        "geo_altitude": 3116.58,
        "squawk": "1000",
        "spi": false,
        "position_source": 0
      }
    },
    {
      "type": "Feature",
      "geometry": {
        "type": "Point",
        "coordinates": [
          8.435,
          46.4265
        ]
      },
      "properties": {
        "icao24": "440bc9",
        "callsign": "BCS409",
        "origin_country": "Austria",
        "time_position": 1781575299,
        "last_contact": 1781575299,
        "baro_altitude": 7574.28,
        "on_ground": false,
        "velocity": 210.7,
        "true_track": 172.42,
        "vertical_rate": -6.83,
        "geo_altitude": 7886.7,
        "squawk": "2514",
        "spi": false,
        "position_source": 0
      }
    },
    {
      "type": "Feature",
      "geometry": {
        "type": "Point",
        "coordinates": [
          9.554,
          46.6597
        ]
      },
      "properties": {
        "icao24": "a4f239",
        "callsign": "DAL202",
        "origin_country": "United States",
        "time_position": 1781575299,
        "last_contact": 1781575299,
        "baro_altitude": 11887.2,
        "on_ground": false,
        "velocity": 258.01,
        "true_track": 118.2,
        "vertical_rate": 0.33,
        "geo_altitude": 12214.86,
        "squawk": "1176",
        "spi": false,
        "position_source": 0
      }
    },
    {
      "type": "Feature",
      "geometry": {
        "type": "Point",
        "coordinates": [
          17.3354,
          47.3903
        ]
      },
      "properties": {
        "icao24": "4bbd09",
        "callsign": "TKJ4HD",
        "origin_country": "Turkey",
        "time_position": 1781575299,
        "last_contact": 1781575299,
        "baro_altitude": 10668,
        "on_ground": false,
        "velocity": 267.63,
        "true_track": 119.23,
        "vertical_rate": 0,
        "geo_altitude": 10843.26,
        "squawk": "7702",
        "spi": false,
        "position_source": 0
      }
    },
    {
      "type": "Feature",
      "geometry": {
        "type": "Point",
        "coordinates": [
          18.3864,
          46.2274
        ]
      },
      "properties": {
        "icao24": "4bcda2",
        "callsign": "SXS2ZN",
        "origin_country": "Turkey",
        "time_position": 1781575299,
        "last_contact": 1781575299,
        "baro_altitude": 11277.6,
        "on_ground": false,
        "velocity": 260.66,
        "true_track": 127.87,
        "vertical_rate": 0,
        "geo_altitude": 11498.58,
        "squawk": "4503",
        "spi": false,
        "position_source": 0
      }
    },
    {
      "type": "Feature",
      "geometry": {
        "type": "Point",
        "coordinates": [
          14.3994,
          46.885
        ]
      },
      "properties": {
        "icao24": "4bcdb3",
        "callsign": "SXS1BQ",
        "origin_country": "Turkey",
        "time_position": 1781575299,
        "last_contact": 1781575299,
        "baro_altitude": 11887.2,
        "on_ground": false,
        "velocity": 258.28,
        "true_track": 134.68,
        "vertical_rate": 0.33,
        "geo_altitude": 12146.28,
        "squawk": "1164",
        "spi": false,
        "position_source": 0
      }
    },
    {
      "type": "Feature",
      "geometry": {
        "type": "Point",
        "coordinates": [
          8.8047,
          45.8607
        ]
      },
      "properties": {
        "icao24": "3c71a6",
        "callsign": "BCS755",
        "origin_country": "Germany",
        "time_position": 1781575299,
        "last_contact": 1781575299,
        "baro_altitude": 4023.36,
        "on_ground": false,
        "velocity": 207.94,
        "true_track": 168.44,
        "vertical_rate": -9.43,
        "geo_altitude": 4236.72,
        "squawk": "1000",
        "spi": false,
        "position_source": 0
      }
    },
    {
      "type": "Feature",
      "geometry": {
        "type": "Point",
        "coordinates": [
          11.8497,
          45.4083
        ]
      },
      "properties": {
        "icao24": "4d010c",
        "callsign": "ICV513",
        "origin_country": "Luxembourg",
        "time_position": 1781575299,
        "last_contact": 1781575299,
        "baro_altitude": 10363.2,
        "on_ground": false,
        "velocity": 234.86,
        "true_track": 279.71,
        "vertical_rate": 0,
        "geo_altitude": 10645.14,
        "squawk": "2312",
        "spi": false,
        "position_source": 0
      }
    },
    {
      "type": "Feature",
      "geometry": {
        "type": "Point",
        "coordinates": [
          10.6981,
          44.1235
        ]
      },
      "properties": {
        "icao24": "4cafca",
        "callsign": "MSA976P",
        "origin_country": "Ireland",
        "time_position": 1781575299,
        "last_contact": 1781575299,
        "baro_altitude": 7414.26,
        "on_ground": false,
        "velocity": 211.17,
        "true_track": 353.71,
        "vertical_rate": -10.73,
        "geo_altitude": 7680.96,
        "squawk": "1000",
        "spi": false,
        "position_source": 0
      }
    },
    {
      "type": "Feature",
      "geometry": {
        "type": "Point",
        "coordinates": [
          12.6364,
          41.7662
        ]
      },
      "properties": {
        "icao24": "300990",
        "callsign": "LSI192",
        "origin_country": "Italy",
        "time_position": 1781575299,
        "last_contact": 1781575299,
        "baro_altitude": 3284.22,
        "on_ground": false,
        "velocity": 149.58,
        "true_track": 316.81,
        "vertical_rate": -6.5,
        "geo_altitude": 3474.72,
        "squawk": "2334",
        "spi": false,
        "position_source": 0
      }
    },
    {
      "type": "Feature",
      "geometry": {
        "type": "Point",
        "coordinates": [
          18.7844,
          42.6403
        ]
      },
      "properties": {
        "icao24": "aac36a",
        "callsign": "N793CP",
        "origin_country": "United States",
        "time_position": 1781575300,
        "last_contact": 1781575300,
        "baro_altitude": 13136.88,
        "on_ground": false,
        "velocity": 286.29,
        "true_track": 122.38,
        "vertical_rate": -0.33,
        "geo_altitude": 13464.54,
        "squawk": "2235",
        "spi": false,
        "position_source": 0
      }
    },
    {
      "type": "Feature",
      "geometry": {
        "type": "Point",
        "coordinates": [
          10.0073,
          39.606
        ]
      },
      "properties": {
        "icao24": "348609",
        "callsign": "AEA35SY",
        "origin_country": "Spain",
        "time_position": 1781575299,
        "last_contact": 1781575299,
        "baro_altitude": 12192,
        "on_ground": false,
        "velocity": 221.71,
        "true_track": 273.86,
        "vertical_rate": 0,
        "geo_altitude": 12626.34,
        "squawk": "1471",
        "spi": true,
        "position_source": 0
      }
    },
    {
      "type": "Feature",
      "geometry": {
        "type": "Point",
        "coordinates": [
          17.9489,
          44.5663
        ]
      },
      "properties": {
        "icao24": "39b225",
        "callsign": "CMA841",
        "origin_country": "France",
        "time_position": 1781575299,
        "last_contact": 1781575299,
        "baro_altitude": 10363.2,
        "on_ground": false,
        "velocity": 223.26,
        "true_track": 282.92,
        "vertical_rate": 0,
        "geo_altitude": 10660.38,
        "squawk": "7350",
        "spi": false,
        "position_source": 0
      }
    },
    {
      "type": "Feature",
      "geometry": {
        "type": "Point",
        "coordinates": [
          7.2713,
          40.046
        ]
      },
      "properties": {
        "icao24": "4d21c7",
        "callsign": "ALE005",
        "origin_country": "Malta",
        "time_position": 1781575299,
        "last_contact": 1781575299,
        "baro_altitude": 12192,
        "on_ground": false,
        "velocity": 247.71,
        "true_track": 6.92,
        "vertical_rate": 0,
        "geo_altitude": 12618.72,
        "squawk": null,
        "spi": false,
        "position_source": 0
      }
    },
    {
      "type": "Feature",
      "geometry": {
        "type": "Point",
        "coordinates": [
          16.7772,
          46.8718
        ]
      },
      "properties": {
        "icao24": "4c0221",
        "callsign": "ASL501",
        "origin_country": "Serbia",
        "time_position": 1781575299,
        "last_contact": 1781575299,
        "baro_altitude": 10058.4,
        "on_ground": false,
        "velocity": 276.87,
        "true_track": 121.47,
        "vertical_rate": 0,
        "geo_altitude": 10294.62,
        "squawk": "1145",
        "spi": false,
        "position_source": 0
      }
    },
    {
      "type": "Feature",
      "geometry": {
        "type": "Point",
        "coordinates": [
          16.8494,
          40.2449
        ]
      },
      "properties": {
        "icao24": "71011e",
        "callsign": "SVA131",
        "origin_country": "Saudi Arabia",
        "time_position": 1781575299,
        "last_contact": 1781575299,
        "baro_altitude": 11582.4,
        "on_ground": false,
        "velocity": 213.53,
        "true_track": 311.68,
        "vertical_rate": -0.33,
        "geo_altitude": 12016.74,
        "squawk": "5502",
        "spi": false,
        "position_source": 0
      }
    }
  ]
}