{
  "type": "FeatureCollection",
  "source": "opensky",
  "dataset": "aircraft_italy",
  "generated_at": "2026-09-16T00:13:04.157900+00:00",
  "opensky_time": 1789517579,
  "count": 79,
  "features": [
    {
      "type": "Feature",
      "geometry": {
        "type": "Point",
        "coordinates": [
          16.1358,
          42.8535
        ]
      },
      "properties": {
        "icao24": "407a06",
        "callsign": "EZY75EJ",
        "origin_country": "United Kingdom",
        "time_position": 1789517579,
        "last_contact": 1789517579,
        "baro_altitude": 11597.64,
        "on_ground": false,
        "velocity": 218.91,
        "true_track": 317.95,
        "vertical_rate": 0,
        "geo_altitude": 12100.56,
        "squawk": "6626",
        "spi": false,
        "position_source": 0
      }
    },
    {
      "type": "Feature",
      "geometry": {
        "type": "Point",
        "coordinates": [
          17.9714,
          36.7885
        ]
      },
      "properties": {
        "icao24": "801665",
        "callsign": "AIC106",
        "origin_country": "India",
        "time_position": 1789517579,
        "last_contact": 1789517579,
        "baro_altitude": 11277.6,
        "on_ground": false,
        "velocity": 264.46,
        "true_track": 134.61,
        "vertical_rate": 0,
        "geo_altitude": 11681.46,
        "squawk": "1271",
        "spi": false,
        "position_source": 0
      }
    },
    {
      "type": "Feature",
      "geometry": {
        "type": "Point",
        "coordinates": [
          13.4234,
          41.4638
        ]
      },
      "properties": {
        "icao24": "471f6b",
        "callsign": "WZZ50HD",
        "origin_country": "Hungary",
        "time_position": 1789517579,
        "last_contact": 1789517579,
        "baro_altitude": 10972.8,
        "on_ground": false,
        "velocity": 210.35,
        "true_track": 3.79,
        "vertical_rate": 0,
        "geo_altitude": 11498.58,
        "squawk": null,
        "spi": false,
        "position_source": 0
      }
    },
    {
      "type": "Feature",
      "geometry": {
        "type": "Point",
        "coordinates": [
          18.7634,
          45.2083
        ]
      },
      "properties": {
        "icao24": "4bb4e7",
        "callsign": "MGH202",
        "origin_country": "Turkey",
        "time_position": 1789517579,
        "last_contact": 1789517579,
        "baro_altitude": 11277.6,
        "on_ground": false,
        "velocity": 255.8,
        "true_track": 126.25,
        "vertical_rate": 0,
        "geo_altitude": 11719.56,
        "squawk": "6435",
        "spi": false,
        "position_source": 0
      }
    },
    {
      "type": "Feature",
      "geometry": {
        "type": "Point",
        "coordinates": [
          16.9412,
          42.804
        ]
      },
      "properties": {
        "icao24": "4401e9",
        "callsign": "EJU18NT",
        "origin_country": "Austria",
        "time_position": 1789517579,
        "last_contact": 1789517579,
        "baro_altitude": 11567.16,
        "on_ground": false,
        "velocity": 221.01,
        "true_track": 303.8,
        "vertical_rate": -0.33,
        "geo_altitude": 12062.46,
        "squawk": "6161",
        "spi": false,
        "position_source": 0
      }
    },
    {
      "type": "Feature",
      "geometry": {
        "type": "Point",
        "coordinates": [
          13.8807,
          40.7643
        ]
      },
      "properties": {
        "icao24": "4bb47a",
        "callsign": "MNB2546",
        "origin_country": "Turkey",
        "time_position": 1789517578,
        "last_contact": 1789517578,
        "baro_altitude": 10972.8,
        "on_ground": false,
        "velocity": 242.16,
        "true_track": 273.17,
        "vertical_rate": 0,
        "geo_altitude": 11513.82,
        "squawk": "2352",
        "spi": false,
        "position_source": 0
      }
    },
    {
      "type": "Feature",
      "geometry": {
        "type": "Point",
        "coordinates": [
          16.9685,
          42.7493
        ]
      },
      "properties": {
        "icao24": "738065",
        "callsign": "ELY388",
        "origin_country": "Israel",
        "time_position": 1789517554,
        "last_contact": 1789517554,
        "baro_altitude": 11277.6,
        "on_ground": false,
        "velocity": 240.6,
        "true_track": 122.6,
        "vertical_rate": 0,
        "geo_altitude": 11734.8,
        "squawk": "0474",
        "spi": false,
        "position_source": 0
      }
    },
    {
      "type": "Feature",
      "geometry": {
        "type": "Point",
        "coordinates": [
          13.0024,
          39.7304
        ]
      },
      "properties": {
        "icao24": "738069",
        "callsign": "ELY376",
        "origin_country": "Israel",
        "time_position": 1789517579,
        "last_contact": 1789517579,
        "baro_altitude": 11277.6,
        "on_ground": false,
        "velocity": 233.63,
        "true_track": 102.72,
        "vertical_rate": 0,
        "geo_altitude": 11841.48,
        "squawk": "1165",
        "spi": false,
        "position_source": 0
      }
    },
    {
      "type": "Feature",
      "geometry": {
        "type": "Point",
        "coordinates": [
          15.5937,
          39.2508
        ]
      },
      "properties": {
        "icao24": "738054",
        "callsign": "ELY398",
        "origin_country": "Israel",
        "time_position": 1789517579,
        "last_contact": 1789517579,
        "baro_altitude": 11277.6,
        "on_ground": false,
        "velocity": 236.19,
        "true_track": 104.25,
        "vertical_rate": -0.33,
        "geo_altitude": 11757.66,
        "squawk": "1216",
        "spi": false,
        "position_source": 0
      }
    },
    {
      "type": "Feature",
      "geometry": {
        "type": "Point",
        "coordinates": [
          12.6857,
          44.5884
        ]
      },
      "properties": {
        "icao24": "80189d",
        "callsign": "AIC188",
        "origin_country": "India",
        "time_position": 1789517578,
        "last_contact": 1789517579,
        "baro_altitude": 11269.98,
        "on_ground": false,
        "velocity": 265.97,
        "true_track": 136.18,
        "vertical_rate": 0,
        "geo_altitude": 11811,
        "squawk": "2215",
        "spi": false,
        "position_source": 0
      }
    },
    {
      "type": "Feature",
      "geometry": {
        "type": "Point",
        "coordinates": [
          14.6786,
          41.2403
        ]
      },
      "properties": {
        "icao24": "471d70",
        "callsign": "WZZ1714",
        "origin_country": "Hungary",
        "time_position": 1789517578,
        "last_contact": 1789517579,
        "baro_altitude": 10972.8,
        "on_ground": false,
        "velocity": 211.1,
        "true_track": 20.25,
        "vertical_rate": 0,
        "geo_altitude": 11475.72,
        "squawk": null,
        "spi": false,
        "position_source": 0
      }
    },
    {
      "type": "Feature",
      "geometry": {
        "type": "Point",
        "coordinates": [
          10.6929,
          40.378
        ]
      },
      "properties": {
        "icao24": "738102",
        "callsign": "ELY003",
        "origin_country": "Israel",
        "time_position": 1789517579,
        "last_contact": 1789517579,
        "baro_altitude": 11582.4,
        "on_ground": false,
        "velocity": 244.55,
        "true_track": 284.12,
        "vertical_rate": 0.33,
        "geo_altitude": 12153.9,
        "squawk": "1162",
        "spi": false,
        "position_source": 0
      }
    },
    {
      "type": "Feature",
      "geometry": {
        "type": "Point",
        "coordinates": [
          10.2821,
          39.9727
        ]
      },
      "properties": {
        "icao24": "4bd8ac",
        "callsign": "THY6557",
        "origin_country": "Turkey",
        "time_position": 1789517578,
        "last_contact": 1789517579,
        "baro_altitude": 10668,
        "on_ground": false,
        "velocity": 236.01,
        "true_track": 261.73,
        "vertical_rate": 0.33,
        "geo_altitude": 11216.64,
        "squawk": "2304",
        "spi": false,
        "position_source": 0
      }
    },
    {
      "type": "Feature",
      "geometry": {
        "type": "Point",
        "coordinates": [
          14.8471,
          41.7805
        ]
      },
      "properties": {
        "icao24": "4892c2",
        "callsign": "ENT7MP",
        "origin_country": "Poland",
        "time_position": 1789517578,
        "last_contact": 1789517579,
        "baro_altitude": 12496.8,
        "on_ground": false,
        "velocity": 245.82,
        "true_track": 186.25,
        "vertical_rate": -0.33,
        "geo_altitude": 13014.96,
        "squawk": "1000",
        "spi": false,
        "position_source": 0
      }
    },
    {
      "type": "Feature",
      "geometry": {
        "type": "Point",
        "coordinates": [
          12.8998,
          39.9287
        ]
      },
      "properties": {
        "icao24": "7380c9",
        "callsign": "ELY017",
        "origin_country": "Israel",
        "time_position": 1789517578,
        "last_contact": 1789517578,
        "baro_altitude": 10363.2,
        "on_ground": false,
        "velocity": 251.78,
        "true_track": 285.77,
        "vertical_rate": -0.33,
        "geo_altitude": 10888.98,
        "squawk": null,
        "spi": false,
        "position_source": 0
      }
    },
    {
      "type": "Feature",
      "geometry": {
        "type": "Point",
        "coordinates": [
          9.9689,
          40.2166
        ]
      },
      "properties": {
        "icao24": "4bb262",
        "callsign": "THY5LY",
        "origin_country": "Turkey",
        "time_position": 1789517579,
        "last_contact": 1789517579,
        "baro_altitude": 10363.2,
        "on_ground": false,
        "velocity": 228.04,
        "true_track": 68.7,
        "vertical_rate": 0,
        "geo_altitude": 10934.7,
        "squawk": "4424",
        "spi": false,
        "position_source": 0
      }
    },
    {
      "type": "Feature",
      "geometry": {
        "type": "Point",
        "coordinates": [
          16.1849,
          40.7658
        ]
      },
      "properties": {
        "icao24": "020118",
        "callsign": "MAC438",
        "origin_country": "Morocco",
        "time_position": 1789517578,
        "last_contact": 1789517578,
        "baro_altitude": 10972.8,
        "on_ground": false,
        "velocity": 236.6,
        "true_track": 273.62,
        "vertical_rate": 0,
        "geo_altitude": 11452.86,
        "squawk": "2336",
        "spi": false,
        "position_source": 0
      }
    },
    {
      "type": "Feature",
      "geometry": {
        "type": "Point",
        "coordinates": [
          17.5415,
          44.4059
        ]
      },
      "properties": {
        "icao24": "4079a9",
        "callsign": "TOM9WJ",
        "origin_country": "United Kingdom",
        "time_position": 1789517578,
        "last_contact": 1789517578,
        "baro_altitude": 11582.4,
        "on_ground": false,
        "velocity": 220.39,
        "true_track": 307.03,
        "vertical_rate": -0.33,
        "geo_altitude": 12031.98,
        "squawk": "5621",
        "spi": false,
        "position_source": 0
      }
    },
    {
      "type": "Feature",
      "geometry": {
        "type": "Point",
        "coordinates": [
          15.5245,
          46.6263
        ]
      },
      "properties": {
        "icao24": "4bb1a5",
        "callsign": "THY41J",
        "origin_country": "Turkey",
        "time_position": 1789517578,
        "last_contact": 1789517578,
        "baro_altitude": 11879.58,
        "on_ground": false,
        "velocity": 262.15,
        "true_track": 122.66,
        "vertical_rate": 0,
        "geo_altitude": 12382.5,
        "squawk": "1154",
        "spi": false,
        "position_source": 0
      }
    },
    {
      "type": "Feature",
      "geometry": {
        "type": "Point",
        "coordinates": [
          8.6866,
          44.8785
        ]
      },
      "properties": {
        "icao24": "02019d",
        "callsign": "MAC454",
        "origin_country": "Morocco",
        "time_position": 1789517578,
        "last_contact": 1789517578,
        "baro_altitude": 9707.88,
        "on_ground": false,
        "velocity": 219.05,
        "true_track": 226.33,
        "vertical_rate": 9.43,
        "geo_altitude": 10218.42,
        "squawk": "3745",
        "spi": false,
        "position_source": 0
      }
    },
    {
      "type": "Feature",
      "geometry": {
        "type": "Point",
        "coordinates": [
          17.4453,
          44.0687
        ]
      },
      "properties": {
        "icao24": "4bb189",
        "callsign": "THY184",
        "origin_country": "Turkey",
        "time_position": 1789517578,
        "last_contact": 1789517578,
        "baro_altitude": 10363.2,
        "on_ground": false,
        "velocity": 251.15,
        "true_track": 278.36,
        "vertical_rate": 0.33,
        "geo_altitude": 10797.54,
        "squawk": "5362",
        "spi": false,
        "position_source": 0
      }
    },
    {
      "type": "Feature",
      "geometry": {
        "type": "Point",
        "coordinates": [
          18.323,
          43.9695
        ]
      },
      "properties": {
        "icao24": "4bb18e",
        "callsign": "THY4JD",
        "origin_country": "Turkey",
        "time_position": 1789517578,
        "last_contact": 1789517578,
        "baro_altitude": 10355.58,
        "on_ground": false,
        "velocity": 255.76,
        "true_track": 279.03,
        "vertical_rate": 0,
        "geo_altitude": 10782.3,
        "squawk": "3274",
        "spi": false,
        "position_source": 0
      }
    },
    {
      "type": "Feature",
      "geometry": {
        "type": "Point",
        "coordinates": [
          17.9153,
          36.4006
        ]
      },
      "properties": {
        "icao24": "4d0226",
        "callsign": "SVW7B",
        "origin_country": "Luxembourg",
        "time_position": 1789517578,
        "last_contact": 1789517578,
        "baro_altitude": 13106.4,
        "on_ground": false,
        "velocity": 246.09,
        "true_track": 274.32,
        "vertical_rate": 0,
        "geo_altitude": 13586.46,
        "squawk": "2027",
        "spi": false,
        "position_source": 0
      }
    },
    {
      "type": "Feature",
      "geometry": {
        "type": "Point",
        "coordinates": [
          12.3355,
          47.7519
        ]
      },
      "properties": {
        "icao24": "896707",
        "callsign": "UAE70",
        "origin_country": "United Arab Emirates",
        "time_position": 1789517578,
        "last_contact": 1789517578,
        "baro_altitude": 12496.8,
        "on_ground": false,
        "velocity": 262.08,
        "true_track": 119.13,
        "vertical_rate": 0,
        "geo_altitude": 12976.86,
        "squawk": "2243",
        "spi": false,
        "position_source": 0
      }
    },
    {
      "type": "Feature",
      "geometry": {
        "type": "Point",
        "coordinates": [
          18.0353,
          35.3951
        ]
      },
      "properties": {
        "icao24": "040199",
        "callsign": "ETH741",
        "origin_country": "Ethiopia",
        "time_position": 1789517577,
        "last_contact": 1789517577,
        "baro_altitude": 11269.98,
        "on_ground": false,
        "velocity": 259.81,
        "true_track": 110.52,
        "vertical_rate": -0.33,
        "geo_altitude": 11711.94,
        "squawk": "4101",
        "spi": false,
        "position_source": 0
      }
    },
    {
      "type": "Feature",
      "geometry": {
        "type": "Point",
        "coordinates": [
          12.9499,
          35.5812
        ]
      },
      "properties": {
        "icao24": "4ba9cf",
        "callsign": "THY1CT",
        "origin_country": "Turkey",
        "time_position": 1789517578,
        "last_contact": 1789517578,
        "baro_altitude": 11582.4,
        "on_ground": false,
        "velocity": 250.62,
        "true_track": 246.28,
        "vertical_rate": 0,
        "geo_altitude": 12131.04,
        "squawk": "2310",
        "spi": false,
        "position_source": 0
      }
    },
    {
      "type": "Feature",
      "geometry": {
        "type": "Point",
        "coordinates": [
          10.2211,
          35.7718
        ]
      },
      "properties": {
        "icao24": "4ba9ce",
        "callsign": "THY571",
        "origin_country": "Turkey",
        "time_position": 1789517538,
        "last_contact": 1789517547,
        "baro_altitude": 11582.4,
        "on_ground": false,
        "velocity": 242.56,
        "true_track": 260.48,
        "vertical_rate": 0,
        "geo_altitude": 12176.76,
        "squawk": "2305",
        "spi": false,
        "position_source": 0
      }
    },
    {
      "type": "Feature",
      "geometry": {
        "type": "Point",
        "coordinates": [
          12.2622,
          35.3129
        ]
      },
      "properties": {
        "icao24": "4ba9c1",
        "callsign": "THY5YP",
        "origin_country": "Turkey",
        "time_position": 1789517579,
        "last_contact": 1789517579,
        "baro_altitude": 11887.2,
        "on_ground": false,
        "velocity": 237.04,
        "true_track": 67.27,
        "vertical_rate": 0,
        "geo_altitude": 12451.08,
        "squawk": "4110",
        "spi": false,
        "position_source": 0
      }
    },
    {
      "type": "Feature",
      "geometry": {
        "type": "Point",
        "coordinates": [
          18.4906,
          47.3958
        ]
      },
      "properties": {
        "icao24": "49d38c",
        "callsign": "TVS7KQ",
        "origin_country": "Czech Republic",
        "time_position": 1789517579,
        "last_contact": 1789517579,
        "baro_altitude": 10668,
        "on_ground": false,
        "velocity": 251.18,
        "true_track": 144,
        "vertical_rate": 0,
        "geo_altitude": 11087.1,
        "squawk": "1432",
        "spi": false,
        "position_source": 0
      }
    },
    {
      "type": "Feature",
      "geometry": {
        "type": "Point",
        "coordinates": [
          13.5807,
          46.7288
        ]
      },
      "properties": {
        "icao24": "406b13",
        "callsign": "TOM50W",
        "origin_country": "United Kingdom",
        "time_position": 1789517578,
        "last_contact": 1789517579,
        "baro_altitude": 13098.78,
        "on_ground": false,
        "velocity": 236.25,
        "true_track": 307.57,
        "vertical_rate": 0,
        "geo_altitude": 13624.56,
        "squawk": "2075",
        "spi": false,
        "position_source": 0
      }
    },
    {
      "type": "Feature",
      "geometry": {
        "type": "Point",
        "coordinates": [
          16.3284,
          44.0641
        ]
      },
      "properties": {
        "icao24": "406c72",
        "callsign": "EZY41FQ",
        "origin_country": "United Kingdom",
        "time_position": 1789517578,
        "last_contact": 1789517579,
        "baro_altitude": 11582.4,
        "on_ground": false,
        "velocity": 219.17,
        "true_track": 304.29,
        "vertical_rate": 0.98,
        "geo_altitude": 12077.7,
        "squawk": "6623",
        "spi": false,
        "position_source": 0
      }
    },
    {
      "type": "Feature",
      "geometry": {
        "type": "Point",
        "coordinates": [
          10.6684,
          39.8848
        ]
      },
      "properties": {
        "icao24": "406add",
        "callsign": "EXS1720",
        "origin_country": "United Kingdom",
        "time_position": 1789517579,
        "last_contact": 1789517579,
        "baro_altitude": 10363.2,
        "on_ground": false,
        "velocity": 218.63,
        "true_track": 315.29,
        "vertical_rate": 0,
        "geo_altitude": 10911.84,
        "squawk": "4312",
        "spi": false,
        "position_source": 0
      }
    },
    {
      "type": "Feature",
      "geometry": {
        "type": "Point",
        "coordinates": [
          15.4957,
          40.6878
        ]
      },
      "properties": {
        "icao24": "4bb870",
        "callsign": "PGT1742",
        "origin_country": "Turkey",
        "time_position": 1789517579,
        "last_contact": 1789517579,
        "baro_altitude": 11887.2,
        "on_ground": false,
        "velocity": 228.15,
        "true_track": 92.71,
        "vertical_rate": 0,
        "geo_altitude": 12397.74,
        "squawk": "1234",
        "spi": false,
        "position_source": 0
      }
    },
    {
      "type": "Feature",
      "geometry": {
        "type": "Point",
        "coordinates": [
          6.3796,
          36.7771
        ]
      },
      "properties": {
        "icao24": "46b8b6",
        "callsign": "AEE715",
        "origin_country": "Greece",
        "time_position": 1789517441,
        "last_contact": 1789517441,
        "baro_altitude": 11887.2,
        "on_ground": false,
        "velocity": 225.02,
        "true_track": 87.51,
        "vertical_rate": 0,
        "geo_altitude": 12527.28,
        "squawk": "4622",
        "spi": false,
        "position_source": 0
      }
    },
    {
      "type": "Feature",
      "geometry": {
        "type": "Point",
        "coordinates": [
          12.2216,
          41.8268
        ]
      },
      "properties": {
        "icao24": "80159e",
        "callsign": "AIC191",
        "origin_country": "India",
        "time_position": 1789517272,
        "last_contact": 1789517272,
        "baro_altitude": 53.34,
        "on_ground": false,
        "velocity": 81.85,
        "true_track": 162.82,
        "vertical_rate": -3.9,
        "geo_altitude": 160.02,
        "squawk": "6006",
        "spi": false,
        "position_source": 0
      }
    },
    {
      "type": "Feature",
      "geometry": {
        "type": "Point",
        "coordinates": [
          8.5612,
          47.442
        ]
      },
      "properties": {
        "icao24": "4b1809",
        "callsign": "SWR",
        "origin_country": "Switzerland",
        "time_position": 1789517563,
        "last_contact": 1789517577,
        "baro_altitude": 396.24,
        "on_ground": true,
        "velocity": 0,
        "true_track": 244.69,
        "vertical_rate": null,
        "geo_altitude": null,
        "squawk": "2000",
        "spi": false,
        "position_source": 0
      }
    },
    {
      "type": "Feature",
      "geometry": {
        "type": "Point",
        "coordinates": [
          11.2335,
          45.681
        ]
      },
      "properties": {
        "icao24": "40803f",
        "callsign": "TOM2PY",
        "origin_country": "United Kingdom",
        "time_position": 1789517579,
        "last_contact": 1789517579,
        "baro_altitude": 11582.4,
        "on_ground": false,
        "velocity": 219.16,
        "true_track": 307.27,
        "vertical_rate": 0,
        "geo_altitude": 12115.8,
        "squawk": "5524",
        "spi": false,
        "position_source": 0
      }
    },
    {
      "type": "Feature",
      "geometry": {
        "type": "Point",
        "coordinates": [
          16.39,
          45.2008
        ]
      },
      "properties": {
        "icao24": "40823f",
        "callsign": "EXS56HW",
        "origin_country": "United Kingdom",
        "time_position": 1789517578,
        "last_contact": 1789517578,
        "baro_altitude": 11582.4,
        "on_ground": false,
        "velocity": 219.66,
        "true_track": 308.53,
        "vertical_rate": 0.33,
        "geo_altitude": 12085.32,
        "squawk": "5302",
        "spi": false,
        "position_source": 0
      }
    },
    {
      "type": "Feature",
      "geometry": {
        "type": "Point",
        "coordinates": [
          18.1055,
          35.2599
        ]
      },
      "properties": {
        "icao24": "0a0046",
        "callsign": "DAH331",
        "origin_country": "Algeria",
        "time_position": 1789517578,
        "last_contact": 1789517579,
        "baro_altitude": 12192,
        "on_ground": false,
        "velocity": 237.34,
        "true_track": 280.24,
        "vertical_rate": -0.33,
        "geo_altitude": 12656.82,
        "squawk": null,
        "spi": false,
        "position_source": 0
      }
    },
    {
      "type": "Feature",
      "geometry": {
        "type": "Point",
        "coordinates": [
          9.9215,
          39.2551
        ]
      },
      "properties": {
        "icao24": "02a1b4",
        "callsign": "LBT575",
        "origin_country": "Tunisia",
        "time_position": 1789517578,
        "last_contact": 1789517579,
        "baro_altitude": 11277.6,
        "on_ground": false,
        "velocity": 232.43,
        "true_track": 146.56,
        "vertical_rate": 0,
        "geo_altitude": 11871.96,
        "squawk": "0207",
        "spi": false,
        "position_source": 0
      }
    },
    {
      "type": "Feature",
      "geometry": {
        "type": "Point",
        "coordinates": [
          7.5273,
          47.5921
        ]
      },
      "properties": {
        "icao24": "38e7ff",
        "callsign": "TIEN24",
        "origin_country": "France",
        "time_position": 1789517578,
        "last_contact": 1789517578,
        "baro_altitude": null,
        "on_ground": true,
        "velocity": 11.32,
        "true_track": 334.69,
        "vertical_rate": null,
        "geo_altitude": null,
        "squawk": null,
        "spi": false,
        "position_source": 0
      }
    },
    {
      "type": "Feature",
      "geometry": {
        "type": "Point",
        "coordinates": [
          8.5399,
          47.4663
        ]
      },
      "properties": {
        "icao24": "4b5d36",
        "callsign": "GALA13",
        "origin_country": "Switzerland",
        "time_position": 1789517578,
        "last_contact": 1789517578,
        "baro_altitude": null,
        "on_ground": true,
        "velocity": 8.23,
        "true_track": 154.69,
        "vertical_rate": null,
        "geo_altitude": null,
        "squawk": null,
        "spi": false,
        "position_source": 0
      }
    },
    {
      "type": "Feature",
      "geometry": {
        "type": "Point",
        "coordinates": [
          13.4959,
          44.8578
        ]
      },
      "properties": {
        "icao24": "48a5f0",
        "callsign": "SRN146",
        "origin_country": "Poland",
        "time_position": 1789517578,
        "last_contact": 1789517579,
        "baro_altitude": 6697.98,
        "on_ground": false,
        "velocity": 120.43,
        "true_track": 260.66,
        "vertical_rate": 0,
        "geo_altitude": 7056.12,
        "squawk": "7351",
        "spi": false,
        "position_source": 0
      }
    },
    {
      "type": "Feature",
      "geometry": {
        "type": "Point",
        "coordinates": [
          14.9056,
          40.3342
        ]
      },
      "properties": {
        "icao24": "408000",
        "callsign": "EZY63MD",
        "origin_country": "United Kingdom",
        "time_position": 1789517579,
        "last_contact": 1789517579,
        "baro_altitude": 11590.02,
        "on_ground": false,
        "velocity": 223.01,
        "true_track": 305.71,
        "vertical_rate": 0,
        "geo_altitude": 12100.56,
        "squawk": null,
        "spi": false,
        "position_source": 0
      }
    },
    {
      "type": "Feature",
      "geometry": {
        "type": "Point",
        "coordinates": [
          7.8833,
          47.4328
        ]
      },
      "properties": {
        "icao24": "408040",
        "callsign": "TOM627",
        "origin_country": "United Kingdom",
        "time_position": 1789517578,
        "last_contact": 1789517578,
        "baro_altitude": 12192,
        "on_ground": false,
        "velocity": 218.23,
        "true_track": 306.95,
        "vertical_rate": 0,
        "geo_altitude": 12672.06,
        "squawk": "7520",
        "spi": false,
        "position_source": 0
      }
    },
    {
      "type": "Feature",
      "geometry": {
        "type": "Point",
        "coordinates": [
          9.4936,
          46.8999
        ]
      },
      "properties": {
        "icao24": "408011",
        "callsign": "EZY98FB",
        "origin_country": "United Kingdom",
        "time_position": 1789517579,
        "last_contact": 1789517579,
        "baro_altitude": 11582.4,
        "on_ground": false,
        "velocity": 206.93,
        "true_track": 306.1,
        "vertical_rate": 0,
        "geo_altitude": 12100.56,
        "squawk": "2754",
        "spi": false,
        "position_source": 0
      }
    },
    {
      "type": "Feature",
      "geometry": {
        "type": "Point",
        "coordinates": [
          8.5561,
          47.4526
        ]
      },
      "properties": {
        "icao24": "4b5c1b",
        "callsign": "URSULA8",
        "origin_country": "Switzerland",
        "time_position": 1789517577,
        "last_contact": 1789517577,
        "baro_altitude": null,
        "on_ground": true,
        "velocity": 3.86,
        "true_track": 104.06,
        "vertical_rate": null,
        "geo_altitude": null,
        "squawk": null,
        "spi": false,
        "position_source": 0
      }
    },
    {
      "type": "Feature",
      "geometry": {
        "type": "Point",
        "coordinates": [
          18.4366,
          42.946
        ]
      },
      "properties": {
        "icao24": "4ca9e7",
        "callsign": "AIZ994",
        "origin_country": "Ireland",
        "time_position": 1789517577,
        "last_contact": 1789517578,
        "baro_altitude": 11879.58,
        "on_ground": false,
        "velocity": 260.23,
        "true_track": 136.84,
        "vertical_rate": -0.33,
        "geo_altitude": 12344.4,
        "squawk": "2217",
        "spi": false,
        "position_source": 0
      }
    },
    {
      "type": "Feature",
      "geometry": {
        "type": "Point",
        "coordinates": [
          11.1591,
          37.9194
        ]
      },
      "properties": {
        "icao24": "48a5e2",
        "callsign": "SRN116",
        "origin_country": "Poland",
        "time_position": 1789517566,
        "last_contact": 1789517569,
        "baro_altitude": 5486.4,
        "on_ground": false,
        "velocity": 103.89,
        "true_track": 7.97,
        "vertical_rate": 0,
        "geo_altitude": 5798.82,
        "squawk": "6133",
        "spi": false,
        "position_source": 0
      }
    },
    {
      "type": "Feature",
      "geometry": {
        "type": "Point",
        "coordinates": [
          10.37,
          45.1979
        ]
      },
      "properties": {
        "icao24": "4ca805",
        "callsign": "RYR7PV",
        "origin_country": "Ireland",
        "time_position": 1789517579,
        "last_contact": 1789517579,
        "baro_altitude": 3253.74,
        "on_ground": false,
        "velocity": 190.05,
        "true_track": 322.48,
        "vertical_rate": -6.83,
        "geo_altitude": 3467.1,
        "squawk": "1000",
        "spi": false,
        "position_source": 0
      }
    },
    {
      "type": "Feature",
      "geometry": {
        "type": "Point",
        "coordinates": [
          17.227,
          47.5238
        ]
      },
      "properties": {
        "icao24": "4bcdb5",
        "callsign": "SXS7LC",
        "origin_country": "Turkey",
        "time_position": 1789517578,
        "last_contact": 1789517579,
        "baro_altitude": 11582.4,
        "on_ground": false,
        "velocity": 214.99,
        "true_track": 315.1,
        "vertical_rate": 0,
        "geo_altitude": 12054.84,
        "squawk": "3205",
        "spi": false,
        "position_source": 0
      }
    },
    {
      "type": "Feature",
      "geometry": {
        "type": "Point",
        "coordinates": [
          11.7202,
          46.9578
        ]
      },
      "properties": {
        "icao24": "448466",
        "callsign": "ICL982",
        "origin_country": "Belgium",
        "time_position": 1789517579,
        "last_contact": 1789517579,
        "baro_altitude": 11879.58,
        "on_ground": false,
        "velocity": 268.42,
        "true_track": 108.43,
        "vertical_rate": 0,
        "geo_altitude": 12359.64,
        "squawk": "1171",
        "spi": false,
        "position_source": 0
      }
    },
    {
      "type": "Feature",
      "geometry": {
        "type": "Point",
        "coordinates": [
          15.7579,
          46.3414
        ]
      },
      "properties": {
        "icao24": "4bce0d",
        "callsign": "SXS2GA",
        "origin_country": "Turkey",
        "time_position": 1789517579,
        "last_contact": 1789517579,
        "baro_altitude": 11277.6,
        "on_ground": false,
        "velocity": 246.91,
        "true_track": 132.3,
        "vertical_rate": 0,
        "geo_altitude": 11765.28,
        "squawk": "6425",
        "spi": false,
        "position_source": 0
      }
    },
    {
      "type": "Feature",
      "geometry": {
        "type": "Point",
        "coordinates": [
          17.4402,
          44.8375
        ]
      },
      "properties": {
        "icao24": "4d010a",
        "callsign": "ICV736",
        "origin_country": "Luxembourg",
        "time_position": 1789517578,
        "last_contact": 1789517578,
        "baro_altitude": 10972.8,
        "on_ground": false,
        "velocity": 249.79,
        "true_track": 272.72,
        "vertical_rate": 0,
        "geo_altitude": 11399.52,
        "squawk": "2316",
        "spi": false,
        "position_source": 0
      }
    },
    {
      "type": "Feature",
      "geometry": {
        "type": "Point",
        "coordinates": [
          17.7921,
          43.2331
        ]
      },
      "properties": {
        "icao24": "40768d",
        "callsign": "EZY41GE",
        "origin_country": "United Kingdom",
        "time_position": 1789517578,
        "last_contact": 1789517578,
        "baro_altitude": 10355.58,
        "on_ground": false,
        "velocity": 218.96,
        "true_track": 310.43,
        "vertical_rate": 0,
        "geo_altitude": 10789.92,
        "squawk": "6630",
        "spi": false,
        "position_source": 0
      }
    },
    {
      "type": "Feature",
      "geometry": {
        "type": "Point",
        "coordinates": [
          7.5307,
          47.6002
        ]
      },
      "properties": {
        "icao24": "389dff",
        "callsign": "COBRA02",
        "origin_country": "France",
        "time_position": 1789517578,
        "last_contact": 1789517578,
        "baro_altitude": null,
        "on_ground": true,
        "velocity": 4.12,
        "true_track": 163.12,
        "vertical_rate": null,
        "geo_altitude": null,
        "squawk": null,
        "spi": false,
        "position_source": 0
      }
    },
    {
      "type": "Feature",
      "geometry": {
        "type": "Point",
        "coordinates": [
          16.9876,
          44.6411
        ]
      },
      "properties": {
        "icao24": "01024b",
        "callsign": "MSC2918",
        "origin_country": "Egypt",
        "time_position": 1789517578,
        "last_contact": 1789517578,
        "baro_altitude": 10972.8,
        "on_ground": false,
        "velocity": 212.73,
        "true_track": 328.35,
        "vertical_rate": -0.33,
        "geo_altitude": 11445.24,
        "squawk": "7731",
        "spi": false,
        "position_source": 0
      }
    },
    {
      "type": "Feature",
      "geometry": {
        "type": "Point",
        "coordinates": [
          18.924,
          42.4564
        ]
      },
      "properties": {
        "icao24": "010248",
        "callsign": "NIA8404",
        "origin_country": "Egypt",
        "time_position": 1789517579,
        "last_contact": 1789517579,
        "baro_altitude": 10668,
        "on_ground": false,
        "velocity": 243.92,
        "true_track": 141.68,
        "vertical_rate": 0,
        "geo_altitude": 11109.96,
        "squawk": "2552",
        "spi": false,
        "position_source": 0
      }
    },
    {
      "type": "Feature",
      "geometry": {
        "type": "Point",
        "coordinates": [
          18.5865,
          42.4672
        ]
      },
      "properties": {
        "icao24": "01025d",
        "callsign": "MSR982",
        "origin_country": "Egypt",
        "time_position": 1789517577,
        "last_contact": 1789517577,
        "baro_altitude": 11887.2,
        "on_ground": false,
        "velocity": 262.14,
        "true_track": 137.39,
        "vertical_rate": -0.33,
        "geo_altitude": 12352.02,
        "squawk": "2227",
        "spi": false,
        "position_source": 0
      }
    },
    {
      "type": "Feature",
      "geometry": {
        "type": "Point",
        "coordinates": [
          17.3857,
          36.4486
        ]
      },
      "properties": {
        "icao24": "01028a",
        "callsign": "MSR947",
        "origin_country": "Egypt",
        "time_position": 1789517579,
        "last_contact": 1789517579,
        "baro_altitude": 10972.8,
        "on_ground": false,
        "velocity": 249.02,
        "true_track": 273.79,
        "vertical_rate": 0.33,
        "geo_altitude": 11369.04,
        "squawk": "5520",
        "spi": false,
        "position_source": 0
      }
    },
    {
      "type": "Feature",
      "geometry": {
        "type": "Point",
        "coordinates": [
          12.6688,
          39.3685
        ]
      },
      "properties": {
        "icao24": "4d24ae",
        "callsign": "WMT3MA",
        "origin_country": "Malta",
        "time_position": 1789517578,
        "last_contact": 1789517578,
        "baro_altitude": 9471.66,
        "on_ground": false,
        "velocity": 207.31,
        "true_track": 334.26,
        "vertical_rate": 6.83,
        "geo_altitude": 9966.96,
        "squawk": "1000",
        "spi": false,
        "position_source": 0
      }
    },
    {
      "type": "Feature",
      "geometry": {
        "type": "Point",
        "coordinates": [
          13.9528,
          46.1807
        ]
      },
      "properties": {
        "icao24": "0101db",
        "callsign": "MSR996",
        "origin_country": "Egypt",
        "time_position": 1789517578,
        "last_contact": 1789517578,
        "baro_altitude": 11879.58,
        "on_ground": false,
        "velocity": 265.8,
        "true_track": 132.49,
        "vertical_rate": 0,
        "geo_altitude": 12405.36,
        "squawk": "1144",
        "spi": false,
        "position_source": 0
      }
    },
    {
      "type": "Feature",
      "geometry": {
        "type": "Point",
        "coordinates": [
          12.967,
          46.0277
        ]
      },
      "properties": {
        "icao24": "300936",
        "callsign": "ICREW",
        "origin_country": "Italy",
        "time_position": 1789517578,
        "last_contact": 1789517578,
        "baro_altitude": 426.72,
        "on_ground": false,
        "velocity": 64.2,
        "true_track": 263.56,
        "vertical_rate": 0,
        "geo_altitude": 525.78,
        "squawk": "1040",
        "spi": false,
        "position_source": 0
      }
    },
    {
      "type": "Feature",
      "geometry": {
        "type": "Point",
        "coordinates": [
          12.1797,
          41.6192
        ]
      },
      "properties": {
        "icao24": "4cadbf",
        "callsign": "RYR89PT",
        "origin_country": "Ireland",
        "time_position": 1789517578,
        "last_contact": 1789517578,
        "baro_altitude": 2095.5,
        "on_ground": false,
        "velocity": 145.95,
        "true_track": 175.96,
        "vertical_rate": 18.53,
        "geo_altitude": 2232.66,
        "squawk": null,
        "spi": false,
        "position_source": 0
      }
    },
    {
      "type": "Feature",
      "geometry": {
        "type": "Point",
        "coordinates": [
          14.4894,
          35.851
        ]
      },
      "properties": {
        "icao24": "4cadfc",
        "callsign": "RYR3KH",
        "origin_country": "Ireland",
        "time_position": 1789517404,
        "last_contact": 1789517404,
        "baro_altitude": null,
        "on_ground": true,
        "velocity": 2.83,
        "true_track": 45,
        "vertical_rate": null,
        "geo_altitude": null,
        "squawk": "3727",
        "spi": false,
        "position_source": 0
      }
    },
    {
      "type": "Feature",
      "geometry": {
        "type": "Point",
        "coordinates": [
          9.2564,
          41.4459
        ]
      },
      "properties": {
        "icao24": "4cae92",
        "callsign": "RYR47XF",
        "origin_country": "Ireland",
        "time_position": 1789517579,
        "last_contact": 1789517579,
        "baro_altitude": 10972.8,
        "on_ground": false,
        "velocity": 221.9,
        "true_track": 328.56,
        "vertical_rate": 0,
        "geo_altitude": 11551.92,
        "squawk": "4050",
        "spi": false,
        "position_source": 0
      }
    },
    {
      "type": "Feature",
      "geometry": {
        "type": "Point",
        "coordinates": [
          10.6984,
          43.3551
        ]
      },
      "properties": {
        "icao24": "4d2349",
        "callsign": "RYR7LG",
        "origin_country": "Malta",
        "time_position": 1789517578,
        "last_contact": 1789517578,
        "baro_altitude": 3017.52,
        "on_ground": false,
        "velocity": 151.05,
        "true_track": 282.19,
        "vertical_rate": -7.48,
        "geo_altitude": 3230.88,
        "squawk": "2622",
        "spi": false,
        "position_source": 0
      }
    },
    {
      "type": "Feature",
      "geometry": {
        "type": "Point",
        "coordinates": [
          15.0546,
          39.635
        ]
      },
      "properties": {
        "icao24": "4d2224",
        "callsign": "RYR89GT",
        "origin_country": "Malta",
        "time_position": 1789517578,
        "last_contact": 1789517578,
        "baro_altitude": 11277.6,
        "on_ground": false,
        "velocity": 250.58,
        "true_track": 162.68,
        "vertical_rate": 0.33,
        "geo_altitude": 11772.9,
        "squawk": null,
        "spi": false,
        "position_source": 0
      }
    },
    {
      "type": "Feature",
      "geometry": {
        "type": "Point",
        "coordinates": [
          10.0953,
          46.2813
        ]
      },
      "properties": {
        "icao24": "4071d9",
        "callsign": "EZY75PF",
        "origin_country": "United Kingdom",
        "time_position": 1789517579,
        "last_contact": 1789517579,
        "baro_altitude": 10980.42,
        "on_ground": false,
        "velocity": 210.52,
        "true_track": 306.25,
        "vertical_rate": 0,
        "geo_altitude": 11506.2,
        "squawk": "2005",
        "spi": false,
        "position_source": 0
      }
    },
    {
      "type": "Feature",
      "geometry": {
        "type": "Point",
        "coordinates": [
          8.7192,
          45.6277
        ]
      },
      "properties": {
        "icao24": "4d2186",
        "callsign": "WMT3C",
        "origin_country": "Malta",
        "time_position": 1789517310,
        "last_contact": 1789517317,
        "baro_altitude": null,
        "on_ground": true,
        "velocity": 0,
        "true_track": 78.75,
        "vertical_rate": null,
        "geo_altitude": null,
        "squawk": "2002",
        "spi": false,
        "position_source": 0
      }
    },
    {
      "type": "Feature",
      "geometry": {
        "type": "Point",
        "coordinates": [
          15.374,
          40.5138
        ]
      },
      "properties": {
        "icao24": "4cac86",
        "callsign": "RYR28QD",
        "origin_country": "Ireland",
        "time_position": 1789517579,
        "last_contact": 1789517579,
        "baro_altitude": 11277.6,
        "on_ground": false,
        "velocity": 258.19,
        "true_track": 193.01,
        "vertical_rate": 0,
        "geo_altitude": 11780.52,
        "squawk": "7341",
        "spi": false,
        "position_source": 0
      }
    },
    {
      "type": "Feature",
      "geometry": {
        "type": "Point",
        "coordinates": [
          14.5177,
          35.7851
        ]
      },
      "properties": {
        "icao24": "710105",
        "callsign": "SVA342",
        "origin_country": "Saudi Arabia",
        "time_position": 1789517578,
        "last_contact": 1789517578,
        "baro_altitude": 10668,
        "on_ground": false,
        "velocity": 259.13,
        "true_track": 96.96,
        "vertical_rate": 0,
        "geo_altitude": 11155.68,
        "squawk": "4115",
        "spi": false,
        "position_source": 0
      }
    },
    {
      "type": "Feature",
      "geometry": {
        "type": "Point",
        "coordinates": [
          17.9652,
          37.9361
        ]
      },
      "properties": {
        "icao24": "710121",
        "callsign": "SVA022",
        "origin_country": "Saudi Arabia",
        "time_position": 1789517564,
        "last_contact": 1789517578,
        "baro_altitude": 10668,
        "on_ground": false,
        "velocity": 246.9,
        "true_track": 93.58,
        "vertical_rate": -0.33,
        "geo_altitude": 11071.86,
        "squawk": "1241",
        "spi": false,
        "position_source": 0
      }
    },
    {
      "type": "Feature",
      "geometry": {
        "type": "Point",
        "coordinates": [
          18.5525,
          40.4226
        ]
      },
      "properties": {
        "icao24": "710124",
        "callsign": "SVA118",
        "origin_country": "Saudi Arabia",
        "time_position": 1789517578,
        "last_contact": 1789517579,
        "baro_altitude": 11277.6,
        "on_ground": false,
        "velocity": 265.19,
        "true_track": 150.35,
        "vertical_rate": -0.33,
        "geo_altitude": 11704.32,
        "squawk": "1172",
        "spi": false,
        "position_source": 0
      }
    },
    {
      "type": "Feature",
      "geometry": {
        "type": "Point",
        "coordinates": [
          10.6226,
          46.0036
        ]
      },
      "properties": {
        "icao24": "408329",
        "callsign": "TOM30A",
        "origin_country": "United Kingdom",
        "time_position": 1789517578,
        "last_contact": 1789517578,
        "baro_altitude": 10363.2,
        "on_ground": false,
        "velocity": 228.62,
        "true_track": 306.77,
        "vertical_rate": 0,
        "geo_altitude": 10888.98,
        "squawk": "4152",
        "spi": false,
        "position_source": 0
      }
    },
    {
      "type": "Feature",
      "geometry": {
        "type": "Point",
        "coordinates": [
          8.7226,
          45.615
        ]
      },
      "properties": {
        "icao24": "451dbd",
        "callsign": "BCS2204",
        "origin_country": "Bulgaria",
        "time_position": 1789517577,
        "last_contact": 1789517577,
        "baro_altitude": null,
        "on_ground": true,
        "velocity": 0,
        "true_track": 78.75,
        "vertical_rate": null,
        "geo_altitude": null,
        "squawk": "3754",
        "spi": false,
        "position_source": 0
      }
    },
    {
      "type": "Feature",
      "geometry": {
        "type": "Point",
        "coordinates": [
          14.4797,
          46.7109
        ]
      },
      "properties": {
        "icao24": "4082cb",
        "callsign": "TOM8FL",
        "origin_country": "United Kingdom",
        "time_position": 1789517578,
        "last_contact": 1789517579,
        "baro_altitude": 11582.4,
        "on_ground": false,
        "velocity": 214.52,
        "true_track": 322.99,
        "vertical_rate": 0,
        "geo_altitude": 12085.32,
        "squawk": "2070",
        "spi": false,
        "position_source": 0
      }
    },
    {
      "type": "Feature",
      "geometry": {
        "type": "Point",
        "coordinates": [
          8.5651,
          47.4417
        ]
      },
      "properties": {
        "icao24": "4b17fe",
        "callsign": "SWR",
        "origin_country": "Switzerland",
        "time_position": 1789517577,
        "last_contact": 1789517578,
        "baro_altitude": null,
        "on_ground": true,
        "velocity": null,
        "true_track": 326.25,
        "vertical_rate": null,
        "geo_altitude": null,
        "squawk": "2000",
        "spi": false,
        "position_source": 0
      }
    },
    {
      "type": "Feature",
      "geometry": {
        "type": "Point",
        "coordinates": [
          8.5456,
          47.4528
        ]
      },
      "properties": {
        "icao24": "4b17ff",
        "callsign": "SWR5643",
        "origin_country": "Switzerland",
        "time_position": 1789517577,
        "last_contact": 1789517579,
        "baro_altitude": null,
        "on_ground": true,
        "velocity": 0,
        "true_track": 289.69,
        "vertical_rate": null,
        "geo_altitude": null,
        "squawk": "1000",
        "spi": false,
        "position_source": 0
      }
    }
  ]
}