{
  "type": "FeatureCollection",
  "source": "opensky",
  "dataset": "aircraft_italy",
  "generated_at": "2026-09-20T01:31:36.486206+00:00",
  "opensky_time": 1789867894,
  "count": 74,
  "features": [
    {
      "type": "Feature",
      "geometry": {
        "type": "Point",
        "coordinates": [
          9.8743,
          41.4095
        ]
      },
      "properties": {
        "icao24": "3c65c2",
        "callsign": "DLH1327",
        "origin_country": "Germany",
        "time_position": 1789867890,
        "last_contact": 1789867894,
        "baro_altitude": 11582.4,
        "on_ground": false,
        "velocity": 226.36,
        "true_track": 359.61,
        "vertical_rate": -0.33,
        "geo_altitude": 12070.08,
        "squawk": "6165",
        "spi": false,
        "position_source": 0
      }
    },
    {
      "type": "Feature",
      "geometry": {
        "type": "Point",
        "coordinates": [
          8.7218,
          45.6094
        ]
      },
      "properties": {
        "icao24": "3c5431",
        "callsign": "BCS8KH",
        "origin_country": "Germany",
        "time_position": 1789867893,
        "last_contact": 1789867893,
        "baro_altitude": null,
        "on_ground": true,
        "velocity": 5.66,
        "true_track": 348.75,
        "vertical_rate": null,
        "geo_altitude": null,
        "squawk": "3747",
        "spi": false,
        "position_source": 0
      }
    },
    {
      "type": "Feature",
      "geometry": {
        "type": "Point",
        "coordinates": [
          18.4185,
          39.5845
        ]
      },
      "properties": {
        "icao24": "801600",
        "callsign": "AIC101",
        "origin_country": "India",
        "time_position": 1789867893,
        "last_contact": 1789867894,
        "baro_altitude": 12192,
        "on_ground": false,
        "velocity": 230.62,
        "true_track": 302.52,
        "vertical_rate": 0,
        "geo_altitude": 12679.68,
        "squawk": "0606",
        "spi": true,
        "position_source": 0
      }
    },
    {
      "type": "Feature",
      "geometry": {
        "type": "Point",
        "coordinates": [
          9.7121,
          36.0647
        ]
      },
      "properties": {
        "icao24": "4951cd",
        "callsign": "TAP9003",
        "origin_country": "Portugal",
        "time_position": 1789867893,
        "last_contact": 1789867893,
        "baro_altitude": 10660.38,
        "on_ground": false,
        "velocity": 219.15,
        "true_track": 162.37,
        "vertical_rate": 0,
        "geo_altitude": 11193.78,
        "squawk": "1175",
        "spi": false,
        "position_source": 0
      }
    },
    {
      "type": "Feature",
      "geometry": {
        "type": "Point",
        "coordinates": [
          11.9715,
          37.741
        ]
      },
      "properties": {
        "icao24": "02a1a7",
        "callsign": "LBT7470",
        "origin_country": "Tunisia",
        "time_position": 1789867894,
        "last_contact": 1789867894,
        "baro_altitude": 10279.38,
        "on_ground": false,
        "velocity": 247.12,
        "true_track": 23.95,
        "vertical_rate": 3.58,
        "geo_altitude": 10797.54,
        "squawk": "6173",
        "spi": false,
        "position_source": 0
      }
    },
    {
      "type": "Feature",
      "geometry": {
        "type": "Point",
        "coordinates": [
          8.8585,
          40.0902
        ]
      },
      "properties": {
        "icao24": "3c6564",
        "callsign": "OCN133",
        "origin_country": "Germany",
        "time_position": 1789867893,
        "last_contact": 1789867893,
        "baro_altitude": 12192,
        "on_ground": false,
        "velocity": 234.17,
        "true_track": 358.36,
        "vertical_rate": 0,
        "geo_altitude": 12679.68,
        "squawk": "4302",
        "spi": false,
        "position_source": 0
      }
    },
    {
      "type": "Feature",
      "geometry": {
        "type": "Point",
        "coordinates": [
          8.8713,
          39.4454
        ]
      },
      "properties": {
        "icao24": "3c6573",
        "callsign": "DLH595",
        "origin_country": "Germany",
        "time_position": 1789867894,
        "last_contact": 1789867894,
        "baro_altitude": 11582.4,
        "on_ground": false,
        "velocity": 243.41,
        "true_track": 358.55,
        "vertical_rate": 0,
        "geo_altitude": 12070.08,
        "squawk": "0201",
        "spi": false,
        "position_source": 0
      }
    },
    {
      "type": "Feature",
      "geometry": {
        "type": "Point",
        "coordinates": [
          12.9258,
          37.5036
        ]
      },
      "properties": {
        "icao24": "0a0046",
        "callsign": "DAH3015",
        "origin_country": "Algeria",
        "time_position": 1789867894,
        "last_contact": 1789867894,
        "baro_altitude": 12192,
        "on_ground": false,
        "velocity": 223.75,
        "true_track": 254.94,
        "vertical_rate": 0,
        "geo_altitude": 12748.26,
        "squawk": "2306",
        "spi": false,
        "position_source": 0
      }
    },
    {
      "type": "Feature",
      "geometry": {
        "type": "Point",
        "coordinates": [
          13.7659,
          37.8882
        ]
      },
      "properties": {
        "icao24": "0a008e",
        "callsign": "DAH3023",
        "origin_country": "Algeria",
        "time_position": 1789867894,
        "last_contact": 1789867894,
        "baro_altitude": 10972.8,
        "on_ground": false,
        "velocity": 202.67,
        "true_track": 249.5,
        "vertical_rate": 0,
        "geo_altitude": 11498.58,
        "squawk": "2335",
        "spi": false,
        "position_source": 0
      }
    },
    {
      "type": "Feature",
      "geometry": {
        "type": "Point",
        "coordinates": [
          16.6194,
          47.1816
        ]
      },
      "properties": {
        "icao24": "4bc884",
        "callsign": "PGT96T",
        "origin_country": "Turkey",
        "time_position": 1789867893,
        "last_contact": 1789867894,
        "baro_altitude": 10668,
        "on_ground": false,
        "velocity": 239.33,
        "true_track": 127.31,
        "vertical_rate": 0,
        "geo_altitude": 11140.44,
        "squawk": "6426",
        "spi": false,
        "position_source": 0
      }
    },
    {
      "type": "Feature",
      "geometry": {
        "type": "Point",
        "coordinates": [
          18.109,
          47.3042
        ]
      },
      "properties": {
        "icao24": "4bc886",
        "callsign": "PGT80PT",
        "origin_country": "Turkey",
        "time_position": 1789867894,
        "last_contact": 1789867894,
        "baro_altitude": 10980.42,
        "on_ground": false,
        "velocity": 235.8,
        "true_track": 125.32,
        "vertical_rate": -0.33,
        "geo_altitude": 11437.62,
        "squawk": "2241",
        "spi": false,
        "position_source": 0
      }
    },
    {
      "type": "Feature",
      "geometry": {
        "type": "Point",
        "coordinates": [
          12.8752,
          42.1624
        ]
      },
      "properties": {
        "icao24": "73806b",
        "callsign": "ELY223",
        "origin_country": "Israel",
        "time_position": 1789867894,
        "last_contact": 1789867894,
        "baro_altitude": 10972.8,
        "on_ground": false,
        "velocity": 225.96,
        "true_track": 292.77,
        "vertical_rate": 0,
        "geo_altitude": 11437.62,
        "squawk": "5607",
        "spi": false,
        "position_source": 0
      }
    },
    {
      "type": "Feature",
      "geometry": {
        "type": "Point",
        "coordinates": [
          9.7162,
          40.7985
        ]
      },
      "properties": {
        "icao24": "3c4a04",
        "callsign": "DLH577",
        "origin_country": "Germany",
        "time_position": 1789867893,
        "last_contact": 1789867894,
        "baro_altitude": 12184.38,
        "on_ground": false,
        "velocity": 246.75,
        "true_track": 2.99,
        "vertical_rate": 0,
        "geo_altitude": 12694.92,
        "squawk": "1201",
        "spi": false,
        "position_source": 0
      }
    },
    {
      "type": "Feature",
      "geometry": {
        "type": "Point",
        "coordinates": [
          11.5969,
          46.3716
        ]
      },
      "properties": {
        "icao24": "4891b9",
        "callsign": "ENT4RD",
        "origin_country": "Poland",
        "time_position": 1789867894,
        "last_contact": 1789867894,
        "baro_altitude": 10972.8,
        "on_ground": false,
        "velocity": 237.6,
        "true_track": 217.79,
        "vertical_rate": 0,
        "geo_altitude": 11475.72,
        "squawk": "1000",
        "spi": false,
        "position_source": 0
      }
    },
    {
      "type": "Feature",
      "geometry": {
        "type": "Point",
        "coordinates": [
          6.3303,
          45.3814
        ]
      },
      "properties": {
        "icao24": "738102",
        "callsign": "ELY001",
        "origin_country": "Israel",
        "time_position": 1789867893,
        "last_contact": 1789867893,
        "baro_altitude": 10965.18,
        "on_ground": false,
        "velocity": 245.5,
        "true_track": 285.43,
        "vertical_rate": 0,
        "geo_altitude": 11521.44,
        "squawk": "5766",
        "spi": false,
        "position_source": 0
      }
    },
    {
      "type": "Feature",
      "geometry": {
        "type": "Point",
        "coordinates": [
          16.0226,
          44.9511
        ]
      },
      "properties": {
        "icao24": "45213d",
        "callsign": "MSC2967",
        "origin_country": "Bulgaria",
        "time_position": 1789867893,
        "last_contact": 1789867894,
        "baro_altitude": 10668,
        "on_ground": false,
        "velocity": 242.56,
        "true_track": 139.21,
        "vertical_rate": 0,
        "geo_altitude": 11132.82,
        "squawk": "5242",
        "spi": false,
        "position_source": 0
      }
    },
    {
      "type": "Feature",
      "geometry": {
        "type": "Point",
        "coordinates": [
          18.5256,
          45.0607
        ]
      },
      "properties": {
        "icao24": "4892c7",
        "callsign": "ENT8FG",
        "origin_country": "Poland",
        "time_position": 1789867894,
        "last_contact": 1789867894,
        "baro_altitude": 11277.6,
        "on_ground": false,
        "velocity": 237.82,
        "true_track": 173.17,
        "vertical_rate": 0,
        "geo_altitude": 11727.18,
        "squawk": "6003",
        "spi": false,
        "position_source": 0
      }
    },
    {
      "type": "Feature",
      "geometry": {
        "type": "Point",
        "coordinates": [
          16.7845,
          43.6967
        ]
      },
      "properties": {
        "icao24": "7380c1",
        "callsign": "ELY220",
        "origin_country": "Israel",
        "time_position": 1789867893,
        "last_contact": 1789867893,
        "baro_altitude": 11879.58,
        "on_ground": false,
        "velocity": 256.4,
        "true_track": 123.63,
        "vertical_rate": -0.33,
        "geo_altitude": 12352.02,
        "squawk": "0247",
        "spi": false,
        "position_source": 0
      }
    },
    {
      "type": "Feature",
      "geometry": {
        "type": "Point",
        "coordinates": [
          13.8348,
          35.8616
        ]
      },
      "properties": {
        "icao24": "0a00e3",
        "callsign": "DAH4660",
        "origin_country": "Algeria",
        "time_position": 1789867893,
        "last_contact": 1789867894,
        "baro_altitude": 11887.2,
        "on_ground": false,
        "velocity": 260.03,
        "true_track": 96.7,
        "vertical_rate": 0,
        "geo_altitude": 12466.32,
        "squawk": "4113",
        "spi": false,
        "position_source": 0
      }
    },
    {
      "type": "Feature",
      "geometry": {
        "type": "Point",
        "coordinates": [
          6.5456,
          43.5471
        ]
      },
      "properties": {
        "icao24": "020118",
        "callsign": "MAC466C",
        "origin_country": "Morocco",
        "time_position": 1789867894,
        "last_contact": 1789867894,
        "baro_altitude": 11887.2,
        "on_ground": false,
        "velocity": 240.27,
        "true_track": 238.22,
        "vertical_rate": 0,
        "geo_altitude": 12428.22,
        "squawk": "4030",
        "spi": false,
        "position_source": 0
      }
    },
    {
      "type": "Feature",
      "geometry": {
        "type": "Point",
        "coordinates": [
          11.5926,
          46.5515
        ]
      },
      "properties": {
        "icao24": "a70326",
        "callsign": "N551AD",
        "origin_country": "United States",
        "time_position": 1789867893,
        "last_contact": 1789867894,
        "baro_altitude": 11277.6,
        "on_ground": false,
        "velocity": 239.89,
        "true_track": 132.83,
        "vertical_rate": -0.33,
        "geo_altitude": 11765.28,
        "squawk": "2262",
        "spi": false,
        "position_source": 0
      }
    },
    {
      "type": "Feature",
      "geometry": {
        "type": "Point",
        "coordinates": [
          6.5362,
          41.0114
        ]
      },
      "properties": {
        "icao24": "4bb18b",
        "callsign": "THY4JD",
        "origin_country": "Turkey",
        "time_position": 1789867893,
        "last_contact": 1789867894,
        "baro_altitude": 11269.98,
        "on_ground": false,
        "velocity": 264.13,
        "true_track": 272.34,
        "vertical_rate": 0,
        "geo_altitude": 11780.52,
        "squawk": "3260",
        "spi": false,
        "position_source": 0
      }
    },
    {
      "type": "Feature",
      "geometry": {
        "type": "Point",
        "coordinates": [
          8.7961,
          45.5035
        ]
      },
      "properties": {
        "icao24": "738448",
        "callsign": "AIZ741",
        "origin_country": "Israel",
        "time_position": 1789867893,
        "last_contact": 1789867894,
        "baro_altitude": 10972.8,
        "on_ground": false,
        "velocity": 228.68,
        "true_track": 286.6,
        "vertical_rate": 0,
        "geo_altitude": 11506.2,
        "squawk": "4130",
        "spi": false,
        "position_source": 0
      }
    },
    {
      "type": "Feature",
      "geometry": {
        "type": "Point",
        "coordinates": [
          15.9427,
          36.1695
        ]
      },
      "properties": {
        "icao24": "4bb075",
        "callsign": "THY8DL",
        "origin_country": "Turkey",
        "time_position": 1789867894,
        "last_contact": 1789867894,
        "baro_altitude": 11277.6,
        "on_ground": false,
        "velocity": 259.75,
        "true_track": 51.11,
        "vertical_rate": 0,
        "geo_altitude": 11871.96,
        "squawk": "4115",
        "spi": false,
        "position_source": 0
      }
    },
    {
      "type": "Feature",
      "geometry": {
        "type": "Point",
        "coordinates": [
          13.7993,
          36.2046
        ]
      },
      "properties": {
        "icao24": "4bb06a",
        "callsign": "THY597",
        "origin_country": "Turkey",
        "time_position": 1789867893,
        "last_contact": 1789867893,
        "baro_altitude": 11277.6,
        "on_ground": false,
        "velocity": 264.07,
        "true_track": 79.68,
        "vertical_rate": 0,
        "geo_altitude": 11856.72,
        "squawk": "4112",
        "spi": false,
        "position_source": 0
      }
    },
    {
      "type": "Feature",
      "geometry": {
        "type": "Point",
        "coordinates": [
          17.3554,
          43.7733
        ]
      },
      "properties": {
        "icao24": "501c1c",
        "callsign": "TDR176",
        "origin_country": "Croatia",
        "time_position": 1789867892,
        "last_contact": 1789867893,
        "baro_altitude": 10736.58,
        "on_ground": false,
        "velocity": 229.29,
        "true_track": 324.31,
        "vertical_rate": -4.88,
        "geo_altitude": 11224.26,
        "squawk": "2066",
        "spi": false,
        "position_source": 0
      }
    },
    {
      "type": "Feature",
      "geometry": {
        "type": "Point",
        "coordinates": [
          17.1028,
          45.7081
        ]
      },
      "properties": {
        "icao24": "4bce43",
        "callsign": "SXS3QZ",
        "origin_country": "Turkey",
        "time_position": 1789867893,
        "last_contact": 1789867894,
        "baro_altitude": 11277.6,
        "on_ground": false,
        "velocity": 232.83,
        "true_track": 135.72,
        "vertical_rate": 0,
        "geo_altitude": 11742.42,
        "squawk": "6421",
        "spi": false,
        "position_source": 0
      }
    },
    {
      "type": "Feature",
      "geometry": {
        "type": "Point",
        "coordinates": [
          16.6953,
          46.1887
        ]
      },
      "properties": {
        "icao24": "4bce46",
        "callsign": "SXS79Y",
        "origin_country": "Turkey",
        "time_position": 1789867894,
        "last_contact": 1789867894,
        "baro_altitude": 11277.6,
        "on_ground": false,
        "velocity": 238.82,
        "true_track": 137.27,
        "vertical_rate": 0,
        "geo_altitude": 11727.18,
        "squawk": "6024",
        "spi": false,
        "position_source": 0
      }
    },
    {
      "type": "Feature",
      "geometry": {
        "type": "Point",
        "coordinates": [
          13.7804,
          47.7533
        ]
      },
      "properties": {
        "icao24": "4078fd",
        "callsign": "EXS16M",
        "origin_country": "United Kingdom",
        "time_position": 1789867894,
        "last_contact": 1789867894,
        "baro_altitude": 10972.8,
        "on_ground": false,
        "velocity": 222.93,
        "true_track": 312.01,
        "vertical_rate": 0,
        "geo_altitude": 11468.1,
        "squawk": "6623",
        "spi": false,
        "position_source": 0
      }
    },
    {
      "type": "Feature",
      "geometry": {
        "type": "Point",
        "coordinates": [
          6.5771,
          43.6038
        ]
      },
      "properties": {
        "icao24": "44ccc2",
        "callsign": "BEL2RA",
        "origin_country": "Belgium",
        "time_position": 1789867893,
        "last_contact": 1789867894,
        "baro_altitude": 12192,
        "on_ground": false,
        "velocity": 219.96,
        "true_track": 357.05,
        "vertical_rate": 0,
        "geo_altitude": 12733.02,
        "squawk": "1000",
        "spi": false,
        "position_source": 0
      }
    },
    {
      "type": "Feature",
      "geometry": {
        "type": "Point",
        "coordinates": [
          11.0866,
          46.1719
        ]
      },
      "properties": {
        "icao24": "48ea4e",
        "callsign": "RYS7237",
        "origin_country": "Poland",
        "time_position": 1789867894,
        "last_contact": 1789867894,
        "baro_altitude": 11277.6,
        "on_ground": false,
        "velocity": 239.01,
        "true_track": 214.48,
        "vertical_rate": 0,
        "geo_altitude": 11795.76,
        "squawk": "1000",
        "spi": false,
        "position_source": 0
      }
    },
    {
      "type": "Feature",
      "geometry": {
        "type": "Point",
        "coordinates": [
          6.1724,
          40.8978
        ]
      },
      "properties": {
        "icao24": "44ccc6",
        "callsign": "BEL4TH",
        "origin_country": "Belgium",
        "time_position": 1789867894,
        "last_contact": 1789867894,
        "baro_altitude": 11582.4,
        "on_ground": false,
        "velocity": 230.54,
        "true_track": 17.67,
        "vertical_rate": 0.33,
        "geo_altitude": 12100.56,
        "squawk": "1000",
        "spi": false,
        "position_source": 0
      }
    },
    {
      "type": "Feature",
      "geometry": {
        "type": "Point",
        "coordinates": [
          7.0019,
          38.6366
        ]
      },
      "properties": {
        "icao24": "44ccc4",
        "callsign": "BEL8VB",
        "origin_country": "Belgium",
        "time_position": 1789867894,
        "last_contact": 1789867894,
        "baro_altitude": 11582.4,
        "on_ground": false,
        "velocity": 236.67,
        "true_track": 3.86,
        "vertical_rate": 0,
        "geo_altitude": 12085.32,
        "squawk": null,
        "spi": false,
        "position_source": 0
      }
    },
    {
      "type": "Feature",
      "geometry": {
        "type": "Point",
        "coordinates": [
          15.1979,
          46.6585
        ]
      },
      "properties": {
        "icao24": "4bcdb0",
        "callsign": "SXS8XT",
        "origin_country": "Turkey",
        "time_position": 1789867893,
        "last_contact": 1789867894,
        "baro_altitude": 11277.6,
        "on_ground": false,
        "velocity": 242.67,
        "true_track": 134.06,
        "vertical_rate": 0,
        "geo_altitude": 11757.66,
        "squawk": "2266",
        "spi": false,
        "position_source": 0
      }
    },
    {
      "type": "Feature",
      "geometry": {
        "type": "Point",
        "coordinates": [
          7.3907,
          43.919
        ]
      },
      "properties": {
        "icao24": "448465",
        "callsign": "ICL981",
        "origin_country": "Belgium",
        "time_position": 1789867894,
        "last_contact": 1789867894,
        "baro_altitude": 9753.6,
        "on_ground": false,
        "velocity": 258.5,
        "true_track": 298.4,
        "vertical_rate": 0,
        "geo_altitude": 10241.28,
        "squawk": "4015",
        "spi": false,
        "position_source": 0
      }
    },
    {
      "type": "Feature",
      "geometry": {
        "type": "Point",
        "coordinates": [
          14.0258,
          46.2474
        ]
      },
      "properties": {
        "icao24": "40796b",
        "callsign": "TOM89A",
        "origin_country": "United Kingdom",
        "time_position": 1789867894,
        "last_contact": 1789867894,
        "baro_altitude": 9753.6,
        "on_ground": false,
        "velocity": 237.59,
        "true_track": 313.86,
        "vertical_rate": 0,
        "geo_altitude": 10233.66,
        "squawk": "1343",
        "spi": false,
        "position_source": 0
      }
    },
    {
      "type": "Feature",
      "geometry": {
        "type": "Point",
        "coordinates": [
          17.7428,
          43.1019
        ]
      },
      "properties": {
        "icao24": "40796e",
        "callsign": "EXS78PB",
        "origin_country": "United Kingdom",
        "time_position": 1789867894,
        "last_contact": 1789867894,
        "baro_altitude": 9745.98,
        "on_ground": false,
        "velocity": 232.72,
        "true_track": 304.01,
        "vertical_rate": 0,
        "geo_altitude": 10187.94,
        "squawk": "5320",
        "spi": false,
        "position_source": 0
      }
    },
    {
      "type": "Feature",
      "geometry": {
        "type": "Point",
        "coordinates": [
          16.7176,
          47.1742
        ]
      },
      "properties": {
        "icao24": "4bce03",
        "callsign": "SXS7GP",
        "origin_country": "Turkey",
        "time_position": 1789867894,
        "last_contact": 1789867894,
        "baro_altitude": 10972.8,
        "on_ground": false,
        "velocity": 221.52,
        "true_track": 309.35,
        "vertical_rate": 0,
        "geo_altitude": 11430,
        "squawk": "3202",
        "spi": false,
        "position_source": 0
      }
    },
    {
      "type": "Feature",
      "geometry": {
        "type": "Point",
        "coordinates": [
          12.6549,
          46.9338
        ]
      },
      "properties": {
        "icao24": "aa5b89",
        "callsign": "N767A",
        "origin_country": "United States",
        "time_position": 1789867894,
        "last_contact": 1789867894,
        "baro_altitude": 11285.22,
        "on_ground": false,
        "velocity": 238.4,
        "true_track": 126.4,
        "vertical_rate": 0,
        "geo_altitude": 11750.04,
        "squawk": "2267",
        "spi": false,
        "position_source": 0
      }
    },
    {
      "type": "Feature",
      "geometry": {
        "type": "Point",
        "coordinates": [
          16.1862,
          45.8101
        ]
      },
      "properties": {
        "icao24": "4bcd84",
        "callsign": "SXS3WE",
        "origin_country": "Turkey",
        "time_position": 1789867894,
        "last_contact": 1789867894,
        "baro_altitude": 11277.6,
        "on_ground": false,
        "velocity": 236.66,
        "true_track": 129.89,
        "vertical_rate": 0,
        "geo_altitude": 11750.04,
        "squawk": "7717",
        "spi": false,
        "position_source": 0
      }
    },
    {
      "type": "Feature",
      "geometry": {
        "type": "Point",
        "coordinates": [
          16.5974,
          45.0633
        ]
      },
      "properties": {
        "icao24": "4bcd82",
        "callsign": "SXS3FP",
        "origin_country": "Turkey",
        "time_position": 1789867893,
        "last_contact": 1789867894,
        "baro_altitude": 11277.6,
        "on_ground": false,
        "velocity": 231.69,
        "true_track": 131.94,
        "vertical_rate": 0,
        "geo_altitude": 11742.42,
        "squawk": "7656",
        "spi": false,
        "position_source": 0
      }
    },
    {
      "type": "Feature",
      "geometry": {
        "type": "Point",
        "coordinates": [
          17.227,
          40.4966
        ]
      },
      "properties": {
        "icao24": "3a4494",
        "callsign": "REU975",
        "origin_country": "France",
        "time_position": 1789867893,
        "last_contact": 1789867893,
        "baro_altitude": 10363.2,
        "on_ground": false,
        "velocity": 245.08,
        "true_track": 306.89,
        "vertical_rate": 0,
        "geo_altitude": 10835.64,
        "squawk": null,
        "spi": false,
        "position_source": 0
      }
    },
    {
      "type": "Feature",
      "geometry": {
        "type": "Point",
        "coordinates": [
          14.2969,
          41.2106
        ]
      },
      "properties": {
        "icao24": "040048",
        "callsign": "ETH574",
        "origin_country": "Ethiopia",
        "time_position": 1789867894,
        "last_contact": 1789867894,
        "baro_altitude": 8061.96,
        "on_ground": false,
        "velocity": 206.63,
        "true_track": 289.34,
        "vertical_rate": -10.4,
        "geo_altitude": 8473.44,
        "squawk": null,
        "spi": false,
        "position_source": 0
      }
    },
    {
      "type": "Feature",
      "geometry": {
        "type": "Point",
        "coordinates": [
          15.6116,
          46.4378
        ]
      },
      "properties": {
        "icao24": "4ba9e1",
        "callsign": "THY1SW",
        "origin_country": "Turkey",
        "time_position": 1789867268,
        "last_contact": 1789867894,
        "baro_altitude": 11277.6,
        "on_ground": false,
        "velocity": 955.81,
        "true_track": 185.93,
        "vertical_rate": 0,
        "geo_altitude": null,
        "squawk": "2644",
        "spi": false,
        "position_source": 0
      }
    },
    {
      "type": "Feature",
      "geometry": {
        "type": "Point",
        "coordinates": [
          14.3711,
          45.9087
        ]
      },
      "properties": {
        "icao24": "01028a",
        "callsign": "MSR986",
        "origin_country": "Egypt",
        "time_position": 1789867894,
        "last_contact": 1789867894,
        "baro_altitude": 12496.8,
        "on_ground": false,
        "velocity": 258.02,
        "true_track": 133.3,
        "vertical_rate": 0,
        "geo_altitude": 12938.76,
        "squawk": "1166",
        "spi": false,
        "position_source": 0
      }
    },
    {
      "type": "Feature",
      "geometry": {
        "type": "Point",
        "coordinates": [
          8.1945,
          47.7438
        ]
      },
      "properties": {
        "icao24": "40772f",
        "callsign": "EZY68ZN",
        "origin_country": "United Kingdom",
        "time_position": 1789867894,
        "last_contact": 1789867894,
        "baro_altitude": 11590.02,
        "on_ground": false,
        "velocity": 209.01,
        "true_track": 300.79,
        "vertical_rate": 0,
        "geo_altitude": 12115.8,
        "squawk": "2765",
        "spi": false,
        "position_source": 0
      }
    },
    {
      "type": "Feature",
      "geometry": {
        "type": "Point",
        "coordinates": [
          8.8108,
          45.4075
        ]
      },
      "properties": {
        "icao24": "4caeb0",
        "callsign": "NOS6525",
        "origin_country": "Ireland",
        "time_position": 1789867894,
        "last_contact": 1789867894,
        "baro_altitude": 1409.7,
        "on_ground": false,
        "velocity": 109.29,
        "true_track": 318.05,
        "vertical_rate": -5.85,
        "geo_altitude": 1607.82,
        "squawk": "2073",
        "spi": false,
        "position_source": 0
      }
    },
    {
      "type": "Feature",
      "geometry": {
        "type": "Point",
        "coordinates": [
          11.149,
          45.5233
        ]
      },
      "properties": {
        "icao24": "4caf29",
        "callsign": "RYR2PG",
        "origin_country": "Ireland",
        "time_position": 1789867894,
        "last_contact": 1789867894,
        "baro_altitude": 6035.04,
        "on_ground": false,
        "velocity": 220.11,
        "true_track": 288.82,
        "vertical_rate": -13.66,
        "geo_altitude": 6416.04,
        "squawk": "1070",
        "spi": false,
        "position_source": 0
      }
    },
    {
      "type": "Feature",
      "geometry": {
        "type": "Point",
        "coordinates": [
          7.874,
          46.6711
        ]
      },
      "properties": {
        "icao24": "4b3305",
        "callsign": "RGA10",
        "origin_country": "Switzerland",
        "time_position": 1789867894,
        "last_contact": 1789867894,
        "baro_altitude": 510.54,
        "on_ground": false,
        "velocity": 19.21,
        "true_track": 97.7,
        "vertical_rate": -2.93,
        "geo_altitude": 685.8,
        "squawk": "7100",
        "spi": false,
        "position_source": 0
      }
    },
    {
      "type": "Feature",
      "geometry": {
        "type": "Point",
        "coordinates": [
          16.7773,
          40.712
        ]
      },
      "properties": {
        "icao24": "4d23c4",
        "callsign": "GTR1568",
        "origin_country": "Malta",
        "time_position": 1789867894,
        "last_contact": 1789867894,
        "baro_altitude": 11582.4,
        "on_ground": false,
        "velocity": 220.94,
        "true_track": 272.67,
        "vertical_rate": 0,
        "geo_altitude": 12054.84,
        "squawk": "6767",
        "spi": false,
        "position_source": 0
      }
    },
    {
      "type": "Feature",
      "geometry": {
        "type": "Point",
        "coordinates": [
          7.6313,
          43.5517
        ]
      },
      "properties": {
        "icao24": "407eec",
        "callsign": "EZY63MD",
        "origin_country": "United Kingdom",
        "time_position": 1789867894,
        "last_contact": 1789867894,
        "baro_altitude": 10980.42,
        "on_ground": false,
        "velocity": 232.48,
        "true_track": 290.6,
        "vertical_rate": 0,
        "geo_altitude": 11536.68,
        "squawk": "4037",
        "spi": false,
        "position_source": 0
      }
    },
    {
      "type": "Feature",
      "geometry": {
        "type": "Point",
        "coordinates": [
          17.2474,
          37.62
        ]
      },
      "properties": {
        "icao24": "744832",
        "callsign": "RJA517",
        "origin_country": "Jordan",
        "time_position": 1789867894,
        "last_contact": 1789867894,
        "baro_altitude": 10972.8,
        "on_ground": false,
        "velocity": 202.33,
        "true_track": 278.48,
        "vertical_rate": 0.33,
        "geo_altitude": 11513.82,
        "squawk": "0234",
        "spi": false,
        "position_source": 0
      }
    },
    {
      "type": "Feature",
      "geometry": {
        "type": "Point",
        "coordinates": [
          16.4974,
          39.954
        ]
      },
      "properties": {
        "icao24": "040243",
        "callsign": "ETH500",
        "origin_country": "Ethiopia",
        "time_position": 1789867893,
        "last_contact": 1789867893,
        "baro_altitude": 12192,
        "on_ground": false,
        "velocity": 229.82,
        "true_track": 305.43,
        "vertical_rate": 0,
        "geo_altitude": 12679.68,
        "squawk": null,
        "spi": false,
        "position_source": 0
      }
    },
    {
      "type": "Feature",
      "geometry": {
        "type": "Point",
        "coordinates": [
          13.1423,
          38.6522
        ]
      },
      "properties": {
        "icao24": "4d2427",
        "callsign": "WMT7A",
        "origin_country": "Malta",
        "time_position": 1789867740,
        "last_contact": 1789867740,
        "baro_altitude": 3680.46,
        "on_ground": false,
        "velocity": 193.03,
        "true_track": 153.91,
        "vertical_rate": -10.08,
        "geo_altitude": 4320.54,
        "squawk": "1000",
        "spi": false,
        "position_source": 0
      }
    },
    {
      "type": "Feature",
      "geometry": {
        "type": "Point",
        "coordinates": [
          12.4011,
          36.1277
        ]
      },
      "properties": {
        "icao24": "744828",
        "callsign": "RJA555",
        "origin_country": "Jordan",
        "time_position": 1789867893,
        "last_contact": 1789867893,
        "baro_altitude": 10355.58,
        "on_ground": false,
        "velocity": 214.35,
        "true_track": 263.52,
        "vertical_rate": 0,
        "geo_altitude": 10911.84,
        "squawk": "5624",
        "spi": false,
        "position_source": 0
      }
    },
    {
      "type": "Feature",
      "geometry": {
        "type": "Point",
        "coordinates": [
          7.0074,
          38.7174
        ]
      },
      "properties": {
        "icao24": "3c7a51",
        "callsign": "CFG291",
        "origin_country": "Germany",
        "time_position": 1789867894,
        "last_contact": 1789867894,
        "baro_altitude": 12192,
        "on_ground": false,
        "velocity": 236.39,
        "true_track": 6,
        "vertical_rate": 0,
        "geo_altitude": 12694.92,
        "squawk": null,
        "spi": false,
        "position_source": 0
      }
    },
    {
      "type": "Feature",
      "geometry": {
        "type": "Point",
        "coordinates": [
          18.7298,
          46.0319
        ]
      },
      "properties": {
        "icao24": "4bd183",
        "callsign": "CAI6CP",
        "origin_country": "Turkey",
        "time_position": 1789867685,
        "last_contact": 1789867893,
        "baro_altitude": 9448.8,
        "on_ground": false,
        "velocity": 229.17,
        "true_track": 135.18,
        "vertical_rate": 0,
        "geo_altitude": 9837.42,
        "squawk": "4512",
        "spi": false,
        "position_source": 0
      }
    },
    {
      "type": "Feature",
      "geometry": {
        "type": "Point",
        "coordinates": [
          6.9269,
          46.3716
        ]
      },
      "properties": {
        "icao24": "424c98",
        "callsign": "MABTE",
        "origin_country": "United Kingdom",
        "time_position": 1789867893,
        "last_contact": 1789867894,
        "baro_altitude": 13716,
        "on_ground": false,
        "velocity": 229.76,
        "true_track": 217.36,
        "vertical_rate": 0,
        "geo_altitude": 14234.16,
        "squawk": "0615",
        "spi": false,
        "position_source": 0
      }
    },
    {
      "type": "Feature",
      "geometry": {
        "type": "Point",
        "coordinates": [
          12.884,
          40.4343
        ]
      },
      "properties": {
        "icao24": "4d22a0",
        "callsign": "AIZ991",
        "origin_country": "Malta",
        "time_position": 1789867893,
        "last_contact": 1789867893,
        "baro_altitude": 10972.8,
        "on_ground": false,
        "velocity": 217.27,
        "true_track": 279.13,
        "vertical_rate": 0,
        "geo_altitude": 11468.1,
        "squawk": "4143",
        "spi": false,
        "position_source": 0
      }
    },
    {
      "type": "Feature",
      "geometry": {
        "type": "Point",
        "coordinates": [
          12.3461,
          47.7881
        ]
      },
      "properties": {
        "icao24": "49d04d",
        "callsign": "CXI3NE",
        "origin_country": "Czech Republic",
        "time_position": 1789867894,
        "last_contact": 1789867894,
        "baro_altitude": 11277.6,
        "on_ground": false,
        "velocity": 241.76,
        "true_track": 140.96,
        "vertical_rate": 0,
        "geo_altitude": 11757.66,
        "squawk": "7701",
        "spi": false,
        "position_source": 0
      }
    },
    {
      "type": "Feature",
      "geometry": {
        "type": "Point",
        "coordinates": [
          12.628,
          44.9068
        ]
      },
      "properties": {
        "icao24": "407e54",
        "callsign": "EXS65BM",
        "origin_country": "United Kingdom",
        "time_position": 1789867894,
        "last_contact": 1789867894,
        "baro_altitude": 9761.22,
        "on_ground": false,
        "velocity": 240.63,
        "true_track": 308.32,
        "vertical_rate": 0,
        "geo_altitude": 10256.52,
        "squawk": "2005",
        "spi": false,
        "position_source": 0
      }
    },
    {
      "type": "Feature",
      "geometry": {
        "type": "Point",
        "coordinates": [
          13.1316,
          47.1893
        ]
      },
      "properties": {
        "icao24": "4d229d",
        "callsign": "CXI9G",
        "origin_country": "Malta",
        "time_position": 1789867894,
        "last_contact": 1789867894,
        "baro_altitude": 10668,
        "on_ground": false,
        "velocity": 239.19,
        "true_track": 141.73,
        "vertical_rate": 0,
        "geo_altitude": 11155.68,
        "squawk": "6025",
        "spi": false,
        "position_source": 0
      }
    },
    {
      "type": "Feature",
      "geometry": {
        "type": "Point",
        "coordinates": [
          10.9301,
          45.9497
        ]
      },
      "properties": {
        "icao24": "48c1bb",
        "callsign": "RYS7725",
        "origin_country": "Poland",
        "time_position": 1789867894,
        "last_contact": 1789867894,
        "baro_altitude": 11277.6,
        "on_ground": false,
        "velocity": 243.05,
        "true_track": 215,
        "vertical_rate": 0,
        "geo_altitude": 11795.76,
        "squawk": "1000",
        "spi": false,
        "position_source": 0
      }
    },
    {
      "type": "Feature",
      "geometry": {
        "type": "Point",
        "coordinates": [
          18.5821,
          47.2923
        ]
      },
      "properties": {
        "icao24": "7c8070",
        "callsign": "QFA219",
        "origin_country": "Australia",
        "time_position": 1789867893,
        "last_contact": 1789867894,
        "baro_altitude": 11574.78,
        "on_ground": false,
        "velocity": 236.37,
        "true_track": 292.66,
        "vertical_rate": 0,
        "geo_altitude": 12024.36,
        "squawk": "2650",
        "spi": false,
        "position_source": 0
      }
    },
    {
      "type": "Feature",
      "geometry": {
        "type": "Point",
        "coordinates": [
          16.4225,
          43.5746
        ]
      },
      "properties": {
        "icao24": "4c01ec",
        "callsign": "ASL14C",
        "origin_country": "Serbia",
        "time_position": 1789867893,
        "last_contact": 1789867894,
        "baro_altitude": 10058.4,
        "on_ground": false,
        "velocity": 218.26,
        "true_track": 61.26,
        "vertical_rate": 0,
        "geo_altitude": 10515.6,
        "squawk": "2201",
        "spi": false,
        "position_source": 0
      }
    },
    {
      "type": "Feature",
      "geometry": {
        "type": "Point",
        "coordinates": [
          11.8946,
          47.6578
        ]
      },
      "properties": {
        "icao24": "408352",
        "callsign": "EXS94VU",
        "origin_country": "United Kingdom",
        "time_position": 1789867894,
        "last_contact": 1789867894,
        "baro_altitude": 9745.98,
        "on_ground": false,
        "velocity": 229.66,
        "true_track": 307.54,
        "vertical_rate": 0,
        "geo_altitude": 10226.04,
        "squawk": "3551",
        "spi": false,
        "position_source": 0
      }
    },
    {
      "type": "Feature",
      "geometry": {
        "type": "Point",
        "coordinates": [
          10.1786,
          46.8451
        ]
      },
      "properties": {
        "icao24": "408386",
        "callsign": "EZY8582",
        "origin_country": "United Kingdom",
        "time_position": 1789867893,
        "last_contact": 1789867894,
        "baro_altitude": 10363.2,
        "on_ground": false,
        "velocity": 218.9,
        "true_track": 304.66,
        "vertical_rate": 0,
        "geo_altitude": 10873.74,
        "squawk": "2755",
        "spi": false,
        "position_source": 0
      }
    },
    {
      "type": "Feature",
      "geometry": {
        "type": "Point",
        "coordinates": [
          13.8577,
          46.5009
        ]
      },
      "properties": {
        "icao24": "408329",
        "callsign": "TOM383",
        "origin_country": "United Kingdom",
        "time_position": 1789867894,
        "last_contact": 1789867894,
        "baro_altitude": 11582.4,
        "on_ground": false,
        "velocity": 227.66,
        "true_track": 298.48,
        "vertical_rate": 0,
        "geo_altitude": 12085.32,
        "squawk": "3243",
        "spi": false,
        "position_source": 0
      }
    },
    {
      "type": "Feature",
      "geometry": {
        "type": "Point",
        "coordinates": [
          18.1811,
          43.2614
        ]
      },
      "properties": {
        "icao24": "407ac6",
        "callsign": "TOM77K",
        "origin_country": "United Kingdom",
        "time_position": 1789867893,
        "last_contact": 1789867893,
        "baro_altitude": 10972.8,
        "on_ground": false,
        "velocity": 222.35,
        "true_track": 316.59,
        "vertical_rate": 0,
        "geo_altitude": 11414.76,
        "squawk": "5612",
        "spi": false,
        "position_source": 0
      }
    },
    {
      "type": "Feature",
      "geometry": {
        "type": "Point",
        "coordinates": [
          13.4471,
          44.3911
        ]
      },
      "properties": {
        "icao24": "06a1eb",
        "callsign": "QTR31T",
        "origin_country": "Qatar",
        "time_position": 1789867894,
        "last_contact": 1789867894,
        "baro_altitude": 10363.2,
        "on_ground": false,
        "velocity": 248.02,
        "true_track": 296.09,
        "vertical_rate": 0,
        "geo_altitude": 10828.02,
        "squawk": "2074",
        "spi": false,
        "position_source": 0
      }
    },
    {
      "type": "Feature",
      "geometry": {
        "type": "Point",
        "coordinates": [
          7.6319,
          42.9885
        ]
      },
      "properties": {
        "icao24": "392da5",
        "callsign": "TJT777A",
        "origin_country": "France",
        "time_position": 1789867894,
        "last_contact": 1789867894,
        "baro_altitude": 5478.78,
        "on_ground": false,
        "velocity": 120.13,
        "true_track": 106.42,
        "vertical_rate": 0,
        "geo_altitude": 5852.16,
        "squawk": "1000",
        "spi": false,
        "position_source": 0
      }
    },
    {
      "type": "Feature",
      "geometry": {
        "type": "Point",
        "coordinates": [
          14.5835,
          46.9497
        ]
      },
      "properties": {
        "icao24": "4bb876",
        "callsign": "PGT23AG",
        "origin_country": "Turkey",
        "time_position": 1789867894,
        "last_contact": 1789867894,
        "baro_altitude": 10668,
        "on_ground": false,
        "velocity": 241.94,
        "true_track": 131.72,
        "vertical_rate": 0,
        "geo_altitude": 11163.3,
        "squawk": "7662",
        "spi": false,
        "position_source": 0
      }
    },
    {
      "type": "Feature",
      "geometry": {
        "type": "Point",
        "coordinates": [
          8.4727,
          40.5381
        ]
      },
      "properties": {
        "icao24": "4692d1",
        "callsign": "AEE5RT",
        "origin_country": "Greece",
        "time_position": 1789867894,
        "last_contact": 1789867894,
        "baro_altitude": 10675.62,
        "on_ground": false,
        "velocity": 227.43,
        "true_track": 94.02,
        "vertical_rate": 0.33,
        "geo_altitude": 11148.06,
        "squawk": "2261",
        "spi": false,
        "position_source": 0
      }
    },
    {
      "type": "Feature",
      "geometry": {
        "type": "Point",
        "coordinates": [
          8.5672,
          47.4437
        ]
      },
      "properties": {
        "icao24": "4b17e6",
        "callsign": "SWR",
        "origin_country": "Switzerland",
        "time_position": 1789867242,
        "last_contact": 1789867892,
        "baro_altitude": null,
        "on_ground": true,
        "velocity": null,
        "true_track": 326.25,
        "vertical_rate": null,
        "geo_altitude": null,
        "squawk": "2000",
        "spi": false,
        "position_source": 0
      }
    }
  ]
}