{
  "type": "FeatureCollection",
  "source": "opensky",
  "dataset": "aircraft_italy",
  "generated_at": "2026-08-13T00:11:12.498042+00:00",
  "opensky_time": 1786579866,
  "count": 107,
  "features": [
    {
      "type": "Feature",
      "geometry": {
        "type": "Point",
        "coordinates": [
          6.417,
          45.3788
        ]
      },
      "properties": {
        "icao24": "44023f",
        "callsign": "EJU4357",
        "origin_country": "Austria",
        "time_position": 1786579865,
        "last_contact": 1786579865,
        "baro_altitude": 6027.42,
        "on_ground": false,
        "velocity": 194.1,
        "true_track": 272.28,
        "vertical_rate": -7.15,
        "geo_altitude": 6499.86,
        "squawk": "1000",
        "spi": false,
        "position_source": 0
      }
    },
    {
      "type": "Feature",
      "geometry": {
        "type": "Point",
        "coordinates": [
          9.3595,
          47.1288
        ]
      },
      "properties": {
        "icao24": "407b8b",
        "callsign": "WUK8YM",
        "origin_country": "United Kingdom",
        "time_position": 1786579865,
        "last_contact": 1786579865,
        "baro_altitude": 10972.8,
        "on_ground": false,
        "velocity": 230.62,
        "true_track": 304.82,
        "vertical_rate": 0,
        "geo_altitude": 11605.26,
        "squawk": "2761",
        "spi": false,
        "position_source": 0
      }
    },
    {
      "type": "Feature",
      "geometry": {
        "type": "Point",
        "coordinates": [
          14.56,
          45.5882
        ]
      },
      "properties": {
        "icao24": "471fad",
        "callsign": "WZZ6579",
        "origin_country": "Hungary",
        "time_position": 1786579865,
        "last_contact": 1786579865,
        "baro_altitude": 10668,
        "on_ground": false,
        "velocity": 229.44,
        "true_track": 90.13,
        "vertical_rate": 0,
        "geo_altitude": 11254.74,
        "squawk": "0473",
        "spi": false,
        "position_source": 0
      }
    },
    {
      "type": "Feature",
      "geometry": {
        "type": "Point",
        "coordinates": [
          18.2789,
          47.1502
        ]
      },
      "properties": {
        "icao24": "471faa",
        "callsign": "WZZ34SY",
        "origin_country": "Hungary",
        "time_position": 1786579866,
        "last_contact": 1786579866,
        "baro_altitude": 4617.72,
        "on_ground": false,
        "velocity": 188.47,
        "true_track": 46.11,
        "vertical_rate": -13.98,
        "geo_altitude": 4960.62,
        "squawk": "1141",
        "spi": false,
        "position_source": 0
      }
    },
    {
      "type": "Feature",
      "geometry": {
        "type": "Point",
        "coordinates": [
          17.9874,
          46.4477
        ]
      },
      "properties": {
        "icao24": "4bc895",
        "callsign": "PGT7148",
        "origin_country": "Turkey",
        "time_position": 1786579865,
        "last_contact": 1786579865,
        "baro_altitude": 10660.38,
        "on_ground": false,
        "velocity": 237.92,
        "true_track": 127.89,
        "vertical_rate": 0,
        "geo_altitude": 11201.4,
        "squawk": "4502",
        "spi": false,
        "position_source": 0
      }
    },
    {
      "type": "Feature",
      "geometry": {
        "type": "Point",
        "coordinates": [
          13.7231,
          39.209
        ]
      },
      "properties": {
        "icao24": "73806e",
        "callsign": "ELY376",
        "origin_country": "Israel",
        "time_position": 1786579865,
        "last_contact": 1786579865,
        "baro_altitude": 10668,
        "on_ground": false,
        "velocity": 255.95,
        "true_track": 97.74,
        "vertical_rate": 0,
        "geo_altitude": 11247.12,
        "squawk": "2201",
        "spi": false,
        "position_source": 0
      }
    },
    {
      "type": "Feature",
      "geometry": {
        "type": "Point",
        "coordinates": [
          15.7387,
          43.9367
        ]
      },
      "properties": {
        "icao24": "738072",
        "callsign": "ELY003",
        "origin_country": "Israel",
        "time_position": 1786579865,
        "last_contact": 1786579865,
        "baro_altitude": 10363.2,
        "on_ground": false,
        "velocity": 247.64,
        "true_track": 312.31,
        "vertical_rate": 0,
        "geo_altitude": 10919.46,
        "squawk": "2233",
        "spi": false,
        "position_source": 0
      }
    },
    {
      "type": "Feature",
      "geometry": {
        "type": "Point",
        "coordinates": [
          16.3979,
          39.1304
        ]
      },
      "properties": {
        "icao24": "738057",
        "callsign": "ELY398",
        "origin_country": "Israel",
        "time_position": 1786579865,
        "last_contact": 1786579865,
        "baro_altitude": 10668,
        "on_ground": false,
        "velocity": 256.79,
        "true_track": 105.93,
        "vertical_rate": 0,
        "geo_altitude": 11285.22,
        "squawk": "1212",
        "spi": false,
        "position_source": 0
      }
    },
    {
      "type": "Feature",
      "geometry": {
        "type": "Point",
        "coordinates": [
          8.9417,
          39.9037
        ]
      },
      "properties": {
        "icao24": "80189d",
        "callsign": "AIC188",
        "origin_country": "India",
        "time_position": 1786579865,
        "last_contact": 1786579865,
        "baro_altitude": 11582.4,
        "on_ground": false,
        "velocity": 265.06,
        "true_track": 107.27,
        "vertical_rate": 0,
        "geo_altitude": 12260.58,
        "squawk": "0216",
        "spi": false,
        "position_source": 0
      }
    },
    {
      "type": "Feature",
      "geometry": {
        "type": "Point",
        "coordinates": [
          7.4729,
          43.4004
        ]
      },
      "properties": {
        "icao24": "738101",
        "callsign": "ELY028",
        "origin_country": "Israel",
        "time_position": 1786579865,
        "last_contact": 1786579865,
        "baro_altitude": 11879.58,
        "on_ground": false,
        "velocity": 260.47,
        "true_track": 117.53,
        "vertical_rate": -0.33,
        "geo_altitude": 12542.52,
        "squawk": "3366",
        "spi": false,
        "position_source": 0
      }
    },
    {
      "type": "Feature",
      "geometry": {
        "type": "Point",
        "coordinates": [
          8.5485,
          44.8439
        ]
      },
      "properties": {
        "icao24": "440175",
        "callsign": "EJU76CN",
        "origin_country": "Austria",
        "time_position": 1786579865,
        "last_contact": 1786579865,
        "baro_altitude": 3581.4,
        "on_ground": false,
        "velocity": 196.69,
        "true_track": 12.69,
        "vertical_rate": -15.28,
        "geo_altitude": 3939.54,
        "squawk": "1000",
        "spi": false,
        "position_source": 0
      }
    },
    {
      "type": "Feature",
      "geometry": {
        "type": "Point",
        "coordinates": [
          7.015,
          42.9221
        ]
      },
      "properties": {
        "icao24": "452124",
        "callsign": "LZB564",
        "origin_country": "Bulgaria",
        "time_position": 1786579865,
        "last_contact": 1786579865,
        "baro_altitude": 11887.2,
        "on_ground": false,
        "velocity": 237.75,
        "true_track": 100.09,
        "vertical_rate": 0,
        "geo_altitude": 12542.52,
        "squawk": "2217",
        "spi": false,
        "position_source": 0
      }
    },
    {
      "type": "Feature",
      "geometry": {
        "type": "Point",
        "coordinates": [
          6.3783,
          43.8244
        ]
      },
      "properties": {
        "icao24": "7380c3",
        "callsign": "ELY018",
        "origin_country": "Israel",
        "time_position": 1786579865,
        "last_contact": 1786579865,
        "baro_altitude": 11887.2,
        "on_ground": false,
        "velocity": 259.53,
        "true_track": 117.12,
        "vertical_rate": 0,
        "geo_altitude": 12557.76,
        "squawk": "3367",
        "spi": false,
        "position_source": 0
      }
    },
    {
      "type": "Feature",
      "geometry": {
        "type": "Point",
        "coordinates": [
          12.2126,
          40.2175
        ]
      },
      "properties": {
        "icao24": "7380c8",
        "callsign": "ELY017",
        "origin_country": "Israel",
        "time_position": 1786579865,
        "last_contact": 1786579865,
        "baro_altitude": 10363.2,
        "on_ground": false,
        "velocity": 253.11,
        "true_track": 282.68,
        "vertical_rate": -0.33,
        "geo_altitude": 10934.7,
        "squawk": "1165",
        "spi": false,
        "position_source": 0
      }
    },
    {
      "type": "Feature",
      "geometry": {
        "type": "Point",
        "coordinates": [
          14.4622,
          37.8665
        ]
      },
      "properties": {
        "icao24": "4bb274",
        "callsign": "THY5LY",
        "origin_country": "Turkey",
        "time_position": 1786579865,
        "last_contact": 1786579865,
        "baro_altitude": 10043.16,
        "on_ground": false,
        "velocity": 252.31,
        "true_track": 75.11,
        "vertical_rate": 0,
        "geo_altitude": 10645.14,
        "squawk": "1201",
        "spi": false,
        "position_source": 0
      }
    },
    {
      "type": "Feature",
      "geometry": {
        "type": "Point",
        "coordinates": [
          7.5299,
          40.3012
        ]
      },
      "properties": {
        "icao24": "020176",
        "callsign": "MAC438",
        "origin_country": "Morocco",
        "time_position": 1786579865,
        "last_contact": 1786579865,
        "baro_altitude": 10675.62,
        "on_ground": false,
        "velocity": 227.16,
        "true_track": 252.88,
        "vertical_rate": -0.33,
        "geo_altitude": 11323.32,
        "squawk": "4010",
        "spi": false,
        "position_source": 0
      }
    },
    {
      "type": "Feature",
      "geometry": {
        "type": "Point",
        "coordinates": [
          17.5005,
          47.2786
        ]
      },
      "properties": {
        "icao24": "4bb29a",
        "callsign": "TKJ3MQ",
        "origin_country": "Turkey",
        "time_position": 1786579865,
        "last_contact": 1786579865,
        "baro_altitude": 10066.02,
        "on_ground": false,
        "velocity": 243.73,
        "true_track": 118.08,
        "vertical_rate": 0,
        "geo_altitude": 10614.66,
        "squawk": "2274",
        "spi": false,
        "position_source": 0
      }
    },
    {
      "type": "Feature",
      "geometry": {
        "type": "Point",
        "coordinates": [
          10.1089,
          44.4776
        ]
      },
      "properties": {
        "icao24": "020140",
        "callsign": "MAC464",
        "origin_country": "Morocco",
        "time_position": 1786579865,
        "last_contact": 1786579865,
        "baro_altitude": 6019.8,
        "on_ground": false,
        "velocity": 208.55,
        "true_track": 263.77,
        "vertical_rate": 10.08,
        "geo_altitude": 6454.14,
        "squawk": "0465",
        "spi": false,
        "position_source": 0
      }
    },
    {
      "type": "Feature",
      "geometry": {
        "type": "Point",
        "coordinates": [
          8.9395,
          39.3278
        ]
      },
      "properties": {
        "icao24": "345359",
        "callsign": "VLG2690",
        "origin_country": "Spain",
        "time_position": 1786579865,
        "last_contact": 1786579865,
        "baro_altitude": 9448.8,
        "on_ground": false,
        "velocity": 244.81,
        "true_track": 115.92,
        "vertical_rate": 0,
        "geo_altitude": 10027.92,
        "squawk": "1422",
        "spi": false,
        "position_source": 0
      }
    },
    {
      "type": "Feature",
      "geometry": {
        "type": "Point",
        "coordinates": [
          18.9926,
          46.8172
        ]
      },
      "properties": {
        "icao24": "4bb207",
        "callsign": "THY7QN",
        "origin_country": "Turkey",
        "time_position": 1786579865,
        "last_contact": 1786579865,
        "baro_altitude": 10668,
        "on_ground": false,
        "velocity": 241.31,
        "true_track": 125.89,
        "vertical_rate": 0.33,
        "geo_altitude": 11216.64,
        "squawk": "4701",
        "spi": false,
        "position_source": 0
      }
    },
    {
      "type": "Feature",
      "geometry": {
        "type": "Point",
        "coordinates": [
          13.7986,
          46.4003
        ]
      },
      "properties": {
        "icao24": "4bb18e",
        "callsign": "THY41J",
        "origin_country": "Turkey",
        "time_position": 1786579865,
        "last_contact": 1786579865,
        "baro_altitude": 12192,
        "on_ground": false,
        "velocity": 261.24,
        "true_track": 119.49,
        "vertical_rate": 0,
        "geo_altitude": 12801.6,
        "squawk": "2362",
        "spi": false,
        "position_source": 0
      }
    },
    {
      "type": "Feature",
      "geometry": {
        "type": "Point",
        "coordinates": [
          17.8418,
          43.246
        ]
      },
      "properties": {
        "icao24": "89647e",
        "callsign": "UAE6",
        "origin_country": "United Arab Emirates",
        "time_position": 1786579643,
        "last_contact": 1786579659,
        "baro_altitude": 11277.6,
        "on_ground": false,
        "velocity": 260.7,
        "true_track": 138.92,
        "vertical_rate": 0.33,
        "geo_altitude": 11841.48,
        "squawk": "1154",
        "spi": false,
        "position_source": 0
      }
    },
    {
      "type": "Feature",
      "geometry": {
        "type": "Point",
        "coordinates": [
          7.8892,
          45.5797
        ]
      },
      "properties": {
        "icao24": "3c135a",
        "callsign": "VJH7900",
        "origin_country": "Germany",
        "time_position": 1786579865,
        "last_contact": 1786579865,
        "baro_altitude": 5478.78,
        "on_ground": false,
        "velocity": 195.64,
        "true_track": 299.8,
        "vertical_rate": 4.88,
        "geo_altitude": 5875.02,
        "squawk": "3754",
        "spi": false,
        "position_source": 0
      }
    },
    {
      "type": "Feature",
      "geometry": {
        "type": "Point",
        "coordinates": [
          9.3776,
          46.4737
        ]
      },
      "properties": {
        "icao24": "3a2e22",
        "callsign": "REU9976",
        "origin_country": "France",
        "time_position": 1786579865,
        "last_contact": 1786579865,
        "baro_altitude": 10058.4,
        "on_ground": false,
        "velocity": 262.43,
        "true_track": 130.31,
        "vertical_rate": 0,
        "geo_altitude": 10668,
        "squawk": "0653",
        "spi": false,
        "position_source": 0
      }
    },
    {
      "type": "Feature",
      "geometry": {
        "type": "Point",
        "coordinates": [
          18.8732,
          44.4414
        ]
      },
      "properties": {
        "icao24": "4bb02b",
        "callsign": "TKJ9CT",
        "origin_country": "Turkey",
        "time_position": 1786579866,
        "last_contact": 1786579866,
        "baro_altitude": 11277.6,
        "on_ground": false,
        "velocity": 232.76,
        "true_track": 137.96,
        "vertical_rate": 0,
        "geo_altitude": 11849.1,
        "squawk": "2207",
        "spi": false,
        "position_source": 0
      }
    },
    {
      "type": "Feature",
      "geometry": {
        "type": "Point",
        "coordinates": [
          16.3433,
          36.4302
        ]
      },
      "properties": {
        "icao24": "4bb06f",
        "callsign": "THY3KA",
        "origin_country": "Turkey",
        "time_position": 1786579865,
        "last_contact": 1786579865,
        "baro_altitude": 11277.6,
        "on_ground": false,
        "velocity": 260.87,
        "true_track": 51.16,
        "vertical_rate": 0,
        "geo_altitude": 12009.12,
        "squawk": "3126",
        "spi": false,
        "position_source": 0
      }
    },
    {
      "type": "Feature",
      "geometry": {
        "type": "Point",
        "coordinates": [
          12.8216,
          39.6649
        ]
      },
      "properties": {
        "icao24": "345043",
        "callsign": "VLG1595",
        "origin_country": "Spain",
        "time_position": 1786579865,
        "last_contact": 1786579865,
        "baro_altitude": 10988.04,
        "on_ground": false,
        "velocity": 224,
        "true_track": 293.27,
        "vertical_rate": 0,
        "geo_altitude": 11582.4,
        "squawk": "7734",
        "spi": false,
        "position_source": 0
      }
    },
    {
      "type": "Feature",
      "geometry": {
        "type": "Point",
        "coordinates": [
          18.1464,
          44.1872
        ]
      },
      "properties": {
        "icao24": "4b990d",
        "callsign": "FHY1362",
        "origin_country": "Turkey",
        "time_position": 1786579865,
        "last_contact": 1786579865,
        "baro_altitude": 11277.6,
        "on_ground": false,
        "velocity": 236.83,
        "true_track": 135.79,
        "vertical_rate": 0.33,
        "geo_altitude": 11864.34,
        "squawk": "6431",
        "spi": false,
        "position_source": 0
      }
    },
    {
      "type": "Feature",
      "geometry": {
        "type": "Point",
        "coordinates": [
          11.6718,
          46.1313
        ]
      },
      "properties": {
        "icao24": "4078f0",
        "callsign": "EZY92EH",
        "origin_country": "United Kingdom",
        "time_position": 1786579865,
        "last_contact": 1786579865,
        "baro_altitude": 10858.5,
        "on_ground": false,
        "velocity": 232.22,
        "true_track": 305.17,
        "vertical_rate": 2.93,
        "geo_altitude": 11468.1,
        "squawk": "5376",
        "spi": false,
        "position_source": 0
      }
    },
    {
      "type": "Feature",
      "geometry": {
        "type": "Point",
        "coordinates": [
          14.2735,
          46.3917
        ]
      },
      "properties": {
        "icao24": "40796a",
        "callsign": "TOM237",
        "origin_country": "United Kingdom",
        "time_position": 1786579865,
        "last_contact": 1786579865,
        "baro_altitude": 10972.8,
        "on_ground": false,
        "velocity": 226.49,
        "true_track": 308.82,
        "vertical_rate": 0,
        "geo_altitude": 11567.16,
        "squawk": "5302",
        "spi": false,
        "position_source": 0
      }
    },
    {
      "type": "Feature",
      "geometry": {
        "type": "Point",
        "coordinates": [
          13.2152,
          41.5313
        ]
      },
      "properties": {
        "icao24": "346516",
        "callsign": "LAV8594",
        "origin_country": "Spain",
        "time_position": 1786579865,
        "last_contact": 1786579865,
        "baro_altitude": 6377.94,
        "on_ground": false,
        "velocity": 197.82,
        "true_track": 300.3,
        "vertical_rate": -4.88,
        "geo_altitude": 6797.04,
        "squawk": "5511",
        "spi": false,
        "position_source": 0
      }
    },
    {
      "type": "Feature",
      "geometry": {
        "type": "Point",
        "coordinates": [
          8.2338,
          36.9603
        ]
      },
      "properties": {
        "icao24": "040123",
        "callsign": "ETH575",
        "origin_country": "Ethiopia",
        "time_position": 1786579595,
        "last_contact": 1786579733,
        "baro_altitude": 12496.8,
        "on_ground": false,
        "velocity": 269.57,
        "true_track": 110.44,
        "vertical_rate": -0.33,
        "geo_altitude": 13258.8,
        "squawk": "5341",
        "spi": false,
        "position_source": 0
      }
    },
    {
      "type": "Feature",
      "geometry": {
        "type": "Point",
        "coordinates": [
          14.9409,
          45.0231
        ]
      },
      "properties": {
        "icao24": "49d3d6",
        "callsign": "TVL5171",
        "origin_country": "Czech Republic",
        "time_position": 1786579865,
        "last_contact": 1786579865,
        "baro_altitude": 11582.4,
        "on_ground": false,
        "velocity": 233.31,
        "true_track": 48.75,
        "vertical_rate": 0,
        "geo_altitude": 12176.76,
        "squawk": "1000",
        "spi": false,
        "position_source": 0
      }
    },
    {
      "type": "Feature",
      "geometry": {
        "type": "Point",
        "coordinates": [
          15.8961,
          38.956
        ]
      },
      "properties": {
        "icao24": "4ba9eb",
        "callsign": "THY1CT",
        "origin_country": "Turkey",
        "time_position": 1786579865,
        "last_contact": 1786579865,
        "baro_altitude": 10363.2,
        "on_ground": false,
        "velocity": 223.19,
        "true_track": 244.32,
        "vertical_rate": 0,
        "geo_altitude": 10957.56,
        "squawk": "2335",
        "spi": false,
        "position_source": 0
      }
    },
    {
      "type": "Feature",
      "geometry": {
        "type": "Point",
        "coordinates": [
          18.3263,
          37.2185
        ]
      },
      "properties": {
        "icao24": "040088",
        "callsign": "ETH519",
        "origin_country": "Ethiopia",
        "time_position": 1786579865,
        "last_contact": 1786579865,
        "baro_altitude": 12489.18,
        "on_ground": false,
        "velocity": 265.17,
        "true_track": 114.78,
        "vertical_rate": 0,
        "geo_altitude": 13289.28,
        "squawk": "2375",
        "spi": false,
        "position_source": 0
      }
    },
    {
      "type": "Feature",
      "geometry": {
        "type": "Point",
        "coordinates": [
          12.8303,
          46.9611
        ]
      },
      "properties": {
        "icao24": "407fac",
        "callsign": "TOM503",
        "origin_country": "United Kingdom",
        "time_position": 1786579865,
        "last_contact": 1786579865,
        "baro_altitude": 10972.8,
        "on_ground": false,
        "velocity": 229.23,
        "true_track": 316.27,
        "vertical_rate": 0,
        "geo_altitude": 11582.4,
        "squawk": "6630",
        "spi": false,
        "position_source": 0
      }
    },
    {
      "type": "Feature",
      "geometry": {
        "type": "Point",
        "coordinates": [
          6.2728,
          39.7889
        ]
      },
      "properties": {
        "icao24": "4ca2ab",
        "callsign": "RYR34AH",
        "origin_country": "Ireland",
        "time_position": 1786579865,
        "last_contact": 1786579865,
        "baro_altitude": 11277.6,
        "on_ground": false,
        "velocity": 224.18,
        "true_track": 273.42,
        "vertical_rate": 0,
        "geo_altitude": 11940.54,
        "squawk": "1000",
        "spi": false,
        "position_source": 0
      }
    },
    {
      "type": "Feature",
      "geometry": {
        "type": "Point",
        "coordinates": [
          7.8784,
          46.6227
        ]
      },
      "properties": {
        "icao24": "4b3309",
        "callsign": "RGA06",
        "origin_country": "Switzerland",
        "time_position": 1786579865,
        "last_contact": 1786579865,
        "baro_altitude": 2887.98,
        "on_ground": false,
        "velocity": 69.86,
        "true_track": 316.19,
        "vertical_rate": -3.9,
        "geo_altitude": 3162.3,
        "squawk": "7100",
        "spi": false,
        "position_source": 0
      }
    },
    {
      "type": "Feature",
      "geometry": {
        "type": "Point",
        "coordinates": [
          6.6333,
          46.5252
        ]
      },
      "properties": {
        "icao24": "4b3301",
        "callsign": "RGA04",
        "origin_country": "Switzerland",
        "time_position": 1786579865,
        "last_contact": 1786579865,
        "baro_altitude": 647.7,
        "on_ground": false,
        "velocity": 43.08,
        "true_track": 281.71,
        "vertical_rate": 2.28,
        "geo_altitude": 784.86,
        "squawk": null,
        "spi": false,
        "position_source": 0
      }
    },
    {
      "type": "Feature",
      "geometry": {
        "type": "Point",
        "coordinates": [
          7.2907,
          46.8304
        ]
      },
      "properties": {
        "icao24": "4b330b",
        "callsign": "RGA14",
        "origin_country": "Switzerland",
        "time_position": 1786579865,
        "last_contact": 1786579866,
        "baro_altitude": 1424.94,
        "on_ground": false,
        "velocity": 69.33,
        "true_track": 343.18,
        "vertical_rate": 0,
        "geo_altitude": 1607.82,
        "squawk": "7100",
        "spi": false,
        "position_source": 0
      }
    },
    {
      "type": "Feature",
      "geometry": {
        "type": "Point",
        "coordinates": [
          12.4731,
          39.1865
        ]
      },
      "properties": {
        "icao24": "44093e",
        "callsign": "EJU35FN",
        "origin_country": "Austria",
        "time_position": 1786579865,
        "last_contact": 1786579865,
        "baro_altitude": 8077.2,
        "on_ground": false,
        "velocity": 211.44,
        "true_track": 333.87,
        "vertical_rate": 8.13,
        "geo_altitude": 8549.64,
        "squawk": null,
        "spi": false,
        "position_source": 0
      }
    },
    {
      "type": "Feature",
      "geometry": {
        "type": "Point",
        "coordinates": [
          6.1124,
          40.9815
        ]
      },
      "properties": {
        "icao24": "4ca226",
        "callsign": "RYR7UH",
        "origin_country": "Ireland",
        "time_position": 1786579865,
        "last_contact": 1786579865,
        "baro_altitude": 10668,
        "on_ground": false,
        "velocity": 225.38,
        "true_track": 274.06,
        "vertical_rate": 0,
        "geo_altitude": 11315.7,
        "squawk": "1000",
        "spi": false,
        "position_source": 0
      }
    },
    {
      "type": "Feature",
      "geometry": {
        "type": "Point",
        "coordinates": [
          13.6251,
          40.293
        ]
      },
      "properties": {
        "icao24": "407fff",
        "callsign": "EZY63MD",
        "origin_country": "United Kingdom",
        "time_position": 1786579865,
        "last_contact": 1786579865,
        "baro_altitude": 10965.18,
        "on_ground": false,
        "velocity": 227.42,
        "true_track": 313.63,
        "vertical_rate": 0,
        "geo_altitude": 11567.16,
        "squawk": "1215",
        "spi": false,
        "position_source": 0
      }
    },
    {
      "type": "Feature",
      "geometry": {
        "type": "Point",
        "coordinates": [
          12.7764,
          41.8524
        ]
      },
      "properties": {
        "icao24": "71c391",
        "callsign": "KAL922",
        "origin_country": "Republic of Korea",
        "time_position": 1786579865,
        "last_contact": 1786579865,
        "baro_altitude": 10972.8,
        "on_ground": false,
        "velocity": 252.32,
        "true_track": 71.82,
        "vertical_rate": 0.33,
        "geo_altitude": 11567.16,
        "squawk": "5202",
        "spi": false,
        "position_source": 0
      }
    },
    {
      "type": "Feature",
      "geometry": {
        "type": "Point",
        "coordinates": [
          10.7499,
          46.4508
        ]
      },
      "properties": {
        "icao24": "407f96",
        "callsign": "TOM84K",
        "origin_country": "United Kingdom",
        "time_position": 1786579866,
        "last_contact": 1786579866,
        "baro_altitude": 11582.4,
        "on_ground": false,
        "velocity": 231.24,
        "true_track": 301.07,
        "vertical_rate": 0,
        "geo_altitude": 12207.24,
        "squawk": "2073",
        "spi": false,
        "position_source": 0
      }
    },
    {
      "type": "Feature",
      "geometry": {
        "type": "Point",
        "coordinates": [
          15.6532,
          44.5343
        ]
      },
      "properties": {
        "icao24": "407f62",
        "callsign": "EZY8590",
        "origin_country": "United Kingdom",
        "time_position": 1786579865,
        "last_contact": 1786579865,
        "baro_altitude": 10972.8,
        "on_ground": false,
        "velocity": 229.89,
        "true_track": 295.3,
        "vertical_rate": 0,
        "geo_altitude": 11567.16,
        "squawk": "5305",
        "spi": false,
        "position_source": 0
      }
    },
    {
      "type": "Feature",
      "geometry": {
        "type": "Point",
        "coordinates": [
          7.9418,
          43.9053
        ]
      },
      "properties": {
        "icao24": "49d00d",
        "callsign": "TVS9A1",
        "origin_country": "Czech Republic",
        "time_position": 1786579865,
        "last_contact": 1786579865,
        "baro_altitude": 11582.4,
        "on_ground": false,
        "velocity": 228.67,
        "true_track": 51.94,
        "vertical_rate": 0,
        "geo_altitude": 12237.72,
        "squawk": "1000",
        "spi": false,
        "position_source": 0
      }
    },
    {
      "type": "Feature",
      "geometry": {
        "type": "Point",
        "coordinates": [
          8.7214,
          45.6061
        ]
      },
      "properties": {
        "icao24": "407dbf",
        "callsign": "DHK524",
        "origin_country": "United Kingdom",
        "time_position": 1786579631,
        "last_contact": 1786579631,
        "baro_altitude": null,
        "on_ground": true,
        "velocity": 2.06,
        "true_track": 258.75,
        "vertical_rate": null,
        "geo_altitude": null,
        "squawk": "2257",
        "spi": false,
        "position_source": 0
      }
    },
    {
      "type": "Feature",
      "geometry": {
        "type": "Point",
        "coordinates": [
          13.8306,
          45.1309
        ]
      },
      "properties": {
        "icao24": "407ac6",
        "callsign": "TOM565",
        "origin_country": "United Kingdom",
        "time_position": 1786579865,
        "last_contact": 1786579865,
        "baro_altitude": 10972.8,
        "on_ground": false,
        "velocity": 228.94,
        "true_track": 293.86,
        "vertical_rate": 0.33,
        "geo_altitude": 11551.92,
        "squawk": "5362",
        "spi": false,
        "position_source": 0
      }
    },
    {
      "type": "Feature",
      "geometry": {
        "type": "Point",
        "coordinates": [
          6.1556,
          40.775
        ]
      },
      "properties": {
        "icao24": "4bb84b",
        "callsign": "PGT1562",
        "origin_country": "Turkey",
        "time_position": 1786579865,
        "last_contact": 1786579865,
        "baro_altitude": 11582.4,
        "on_ground": false,
        "velocity": 247.75,
        "true_track": 94.65,
        "vertical_rate": 0,
        "geo_altitude": 12252.96,
        "squawk": "2216",
        "spi": false,
        "position_source": 0
      }
    },
    {
      "type": "Feature",
      "geometry": {
        "type": "Point",
        "coordinates": [
          8.7155,
          40.5333
        ]
      },
      "properties": {
        "icao24": "46a5e7",
        "callsign": "SEH923",
        "origin_country": "Greece",
        "time_position": 1786579866,
        "last_contact": 1786579866,
        "baro_altitude": 11292.84,
        "on_ground": false,
        "velocity": 245.17,
        "true_track": 100.89,
        "vertical_rate": -0.33,
        "geo_altitude": 11940.54,
        "squawk": "1151",
        "spi": false,
        "position_source": 0
      }
    },
    {
      "type": "Feature",
      "geometry": {
        "type": "Point",
        "coordinates": [
          14.4085,
          40.7327
        ]
      },
      "properties": {
        "icao24": "504e85",
        "callsign": "FIE232",
        "origin_country": "Republic of Moldova",
        "time_position": 1786579865,
        "last_contact": 1786579865,
        "baro_altitude": 10668,
        "on_ground": false,
        "velocity": 241.29,
        "true_track": 90.61,
        "vertical_rate": 0,
        "geo_altitude": 10988.04,
        "squawk": "4302",
        "spi": false,
        "position_source": 0
      }
    },
    {
      "type": "Feature",
      "geometry": {
        "type": "Point",
        "coordinates": [
          8.5646,
          47.442
        ]
      },
      "properties": {
        "icao24": "4b1809",
        "callsign": "SWR",
        "origin_country": "Switzerland",
        "time_position": 1786579864,
        "last_contact": 1786579865,
        "baro_altitude": null,
        "on_ground": true,
        "velocity": 0,
        "true_track": 143.44,
        "vertical_rate": null,
        "geo_altitude": null,
        "squawk": "2000",
        "spi": false,
        "position_source": 0
      }
    },
    {
      "type": "Feature",
      "geometry": {
        "type": "Point",
        "coordinates": [
          11.9816,
          45.9089
        ]
      },
      "properties": {
        "icao24": "408086",
        "callsign": "TOM83D",
        "origin_country": "United Kingdom",
        "time_position": 1786579865,
        "last_contact": 1786579865,
        "baro_altitude": 11582.4,
        "on_ground": false,
        "velocity": 222.34,
        "true_track": 302.62,
        "vertical_rate": 0,
        "geo_altitude": 12199.62,
        "squawk": "7735",
        "spi": false,
        "position_source": 0
      }
    },
    {
      "type": "Feature",
      "geometry": {
        "type": "Point",
        "coordinates": [
          16.788,
          43.4995
        ]
      },
      "properties": {
        "icao24": "40804d",
        "callsign": "WUK7402",
        "origin_country": "United Kingdom",
        "time_position": 1786579854,
        "last_contact": 1786579865,
        "baro_altitude": 11269.98,
        "on_ground": false,
        "velocity": 237.99,
        "true_track": 129.3,
        "vertical_rate": 0,
        "geo_altitude": 11833.86,
        "squawk": "0541",
        "spi": false,
        "position_source": 0
      }
    },
    {
      "type": "Feature",
      "geometry": {
        "type": "Point",
        "coordinates": [
          18.9823,
          43.0224
        ]
      },
      "properties": {
        "icao24": "4690e2",
        "callsign": "AEE4089",
        "origin_country": "Greece",
        "time_position": 1786579738,
        "last_contact": 1786579739,
        "baro_altitude": 11277.6,
        "on_ground": false,
        "velocity": 239.45,
        "true_track": 149.25,
        "vertical_rate": 0,
        "geo_altitude": 11879.58,
        "squawk": "4510",
        "spi": false,
        "position_source": 0
      }
    },
    {
      "type": "Feature",
      "geometry": {
        "type": "Point",
        "coordinates": [
          13.1179,
          45.6451
        ]
      },
      "properties": {
        "icao24": "408184",
        "callsign": "EZY17EG",
        "origin_country": "United Kingdom",
        "time_position": 1786579865,
        "last_contact": 1786579865,
        "baro_altitude": 10957.56,
        "on_ground": false,
        "velocity": 221.17,
        "true_track": 315.19,
        "vertical_rate": 0,
        "geo_altitude": 11559.54,
        "squawk": "2011",
        "spi": false,
        "position_source": 0
      }
    },
    {
      "type": "Feature",
      "geometry": {
        "type": "Point",
        "coordinates": [
          7.512,
          43.6792
        ]
      },
      "properties": {
        "icao24": "440c8d",
        "callsign": "AUA40H",
        "origin_country": "Austria",
        "time_position": 1786579865,
        "last_contact": 1786579865,
        "baro_altitude": 10363.2,
        "on_ground": false,
        "velocity": 228.09,
        "true_track": 51.5,
        "vertical_rate": 0,
        "geo_altitude": 10988.04,
        "squawk": "1000",
        "spi": false,
        "position_source": 0
      }
    },
    {
      "type": "Feature",
      "geometry": {
        "type": "Point",
        "coordinates": [
          15.9581,
          46.0365
        ]
      },
      "properties": {
        "icao24": "408032",
        "callsign": "EXS18QH",
        "origin_country": "United Kingdom",
        "time_position": 1786579865,
        "last_contact": 1786579865,
        "baro_altitude": 10965.18,
        "on_ground": false,
        "velocity": 222.78,
        "true_track": 300.53,
        "vertical_rate": 0,
        "geo_altitude": 11544.3,
        "squawk": "3247",
        "spi": false,
        "position_source": 0
      }
    },
    {
      "type": "Feature",
      "geometry": {
        "type": "Point",
        "coordinates": [
          18.8643,
          39.2739
        ]
      },
      "properties": {
        "icao24": "4baa6a",
        "callsign": "THY658",
        "origin_country": "Turkey",
        "time_position": 1786579840,
        "last_contact": 1786579852,
        "baro_altitude": 10066.02,
        "on_ground": false,
        "velocity": 256.39,
        "true_track": 79.48,
        "vertical_rate": 0,
        "geo_altitude": 10652.76,
        "squawk": "6152",
        "spi": false,
        "position_source": 0
      }
    },
    {
      "type": "Feature",
      "geometry": {
        "type": "Point",
        "coordinates": [
          9.725,
          45.6645
        ]
      },
      "properties": {
        "icao24": "4ca911",
        "callsign": "RYR7PV",
        "origin_country": "Ireland",
        "time_position": 1786579703,
        "last_contact": 1786579704,
        "baro_altitude": 175.26,
        "on_ground": false,
        "velocity": 80.86,
        "true_track": 284.74,
        "vertical_rate": -3.58,
        "geo_altitude": 304.8,
        "squawk": "1000",
        "spi": false,
        "position_source": 0
      }
    },
    {
      "type": "Feature",
      "geometry": {
        "type": "Point",
        "coordinates": [
          10.3908,
          45.3858
        ]
      },
      "properties": {
        "icao24": "4ca82c",
        "callsign": null,
        "origin_country": "Ireland",
        "time_position": 1786579865,
        "last_contact": 1786579865,
        "baro_altitude": 1043.94,
        "on_ground": false,
        "velocity": 96.76,
        "true_track": 134.57,
        "vertical_rate": 4.55,
        "geo_altitude": 1203.96,
        "squawk": null,
        "spi": false,
        "position_source": 0
      }
    },
    {
      "type": "Feature",
      "geometry": {
        "type": "Point",
        "coordinates": [
          10.9413,
          40.9245
        ]
      },
      "properties": {
        "icao24": "706073",
        "callsign": "KAC135",
        "origin_country": "Kuwait",
        "time_position": 1786579865,
        "last_contact": 1786579865,
        "baro_altitude": 10972.8,
        "on_ground": false,
        "velocity": 247.92,
        "true_track": 84.88,
        "vertical_rate": 0,
        "geo_altitude": 11582.4,
        "squawk": "1227",
        "spi": false,
        "position_source": 0
      }
    },
    {
      "type": "Feature",
      "geometry": {
        "type": "Point",
        "coordinates": [
          12.5208,
          43.8734
        ]
      },
      "properties": {
        "icao24": "4ca738",
        "callsign": "RYR84GY",
        "origin_country": "Ireland",
        "time_position": 1786579865,
        "last_contact": 1786579865,
        "baro_altitude": 10972.8,
        "on_ground": false,
        "velocity": 226.86,
        "true_track": 303.91,
        "vertical_rate": 0,
        "geo_altitude": 11567.16,
        "squawk": "2076",
        "spi": false,
        "position_source": 0
      }
    },
    {
      "type": "Feature",
      "geometry": {
        "type": "Point",
        "coordinates": [
          18.2701,
          46.5624
        ]
      },
      "properties": {
        "icao24": "4bcda5",
        "callsign": "SXS11A",
        "origin_country": "Turkey",
        "time_position": 1786579865,
        "last_contact": 1786579865,
        "baro_altitude": 11277.6,
        "on_ground": false,
        "velocity": 244.07,
        "true_track": 143.83,
        "vertical_rate": 0,
        "geo_altitude": 11841.48,
        "squawk": "7625",
        "spi": false,
        "position_source": 0
      }
    },
    {
      "type": "Feature",
      "geometry": {
        "type": "Point",
        "coordinates": [
          15.3306,
          45.8569
        ]
      },
      "properties": {
        "icao24": "4bce03",
        "callsign": "SXS2GA",
        "origin_country": "Turkey",
        "time_position": 1786579865,
        "last_contact": 1786579865,
        "baro_altitude": 11277.6,
        "on_ground": false,
        "velocity": 241.34,
        "true_track": 131.2,
        "vertical_rate": 0,
        "geo_altitude": 11864.34,
        "squawk": "7706",
        "spi": false,
        "position_source": 0
      }
    },
    {
      "type": "Feature",
      "geometry": {
        "type": "Point",
        "coordinates": [
          16.2218,
          46.0437
        ]
      },
      "properties": {
        "icao24": "40769a",
        "callsign": "TOM315",
        "origin_country": "United Kingdom",
        "time_position": 1786579865,
        "last_contact": 1786579865,
        "baro_altitude": 11582.4,
        "on_ground": false,
        "velocity": 227.4,
        "true_track": 316.19,
        "vertical_rate": 0,
        "geo_altitude": 12161.52,
        "squawk": "2031",
        "spi": false,
        "position_source": 0
      }
    },
    {
      "type": "Feature",
      "geometry": {
        "type": "Point",
        "coordinates": [
          11.258,
          46.3216
        ]
      },
      "properties": {
        "icao24": "40768c",
        "callsign": "EZY37LE",
        "origin_country": "United Kingdom",
        "time_position": 1786579865,
        "last_contact": 1786579865,
        "baro_altitude": 10972.8,
        "on_ground": false,
        "velocity": 233.83,
        "true_track": 305.51,
        "vertical_rate": 0,
        "geo_altitude": 11582.4,
        "squawk": "2060",
        "spi": false,
        "position_source": 0
      }
    },
    {
      "type": "Feature",
      "geometry": {
        "type": "Point",
        "coordinates": [
          12.5475,
          45.4246
        ]
      },
      "properties": {
        "icao24": "40767a",
        "callsign": "TOM713",
        "origin_country": "United Kingdom",
        "time_position": 1786579865,
        "last_contact": 1786579865,
        "baro_altitude": 10972.8,
        "on_ground": false,
        "velocity": 225.29,
        "true_track": 309.07,
        "vertical_rate": 0,
        "geo_altitude": 11574.78,
        "squawk": "2063",
        "spi": false,
        "position_source": 0
      }
    },
    {
      "type": "Feature",
      "geometry": {
        "type": "Point",
        "coordinates": [
          13.976,
          35.2222
        ]
      },
      "properties": {
        "icao24": "407637",
        "callsign": "OSPREY2",
        "origin_country": "United Kingdom",
        "time_position": 1786579865,
        "last_contact": 1786579865,
        "baro_altitude": 1501.14,
        "on_ground": false,
        "velocity": 56.33,
        "true_track": 9.46,
        "vertical_rate": 0,
        "geo_altitude": 1661.16,
        "squawk": null,
        "spi": false,
        "position_source": 0
      }
    },
    {
      "type": "Feature",
      "geometry": {
        "type": "Point",
        "coordinates": [
          18.3091,
          35.3399
        ]
      },
      "properties": {
        "icao24": "8940a4",
        "callsign": "GFA021",
        "origin_country": "Bahrain",
        "time_position": 1786579866,
        "last_contact": 1786579866,
        "baro_altitude": 10972.8,
        "on_ground": false,
        "velocity": 223.11,
        "true_track": 279.29,
        "vertical_rate": 0,
        "geo_altitude": 11711.94,
        "squawk": null,
        "spi": false,
        "position_source": 0
      }
    },
    {
      "type": "Feature",
      "geometry": {
        "type": "Point",
        "coordinates": [
          18.633,
          47.2753
        ]
      },
      "properties": {
        "icao24": "c0172e",
        "callsign": "ACA43",
        "origin_country": "Canada",
        "time_position": 1786579865,
        "last_contact": 1786579865,
        "baro_altitude": 10363.2,
        "on_ground": false,
        "velocity": 243.79,
        "true_track": 293.37,
        "vertical_rate": 0,
        "geo_altitude": 10911.84,
        "squawk": "2651",
        "spi": false,
        "position_source": 0
      }
    },
    {
      "type": "Feature",
      "geometry": {
        "type": "Point",
        "coordinates": [
          6.337,
          40.7649
        ]
      },
      "properties": {
        "icao24": "010275",
        "callsign": "RSX6078",
        "origin_country": "Egypt",
        "time_position": 1786579865,
        "last_contact": 1786579865,
        "baro_altitude": 10965.18,
        "on_ground": false,
        "velocity": 239.54,
        "true_track": 94.8,
        "vertical_rate": -0.33,
        "geo_altitude": 11612.88,
        "squawk": "1147",
        "spi": false,
        "position_source": 0
      }
    },
    {
      "type": "Feature",
      "geometry": {
        "type": "Point",
        "coordinates": [
          10.2244,
          45.5548
        ]
      },
      "properties": {
        "icao24": "3007e2",
        "callsign": "IRJAH",
        "origin_country": "Italy",
        "time_position": 1786579658,
        "last_contact": 1786579658,
        "baro_altitude": 243.84,
        "on_ground": false,
        "velocity": 39.86,
        "true_track": 203.59,
        "vertical_rate": 4.55,
        "geo_altitude": 381,
        "squawk": null,
        "spi": false,
        "position_source": 0
      }
    },
    {
      "type": "Feature",
      "geometry": {
        "type": "Point",
        "coordinates": [
          13.8782,
          46.5623
        ]
      },
      "properties": {
        "icao24": "010264",
        "callsign": "MSC2918",
        "origin_country": "Egypt",
        "time_position": 1786579865,
        "last_contact": 1786579865,
        "baro_altitude": 10965.18,
        "on_ground": false,
        "velocity": 230.28,
        "true_track": 314.37,
        "vertical_rate": 0,
        "geo_altitude": 11574.78,
        "squawk": "5534",
        "spi": false,
        "position_source": 0
      }
    },
    {
      "type": "Feature",
      "geometry": {
        "type": "Point",
        "coordinates": [
          11.2754,
          37.7377
        ]
      },
      "properties": {
        "icao24": "010268",
        "callsign": "MSR3903",
        "origin_country": "Egypt",
        "time_position": 1786579865,
        "last_contact": 1786579865,
        "baro_altitude": 10980.42,
        "on_ground": false,
        "velocity": 264.64,
        "true_track": 80.94,
        "vertical_rate": 0,
        "geo_altitude": 11643.36,
        "squawk": "1207",
        "spi": false,
        "position_source": 0
      }
    },
    {
      "type": "Feature",
      "geometry": {
        "type": "Point",
        "coordinates": [
          8.6943,
          45.1685
        ]
      },
      "properties": {
        "icao24": "010297",
        "callsign": "NMA301",
        "origin_country": "Egypt",
        "time_position": 1786579865,
        "last_contact": 1786579865,
        "baro_altitude": 3147.06,
        "on_ground": false,
        "velocity": 153.95,
        "true_track": 113.22,
        "vertical_rate": 3.9,
        "geo_altitude": 3406.14,
        "squawk": "0445",
        "spi": false,
        "position_source": 0
      }
    },
    {
      "type": "Feature",
      "geometry": {
        "type": "Point",
        "coordinates": [
          8.2677,
          43.1062
        ]
      },
      "properties": {
        "icao24": "01028a",
        "callsign": "MSR986",
        "origin_country": "Egypt",
        "time_position": 1786579865,
        "last_contact": 1786579866,
        "baro_altitude": 11887.2,
        "on_ground": false,
        "velocity": 261.74,
        "true_track": 118.53,
        "vertical_rate": 0,
        "geo_altitude": 12504.42,
        "squawk": "3365",
        "spi": false,
        "position_source": 0
      }
    },
    {
      "type": "Feature",
      "geometry": {
        "type": "Point",
        "coordinates": [
          7.6369,
          40.5798
        ]
      },
      "properties": {
        "icao24": "010289",
        "callsign": "MSR948",
        "origin_country": "Egypt",
        "time_position": 1786579865,
        "last_contact": 1786579865,
        "baro_altitude": 12192,
        "on_ground": false,
        "velocity": 263.77,
        "true_track": 94.7,
        "vertical_rate": 0,
        "geo_altitude": 12839.7,
        "squawk": "1263",
        "spi": false,
        "position_source": 0
      }
    },
    {
      "type": "Feature",
      "geometry": {
        "type": "Point",
        "coordinates": [
          10.1175,
          41.249
        ]
      },
      "properties": {
        "icao24": "4d24b5",
        "callsign": "WMT511",
        "origin_country": "Malta",
        "time_position": 1786579865,
        "last_contact": 1786579865,
        "baro_altitude": 10980.42,
        "on_ground": false,
        "velocity": 234.43,
        "true_track": 71.05,
        "vertical_rate": -0.33,
        "geo_altitude": 11612.88,
        "squawk": "2205",
        "spi": false,
        "position_source": 0
      }
    },
    {
      "type": "Feature",
      "geometry": {
        "type": "Point",
        "coordinates": [
          10.2037,
          45.1767
        ]
      },
      "properties": {
        "icao24": "4d24eb",
        "callsign": "RYR9MV",
        "origin_country": "Malta",
        "time_position": 1786579865,
        "last_contact": 1786579865,
        "baro_altitude": 3322.32,
        "on_ground": false,
        "velocity": 176.18,
        "true_track": 317.13,
        "vertical_rate": -4.55,
        "geo_altitude": 3627.12,
        "squawk": "6010",
        "spi": false,
        "position_source": 0
      }
    },
    {
      "type": "Feature",
      "geometry": {
        "type": "Point",
        "coordinates": [
          17.0538,
          44.0476
        ]
      },
      "properties": {
        "icao24": "0101de",
        "callsign": "MSR981",
        "origin_country": "Egypt",
        "time_position": 1786579865,
        "last_contact": 1786579865,
        "baro_altitude": 10355.58,
        "on_ground": false,
        "velocity": 252.44,
        "true_track": 310.7,
        "vertical_rate": 0.33,
        "geo_altitude": 10919.46,
        "squawk": "5524",
        "spi": false,
        "position_source": 0
      }
    },
    {
      "type": "Feature",
      "geometry": {
        "type": "Point",
        "coordinates": [
          9.7129,
          42.5721
        ]
      },
      "properties": {
        "icao24": "0101dd",
        "callsign": "MSR996",
        "origin_country": "Egypt",
        "time_position": 1786579865,
        "last_contact": 1786579865,
        "baro_altitude": 11277.6,
        "on_ground": false,
        "velocity": 259.94,
        "true_track": 111.84,
        "vertical_rate": -0.33,
        "geo_altitude": 11917.68,
        "squawk": "3732",
        "spi": false,
        "position_source": 0
      }
    },
    {
      "type": "Feature",
      "geometry": {
        "type": "Point",
        "coordinates": [
          16.854,
          42.2175
        ]
      },
      "properties": {
        "icao24": "4caeb0",
        "callsign": "NOS3463",
        "origin_country": "Ireland",
        "time_position": 1786579863,
        "last_contact": 1786579864,
        "baro_altitude": 10972.8,
        "on_ground": false,
        "velocity": 234.64,
        "true_track": 314.38,
        "vertical_rate": 0,
        "geo_altitude": 11551.92,
        "squawk": "7736",
        "spi": false,
        "position_source": 0
      }
    },
    {
      "type": "Feature",
      "geometry": {
        "type": "Point",
        "coordinates": [
          12.2583,
          41.7981
        ]
      },
      "properties": {
        "icao24": "4d251c",
        "callsign": "RYR88FD",
        "origin_country": "Malta",
        "time_position": 1786579689,
        "last_contact": 1786579689,
        "baro_altitude": null,
        "on_ground": true,
        "velocity": 4.89,
        "true_track": 196.88,
        "vertical_rate": null,
        "geo_altitude": null,
        "squawk": "1000",
        "spi": false,
        "position_source": 0
      }
    },
    {
      "type": "Feature",
      "geometry": {
        "type": "Point",
        "coordinates": [
          15.0198,
          47.0287
        ]
      },
      "properties": {
        "icao24": "4d23c3",
        "callsign": "CAI7KJ",
        "origin_country": "Malta",
        "time_position": 1786579865,
        "last_contact": 1786579865,
        "baro_altitude": 11277.6,
        "on_ground": false,
        "velocity": 239.4,
        "true_track": 133.96,
        "vertical_rate": 0,
        "geo_altitude": 11864.34,
        "squawk": "7646",
        "spi": false,
        "position_source": 0
      }
    },
    {
      "type": "Feature",
      "geometry": {
        "type": "Point",
        "coordinates": [
          9.5438,
          41.3731
        ]
      },
      "properties": {
        "icao24": "346090",
        "callsign": "VLG53DB",
        "origin_country": "Spain",
        "time_position": 1786579865,
        "last_contact": 1786579865,
        "baro_altitude": 11170.92,
        "on_ground": false,
        "velocity": 224.73,
        "true_track": 266.46,
        "vertical_rate": 4.55,
        "geo_altitude": 11788.14,
        "squawk": "1000",
        "spi": false,
        "position_source": 0
      }
    },
    {
      "type": "Feature",
      "geometry": {
        "type": "Point",
        "coordinates": [
          8.5614,
          44.0839
        ]
      },
      "properties": {
        "icao24": "34604d",
        "callsign": "AEA1183",
        "origin_country": "Spain",
        "time_position": 1786579865,
        "last_contact": 1786579865,
        "baro_altitude": 11330.94,
        "on_ground": false,
        "velocity": 226.51,
        "true_track": 78.21,
        "vertical_rate": -5.85,
        "geo_altitude": 11971.02,
        "squawk": "1000",
        "spi": false,
        "position_source": 0
      }
    },
    {
      "type": "Feature",
      "geometry": {
        "type": "Point",
        "coordinates": [
          8.4066,
          42.3769
        ]
      },
      "properties": {
        "icao24": "40756b",
        "callsign": "EZY25CQ",
        "origin_country": "United Kingdom",
        "time_position": 1786579865,
        "last_contact": 1786579865,
        "baro_altitude": 11590.02,
        "on_ground": false,
        "velocity": 220.58,
        "true_track": 328.35,
        "vertical_rate": 0,
        "geo_altitude": 12230.1,
        "squawk": "4032",
        "spi": false,
        "position_source": 0
      }
    },
    {
      "type": "Feature",
      "geometry": {
        "type": "Point",
        "coordinates": [
          18.484,
          41.0966
        ]
      },
      "properties": {
        "icao24": "4d2493",
        "callsign": "WMT6420",
        "origin_country": "Malta",
        "time_position": 1786579865,
        "last_contact": 1786579865,
        "baro_altitude": 11277.6,
        "on_ground": false,
        "velocity": 267.82,
        "true_track": 73.83,
        "vertical_rate": 0,
        "geo_altitude": 11910.06,
        "squawk": "3730",
        "spi": false,
        "position_source": 0
      }
    },
    {
      "type": "Feature",
      "geometry": {
        "type": "Point",
        "coordinates": [
          12.2443,
          41.7931
        ]
      },
      "properties": {
        "icao24": "4d2492",
        "callsign": "WMT9706",
        "origin_country": "Malta",
        "time_position": 1786579568,
        "last_contact": 1786579568,
        "baro_altitude": null,
        "on_ground": true,
        "velocity": 6.69,
        "true_track": 123.75,
        "vertical_rate": null,
        "geo_altitude": null,
        "squawk": "1000",
        "spi": false,
        "position_source": 0
      }
    },
    {
      "type": "Feature",
      "geometry": {
        "type": "Point",
        "coordinates": [
          10.3124,
          45.3936
        ]
      },
      "properties": {
        "icao24": "4cae49",
        "callsign": "RYR14AU",
        "origin_country": "Ireland",
        "time_position": 1786579865,
        "last_contact": 1786579866,
        "baro_altitude": 2377.44,
        "on_ground": false,
        "velocity": 129.77,
        "true_track": 205.85,
        "vertical_rate": -2.6,
        "geo_altitude": 2628.9,
        "squawk": "1000",
        "spi": false,
        "position_source": 0
      }
    },
    {
      "type": "Feature",
      "geometry": {
        "type": "Point",
        "coordinates": [
          8.2005,
          45.6337
        ]
      },
      "properties": {
        "icao24": "300401",
        "callsign": "INOST",
        "origin_country": "Italy",
        "time_position": 1786579865,
        "last_contact": 1786579865,
        "baro_altitude": 708.66,
        "on_ground": false,
        "velocity": 75.36,
        "true_track": 209.89,
        "vertical_rate": -3.9,
        "geo_altitude": 861.06,
        "squawk": "1444",
        "spi": false,
        "position_source": 0
      }
    },
    {
      "type": "Feature",
      "geometry": {
        "type": "Point",
        "coordinates": [
          12.0986,
          44.9541
        ]
      },
      "properties": {
        "icao24": "4d21f1",
        "callsign": "RYR377",
        "origin_country": "Malta",
        "time_position": 1786579865,
        "last_contact": 1786579865,
        "baro_altitude": 3177.54,
        "on_ground": false,
        "velocity": 129.81,
        "true_track": 2.95,
        "vertical_rate": -6.18,
        "geo_altitude": 3467.1,
        "squawk": "1000",
        "spi": false,
        "position_source": 0
      }
    },
    {
      "type": "Feature",
      "geometry": {
        "type": "Point",
        "coordinates": [
          11.1622,
          43.6918
        ]
      },
      "properties": {
        "icao24": "4d222d",
        "callsign": "RYR3750",
        "origin_country": "Malta",
        "time_position": 1786579865,
        "last_contact": 1786579865,
        "baro_altitude": 6720.84,
        "on_ground": false,
        "velocity": 218.49,
        "true_track": 341.18,
        "vertical_rate": -16.91,
        "geo_altitude": 7170.42,
        "squawk": "1000",
        "spi": false,
        "position_source": 0
      }
    },
    {
      "type": "Feature",
      "geometry": {
        "type": "Point",
        "coordinates": [
          8.8106,
          45.3261
        ]
      },
      "properties": {
        "icao24": "4d2222",
        "callsign": "RYR44GP",
        "origin_country": "Malta",
        "time_position": 1786579865,
        "last_contact": 1786579866,
        "baro_altitude": 1760.22,
        "on_ground": false,
        "velocity": 114.43,
        "true_track": 331.25,
        "vertical_rate": -1.3,
        "geo_altitude": 1973.58,
        "squawk": "0522",
        "spi": false,
        "position_source": 0
      }
    },
    {
      "type": "Feature",
      "geometry": {
        "type": "Point",
        "coordinates": [
          17.1193,
          42.6241
        ]
      },
      "properties": {
        "icao24": "4cac8c",
        "callsign": null,
        "origin_country": "Ireland",
        "time_position": 1786579658,
        "last_contact": 1786579658,
        "baro_altitude": 10972.8,
        "on_ground": false,
        "velocity": 230.12,
        "true_track": 305.54,
        "vertical_rate": 0,
        "geo_altitude": 11551.92,
        "squawk": null,
        "spi": false,
        "position_source": 0
      }
    },
    {
      "type": "Feature",
      "geometry": {
        "type": "Point",
        "coordinates": [
          12.2676,
          41.8053
        ]
      },
      "properties": {
        "icao24": "4d20f3",
        "callsign": "WMT2507",
        "origin_country": "Malta",
        "time_position": 1786579862,
        "last_contact": 1786579862,
        "baro_altitude": null,
        "on_ground": true,
        "velocity": 9.26,
        "true_track": 250.31,
        "vertical_rate": null,
        "geo_altitude": null,
        "squawk": "2040",
        "spi": false,
        "position_source": 0
      }
    },
    {
      "type": "Feature",
      "geometry": {
        "type": "Point",
        "coordinates": [
          8.7638,
          45.482
        ]
      },
      "properties": {
        "icao24": "4d20be",
        "callsign": "WMT3MA",
        "origin_country": "Malta",
        "time_position": 1786579865,
        "last_contact": 1786579865,
        "baro_altitude": 899.16,
        "on_ground": false,
        "velocity": 97.97,
        "true_track": 349.1,
        "vertical_rate": -4.88,
        "geo_altitude": 1074.42,
        "squawk": "1000",
        "spi": false,
        "position_source": 0
      }
    },
    {
      "type": "Feature",
      "geometry": {
        "type": "Point",
        "coordinates": [
          12.1965,
          45.7874
        ]
      },
      "properties": {
        "icao24": "408314",
        "callsign": "TOM3CB",
        "origin_country": "United Kingdom",
        "time_position": 1786579865,
        "last_contact": 1786579865,
        "baro_altitude": 10972.8,
        "on_ground": false,
        "velocity": 230.72,
        "true_track": 303.73,
        "vertical_rate": 0,
        "geo_altitude": 11574.78,
        "squawk": "2002",
        "spi": false,
        "position_source": 0
      }
    },
    {
      "type": "Feature",
      "geometry": {
        "type": "Point",
        "coordinates": [
          14.5137,
          45.9378
        ]
      },
      "properties": {
        "icao24": "4d207e",
        "callsign": "VJT720",
        "origin_country": "Malta",
        "time_position": 1786579865,
        "last_contact": 1786579865,
        "baro_altitude": 13716,
        "on_ground": false,
        "velocity": 254.24,
        "true_track": 126.94,
        "vertical_rate": 0,
        "geo_altitude": 14363.7,
        "squawk": "1176",
        "spi": false,
        "position_source": 0
      }
    },
    {
      "type": "Feature",
      "geometry": {
        "type": "Point",
        "coordinates": [
          9.2627,
          44.5462
        ]
      },
      "properties": {
        "icao24": "4d2095",
        "callsign": "RYR5BQ",
        "origin_country": "Malta",
        "time_position": 1786579865,
        "last_contact": 1786579865,
        "baro_altitude": 6278.88,
        "on_ground": false,
        "velocity": 222.21,
        "true_track": 338.54,
        "vertical_rate": -13.98,
        "geo_altitude": 6713.22,
        "squawk": "1000",
        "spi": false,
        "position_source": 0
      }
    },
    {
      "type": "Feature",
      "geometry": {
        "type": "Point",
        "coordinates": [
          15.7616,
          45.4809
        ]
      },
      "properties": {
        "icao24": "4d203d",
        "callsign": "CHZ212",
        "origin_country": "Malta",
        "time_position": 1786579865,
        "last_contact": 1786579865,
        "baro_altitude": 11277.6,
        "on_ground": false,
        "velocity": 246.53,
        "true_track": 130.94,
        "vertical_rate": -0.33,
        "geo_altitude": 11818.62,
        "squawk": "7665",
        "spi": false,
        "position_source": 0
      }
    },
    {
      "type": "Feature",
      "geometry": {
        "type": "Point",
        "coordinates": [
          9.864,
          41.744
        ]
      },
      "properties": {
        "icao24": "4d201a",
        "callsign": "AEZ2367",
        "origin_country": "Malta",
        "time_position": 1786579865,
        "last_contact": 1786579865,
        "baro_altitude": 10668,
        "on_ground": false,
        "velocity": 246.36,
        "true_track": 183.47,
        "vertical_rate": 0.33,
        "geo_altitude": 11277.6,
        "squawk": "0005",
        "spi": false,
        "position_source": 0
      }
    },
    {
      "type": "Feature",
      "geometry": {
        "type": "Point",
        "coordinates": [
          11.1777,
          46.2513
        ]
      },
      "properties": {
        "icao24": "4082cc",
        "callsign": "TOM699",
        "origin_country": "United Kingdom",
        "time_position": 1786579865,
        "last_contact": 1786579865,
        "baro_altitude": 11582.4,
        "on_ground": false,
        "velocity": 231.3,
        "true_track": 303.02,
        "vertical_rate": 0,
        "geo_altitude": 12214.86,
        "squawk": "2014",
        "spi": false,
        "position_source": 0
      }
    },
    {
      "type": "Feature",
      "geometry": {
        "type": "Point",
        "coordinates": [
          15.3881,
          43.7936
        ]
      },
      "properties": {
        "icao24": "4082cb",
        "callsign": "TOM6JL",
        "origin_country": "United Kingdom",
        "time_position": 1786579865,
        "last_contact": 1786579865,
        "baro_altitude": 10972.8,
        "on_ground": false,
        "velocity": 229.55,
        "true_track": 306.43,
        "vertical_rate": 0.33,
        "geo_altitude": 11551.92,
        "squawk": "2024",
        "spi": false,
        "position_source": 0
      }
    },
    {
      "type": "Feature",
      "geometry": {
        "type": "Point",
        "coordinates": [
          8.5649,
          47.442
        ]
      },
      "properties": {
        "icao24": "4b17f8",
        "callsign": "SWR2HE",
        "origin_country": "Switzerland",
        "time_position": 1786579865,
        "last_contact": 1786579865,
        "baro_altitude": null,
        "on_ground": true,
        "velocity": 0.06,
        "true_track": 146.25,
        "vertical_rate": null,
        "geo_altitude": null,
        "squawk": "2000",
        "spi": false,
        "position_source": 0
      }
    }
  ]
}