{
  "type": "FeatureCollection",
  "source": "opensky",
  "dataset": "aircraft_italy",
  "generated_at": "2026-08-08T23:47:52.793441+00:00",
  "opensky_time": 1786232855,
  "count": 144,
  "features": [
    {
      "type": "Feature",
      "geometry": {
        "type": "Point",
        "coordinates": [
          7.8888,
          41.131
        ]
      },
      "properties": {
        "icao24": "440237",
        "callsign": "EJU1814",
        "origin_country": "Austria",
        "time_position": 1786232854,
        "last_contact": 1786232854,
        "baro_altitude": 10980.42,
        "on_ground": false,
        "velocity": 225.96,
        "true_track": 311.49,
        "vertical_rate": 0,
        "geo_altitude": 11650.98,
        "squawk": "1000",
        "spi": false,
        "position_source": 0
      }
    },
    {
      "type": "Feature",
      "geometry": {
        "type": "Point",
        "coordinates": [
          16.0674,
          45.1866
        ]
      },
      "properties": {
        "icao24": "471f9f",
        "callsign": "WZZ86YZ",
        "origin_country": "Hungary",
        "time_position": 1786232855,
        "last_contact": 1786232855,
        "baro_altitude": 10965.18,
        "on_ground": false,
        "velocity": 249.63,
        "true_track": 83.37,
        "vertical_rate": 0.33,
        "geo_altitude": 11551.92,
        "squawk": "0477",
        "spi": false,
        "position_source": 0
      }
    },
    {
      "type": "Feature",
      "geometry": {
        "type": "Point",
        "coordinates": [
          7.6994,
          46.6691
        ]
      },
      "properties": {
        "icao24": "471f7a",
        "callsign": "WZZ47RG",
        "origin_country": "Hungary",
        "time_position": 1786232855,
        "last_contact": 1786232855,
        "baro_altitude": 10363.2,
        "on_ground": false,
        "velocity": 236.51,
        "true_track": 20.37,
        "vertical_rate": 0,
        "geo_altitude": 10911.84,
        "squawk": "1000",
        "spi": false,
        "position_source": 0
      }
    },
    {
      "type": "Feature",
      "geometry": {
        "type": "Point",
        "coordinates": [
          16.3444,
          44.049
        ]
      },
      "properties": {
        "icao24": "407b8b",
        "callsign": "WUK7402",
        "origin_country": "United Kingdom",
        "time_position": 1786232855,
        "last_contact": 1786232855,
        "baro_altitude": 11269.98,
        "on_ground": false,
        "velocity": 253.44,
        "true_track": 142.34,
        "vertical_rate": 0,
        "geo_altitude": 11894.82,
        "squawk": "7301",
        "spi": false,
        "position_source": 0
      }
    },
    {
      "type": "Feature",
      "geometry": {
        "type": "Point",
        "coordinates": [
          12.2425,
          41.788
        ]
      },
      "properties": {
        "icao24": "8015a5",
        "callsign": "AIC191",
        "origin_country": "India",
        "time_position": 1786232614,
        "last_contact": 1786232616,
        "baro_altitude": null,
        "on_ground": true,
        "velocity": 0,
        "true_track": 343.12,
        "vertical_rate": null,
        "geo_altitude": null,
        "squawk": "2023",
        "spi": false,
        "position_source": 0
      }
    },
    {
      "type": "Feature",
      "geometry": {
        "type": "Point",
        "coordinates": [
          16.9658,
          47.3996
        ]
      },
      "properties": {
        "icao24": "4bc852",
        "callsign": "PGT69QK",
        "origin_country": "Turkey",
        "time_position": 1786232854,
        "last_contact": 1786232855,
        "baro_altitude": 10972.8,
        "on_ground": false,
        "velocity": 210.66,
        "true_track": 294.37,
        "vertical_rate": 0,
        "geo_altitude": 11490.96,
        "squawk": "6002",
        "spi": false,
        "position_source": 0
      }
    },
    {
      "type": "Feature",
      "geometry": {
        "type": "Point",
        "coordinates": [
          17.6929,
          46.5811
        ]
      },
      "properties": {
        "icao24": "4bb46e",
        "callsign": "MNB601",
        "origin_country": "Turkey",
        "time_position": 1786232854,
        "last_contact": 1786232854,
        "baro_altitude": 11887.2,
        "on_ground": false,
        "velocity": 273.48,
        "true_track": 126.74,
        "vertical_rate": -0.33,
        "geo_altitude": 12428.22,
        "squawk": "7665",
        "spi": false,
        "position_source": 0
      }
    },
    {
      "type": "Feature",
      "geometry": {
        "type": "Point",
        "coordinates": [
          18.9448,
          41.7013
        ]
      },
      "properties": {
        "icao24": "738056",
        "callsign": "ELY288",
        "origin_country": "Israel",
        "time_position": 1786232854,
        "last_contact": 1786232854,
        "baro_altitude": 10668,
        "on_ground": false,
        "velocity": 245.14,
        "true_track": 128.1,
        "vertical_rate": -0.33,
        "geo_altitude": 11277.6,
        "squawk": "3752",
        "spi": false,
        "position_source": 0
      }
    },
    {
      "type": "Feature",
      "geometry": {
        "type": "Point",
        "coordinates": [
          14.2834,
          45.9223
        ]
      },
      "properties": {
        "icao24": "80189d",
        "callsign": "AIC188",
        "origin_country": "India",
        "time_position": 1786232855,
        "last_contact": 1786232855,
        "baro_altitude": 11277.6,
        "on_ground": false,
        "velocity": 275.76,
        "true_track": 135.76,
        "vertical_rate": -0.33,
        "geo_altitude": 11879.58,
        "squawk": "1156",
        "spi": false,
        "position_source": 0
      }
    },
    {
      "type": "Feature",
      "geometry": {
        "type": "Point",
        "coordinates": [
          7.1091,
          43.3734
        ]
      },
      "properties": {
        "icao24": "440018",
        "callsign": "EJU46ZK",
        "origin_country": "Austria",
        "time_position": 1786232854,
        "last_contact": 1786232854,
        "baro_altitude": 10355.58,
        "on_ground": false,
        "velocity": 243.42,
        "true_track": 46.28,
        "vertical_rate": 0.33,
        "geo_altitude": 10957.56,
        "squawk": "1426",
        "spi": false,
        "position_source": 0
      }
    },
    {
      "type": "Feature",
      "geometry": {
        "type": "Point",
        "coordinates": [
          18.1451,
          45.2664
        ]
      },
      "properties": {
        "icao24": "8960ef",
        "callsign": "UAE232",
        "origin_country": "United Arab Emirates",
        "time_position": 1786232855,
        "last_contact": 1786232855,
        "baro_altitude": 11887.2,
        "on_ground": false,
        "velocity": 278.13,
        "true_track": 122.69,
        "vertical_rate": 0,
        "geo_altitude": 12489.18,
        "squawk": "2222",
        "spi": false,
        "position_source": 0
      }
    },
    {
      "type": "Feature",
      "geometry": {
        "type": "Point",
        "coordinates": [
          18.7417,
          41.8109
        ]
      },
      "properties": {
        "icao24": "440198",
        "callsign": "EJU3686",
        "origin_country": "Austria",
        "time_position": 1786232854,
        "last_contact": 1786232854,
        "baro_altitude": 10980.42,
        "on_ground": false,
        "velocity": 230.12,
        "true_track": 319.08,
        "vertical_rate": 0,
        "geo_altitude": 11628.12,
        "squawk": "2015",
        "spi": false,
        "position_source": 0
      }
    },
    {
      "type": "Feature",
      "geometry": {
        "type": "Point",
        "coordinates": [
          15.0962,
          45.3381
        ]
      },
      "properties": {
        "icao24": "300a95",
        "callsign": "SIO007",
        "origin_country": "Italy",
        "time_position": 1786232855,
        "last_contact": 1786232855,
        "baro_altitude": 12496.8,
        "on_ground": false,
        "velocity": 274.36,
        "true_track": 136.37,
        "vertical_rate": 0,
        "geo_altitude": 13159.74,
        "squawk": "5221",
        "spi": false,
        "position_source": 0
      }
    },
    {
      "type": "Feature",
      "geometry": {
        "type": "Point",
        "coordinates": [
          15.3824,
          41.2936
        ]
      },
      "properties": {
        "icao24": "7380c3",
        "callsign": "ELY003",
        "origin_country": "Israel",
        "time_position": 1786232855,
        "last_contact": 1786232855,
        "baro_altitude": 10363.2,
        "on_ground": false,
        "velocity": 251.15,
        "true_track": 293.41,
        "vertical_rate": -0.33,
        "geo_altitude": 10995.66,
        "squawk": "4131",
        "spi": false,
        "position_source": 0
      }
    },
    {
      "type": "Feature",
      "geometry": {
        "type": "Point",
        "coordinates": [
          17.9189,
          40.4409
        ]
      },
      "properties": {
        "icao24": "7380c8",
        "callsign": "ELY027",
        "origin_country": "Israel",
        "time_position": 1786232854,
        "last_contact": 1786232854,
        "baro_altitude": 10355.58,
        "on_ground": false,
        "velocity": 249.07,
        "true_track": 294.66,
        "vertical_rate": 0.33,
        "geo_altitude": 10995.66,
        "squawk": "4150",
        "spi": false,
        "position_source": 0
      }
    },
    {
      "type": "Feature",
      "geometry": {
        "type": "Point",
        "coordinates": [
          12.8354,
          42.9543
        ]
      },
      "properties": {
        "icao24": "345613",
        "callsign": "VOE2047",
        "origin_country": "Spain",
        "time_position": 1786232855,
        "last_contact": 1786232855,
        "baro_altitude": 11567.16,
        "on_ground": false,
        "velocity": 219.07,
        "true_track": 301.26,
        "vertical_rate": 0.33,
        "geo_altitude": 12237.72,
        "squawk": "2076",
        "spi": false,
        "position_source": 0
      }
    },
    {
      "type": "Feature",
      "geometry": {
        "type": "Point",
        "coordinates": [
          10.3899,
          39.9676
        ]
      },
      "properties": {
        "icao24": "4bb26b",
        "callsign": "THY5LY",
        "origin_country": "Turkey",
        "time_position": 1786232855,
        "last_contact": 1786232855,
        "baro_altitude": 10363.2,
        "on_ground": false,
        "velocity": 243.14,
        "true_track": 81.97,
        "vertical_rate": 0,
        "geo_altitude": 11010.9,
        "squawk": "4214",
        "spi": false,
        "position_source": 0
      }
    },
    {
      "type": "Feature",
      "geometry": {
        "type": "Point",
        "coordinates": [
          17.7958,
          38.8056
        ]
      },
      "properties": {
        "icao24": "8963d2",
        "callsign": "UAE194",
        "origin_country": "United Arab Emirates",
        "time_position": 1786232854,
        "last_contact": 1786232855,
        "baro_altitude": 10668,
        "on_ground": false,
        "velocity": 265.5,
        "true_track": 106.43,
        "vertical_rate": 0,
        "geo_altitude": 11330.94,
        "squawk": "5257",
        "spi": false,
        "position_source": 0
      }
    },
    {
      "type": "Feature",
      "geometry": {
        "type": "Point",
        "coordinates": [
          14.6408,
          46.0383
        ]
      },
      "properties": {
        "icao24": "4bb183",
        "callsign": "THY41J",
        "origin_country": "Turkey",
        "time_position": 1786232854,
        "last_contact": 1786232854,
        "baro_altitude": 11879.58,
        "on_ground": false,
        "velocity": 275.45,
        "true_track": 121.4,
        "vertical_rate": 0.33,
        "geo_altitude": 12496.8,
        "squawk": "2361",
        "spi": false,
        "position_source": 0
      }
    },
    {
      "type": "Feature",
      "geometry": {
        "type": "Point",
        "coordinates": [
          10.6112,
          45.9983
        ]
      },
      "properties": {
        "icao24": "4067f3",
        "callsign": "TOM701",
        "origin_country": "United Kingdom",
        "time_position": 1786232855,
        "last_contact": 1786232855,
        "baro_altitude": 11582.4,
        "on_ground": false,
        "velocity": 214.11,
        "true_track": 307.09,
        "vertical_rate": 0,
        "geo_altitude": 12184.38,
        "squawk": "2012",
        "spi": false,
        "position_source": 0
      }
    },
    {
      "type": "Feature",
      "geometry": {
        "type": "Point",
        "coordinates": [
          11.6829,
          39.4493
        ]
      },
      "properties": {
        "icao24": "4689d2",
        "callsign": "AEW1078",
        "origin_country": "Greece",
        "time_position": 1786232854,
        "last_contact": 1786232855,
        "baro_altitude": 11582.4,
        "on_ground": false,
        "velocity": 233.38,
        "true_track": 276.2,
        "vertical_rate": 0,
        "geo_altitude": 12306.3,
        "squawk": "2017",
        "spi": false,
        "position_source": 0
      }
    },
    {
      "type": "Feature",
      "geometry": {
        "type": "Point",
        "coordinates": [
          11.0367,
          35.2493
        ]
      },
      "properties": {
        "icao24": "018047",
        "callsign": "5AONI",
        "origin_country": "Libyan Arab Jamahiriya",
        "time_position": 1786232855,
        "last_contact": 1786232855,
        "baro_altitude": 9220.2,
        "on_ground": false,
        "velocity": 223.37,
        "true_track": 343.82,
        "vertical_rate": -11.7,
        "geo_altitude": 9845.04,
        "squawk": "5020",
        "spi": false,
        "position_source": 0
      }
    },
    {
      "type": "Feature",
      "geometry": {
        "type": "Point",
        "coordinates": [
          17.8856,
          37.8763
        ]
      },
      "properties": {
        "icao24": "4bb063",
        "callsign": "THY1CT",
        "origin_country": "Turkey",
        "time_position": 1786232854,
        "last_contact": 1786232854,
        "baro_altitude": 10363.2,
        "on_ground": false,
        "velocity": 230.99,
        "true_track": 233.51,
        "vertical_rate": 0,
        "geo_altitude": 11018.52,
        "squawk": "0035",
        "spi": false,
        "position_source": 0
      }
    },
    {
      "type": "Feature",
      "geometry": {
        "type": "Point",
        "coordinates": [
          12.3541,
          38.7937
        ]
      },
      "properties": {
        "icao24": "345042",
        "callsign": "VLG8AP",
        "origin_country": "Spain",
        "time_position": 1786232854,
        "last_contact": 1786232854,
        "baro_altitude": 10363.2,
        "on_ground": false,
        "velocity": 225.03,
        "true_track": 302.96,
        "vertical_rate": 0,
        "geo_altitude": 11010.9,
        "squawk": "0204",
        "spi": false,
        "position_source": 0
      }
    },
    {
      "type": "Feature",
      "geometry": {
        "type": "Point",
        "coordinates": [
          13.9675,
          46.5397
        ]
      },
      "properties": {
        "icao24": "4076da",
        "callsign": "EXS85BE",
        "origin_country": "United Kingdom",
        "time_position": 1786232855,
        "last_contact": 1786232855,
        "baro_altitude": 10972.8,
        "on_ground": false,
        "velocity": 206.48,
        "true_track": 308.53,
        "vertical_rate": 0,
        "geo_altitude": 11536.68,
        "squawk": "1153",
        "spi": false,
        "position_source": 0
      }
    },
    {
      "type": "Feature",
      "geometry": {
        "type": "Point",
        "coordinates": [
          17.5719,
          43.7333
        ]
      },
      "properties": {
        "icao24": "400ff4",
        "callsign": "TOM2KA",
        "origin_country": "United Kingdom",
        "time_position": 1786232854,
        "last_contact": 1786232855,
        "baro_altitude": 10972.8,
        "on_ground": false,
        "velocity": 221.27,
        "true_track": 309.06,
        "vertical_rate": 0,
        "geo_altitude": 11559.54,
        "squawk": "5621",
        "spi": false,
        "position_source": 0
      }
    },
    {
      "type": "Feature",
      "geometry": {
        "type": "Point",
        "coordinates": [
          6.2794,
          44.0224
        ]
      },
      "properties": {
        "icao24": "346516",
        "callsign": "CXI17UW",
        "origin_country": "Spain",
        "time_position": 1786232855,
        "last_contact": 1786232855,
        "baro_altitude": 9753.6,
        "on_ground": false,
        "velocity": 236.27,
        "true_track": 20.92,
        "vertical_rate": 0,
        "geo_altitude": 10325.1,
        "squawk": "1000",
        "spi": false,
        "position_source": 0
      }
    },
    {
      "type": "Feature",
      "geometry": {
        "type": "Point",
        "coordinates": [
          12.7815,
          37.6499
        ]
      },
      "properties": {
        "icao24": "407959",
        "callsign": "EZY25CQ",
        "origin_country": "United Kingdom",
        "time_position": 1786232855,
        "last_contact": 1786232855,
        "baro_altitude": 10972.8,
        "on_ground": false,
        "velocity": 233.23,
        "true_track": 324.7,
        "vertical_rate": 0,
        "geo_altitude": 11666.22,
        "squawk": "6575",
        "spi": false,
        "position_source": 0
      }
    },
    {
      "type": "Feature",
      "geometry": {
        "type": "Point",
        "coordinates": [
          11.8118,
          36.5799
        ]
      },
      "properties": {
        "icao24": "040187",
        "callsign": "ETH741",
        "origin_country": "Ethiopia",
        "time_position": 1786232855,
        "last_contact": 1786232855,
        "baro_altitude": 10668,
        "on_ground": false,
        "velocity": 258.65,
        "true_track": 98.69,
        "vertical_rate": -0.33,
        "geo_altitude": 11361.42,
        "squawk": "4110",
        "spi": false,
        "position_source": 0
      }
    },
    {
      "type": "Feature",
      "geometry": {
        "type": "Point",
        "coordinates": [
          15.9359,
          47.6494
        ]
      },
      "properties": {
        "icao24": "4bcd82",
        "callsign": "SXS14E",
        "origin_country": "Turkey",
        "time_position": 1786232855,
        "last_contact": 1786232855,
        "baro_altitude": 11277.6,
        "on_ground": false,
        "velocity": 261.6,
        "true_track": 128.85,
        "vertical_rate": -0.33,
        "geo_altitude": 11811,
        "squawk": "7711",
        "spi": false,
        "position_source": 0
      }
    },
    {
      "type": "Feature",
      "geometry": {
        "type": "Point",
        "coordinates": [
          17.2491,
          47.7721
        ]
      },
      "properties": {
        "icao24": "49d3d4",
        "callsign": "TVS2665",
        "origin_country": "Czech Republic",
        "time_position": 1786232855,
        "last_contact": 1786232855,
        "baro_altitude": 10363.2,
        "on_ground": false,
        "velocity": 223.6,
        "true_track": 302.89,
        "vertical_rate": 0,
        "geo_altitude": 10858.5,
        "squawk": "2360",
        "spi": false,
        "position_source": 0
      }
    },
    {
      "type": "Feature",
      "geometry": {
        "type": "Point",
        "coordinates": [
          14.7049,
          46.1309
        ]
      },
      "properties": {
        "icao24": "406f86",
        "callsign": "EXS37G",
        "origin_country": "United Kingdom",
        "time_position": 1786232855,
        "last_contact": 1786232855,
        "baro_altitude": 11582.4,
        "on_ground": false,
        "velocity": 210.26,
        "true_track": 308.24,
        "vertical_rate": 0,
        "geo_altitude": 12161.52,
        "squawk": "5505",
        "spi": false,
        "position_source": 0
      }
    },
    {
      "type": "Feature",
      "geometry": {
        "type": "Point",
        "coordinates": [
          14.9714,
          45.849
        ]
      },
      "properties": {
        "icao24": "49d3fa",
        "callsign": "TVQ6469",
        "origin_country": "Czech Republic",
        "time_position": 1786232854,
        "last_contact": 1786232854,
        "baro_altitude": 10363.2,
        "on_ground": false,
        "velocity": 232.19,
        "true_track": 25.32,
        "vertical_rate": 0.33,
        "geo_altitude": 10904.22,
        "squawk": "6173",
        "spi": false,
        "position_source": 0
      }
    },
    {
      "type": "Feature",
      "geometry": {
        "type": "Point",
        "coordinates": [
          17.8719,
          46.8634
        ]
      },
      "properties": {
        "icao24": "49d563",
        "callsign": "TVS7KQ",
        "origin_country": "Czech Republic",
        "time_position": 1786232854,
        "last_contact": 1786232854,
        "baro_altitude": 11277.6,
        "on_ground": false,
        "velocity": 257.82,
        "true_track": 141.64,
        "vertical_rate": -0.33,
        "geo_altitude": 11811,
        "squawk": "6004",
        "spi": false,
        "position_source": 0
      }
    },
    {
      "type": "Feature",
      "geometry": {
        "type": "Point",
        "coordinates": [
          8.7298,
          45.6427
        ]
      },
      "properties": {
        "icao24": "4ba9f5",
        "callsign": "THY6430",
        "origin_country": "Turkey",
        "time_position": 1786232855,
        "last_contact": 1786232855,
        "baro_altitude": null,
        "on_ground": true,
        "velocity": 8.23,
        "true_track": 132.19,
        "vertical_rate": null,
        "geo_altitude": null,
        "squawk": "0435",
        "spi": false,
        "position_source": 0
      }
    },
    {
      "type": "Feature",
      "geometry": {
        "type": "Point",
        "coordinates": [
          16.909,
          43.8715
        ]
      },
      "properties": {
        "icao24": "06a390",
        "callsign": "QTR10A",
        "origin_country": "Qatar",
        "time_position": 1786232854,
        "last_contact": 1786232854,
        "baro_altitude": 10363.2,
        "on_ground": false,
        "velocity": 233.79,
        "true_track": 317.68,
        "vertical_rate": 0,
        "geo_altitude": 10934.7,
        "squawk": "2013",
        "spi": false,
        "position_source": 0
      }
    },
    {
      "type": "Feature",
      "geometry": {
        "type": "Point",
        "coordinates": [
          17.2844,
          38.5566
        ]
      },
      "properties": {
        "icao24": "06a2f6",
        "callsign": "QTR52A",
        "origin_country": "Qatar",
        "time_position": 1786232854,
        "last_contact": 1786232854,
        "baro_altitude": 11269.98,
        "on_ground": false,
        "velocity": 266.53,
        "true_track": 91.11,
        "vertical_rate": 0,
        "geo_altitude": 11978.64,
        "squawk": "6157",
        "spi": false,
        "position_source": 0
      }
    },
    {
      "type": "Feature",
      "geometry": {
        "type": "Point",
        "coordinates": [
          18.2789,
          47.3387
        ]
      },
      "properties": {
        "icao24": "49d418",
        "callsign": "TVS2623",
        "origin_country": "Czech Republic",
        "time_position": 1786232855,
        "last_contact": 1786232855,
        "baro_altitude": 10873.74,
        "on_ground": false,
        "velocity": 221.05,
        "true_track": 304.76,
        "vertical_rate": -5.2,
        "geo_altitude": 11391.9,
        "squawk": "2363",
        "spi": false,
        "position_source": 0
      }
    },
    {
      "type": "Feature",
      "geometry": {
        "type": "Point",
        "coordinates": [
          15.7153,
          42.536
        ]
      },
      "properties": {
        "icao24": "502ccd",
        "callsign": "BTI8CH",
        "origin_country": "Latvia",
        "time_position": 1786232854,
        "last_contact": 1786232855,
        "baro_altitude": 10972.8,
        "on_ground": false,
        "velocity": 225.1,
        "true_track": 8.28,
        "vertical_rate": 0,
        "geo_altitude": 11620.5,
        "squawk": "6573",
        "spi": false,
        "position_source": 0
      }
    },
    {
      "type": "Feature",
      "geometry": {
        "type": "Point",
        "coordinates": [
          17.0351,
          43.849
        ]
      },
      "properties": {
        "icao24": "040102",
        "callsign": "ETH575",
        "origin_country": "Ethiopia",
        "time_position": 1786232854,
        "last_contact": 1786232854,
        "baro_altitude": 12496.8,
        "on_ground": false,
        "velocity": 267.29,
        "true_track": 137.65,
        "vertical_rate": -0.33,
        "geo_altitude": 13174.98,
        "squawk": "1147",
        "spi": false,
        "position_source": 0
      }
    },
    {
      "type": "Feature",
      "geometry": {
        "type": "Point",
        "coordinates": [
          7.6324,
          46.7605
        ]
      },
      "properties": {
        "icao24": "4b330b",
        "callsign": "RGA14",
        "origin_country": "Switzerland",
        "time_position": 1786232744,
        "last_contact": 1786232749,
        "baro_altitude": null,
        "on_ground": true,
        "velocity": 0,
        "true_track": 253.12,
        "vertical_rate": null,
        "geo_altitude": null,
        "squawk": null,
        "spi": false,
        "position_source": 0
      }
    },
    {
      "type": "Feature",
      "geometry": {
        "type": "Point",
        "coordinates": [
          18.4085,
          47.4331
        ]
      },
      "properties": {
        "icao24": "49d38c",
        "callsign": "TVS86L",
        "origin_country": "Czech Republic",
        "time_position": 1786232854,
        "last_contact": 1786232854,
        "baro_altitude": 10668,
        "on_ground": false,
        "velocity": 243.28,
        "true_track": 144.29,
        "vertical_rate": 0,
        "geo_altitude": 11155.68,
        "squawk": "1403",
        "spi": false,
        "position_source": 0
      }
    },
    {
      "type": "Feature",
      "geometry": {
        "type": "Point",
        "coordinates": [
          6.7988,
          37.5313
        ]
      },
      "properties": {
        "icao24": "a500fe",
        "callsign": "N421SZ",
        "origin_country": "United States",
        "time_position": 1786232829,
        "last_contact": 1786232850,
        "baro_altitude": 12496.8,
        "on_ground": false,
        "velocity": 261.81,
        "true_track": 187.11,
        "vertical_rate": 0,
        "geo_altitude": 13235.94,
        "squawk": "5665",
        "spi": false,
        "position_source": 0
      }
    },
    {
      "type": "Feature",
      "geometry": {
        "type": "Point",
        "coordinates": [
          14.4346,
          46.2779
        ]
      },
      "properties": {
        "icao24": "406e2e",
        "callsign": "EXS34RY",
        "origin_country": "United Kingdom",
        "time_position": 1786232854,
        "last_contact": 1786232855,
        "baro_altitude": 10972.8,
        "on_ground": false,
        "velocity": 208.18,
        "true_track": 307.97,
        "vertical_rate": 0.33,
        "geo_altitude": 11529.06,
        "squawk": "5356",
        "spi": false,
        "position_source": 0
      }
    },
    {
      "type": "Feature",
      "geometry": {
        "type": "Point",
        "coordinates": [
          11.5317,
          44.6568
        ]
      },
      "properties": {
        "icao24": "4a1265",
        "callsign": "DNA412",
        "origin_country": "Romania",
        "time_position": 1786232855,
        "last_contact": 1786232855,
        "baro_altitude": 9441.18,
        "on_ground": false,
        "velocity": 242.14,
        "true_track": 72.95,
        "vertical_rate": 0,
        "geo_altitude": 10027.92,
        "squawk": "0454",
        "spi": false,
        "position_source": 0
      }
    },
    {
      "type": "Feature",
      "geometry": {
        "type": "Point",
        "coordinates": [
          8.7189,
          45.622
        ]
      },
      "properties": {
        "icao24": "31d7b1",
        "callsign": null,
        "origin_country": "Italy",
        "time_position": 1786232852,
        "last_contact": 1786232852,
        "baro_altitude": null,
        "on_ground": true,
        "velocity": 6.69,
        "true_track": 261.56,
        "vertical_rate": null,
        "geo_altitude": null,
        "squawk": null,
        "spi": false,
        "position_source": 0
      }
    },
    {
      "type": "Feature",
      "geometry": {
        "type": "Point",
        "coordinates": [
          16.8001,
          44.2352
        ]
      },
      "properties": {
        "icao24": "407fea",
        "callsign": "WUK504Y",
        "origin_country": "United Kingdom",
        "time_position": 1786232854,
        "last_contact": 1786232854,
        "baro_altitude": 10980.42,
        "on_ground": false,
        "velocity": 216.35,
        "true_track": 312.11,
        "vertical_rate": 0,
        "geo_altitude": 11590.02,
        "squawk": "5645",
        "spi": false,
        "position_source": 0
      }
    },
    {
      "type": "Feature",
      "geometry": {
        "type": "Point",
        "coordinates": [
          9.0211,
          39.5549
        ]
      },
      "properties": {
        "icao24": "44093e",
        "callsign": "EJU54MD",
        "origin_country": "Austria",
        "time_position": 1786232852,
        "last_contact": 1786232854,
        "baro_altitude": 3368.04,
        "on_ground": false,
        "velocity": 176.06,
        "true_track": 355.14,
        "vertical_rate": 4.88,
        "geo_altitude": 3657.6,
        "squawk": null,
        "spi": false,
        "position_source": 0
      }
    },
    {
      "type": "Feature",
      "geometry": {
        "type": "Point",
        "coordinates": [
          10.9958,
          44.1775
        ]
      },
      "properties": {
        "icao24": "4ca225",
        "callsign": "RYR89EQ",
        "origin_country": "Ireland",
        "time_position": 1786232854,
        "last_contact": 1786232854,
        "baro_altitude": 3718.56,
        "on_ground": false,
        "velocity": 172.47,
        "true_track": 357.78,
        "vertical_rate": -10.73,
        "geo_altitude": 4000.5,
        "squawk": "5115",
        "spi": false,
        "position_source": 0
      }
    },
    {
      "type": "Feature",
      "geometry": {
        "type": "Point",
        "coordinates": [
          9.8771,
          40.0012
        ]
      },
      "properties": {
        "icao24": "4ca263",
        "callsign": "RYR933",
        "origin_country": "Ireland",
        "time_position": 1786232855,
        "last_contact": 1786232855,
        "baro_altitude": 8153.4,
        "on_ground": false,
        "velocity": 239.05,
        "true_track": 192.3,
        "vertical_rate": -25.36,
        "geo_altitude": 8724.9,
        "squawk": "6433",
        "spi": false,
        "position_source": 0
      }
    },
    {
      "type": "Feature",
      "geometry": {
        "type": "Point",
        "coordinates": [
          6.3583,
          47.0576
        ]
      },
      "properties": {
        "icao24": "49d287",
        "callsign": "EWG09NC",
        "origin_country": "Czech Republic",
        "time_position": 1786232855,
        "last_contact": 1786232855,
        "baro_altitude": 10972.8,
        "on_ground": false,
        "velocity": 231.83,
        "true_track": 356.95,
        "vertical_rate": 0,
        "geo_altitude": 11529.06,
        "squawk": "5510",
        "spi": false,
        "position_source": 0
      }
    },
    {
      "type": "Feature",
      "geometry": {
        "type": "Point",
        "coordinates": [
          15.4283,
          47.3403
        ]
      },
      "properties": {
        "icao24": "4ca259",
        "callsign": "RYR320",
        "origin_country": "Ireland",
        "time_position": 1786232855,
        "last_contact": 1786232855,
        "baro_altitude": 8260.08,
        "on_ground": false,
        "velocity": 239.53,
        "true_track": 58.97,
        "vertical_rate": -7.8,
        "geo_altitude": 8724.9,
        "squawk": "1000",
        "spi": false,
        "position_source": 0
      }
    },
    {
      "type": "Feature",
      "geometry": {
        "type": "Point",
        "coordinates": [
          16.4546,
          44.9846
        ]
      },
      "properties": {
        "icao24": "407e69",
        "callsign": "EXS73WL",
        "origin_country": "United Kingdom",
        "time_position": 1786232855,
        "last_contact": 1786232855,
        "baro_altitude": 10972.8,
        "on_ground": false,
        "velocity": 211.03,
        "true_track": 307.37,
        "vertical_rate": 0,
        "geo_altitude": 11551.92,
        "squawk": "5347",
        "spi": false,
        "position_source": 0
      }
    },
    {
      "type": "Feature",
      "geometry": {
        "type": "Point",
        "coordinates": [
          12.6953,
          47.2144
        ]
      },
      "properties": {
        "icao24": "407e54",
        "callsign": "EXS21LK",
        "origin_country": "United Kingdom",
        "time_position": 1786232855,
        "last_contact": 1786232855,
        "baro_altitude": 10972.8,
        "on_ground": false,
        "velocity": 209.49,
        "true_track": 307.52,
        "vertical_rate": 0,
        "geo_altitude": 11559.54,
        "squawk": "2055",
        "spi": false,
        "position_source": 0
      }
    },
    {
      "type": "Feature",
      "geometry": {
        "type": "Point",
        "coordinates": [
          13.5467,
          44.4223
        ]
      },
      "properties": {
        "icao24": "406b13",
        "callsign": "TOM96B",
        "origin_country": "United Kingdom",
        "time_position": 1786232855,
        "last_contact": 1786232855,
        "baro_altitude": 13106.4,
        "on_ground": false,
        "velocity": 233.88,
        "true_track": 308.66,
        "vertical_rate": -0.33,
        "geo_altitude": 13799.82,
        "squawk": "5520",
        "spi": false,
        "position_source": 0
      }
    },
    {
      "type": "Feature",
      "geometry": {
        "type": "Point",
        "coordinates": [
          14.1631,
          44.1014
        ]
      },
      "properties": {
        "icao24": "440611",
        "callsign": "EJU68VV",
        "origin_country": "Austria",
        "time_position": 1786232854,
        "last_contact": 1786232854,
        "baro_altitude": 10972.8,
        "on_ground": false,
        "velocity": 221.78,
        "true_track": 302.4,
        "vertical_rate": 0,
        "geo_altitude": 11582.4,
        "squawk": "5523",
        "spi": false,
        "position_source": 0
      }
    },
    {
      "type": "Feature",
      "geometry": {
        "type": "Point",
        "coordinates": [
          6.6032,
          41.9284
        ]
      },
      "properties": {
        "icao24": "48c123",
        "callsign": "RYS7239",
        "origin_country": "Poland",
        "time_position": 1786232854,
        "last_contact": 1786232854,
        "baro_altitude": 11277.6,
        "on_ground": false,
        "velocity": 217.95,
        "true_track": 223.76,
        "vertical_rate": 0,
        "geo_altitude": 11925.3,
        "squawk": "1000",
        "spi": false,
        "position_source": 0
      }
    },
    {
      "type": "Feature",
      "geometry": {
        "type": "Point",
        "coordinates": [
          11.1902,
          44.7307
        ]
      },
      "properties": {
        "icao24": "3444c8",
        "callsign": "VOE9BA",
        "origin_country": "Spain",
        "time_position": 1786232855,
        "last_contact": 1786232855,
        "baro_altitude": 6050.28,
        "on_ground": false,
        "velocity": 205.26,
        "true_track": 180,
        "vertical_rate": 7.15,
        "geo_altitude": 6454.14,
        "squawk": "7434",
        "spi": false,
        "position_source": 0
      }
    },
    {
      "type": "Feature",
      "geometry": {
        "type": "Point",
        "coordinates": [
          6.6301,
          43.3651
        ]
      },
      "properties": {
        "icao24": "440452",
        "callsign": "EJU1746",
        "origin_country": "Austria",
        "time_position": 1786232855,
        "last_contact": 1786232855,
        "baro_altitude": 3192.78,
        "on_ground": false,
        "velocity": 172.59,
        "true_track": 93.08,
        "vertical_rate": -3.9,
        "geo_altitude": 3489.96,
        "squawk": "5215",
        "spi": false,
        "position_source": 0
      }
    },
    {
      "type": "Feature",
      "geometry": {
        "type": "Point",
        "coordinates": [
          12.1706,
          43.0394
        ]
      },
      "properties": {
        "icao24": "44046d",
        "callsign": "EJU82FJ",
        "origin_country": "Austria",
        "time_position": 1786232855,
        "last_contact": 1786232855,
        "baro_altitude": 10972.8,
        "on_ground": false,
        "velocity": 227.03,
        "true_track": 302.79,
        "vertical_rate": 0,
        "geo_altitude": 11612.88,
        "squawk": "6621",
        "spi": false,
        "position_source": 0
      }
    },
    {
      "type": "Feature",
      "geometry": {
        "type": "Point",
        "coordinates": [
          15.2085,
          43.6367
        ]
      },
      "properties": {
        "icao24": "06a1e6",
        "callsign": "QTR31T",
        "origin_country": "Qatar",
        "time_position": 1786232853,
        "last_contact": 1786232854,
        "baro_altitude": 10363.2,
        "on_ground": false,
        "velocity": 244.19,
        "true_track": 302.35,
        "vertical_rate": 0,
        "geo_altitude": 10942.32,
        "squawk": "2073",
        "spi": false,
        "position_source": 0
      }
    },
    {
      "type": "Feature",
      "geometry": {
        "type": "Point",
        "coordinates": [
          16.2162,
          39.1492
        ]
      },
      "properties": {
        "icao24": "344697",
        "callsign": "VLG4CA",
        "origin_country": "Spain",
        "time_position": 1786232855,
        "last_contact": 1786232855,
        "baro_altitude": 10668,
        "on_ground": false,
        "velocity": 236.38,
        "true_track": 105.4,
        "vertical_rate": 0,
        "geo_altitude": 11330.94,
        "squawk": "1263",
        "spi": false,
        "position_source": 0
      }
    },
    {
      "type": "Feature",
      "geometry": {
        "type": "Point",
        "coordinates": [
          16.7969,
          42.9898
        ]
      },
      "properties": {
        "icao24": "4402f1",
        "callsign": "EJU12HZ",
        "origin_country": "Austria",
        "time_position": 1786232855,
        "last_contact": 1786232855,
        "baro_altitude": 10972.8,
        "on_ground": false,
        "velocity": 222.36,
        "true_track": 306.15,
        "vertical_rate": -0.33,
        "geo_altitude": 11597.64,
        "squawk": "2014",
        "spi": false,
        "position_source": 0
      }
    },
    {
      "type": "Feature",
      "geometry": {
        "type": "Point",
        "coordinates": [
          7.2036,
          43.6568
        ]
      },
      "properties": {
        "icao24": "4402ae",
        "callsign": "EJU69JX",
        "origin_country": "Austria",
        "time_position": 1786232854,
        "last_contact": 1786232854,
        "baro_altitude": null,
        "on_ground": true,
        "velocity": 1.8,
        "true_track": 309.38,
        "vertical_rate": null,
        "geo_altitude": null,
        "squawk": "5533",
        "spi": false,
        "position_source": 0
      }
    },
    {
      "type": "Feature",
      "geometry": {
        "type": "Point",
        "coordinates": [
          17.0052,
          46.9079
        ]
      },
      "properties": {
        "icao24": "504e8e",
        "callsign": "FIE928",
        "origin_country": "Republic of Moldova",
        "time_position": 1786232855,
        "last_contact": 1786232855,
        "baro_altitude": 10050.78,
        "on_ground": false,
        "velocity": 255.05,
        "true_track": 106.64,
        "vertical_rate": 0,
        "geo_altitude": 10561.32,
        "squawk": "0651",
        "spi": false,
        "position_source": 0
      }
    },
    {
      "type": "Feature",
      "geometry": {
        "type": "Point",
        "coordinates": [
          17.9569,
          40.5102
        ]
      },
      "properties": {
        "icao24": "46b8b5",
        "callsign": "AEE609",
        "origin_country": "Greece",
        "time_position": 1786232854,
        "last_contact": 1786232854,
        "baro_altitude": 11879.58,
        "on_ground": false,
        "velocity": 237.87,
        "true_track": 130.61,
        "vertical_rate": 0,
        "geo_altitude": 12611.1,
        "squawk": "0557",
        "spi": false,
        "position_source": 0
      }
    },
    {
      "type": "Feature",
      "geometry": {
        "type": "Point",
        "coordinates": [
          13.6459,
          47.6112
        ]
      },
      "properties": {
        "icao24": "406a95",
        "callsign": "EZY3170",
        "origin_country": "United Kingdom",
        "time_position": 1786232854,
        "last_contact": 1786232854,
        "baro_altitude": 10965.18,
        "on_ground": false,
        "velocity": 213.54,
        "true_track": 314.51,
        "vertical_rate": 0,
        "geo_altitude": 11513.82,
        "squawk": "7210",
        "spi": false,
        "position_source": 0
      }
    },
    {
      "type": "Feature",
      "geometry": {
        "type": "Point",
        "coordinates": [
          7.9856,
          42.1618
        ]
      },
      "properties": {
        "icao24": "399549",
        "callsign": "AGH22A",
        "origin_country": "France",
        "time_position": 1786232854,
        "last_contact": 1786232854,
        "baro_altitude": 4335.78,
        "on_ground": false,
        "velocity": 162.84,
        "true_track": 119.32,
        "vertical_rate": -9.1,
        "geo_altitude": 4632.96,
        "squawk": "1000",
        "spi": false,
        "position_source": 0
      }
    },
    {
      "type": "Feature",
      "geometry": {
        "type": "Point",
        "coordinates": [
          10.5723,
          37.1137
        ]
      },
      "properties": {
        "icao24": "4952d0",
        "callsign": "TAP900",
        "origin_country": "Portugal",
        "time_position": 1786232854,
        "last_contact": 1786232854,
        "baro_altitude": 11262.36,
        "on_ground": false,
        "velocity": 231.85,
        "true_track": 83.76,
        "vertical_rate": 0,
        "geo_altitude": 11971.02,
        "squawk": "1157",
        "spi": false,
        "position_source": 0
      }
    },
    {
      "type": "Feature",
      "geometry": {
        "type": "Point",
        "coordinates": [
          18.609,
          43.4695
        ]
      },
      "properties": {
        "icao24": "40812d",
        "callsign": "EZY68ZN",
        "origin_country": "United Kingdom",
        "time_position": 1786232847,
        "last_contact": 1786232850,
        "baro_altitude": 10957.56,
        "on_ground": false,
        "velocity": 222.5,
        "true_track": 297.39,
        "vertical_rate": 1.3,
        "geo_altitude": 11582.4,
        "squawk": "2036",
        "spi": false,
        "position_source": 0
      }
    },
    {
      "type": "Feature",
      "geometry": {
        "type": "Point",
        "coordinates": [
          15.6015,
          45.0907
        ]
      },
      "properties": {
        "icao24": "408059",
        "callsign": "EXS6MN",
        "origin_country": "United Kingdom",
        "time_position": 1786232854,
        "last_contact": 1786232855,
        "baro_altitude": 10972.8,
        "on_ground": false,
        "velocity": 212.1,
        "true_track": 315.88,
        "vertical_rate": 0,
        "geo_altitude": 11551.92,
        "squawk": "1357",
        "spi": false,
        "position_source": 0
      }
    },
    {
      "type": "Feature",
      "geometry": {
        "type": "Point",
        "coordinates": [
          14.2072,
          38.4359
        ]
      },
      "properties": {
        "icao24": "02a1a5",
        "callsign": "LBT7762",
        "origin_country": "Tunisia",
        "time_position": 1786232854,
        "last_contact": 1786232854,
        "baro_altitude": 10972.8,
        "on_ground": false,
        "velocity": 238.74,
        "true_track": 43.25,
        "vertical_rate": 0,
        "geo_altitude": 11673.84,
        "squawk": "6151",
        "spi": false,
        "position_source": 0
      }
    },
    {
      "type": "Feature",
      "geometry": {
        "type": "Point",
        "coordinates": [
          10.3411,
          37.2758
        ]
      },
      "properties": {
        "icao24": "02a1b3",
        "callsign": "LBT521",
        "origin_country": "Tunisia",
        "time_position": 1786232814,
        "last_contact": 1786232814,
        "baro_altitude": 3086.1,
        "on_ground": false,
        "velocity": 168.51,
        "true_track": 167.66,
        "vertical_rate": -3.9,
        "geo_altitude": 3421.38,
        "squawk": "7623",
        "spi": false,
        "position_source": 0
      }
    },
    {
      "type": "Feature",
      "geometry": {
        "type": "Point",
        "coordinates": [
          16.751,
          39.6127
        ]
      },
      "properties": {
        "icao24": "4a08a5",
        "callsign": "HYS8682",
        "origin_country": "Romania",
        "time_position": 1786232854,
        "last_contact": 1786232855,
        "baro_altitude": 11285.22,
        "on_ground": false,
        "velocity": 251.81,
        "true_track": 52.05,
        "vertical_rate": 0,
        "geo_altitude": 12001.5,
        "squawk": "6155",
        "spi": false,
        "position_source": 0
      }
    },
    {
      "type": "Feature",
      "geometry": {
        "type": "Point",
        "coordinates": [
          15.0543,
          46.8154
        ]
      },
      "properties": {
        "icao24": "40815b",
        "callsign": "EZY43KU",
        "origin_country": "United Kingdom",
        "time_position": 1786232855,
        "last_contact": 1786232855,
        "baro_altitude": 10972.8,
        "on_ground": false,
        "velocity": 209.53,
        "true_track": 314.6,
        "vertical_rate": 0,
        "geo_altitude": 11536.68,
        "squawk": "2034",
        "spi": false,
        "position_source": 0
      }
    },
    {
      "type": "Feature",
      "geometry": {
        "type": "Point",
        "coordinates": [
          10.0002,
          42.8842
        ]
      },
      "properties": {
        "icao24": "738c0b",
        "callsign": "ICL981",
        "origin_country": "Israel",
        "time_position": 1786232855,
        "last_contact": 1786232855,
        "baro_altitude": 9144,
        "on_ground": false,
        "velocity": 255.3,
        "true_track": 290.77,
        "vertical_rate": 0,
        "geo_altitude": 9692.64,
        "squawk": "4141",
        "spi": false,
        "position_source": 0
      }
    },
    {
      "type": "Feature",
      "geometry": {
        "type": "Point",
        "coordinates": [
          8.689,
          45.1116
        ]
      },
      "properties": {
        "icao24": "440c6f",
        "callsign": "EJU32RM",
        "origin_country": "Austria",
        "time_position": 1786232854,
        "last_contact": 1786232854,
        "baro_altitude": 3017.52,
        "on_ground": false,
        "velocity": 150.39,
        "true_track": 312.37,
        "vertical_rate": -7.8,
        "geo_altitude": 3268.98,
        "squawk": "2070",
        "spi": false,
        "position_source": 0
      }
    },
    {
      "type": "Feature",
      "geometry": {
        "type": "Point",
        "coordinates": [
          17.8156,
          40.1652
        ]
      },
      "properties": {
        "icao24": "4ca9a1",
        "callsign": "NOS6589",
        "origin_country": "Ireland",
        "time_position": 1786232854,
        "last_contact": 1786232854,
        "baro_altitude": 11582.4,
        "on_ground": false,
        "velocity": 238.39,
        "true_track": 313.16,
        "vertical_rate": 0,
        "geo_altitude": 12283.44,
        "squawk": "6620",
        "spi": false,
        "position_source": 0
      }
    },
    {
      "type": "Feature",
      "geometry": {
        "type": "Point",
        "coordinates": [
          9.1889,
          44.6814
        ]
      },
      "properties": {
        "icao24": "4bab46",
        "callsign": "THY3705",
        "origin_country": "Turkey",
        "time_position": 1786232855,
        "last_contact": 1786232855,
        "baro_altitude": 10668,
        "on_ground": false,
        "velocity": 221.91,
        "true_track": 245.34,
        "vertical_rate": 0,
        "geo_altitude": 11254.74,
        "squawk": "0271",
        "spi": false,
        "position_source": 0
      }
    },
    {
      "type": "Feature",
      "geometry": {
        "type": "Point",
        "coordinates": [
          9.3002,
          40.1242
        ]
      },
      "properties": {
        "icao24": "4ca912",
        "callsign": "RYR3CF",
        "origin_country": "Ireland",
        "time_position": 1786232854,
        "last_contact": 1786232854,
        "baro_altitude": 7277.1,
        "on_ground": false,
        "velocity": 230.76,
        "true_track": 116.34,
        "vertical_rate": 8.13,
        "geo_altitude": 7749.54,
        "squawk": null,
        "spi": false,
        "position_source": 0
      }
    },
    {
      "type": "Feature",
      "geometry": {
        "type": "Point",
        "coordinates": [
          12.2605,
          42.9278
        ]
      },
      "properties": {
        "icao24": "4ca804",
        "callsign": "RYR59ET",
        "origin_country": "Ireland",
        "time_position": 1786232855,
        "last_contact": 1786232855,
        "baro_altitude": 10972.8,
        "on_ground": false,
        "velocity": 232.49,
        "true_track": 343.81,
        "vertical_rate": 0,
        "geo_altitude": 11620.5,
        "squawk": "1000",
        "spi": false,
        "position_source": 0
      }
    },
    {
      "type": "Feature",
      "geometry": {
        "type": "Point",
        "coordinates": [
          10.2106,
          44.0834
        ]
      },
      "properties": {
        "icao24": "4ca811",
        "callsign": "RYR2426",
        "origin_country": "Ireland",
        "time_position": 1786232854,
        "last_contact": 1786232854,
        "baro_altitude": 10363.2,
        "on_ground": false,
        "velocity": 245.93,
        "true_track": 51.28,
        "vertical_rate": 0,
        "geo_altitude": 10957.56,
        "squawk": "4623",
        "spi": false,
        "position_source": 0
      }
    },
    {
      "type": "Feature",
      "geometry": {
        "type": "Point",
        "coordinates": [
          14.4437,
          38.6312
        ]
      },
      "properties": {
        "icao24": "4ca812",
        "callsign": "RYR8MJ",
        "origin_country": "Ireland",
        "time_position": 1786232854,
        "last_contact": 1786232854,
        "baro_altitude": 8458.2,
        "on_ground": false,
        "velocity": 248.75,
        "true_track": 164.53,
        "vertical_rate": -19.18,
        "geo_altitude": 9014.46,
        "squawk": "7435",
        "spi": false,
        "position_source": 0
      }
    },
    {
      "type": "Feature",
      "geometry": {
        "type": "Point",
        "coordinates": [
          18.0016,
          47.5194
        ]
      },
      "properties": {
        "icao24": "4bcde7",
        "callsign": "SXS2PC",
        "origin_country": "Turkey",
        "time_position": 1786232855,
        "last_contact": 1786232855,
        "baro_altitude": 11582.4,
        "on_ground": false,
        "velocity": 215.14,
        "true_track": 306.54,
        "vertical_rate": 0,
        "geo_altitude": 12100.56,
        "squawk": "3236",
        "spi": false,
        "position_source": 0
      }
    },
    {
      "type": "Feature",
      "geometry": {
        "type": "Point",
        "coordinates": [
          18.6084,
          46.1609
        ]
      },
      "properties": {
        "icao24": "4bcded",
        "callsign": "SXS4ZH",
        "origin_country": "Turkey",
        "time_position": 1786232854,
        "last_contact": 1786232854,
        "baro_altitude": 10988.04,
        "on_ground": false,
        "velocity": 252.1,
        "true_track": 135.41,
        "vertical_rate": 1.3,
        "geo_altitude": 11529.06,
        "squawk": "7105",
        "spi": false,
        "position_source": 0
      }
    },
    {
      "type": "Feature",
      "geometry": {
        "type": "Point",
        "coordinates": [
          18.0598,
          44.6591
        ]
      },
      "properties": {
        "icao24": "486648",
        "callsign": "CND63ZG",
        "origin_country": "Kingdom of the Netherlands",
        "time_position": 1786232854,
        "last_contact": 1786232854,
        "baro_altitude": 10972.8,
        "on_ground": false,
        "velocity": 219.73,
        "true_track": 315.76,
        "vertical_rate": -0.33,
        "geo_altitude": 11544.3,
        "squawk": "5332",
        "spi": false,
        "position_source": 0
      }
    },
    {
      "type": "Feature",
      "geometry": {
        "type": "Point",
        "coordinates": [
          17.3637,
          43.8256
        ]
      },
      "properties": {
        "icao24": "486649",
        "callsign": "CND19ZY",
        "origin_country": "Kingdom of the Netherlands",
        "time_position": 1786232854,
        "last_contact": 1786232855,
        "baro_altitude": 10972.8,
        "on_ground": false,
        "velocity": 226.41,
        "true_track": 324.43,
        "vertical_rate": -0.33,
        "geo_altitude": 11574.78,
        "squawk": "2005",
        "spi": false,
        "position_source": 0
      }
    },
    {
      "type": "Feature",
      "geometry": {
        "type": "Point",
        "coordinates": [
          8.0303,
          45.1021
        ]
      },
      "properties": {
        "icao24": "4ca763",
        "callsign": "RYR151M",
        "origin_country": "Ireland",
        "time_position": 1786232855,
        "last_contact": 1786232855,
        "baro_altitude": 11590.02,
        "on_ground": false,
        "velocity": 226.59,
        "true_track": 325.73,
        "vertical_rate": 0,
        "geo_altitude": 12207.24,
        "squawk": "1214",
        "spi": false,
        "position_source": 0
      }
    },
    {
      "type": "Feature",
      "geometry": {
        "type": "Point",
        "coordinates": [
          13.7544,
          47.5204
        ]
      },
      "properties": {
        "icao24": "4bcdba",
        "callsign": "SXS2NB",
        "origin_country": "Turkey",
        "time_position": 1786232854,
        "last_contact": 1786232855,
        "baro_altitude": 11277.6,
        "on_ground": false,
        "velocity": 252.44,
        "true_track": 130.7,
        "vertical_rate": 0.33,
        "geo_altitude": 11833.86,
        "squawk": "7655",
        "spi": false,
        "position_source": 0
      }
    },
    {
      "type": "Feature",
      "geometry": {
        "type": "Point",
        "coordinates": [
          7.5317,
          43.715
        ]
      },
      "properties": {
        "icao24": "4ca737",
        "callsign": "RYR451P",
        "origin_country": "Ireland",
        "time_position": 1786232855,
        "last_contact": 1786232855,
        "baro_altitude": 10363.2,
        "on_ground": false,
        "velocity": 236.67,
        "true_track": 42.53,
        "vertical_rate": 0,
        "geo_altitude": 10949.94,
        "squawk": "1000",
        "spi": false,
        "position_source": 0
      }
    },
    {
      "type": "Feature",
      "geometry": {
        "type": "Point",
        "coordinates": [
          9.1552,
          39.6923
        ]
      },
      "properties": {
        "icao24": "02a263",
        "callsign": "TAR725",
        "origin_country": "Tunisia",
        "time_position": 1786232855,
        "last_contact": 1786232855,
        "baro_altitude": 11269.98,
        "on_ground": false,
        "velocity": 243.31,
        "true_track": 151.59,
        "vertical_rate": 0,
        "geo_altitude": 11971.02,
        "squawk": "7624",
        "spi": false,
        "position_source": 0
      }
    },
    {
      "type": "Feature",
      "geometry": {
        "type": "Point",
        "coordinates": [
          18.5443,
          47.2882
        ]
      },
      "properties": {
        "icao24": "4bccb5",
        "callsign": "SXS93K",
        "origin_country": "Turkey",
        "time_position": 1786232855,
        "last_contact": 1786232855,
        "baro_altitude": 11582.4,
        "on_ground": false,
        "velocity": 212.07,
        "true_track": 306.12,
        "vertical_rate": -0.33,
        "geo_altitude": 12108.18,
        "squawk": "5331",
        "spi": false,
        "position_source": 0
      }
    },
    {
      "type": "Feature",
      "geometry": {
        "type": "Point",
        "coordinates": [
          14.6459,
          46.332
        ]
      },
      "properties": {
        "icao24": "4bce14",
        "callsign": "SXS2GA",
        "origin_country": "Turkey",
        "time_position": 1786232854,
        "last_contact": 1786232854,
        "baro_altitude": 11277.6,
        "on_ground": false,
        "velocity": 255,
        "true_track": 135.08,
        "vertical_rate": 0,
        "geo_altitude": 11849.1,
        "squawk": "7651",
        "spi": false,
        "position_source": 0
      }
    },
    {
      "type": "Feature",
      "geometry": {
        "type": "Point",
        "coordinates": [
          8.3754,
          47.3582
        ]
      },
      "properties": {
        "icao24": "407642",
        "callsign": "TOM247",
        "origin_country": "United Kingdom",
        "time_position": 1786232855,
        "last_contact": 1786232855,
        "baro_altitude": 11582.4,
        "on_ground": false,
        "velocity": 209.17,
        "true_track": 303.77,
        "vertical_rate": 0,
        "geo_altitude": 12146.28,
        "squawk": "7513",
        "spi": false,
        "position_source": 0
      }
    },
    {
      "type": "Feature",
      "geometry": {
        "type": "Point",
        "coordinates": [
          17.9629,
          42.3968
        ]
      },
      "properties": {
        "icao24": "40768c",
        "callsign": "EZY73EF",
        "origin_country": "United Kingdom",
        "time_position": 1786232854,
        "last_contact": 1786232854,
        "baro_altitude": 10660.38,
        "on_ground": false,
        "velocity": 229.93,
        "true_track": 314.09,
        "vertical_rate": 0.65,
        "geo_altitude": 11277.6,
        "squawk": "5525",
        "spi": false,
        "position_source": 0
      }
    },
    {
      "type": "Feature",
      "geometry": {
        "type": "Point",
        "coordinates": [
          17.0111,
          42.094
        ]
      },
      "properties": {
        "icao24": "407688",
        "callsign": "EZY96WL",
        "origin_country": "United Kingdom",
        "time_position": 1786232854,
        "last_contact": 1786232854,
        "baro_altitude": 11590.02,
        "on_ground": false,
        "velocity": 229.66,
        "true_track": 313.09,
        "vertical_rate": -0.33,
        "geo_altitude": 12260.58,
        "squawk": null,
        "spi": false,
        "position_source": 0
      }
    },
    {
      "type": "Feature",
      "geometry": {
        "type": "Point",
        "coordinates": [
          17.6341,
          44.4851
        ]
      },
      "properties": {
        "icao24": "4074b2",
        "callsign": "EZY57JK",
        "origin_country": "United Kingdom",
        "time_position": 1786232854,
        "last_contact": 1786232855,
        "baro_altitude": 10972.8,
        "on_ground": false,
        "velocity": 214.21,
        "true_track": 309.35,
        "vertical_rate": 0,
        "geo_altitude": 11559.54,
        "squawk": "7736",
        "spi": false,
        "position_source": 0
      }
    },
    {
      "type": "Feature",
      "geometry": {
        "type": "Point",
        "coordinates": [
          12.3875,
          43.0367
        ]
      },
      "properties": {
        "icao24": "4cafc2",
        "callsign": "RYR3HB",
        "origin_country": "Ireland",
        "time_position": 1786232854,
        "last_contact": 1786232854,
        "baro_altitude": 10363.2,
        "on_ground": false,
        "velocity": 225.17,
        "true_track": 338.42,
        "vertical_rate": 0,
        "geo_altitude": 10957.56,
        "squawk": "5106",
        "spi": false,
        "position_source": 0
      }
    },
    {
      "type": "Feature",
      "geometry": {
        "type": "Point",
        "coordinates": [
          18.042,
          43.6201
        ]
      },
      "properties": {
        "icao24": "01024e",
        "callsign": "MSC2918",
        "origin_country": "Egypt",
        "time_position": 1786232854,
        "last_contact": 1786232854,
        "baro_altitude": 10980.42,
        "on_ground": false,
        "velocity": 228.83,
        "true_track": 315.82,
        "vertical_rate": 0.33,
        "geo_altitude": 11612.88,
        "squawk": "7737",
        "spi": false,
        "position_source": 0
      }
    },
    {
      "type": "Feature",
      "geometry": {
        "type": "Point",
        "coordinates": [
          17.938,
          47.1948
        ]
      },
      "properties": {
        "icao24": "010263",
        "callsign": "MSC2932",
        "origin_country": "Egypt",
        "time_position": 1786232854,
        "last_contact": 1786232855,
        "baro_altitude": 10965.18,
        "on_ground": false,
        "velocity": 217.73,
        "true_track": 319.12,
        "vertical_rate": 0.33,
        "geo_altitude": 11490.96,
        "squawk": "7337",
        "spi": false,
        "position_source": 0
      }
    },
    {
      "type": "Feature",
      "geometry": {
        "type": "Point",
        "coordinates": [
          15.0161,
          45.5062
        ]
      },
      "properties": {
        "icao24": "010204",
        "callsign": "MSR796",
        "origin_country": "Egypt",
        "time_position": 1786232854,
        "last_contact": 1786232854,
        "baro_altitude": 11292.84,
        "on_ground": false,
        "velocity": 262.74,
        "true_track": 133.41,
        "vertical_rate": 0,
        "geo_altitude": 11887.2,
        "squawk": "2223",
        "spi": false,
        "position_source": 0
      }
    },
    {
      "type": "Feature",
      "geometry": {
        "type": "Point",
        "coordinates": [
          6.882,
          47.7101
        ]
      },
      "properties": {
        "icao24": "40773b",
        "callsign": "TOM423",
        "origin_country": "United Kingdom",
        "time_position": 1786232854,
        "last_contact": 1786232854,
        "baro_altitude": 11277.6,
        "on_ground": false,
        "velocity": 214.19,
        "true_track": 308.47,
        "vertical_rate": -0.33,
        "geo_altitude": 11841.48,
        "squawk": "7525",
        "spi": false,
        "position_source": 0
      }
    },
    {
      "type": "Feature",
      "geometry": {
        "type": "Point",
        "coordinates": [
          11.8769,
          47.6585
        ]
      },
      "properties": {
        "icao24": "40772d",
        "callsign": "EZY12ET",
        "origin_country": "United Kingdom",
        "time_position": 1786232854,
        "last_contact": 1786232854,
        "baro_altitude": 11574.78,
        "on_ground": false,
        "velocity": 213.49,
        "true_track": 306.87,
        "vertical_rate": 0,
        "geo_altitude": 12146.28,
        "squawk": "1102",
        "spi": false,
        "position_source": 0
      }
    },
    {
      "type": "Feature",
      "geometry": {
        "type": "Point",
        "coordinates": [
          10.5706,
          46.294
        ]
      },
      "properties": {
        "icao24": "0101df",
        "callsign": "MSR996",
        "origin_country": "Egypt",
        "time_position": 1786232855,
        "last_contact": 1786232855,
        "baro_altitude": 11269.98,
        "on_ground": false,
        "velocity": 270.95,
        "true_track": 123.54,
        "vertical_rate": 0.33,
        "geo_altitude": 11879.58,
        "squawk": "1172",
        "spi": false,
        "position_source": 0
      }
    },
    {
      "type": "Feature",
      "geometry": {
        "type": "Point",
        "coordinates": [
          10.3817,
          43.6716
        ]
      },
      "properties": {
        "icao24": "4d2518",
        "callsign": "RYR5EA",
        "origin_country": "Malta",
        "time_position": 1786232838,
        "last_contact": 1786232838,
        "baro_altitude": 7.62,
        "on_ground": false,
        "velocity": 75.73,
        "true_track": 36.71,
        "vertical_rate": -4.23,
        "geo_altitude": 91.44,
        "squawk": "5147",
        "spi": false,
        "position_source": 0
      }
    },
    {
      "type": "Feature",
      "geometry": {
        "type": "Point",
        "coordinates": [
          11.9296,
          39.0428
        ]
      },
      "properties": {
        "icao24": "4caeb0",
        "callsign": "VOE1740",
        "origin_country": "Ireland",
        "time_position": 1786232855,
        "last_contact": 1786232855,
        "baro_altitude": 8328.66,
        "on_ground": false,
        "velocity": 224.72,
        "true_track": 345.55,
        "vertical_rate": 10.08,
        "geo_altitude": 8854.44,
        "squawk": "5421",
        "spi": false,
        "position_source": 0
      }
    },
    {
      "type": "Feature",
      "geometry": {
        "type": "Point",
        "coordinates": [
          8.1406,
          40.6246
        ]
      },
      "properties": {
        "icao24": "4d2535",
        "callsign": "WMT6876",
        "origin_country": "Malta",
        "time_position": 1786232855,
        "last_contact": 1786232855,
        "baro_altitude": 10972.8,
        "on_ground": false,
        "velocity": 245.34,
        "true_track": 72.17,
        "vertical_rate": 0.33,
        "geo_altitude": 11658.6,
        "squawk": "4305",
        "spi": false,
        "position_source": 0
      }
    },
    {
      "type": "Feature",
      "geometry": {
        "type": "Point",
        "coordinates": [
          7.5298,
          46.2631
        ]
      },
      "properties": {
        "icao24": "4d2406",
        "callsign": "EWG3593",
        "origin_country": "Malta",
        "time_position": 1786232855,
        "last_contact": 1786232855,
        "baro_altitude": 10972.8,
        "on_ground": false,
        "velocity": 231.41,
        "true_track": 19.89,
        "vertical_rate": -0.33,
        "geo_altitude": 11551.92,
        "squawk": "1000",
        "spi": false,
        "position_source": 0
      }
    },
    {
      "type": "Feature",
      "geometry": {
        "type": "Point",
        "coordinates": [
          18.7425,
          47.7748
        ]
      },
      "properties": {
        "icao24": "4d2433",
        "callsign": "WZZ1377",
        "origin_country": "Malta",
        "time_position": 1786232855,
        "last_contact": 1786232855,
        "baro_altitude": 2689.86,
        "on_ground": false,
        "velocity": 141.67,
        "true_track": 137.8,
        "vertical_rate": -0.33,
        "geo_altitude": 2887.98,
        "squawk": "3537",
        "spi": false,
        "position_source": 0
      }
    },
    {
      "type": "Feature",
      "geometry": {
        "type": "Point",
        "coordinates": [
          12.242,
          43.1125
        ]
      },
      "properties": {
        "icao24": "4d2443",
        "callsign": "AXY607W",
        "origin_country": "Malta",
        "time_position": 1786232855,
        "last_contact": 1786232855,
        "baro_altitude": 11887.2,
        "on_ground": false,
        "velocity": 229.58,
        "true_track": 213.3,
        "vertical_rate": 0,
        "geo_altitude": 12595.86,
        "squawk": "7102",
        "spi": false,
        "position_source": 0
      }
    },
    {
      "type": "Feature",
      "geometry": {
        "type": "Point",
        "coordinates": [
          18.8766,
          41.7599
        ]
      },
      "properties": {
        "icao24": "4d2424",
        "callsign": "WMT5655",
        "origin_country": "Malta",
        "time_position": 1786232854,
        "last_contact": 1786232854,
        "baro_altitude": 5311.14,
        "on_ground": false,
        "velocity": 219.86,
        "true_track": 137.09,
        "vertical_rate": -8.78,
        "geo_altitude": 5631.18,
        "squawk": "1270",
        "spi": false,
        "position_source": 0
      }
    },
    {
      "type": "Feature",
      "geometry": {
        "type": "Point",
        "coordinates": [
          17.4183,
          45.7762
        ]
      },
      "properties": {
        "icao24": "4cadb8",
        "callsign": "RYR94WE",
        "origin_country": "Ireland",
        "time_position": 1786232855,
        "last_contact": 1786232855,
        "baro_altitude": 11582.4,
        "on_ground": false,
        "velocity": 210.88,
        "true_track": 294.5,
        "vertical_rate": 0,
        "geo_altitude": 12169.14,
        "squawk": "5616",
        "spi": false,
        "position_source": 0
      }
    },
    {
      "type": "Feature",
      "geometry": {
        "type": "Point",
        "coordinates": [
          18.9518,
          44.6364
        ]
      },
      "properties": {
        "icao24": "4d2490",
        "callsign": "WMT726",
        "origin_country": "Malta",
        "time_position": 1786232854,
        "last_contact": 1786232855,
        "baro_altitude": 11285.22,
        "on_ground": false,
        "velocity": 239.72,
        "true_track": 166.98,
        "vertical_rate": 0,
        "geo_altitude": 11887.2,
        "squawk": "6031",
        "spi": false,
        "position_source": 0
      }
    },
    {
      "type": "Feature",
      "geometry": {
        "type": "Point",
        "coordinates": [
          12.2608,
          41.8011
        ]
      },
      "properties": {
        "icao24": "4cae15",
        "callsign": "ITY083",
        "origin_country": "Ireland",
        "time_position": 1786232854,
        "last_contact": 1786232854,
        "baro_altitude": null,
        "on_ground": true,
        "velocity": 0.06,
        "true_track": 205.31,
        "vertical_rate": null,
        "geo_altitude": null,
        "squawk": null,
        "spi": false,
        "position_source": 0
      }
    },
    {
      "type": "Feature",
      "geometry": {
        "type": "Point",
        "coordinates": [
          12.2736,
          47.0398
        ]
      },
      "properties": {
        "icao24": "407512",
        "callsign": "TOM19E",
        "origin_country": "United Kingdom",
        "time_position": 1786232854,
        "last_contact": 1786232854,
        "baro_altitude": 12184.38,
        "on_ground": false,
        "velocity": 224.87,
        "true_track": 303.62,
        "vertical_rate": -0.33,
        "geo_altitude": 12755.88,
        "squawk": "7045",
        "spi": false,
        "position_source": 0
      }
    },
    {
      "type": "Feature",
      "geometry": {
        "type": "Point",
        "coordinates": [
          12.2333,
          41.7989
        ]
      },
      "properties": {
        "icao24": "4cae1e",
        "callsign": "ITY8734",
        "origin_country": "Ireland",
        "time_position": 1786232854,
        "last_contact": 1786232854,
        "baro_altitude": null,
        "on_ground": true,
        "velocity": 27.27,
        "true_track": 160.31,
        "vertical_rate": null,
        "geo_altitude": null,
        "squawk": null,
        "spi": false,
        "position_source": 0
      }
    },
    {
      "type": "Feature",
      "geometry": {
        "type": "Point",
        "coordinates": [
          10.5226,
          45.7479
        ]
      },
      "properties": {
        "icao24": "4d22af",
        "callsign": "RYR4BJ",
        "origin_country": "Malta",
        "time_position": 1786232855,
        "last_contact": 1786232855,
        "baro_altitude": 7094.22,
        "on_ground": false,
        "velocity": 216.73,
        "true_track": 62.89,
        "vertical_rate": 10.73,
        "geo_altitude": 7543.8,
        "squawk": "1000",
        "spi": false,
        "position_source": 0
      }
    },
    {
      "type": "Feature",
      "geometry": {
        "type": "Point",
        "coordinates": [
          11.9232,
          39.9422
        ]
      },
      "properties": {
        "icao24": "4cae68",
        "callsign": "RYR93WG",
        "origin_country": "Ireland",
        "time_position": 1786232855,
        "last_contact": 1786232855,
        "baro_altitude": 11277.6,
        "on_ground": false,
        "velocity": 244.33,
        "true_track": 153.76,
        "vertical_rate": 0,
        "geo_altitude": 11971.02,
        "squawk": "0545",
        "spi": false,
        "position_source": 0
      }
    },
    {
      "type": "Feature",
      "geometry": {
        "type": "Point",
        "coordinates": [
          15.1645,
          45.1826
        ]
      },
      "properties": {
        "icao24": "4d22ba",
        "callsign": "RYR7GC",
        "origin_country": "Malta",
        "time_position": 1786232854,
        "last_contact": 1786232854,
        "baro_altitude": 3931.92,
        "on_ground": false,
        "velocity": 179.06,
        "true_track": 49.08,
        "vertical_rate": -13.66,
        "geo_altitude": 4213.86,
        "squawk": "1000",
        "spi": false,
        "position_source": 0
      }
    },
    {
      "type": "Feature",
      "geometry": {
        "type": "Point",
        "coordinates": [
          12.6793,
          38.4392
        ]
      },
      "properties": {
        "icao24": "34838b",
        "callsign": "VOE1541",
        "origin_country": "Spain",
        "time_position": 1786232854,
        "last_contact": 1786232854,
        "baro_altitude": 2301.24,
        "on_ground": false,
        "velocity": 191.75,
        "true_track": 150.06,
        "vertical_rate": -9.75,
        "geo_altitude": 2545.08,
        "squawk": null,
        "spi": false,
        "position_source": 0
      }
    },
    {
      "type": "Feature",
      "geometry": {
        "type": "Point",
        "coordinates": [
          12.1316,
          43.0384
        ]
      },
      "properties": {
        "icao24": "4d2304",
        "callsign": "RYR13LL",
        "origin_country": "Malta",
        "time_position": 1786232855,
        "last_contact": 1786232855,
        "baro_altitude": 11582.4,
        "on_ground": false,
        "velocity": 226.5,
        "true_track": 322.01,
        "vertical_rate": -0.33,
        "geo_altitude": 12252.96,
        "squawk": "1000",
        "spi": false,
        "position_source": 0
      }
    },
    {
      "type": "Feature",
      "geometry": {
        "type": "Point",
        "coordinates": [
          7.16,
          43.4984
        ]
      },
      "properties": {
        "icao24": "3985e4",
        "callsign": "EUP421",
        "origin_country": "France",
        "time_position": 1786232855,
        "last_contact": 1786232855,
        "baro_altitude": 891.54,
        "on_ground": false,
        "velocity": 98.56,
        "true_track": 355.51,
        "vertical_rate": 0,
        "geo_altitude": 1021.08,
        "squawk": "4315",
        "spi": false,
        "position_source": 0
      }
    },
    {
      "type": "Feature",
      "geometry": {
        "type": "Point",
        "coordinates": [
          9.7458,
          45.6606
        ]
      },
      "properties": {
        "icao24": "4cad2a",
        "callsign": "RYR41CG",
        "origin_country": "Ireland",
        "time_position": 1786232757,
        "last_contact": 1786232760,
        "baro_altitude": 281.94,
        "on_ground": false,
        "velocity": 75.49,
        "true_track": 284.6,
        "vertical_rate": -3.9,
        "geo_altitude": 388.62,
        "squawk": "6370",
        "spi": false,
        "position_source": 0
      }
    },
    {
      "type": "Feature",
      "geometry": {
        "type": "Point",
        "coordinates": [
          14.4952,
          35.848
        ]
      },
      "properties": {
        "icao24": "4cad3a",
        "callsign": "RYR28EF",
        "origin_country": "Ireland",
        "time_position": 1786232854,
        "last_contact": 1786232854,
        "baro_altitude": null,
        "on_ground": true,
        "velocity": 2.57,
        "true_track": 0,
        "vertical_rate": null,
        "geo_altitude": null,
        "squawk": "7616",
        "spi": false,
        "position_source": 0
      }
    },
    {
      "type": "Feature",
      "geometry": {
        "type": "Point",
        "coordinates": [
          8.3826,
          44.7335
        ]
      },
      "properties": {
        "icao24": "34714e",
        "callsign": "VOE2827",
        "origin_country": "Spain",
        "time_position": 1786232855,
        "last_contact": 1786232855,
        "baro_altitude": 11102.34,
        "on_ground": false,
        "velocity": 217.46,
        "true_track": 297.78,
        "vertical_rate": -4.55,
        "geo_altitude": 11719.56,
        "squawk": "7732",
        "spi": false,
        "position_source": 0
      }
    },
    {
      "type": "Feature",
      "geometry": {
        "type": "Point",
        "coordinates": [
          12.1718,
          41.9453
        ]
      },
      "properties": {
        "icao24": "4d2247",
        "callsign": "RYR28BZ",
        "origin_country": "Malta",
        "time_position": 1786232854,
        "last_contact": 1786232854,
        "baro_altitude": 746.76,
        "on_ground": false,
        "velocity": 97.47,
        "true_track": 162.81,
        "vertical_rate": -4.55,
        "geo_altitude": 868.68,
        "squawk": "1000",
        "spi": false,
        "position_source": 0
      }
    },
    {
      "type": "Feature",
      "geometry": {
        "type": "Point",
        "coordinates": [
          9.8342,
          41.136
        ]
      },
      "properties": {
        "icao24": "4d222d",
        "callsign": "RYR8AH",
        "origin_country": "Malta",
        "time_position": 1786232611,
        "last_contact": 1786232611,
        "baro_altitude": 1851.66,
        "on_ground": false,
        "velocity": 128.24,
        "true_track": 204.41,
        "vertical_rate": -2.28,
        "geo_altitude": 2042.16,
        "squawk": "7421",
        "spi": false,
        "position_source": 0
      }
    },
    {
      "type": "Feature",
      "geometry": {
        "type": "Point",
        "coordinates": [
          10.6877,
          45.2011
        ]
      },
      "properties": {
        "icao24": "4d2218",
        "callsign": "RYR142H",
        "origin_country": "Malta",
        "time_position": 1786232854,
        "last_contact": 1786232854,
        "baro_altitude": 1295.4,
        "on_ground": false,
        "velocity": 137.94,
        "true_track": 344.2,
        "vertical_rate": -2.28,
        "geo_altitude": 1447.8,
        "squawk": "5444",
        "spi": false,
        "position_source": 0
      }
    },
    {
      "type": "Feature",
      "geometry": {
        "type": "Point",
        "coordinates": [
          16.3434,
          45.2318
        ]
      },
      "properties": {
        "icao24": "406016",
        "callsign": "EZY78NM",
        "origin_country": "United Kingdom",
        "time_position": 1786232854,
        "last_contact": 1786232854,
        "baro_altitude": 10370.82,
        "on_ground": false,
        "velocity": 220.7,
        "true_track": 308.66,
        "vertical_rate": -0.33,
        "geo_altitude": 10934.7,
        "squawk": "5304",
        "spi": false,
        "position_source": 0
      }
    },
    {
      "type": "Feature",
      "geometry": {
        "type": "Point",
        "coordinates": [
          10.4339,
          46.7143
        ]
      },
      "properties": {
        "icao24": "406012",
        "callsign": "EZY95YX",
        "origin_country": "United Kingdom",
        "time_position": 1786232854,
        "last_contact": 1786232854,
        "baro_altitude": 10972.8,
        "on_ground": false,
        "velocity": 214.59,
        "true_track": 303.46,
        "vertical_rate": 0,
        "geo_altitude": 11544.3,
        "squawk": "2742",
        "spi": false,
        "position_source": 0
      }
    },
    {
      "type": "Feature",
      "geometry": {
        "type": "Point",
        "coordinates": [
          10.4691,
          44.0294
        ]
      },
      "properties": {
        "icao24": "4d2287",
        "callsign": "RYR87RR",
        "origin_country": "Malta",
        "time_position": 1786232854,
        "last_contact": 1786232854,
        "baro_altitude": 9144,
        "on_ground": false,
        "velocity": 241.62,
        "true_track": 6.11,
        "vertical_rate": -0.33,
        "geo_altitude": 9692.64,
        "squawk": "5401",
        "spi": false,
        "position_source": 0
      }
    },
    {
      "type": "Feature",
      "geometry": {
        "type": "Point",
        "coordinates": [
          11.3053,
          41.046
        ]
      },
      "properties": {
        "icao24": "4cac1e",
        "callsign": "RYR70GE",
        "origin_country": "Ireland",
        "time_position": 1786232855,
        "last_contact": 1786232855,
        "baro_altitude": 10972.8,
        "on_ground": false,
        "velocity": 233.22,
        "true_track": 330.1,
        "vertical_rate": 0,
        "geo_altitude": 11628.12,
        "squawk": null,
        "spi": false,
        "position_source": 0
      }
    },
    {
      "type": "Feature",
      "geometry": {
        "type": "Point",
        "coordinates": [
          15.1883,
          42.1402
        ]
      },
      "properties": {
        "icao24": "4cac85",
        "callsign": "RYR765L",
        "origin_country": "Ireland",
        "time_position": 1786232854,
        "last_contact": 1786232855,
        "baro_altitude": 11231.88,
        "on_ground": false,
        "velocity": 232.45,
        "true_track": 309.43,
        "vertical_rate": 4.88,
        "geo_altitude": 11887.2,
        "squawk": null,
        "spi": false,
        "position_source": 0
      }
    },
    {
      "type": "Feature",
      "geometry": {
        "type": "Point",
        "coordinates": [
          17.7736,
          38.4712
        ]
      },
      "properties": {
        "icao24": "04c11a",
        "callsign": "KQA117",
        "origin_country": "Kenya",
        "time_position": 1786232855,
        "last_contact": 1786232855,
        "baro_altitude": 11887.2,
        "on_ground": false,
        "velocity": 249.98,
        "true_track": 146.67,
        "vertical_rate": 0,
        "geo_altitude": 12633.96,
        "squawk": "3153",
        "spi": false,
        "position_source": 0
      }
    },
    {
      "type": "Feature",
      "geometry": {
        "type": "Point",
        "coordinates": [
          12.9376,
          47.0817
        ]
      },
      "properties": {
        "icao24": "408352",
        "callsign": "EXS1QR",
        "origin_country": "United Kingdom",
        "time_position": 1786232855,
        "last_contact": 1786232855,
        "baro_altitude": 10972.8,
        "on_ground": false,
        "velocity": 209.09,
        "true_track": 307.6,
        "vertical_rate": 0,
        "geo_altitude": 11536.68,
        "squawk": "5327",
        "spi": false,
        "position_source": 0
      }
    },
    {
      "type": "Feature",
      "geometry": {
        "type": "Point",
        "coordinates": [
          15.3847,
          44.3357
        ]
      },
      "properties": {
        "icao24": "40833c",
        "callsign": "WUK7PY",
        "origin_country": "United Kingdom",
        "time_position": 1786232854,
        "last_contact": 1786232854,
        "baro_altitude": 10972.8,
        "on_ground": false,
        "velocity": 217.31,
        "true_track": 303.31,
        "vertical_rate": 0,
        "geo_altitude": 11582.4,
        "squawk": "5350",
        "spi": false,
        "position_source": 0
      }
    },
    {
      "type": "Feature",
      "geometry": {
        "type": "Point",
        "coordinates": [
          17.1935,
          44.7338
        ]
      },
      "properties": {
        "icao24": "408347",
        "callsign": "EXS65BM",
        "origin_country": "United Kingdom",
        "time_position": 1786232855,
        "last_contact": 1786232855,
        "baro_altitude": 10980.42,
        "on_ground": false,
        "velocity": 220.87,
        "true_track": 309.14,
        "vertical_rate": 0,
        "geo_altitude": 11582.4,
        "squawk": "5503",
        "spi": false,
        "position_source": 0
      }
    },
    {
      "type": "Feature",
      "geometry": {
        "type": "Point",
        "coordinates": [
          11.2883,
          46.3315
        ]
      },
      "properties": {
        "icao24": "408386",
        "callsign": "EZY18WJ",
        "origin_country": "United Kingdom",
        "time_position": 1786232855,
        "last_contact": 1786232855,
        "baro_altitude": 10370.82,
        "on_ground": false,
        "velocity": 213.45,
        "true_track": 304,
        "vertical_rate": 0,
        "geo_altitude": 10934.7,
        "squawk": "0250",
        "spi": false,
        "position_source": 0
      }
    },
    {
      "type": "Feature",
      "geometry": {
        "type": "Point",
        "coordinates": [
          17.4166,
          44.1806
        ]
      },
      "properties": {
        "icao24": "40702e",
        "callsign": "EXS2HJ",
        "origin_country": "United Kingdom",
        "time_position": 1786232854,
        "last_contact": 1786232854,
        "baro_altitude": 10972.8,
        "on_ground": false,
        "velocity": 219.35,
        "true_track": 314.9,
        "vertical_rate": 0,
        "geo_altitude": 11567.16,
        "squawk": "0543",
        "spi": false,
        "position_source": 0
      }
    },
    {
      "type": "Feature",
      "geometry": {
        "type": "Point",
        "coordinates": [
          17.2671,
          45.6232
        ]
      },
      "properties": {
        "icao24": "710121",
        "callsign": "SVA022",
        "origin_country": "Saudi Arabia",
        "time_position": 1786232855,
        "last_contact": 1786232855,
        "baro_altitude": 10668,
        "on_ground": false,
        "velocity": 277.01,
        "true_track": 115.99,
        "vertical_rate": 0,
        "geo_altitude": 11224.26,
        "squawk": "2244",
        "spi": false,
        "position_source": 0
      }
    },
    {
      "type": "Feature",
      "geometry": {
        "type": "Point",
        "coordinates": [
          18.8476,
          43.9435
        ]
      },
      "properties": {
        "icao24": "4081a9",
        "callsign": "EXS94VU",
        "origin_country": "United Kingdom",
        "time_position": 1786232855,
        "last_contact": 1786232855,
        "baro_altitude": 10965.18,
        "on_ground": false,
        "velocity": 225.39,
        "true_track": 312.5,
        "vertical_rate": 0.33,
        "geo_altitude": 11574.78,
        "squawk": "5320",
        "spi": false,
        "position_source": 0
      }
    },
    {
      "type": "Feature",
      "geometry": {
        "type": "Point",
        "coordinates": [
          8.7192,
          45.6277
        ]
      },
      "properties": {
        "icao24": "4d2090",
        "callsign": "WMT42LP",
        "origin_country": "Malta",
        "time_position": 1786232812,
        "last_contact": 1786232820,
        "baro_altitude": null,
        "on_ground": true,
        "velocity": 0,
        "true_track": 78.75,
        "vertical_rate": null,
        "geo_altitude": null,
        "squawk": "2643",
        "spi": false,
        "position_source": 0
      }
    },
    {
      "type": "Feature",
      "geometry": {
        "type": "Point",
        "coordinates": [
          16.6726,
          44.2899
        ]
      },
      "properties": {
        "icao24": "4d203d",
        "callsign": "CHZ312",
        "origin_country": "Malta",
        "time_position": 1786232854,
        "last_contact": 1786232854,
        "baro_altitude": 10050.78,
        "on_ground": false,
        "velocity": 258.65,
        "true_track": 135.56,
        "vertical_rate": 0.65,
        "geo_altitude": 10568.94,
        "squawk": "0667",
        "spi": false,
        "position_source": 0
      }
    },
    {
      "type": "Feature",
      "geometry": {
        "type": "Point",
        "coordinates": [
          12.9509,
          40.9188
        ]
      },
      "properties": {
        "icao24": "4d2029",
        "callsign": "SWU2306",
        "origin_country": "Malta",
        "time_position": 1786232855,
        "last_contact": 1786232855,
        "baro_altitude": 6096,
        "on_ground": false,
        "velocity": 179.51,
        "true_track": 304.37,
        "vertical_rate": 1.63,
        "geo_altitude": 6522.72,
        "squawk": null,
        "spi": false,
        "position_source": 0
      }
    }
  ]
}