{
  "type": "FeatureCollection",
  "source": "opensky",
  "dataset": "aircraft_italy",
  "generated_at": "2026-08-07T00:18:01.405762+00:00",
  "opensky_time": 1786061880,
  "count": 111,
  "features": [
    {
      "type": "Feature",
      "geometry": {
        "type": "Point",
        "coordinates": [
          7.2126,
          43.6613
        ]
      },
      "properties": {
        "icao24": "500490",
        "callsign": "T7ARES2",
        "origin_country": "San Marino",
        "time_position": 1786061876,
        "last_contact": 1786061876,
        "baro_altitude": null,
        "on_ground": true,
        "velocity": 0,
        "true_track": 135,
        "vertical_rate": null,
        "geo_altitude": null,
        "squawk": "1000",
        "spi": false,
        "position_source": 0
      }
    },
    {
      "type": "Feature",
      "geometry": {
        "type": "Point",
        "coordinates": [
          15.2314,
          40.7148
        ]
      },
      "properties": {
        "icao24": "471f6f",
        "callsign": "WMT6876",
        "origin_country": "Hungary",
        "time_position": 1786061879,
        "last_contact": 1786061879,
        "baro_altitude": 11285.22,
        "on_ground": false,
        "velocity": 240.83,
        "true_track": 91.35,
        "vertical_rate": 0,
        "geo_altitude": 11932.92,
        "squawk": "1242",
        "spi": false,
        "position_source": 0
      }
    },
    {
      "type": "Feature",
      "geometry": {
        "type": "Point",
        "coordinates": [
          15.1031,
          44.5328
        ]
      },
      "properties": {
        "icao24": "471f71",
        "callsign": "WMT2S",
        "origin_country": "Hungary",
        "time_position": 1786061879,
        "last_contact": 1786061880,
        "baro_altitude": 10980.42,
        "on_ground": false,
        "velocity": 249.27,
        "true_track": 87.28,
        "vertical_rate": 0,
        "geo_altitude": 11582.4,
        "squawk": "0472",
        "spi": false,
        "position_source": 0
      }
    },
    {
      "type": "Feature",
      "geometry": {
        "type": "Point",
        "coordinates": [
          18.3253,
          41.052
        ]
      },
      "properties": {
        "icao24": "471f35",
        "callsign": "WZZ2375",
        "origin_country": "Hungary",
        "time_position": 1786061879,
        "last_contact": 1786061879,
        "baro_altitude": 10668,
        "on_ground": false,
        "velocity": 246.44,
        "true_track": 89.16,
        "vertical_rate": -0.33,
        "geo_altitude": 11254.74,
        "squawk": "1263",
        "spi": false,
        "position_source": 0
      }
    },
    {
      "type": "Feature",
      "geometry": {
        "type": "Point",
        "coordinates": [
          8.9196,
          45.1831
        ]
      },
      "properties": {
        "icao24": "471f06",
        "callsign": "WMT3MA",
        "origin_country": "Hungary",
        "time_position": 1786061879,
        "last_contact": 1786061879,
        "baro_altitude": 2377.44,
        "on_ground": false,
        "velocity": 167.41,
        "true_track": 335.88,
        "vertical_rate": -7.8,
        "geo_altitude": 2567.94,
        "squawk": "5145",
        "spi": false,
        "position_source": 0
      }
    },
    {
      "type": "Feature",
      "geometry": {
        "type": "Point",
        "coordinates": [
          13.1803,
          45.9596
        ]
      },
      "properties": {
        "icao24": "505ceb",
        "callsign": "TOM511",
        "origin_country": "Slovakia",
        "time_position": 1786061879,
        "last_contact": 1786061879,
        "baro_altitude": 10972.8,
        "on_ground": false,
        "velocity": 214.13,
        "true_track": 293.05,
        "vertical_rate": 0.33,
        "geo_altitude": 11536.68,
        "squawk": "5361",
        "spi": false,
        "position_source": 0
      }
    },
    {
      "type": "Feature",
      "geometry": {
        "type": "Point",
        "coordinates": [
          17.6718,
          42.8438
        ]
      },
      "properties": {
        "icao24": "407b8b",
        "callsign": "WUK7402",
        "origin_country": "United Kingdom",
        "time_position": 1786061879,
        "last_contact": 1786061879,
        "baro_altitude": 11277.6,
        "on_ground": false,
        "velocity": 243.17,
        "true_track": 122.65,
        "vertical_rate": 0,
        "geo_altitude": 11902.44,
        "squawk": "0517",
        "spi": false,
        "position_source": 0
      }
    },
    {
      "type": "Feature",
      "geometry": {
        "type": "Point",
        "coordinates": [
          18.4294,
          40.1342
        ]
      },
      "properties": {
        "icao24": "471fac",
        "callsign": "WMT9059",
        "origin_country": "Hungary",
        "time_position": 1786061879,
        "last_contact": 1786061879,
        "baro_altitude": 10363.2,
        "on_ground": false,
        "velocity": 231.94,
        "true_track": 290.24,
        "vertical_rate": 0,
        "geo_altitude": 10942.32,
        "squawk": "2053",
        "spi": false,
        "position_source": 0
      }
    },
    {
      "type": "Feature",
      "geometry": {
        "type": "Point",
        "coordinates": [
          13.5568,
          39.6416
        ]
      },
      "properties": {
        "icao24": "73806e",
        "callsign": "ELY398",
        "origin_country": "Israel",
        "time_position": 1786061879,
        "last_contact": 1786061879,
        "baro_altitude": 10363.2,
        "on_ground": false,
        "velocity": 243.58,
        "true_track": 103.19,
        "vertical_rate": 0,
        "geo_altitude": 10965.18,
        "squawk": "4312",
        "spi": false,
        "position_source": 0
      }
    },
    {
      "type": "Feature",
      "geometry": {
        "type": "Point",
        "coordinates": [
          14.5398,
          44.4177
        ]
      },
      "properties": {
        "icao24": "73806c",
        "callsign": "ELY290",
        "origin_country": "Israel",
        "time_position": 1786061879,
        "last_contact": 1786061879,
        "baro_altitude": 10126.98,
        "on_ground": false,
        "velocity": 248.11,
        "true_track": 128.01,
        "vertical_rate": 6.18,
        "geo_altitude": 10675.62,
        "squawk": "0233",
        "spi": false,
        "position_source": 0
      }
    },
    {
      "type": "Feature",
      "geometry": {
        "type": "Point",
        "coordinates": [
          11.7335,
          40.0671
        ]
      },
      "properties": {
        "icao24": "73806f",
        "callsign": "ELY376",
        "origin_country": "Israel",
        "time_position": 1786061878,
        "last_contact": 1786061879,
        "baro_altitude": 10972.8,
        "on_ground": false,
        "velocity": 240.22,
        "true_track": 102.99,
        "vertical_rate": -0.33,
        "geo_altitude": 11620.5,
        "squawk": "1410",
        "spi": false,
        "position_source": 0
      }
    },
    {
      "type": "Feature",
      "geometry": {
        "type": "Point",
        "coordinates": [
          18.2679,
          38.694
        ]
      },
      "properties": {
        "icao24": "738069",
        "callsign": "ELY392",
        "origin_country": "Israel",
        "time_position": 1786061879,
        "last_contact": 1786061879,
        "baro_altitude": 11277.6,
        "on_ground": false,
        "velocity": 252.58,
        "true_track": 106.81,
        "vertical_rate": 0,
        "geo_altitude": 11963.4,
        "squawk": "1213",
        "spi": false,
        "position_source": 0
      }
    },
    {
      "type": "Feature",
      "geometry": {
        "type": "Point",
        "coordinates": [
          15.4986,
          43.6315
        ]
      },
      "properties": {
        "icao24": "80189d",
        "callsign": "AIC188",
        "origin_country": "India",
        "time_position": 1786061879,
        "last_contact": 1786061879,
        "baro_altitude": 11269.98,
        "on_ground": false,
        "velocity": 264.59,
        "true_track": 124.86,
        "vertical_rate": 0.33,
        "geo_altitude": 11910.06,
        "squawk": "2251",
        "spi": false,
        "position_source": 0
      }
    },
    {
      "type": "Feature",
      "geometry": {
        "type": "Point",
        "coordinates": [
          8.7164,
          45.6295
        ]
      },
      "properties": {
        "icao24": "471d6a",
        "callsign": "WMT952",
        "origin_country": "Hungary",
        "time_position": 1786061878,
        "last_contact": 1786061878,
        "baro_altitude": null,
        "on_ground": true,
        "velocity": 7.2,
        "true_track": 258.75,
        "vertical_rate": null,
        "geo_altitude": null,
        "squawk": "6003",
        "spi": false,
        "position_source": 0
      }
    },
    {
      "type": "Feature",
      "geometry": {
        "type": "Point",
        "coordinates": [
          14.5692,
          45.8151
        ]
      },
      "properties": {
        "icao24": "471d5b",
        "callsign": "WZZ2AV",
        "origin_country": "Hungary",
        "time_position": 1786061879,
        "last_contact": 1786061879,
        "baro_altitude": 10645.14,
        "on_ground": false,
        "velocity": 244.48,
        "true_track": 67.48,
        "vertical_rate": 0,
        "geo_altitude": 11239.5,
        "squawk": "1000",
        "spi": false,
        "position_source": 0
      }
    },
    {
      "type": "Feature",
      "geometry": {
        "type": "Point",
        "coordinates": [
          15.1837,
          44.6958
        ]
      },
      "properties": {
        "icao24": "738101",
        "callsign": "ELY121",
        "origin_country": "Israel",
        "time_position": 1786061879,
        "last_contact": 1786061879,
        "baro_altitude": 10965.18,
        "on_ground": false,
        "velocity": 244.69,
        "true_track": 294.73,
        "vertical_rate": 0,
        "geo_altitude": 11574.78,
        "squawk": "5604",
        "spi": false,
        "position_source": 0
      }
    },
    {
      "type": "Feature",
      "geometry": {
        "type": "Point",
        "coordinates": [
          17.3883,
          38.8513
        ]
      },
      "properties": {
        "icao24": "4a3121",
        "callsign": "AIZ0264",
        "origin_country": "Romania",
        "time_position": 1786061879,
        "last_contact": 1786061879,
        "baro_altitude": 10675.62,
        "on_ground": false,
        "velocity": 250.67,
        "true_track": 104.38,
        "vertical_rate": 0,
        "geo_altitude": 11315.7,
        "squawk": "1276",
        "spi": false,
        "position_source": 0
      }
    },
    {
      "type": "Feature",
      "geometry": {
        "type": "Point",
        "coordinates": [
          12.9519,
          47.2552
        ]
      },
      "properties": {
        "icao24": "45213d",
        "callsign": "MSC2967",
        "origin_country": "Bulgaria",
        "time_position": 1786061879,
        "last_contact": 1786061879,
        "baro_altitude": 10591.8,
        "on_ground": false,
        "velocity": 228.82,
        "true_track": 141.48,
        "vertical_rate": 2.93,
        "geo_altitude": 11140.44,
        "squawk": "1337",
        "spi": false,
        "position_source": 0
      }
    },
    {
      "type": "Feature",
      "geometry": {
        "type": "Point",
        "coordinates": [
          8.9673,
          44.8725
        ]
      },
      "properties": {
        "icao24": "440198",
        "callsign": "EJU3500",
        "origin_country": "Austria",
        "time_position": 1786061879,
        "last_contact": 1786061879,
        "baro_altitude": 3672.84,
        "on_ground": false,
        "velocity": 187.94,
        "true_track": 347.03,
        "vertical_rate": -12.68,
        "geo_altitude": 3939.54,
        "squawk": "1000",
        "spi": false,
        "position_source": 0
      }
    },
    {
      "type": "Feature",
      "geometry": {
        "type": "Point",
        "coordinates": [
          17.5025,
          47.5875
        ]
      },
      "properties": {
        "icao24": "4bb263",
        "callsign": "THY7QN",
        "origin_country": "Turkey",
        "time_position": 1786061879,
        "last_contact": 1786061879,
        "baro_altitude": 10668,
        "on_ground": false,
        "velocity": 236.9,
        "true_track": 124.83,
        "vertical_rate": 0,
        "geo_altitude": 11216.64,
        "squawk": "1156",
        "spi": false,
        "position_source": 0
      }
    },
    {
      "type": "Feature",
      "geometry": {
        "type": "Point",
        "coordinates": [
          7.4994,
          46.8929
        ]
      },
      "properties": {
        "icao24": "0200ae",
        "callsign": "RAM220M",
        "origin_country": "Morocco",
        "time_position": 1786061879,
        "last_contact": 1786061879,
        "baro_altitude": 10972.8,
        "on_ground": false,
        "velocity": 248.19,
        "true_track": 35.04,
        "vertical_rate": 0,
        "geo_altitude": 11498.58,
        "squawk": "2307",
        "spi": false,
        "position_source": 0
      }
    },
    {
      "type": "Feature",
      "geometry": {
        "type": "Point",
        "coordinates": [
          17.7421,
          47.1609
        ]
      },
      "properties": {
        "icao24": "4bb186",
        "callsign": "THY4JD",
        "origin_country": "Turkey",
        "time_position": 1786061879,
        "last_contact": 1786061879,
        "baro_altitude": 10355.58,
        "on_ground": false,
        "velocity": 251.32,
        "true_track": 298.09,
        "vertical_rate": -0.33,
        "geo_altitude": 10904.22,
        "squawk": "5313",
        "spi": false,
        "position_source": 0
      }
    },
    {
      "type": "Feature",
      "geometry": {
        "type": "Point",
        "coordinates": [
          11.1197,
          47.183
        ]
      },
      "properties": {
        "icao24": "4067f0",
        "callsign": "TOM2PJ",
        "origin_country": "United Kingdom",
        "time_position": 1786061879,
        "last_contact": 1786061879,
        "baro_altitude": 11582.4,
        "on_ground": false,
        "velocity": 217.67,
        "true_track": 300.38,
        "vertical_rate": 0.33,
        "geo_altitude": 12146.28,
        "squawk": "3103",
        "spi": false,
        "position_source": 0
      }
    },
    {
      "type": "Feature",
      "geometry": {
        "type": "Point",
        "coordinates": [
          11.2704,
          47.7364
        ]
      },
      "properties": {
        "icao24": "3e0fe7",
        "callsign": "CHX87",
        "origin_country": "Germany",
        "time_position": 1786061879,
        "last_contact": 1786061879,
        "baro_altitude": 1005.84,
        "on_ground": false,
        "velocity": 62.81,
        "true_track": 19.62,
        "vertical_rate": 0,
        "geo_altitude": 1143,
        "squawk": "0020",
        "spi": false,
        "position_source": 0
      }
    },
    {
      "type": "Feature",
      "geometry": {
        "type": "Point",
        "coordinates": [
          8.7216,
          45.6099
        ]
      },
      "properties": {
        "icao24": "4ac98a",
        "callsign": "BCS422",
        "origin_country": "Sweden",
        "time_position": 1786061878,
        "last_contact": 1786061879,
        "baro_altitude": null,
        "on_ground": true,
        "velocity": 6.94,
        "true_track": 348.75,
        "vertical_rate": null,
        "geo_altitude": null,
        "squawk": null,
        "spi": false,
        "position_source": 0
      }
    },
    {
      "type": "Feature",
      "geometry": {
        "type": "Point",
        "coordinates": [
          14.2652,
          35.1776
        ]
      },
      "properties": {
        "icao24": "4bb064",
        "callsign": "THY3KA",
        "origin_country": "Turkey",
        "time_position": 1786061879,
        "last_contact": 1786061879,
        "baro_altitude": 10668,
        "on_ground": false,
        "velocity": 246.64,
        "true_track": 45.34,
        "vertical_rate": 0,
        "geo_altitude": 11338.56,
        "squawk": "3160",
        "spi": false,
        "position_source": 0
      }
    },
    {
      "type": "Feature",
      "geometry": {
        "type": "Point",
        "coordinates": [
          13.3279,
          36.0938
        ]
      },
      "properties": {
        "icao24": "4bb06b",
        "callsign": "THY2YD",
        "origin_country": "Turkey",
        "time_position": 1786061879,
        "last_contact": 1786061879,
        "baro_altitude": 11277.6,
        "on_ground": false,
        "velocity": 256.42,
        "true_track": 55.54,
        "vertical_rate": 0,
        "geo_altitude": 11971.02,
        "squawk": "4114",
        "spi": false,
        "position_source": 0
      }
    },
    {
      "type": "Feature",
      "geometry": {
        "type": "Point",
        "coordinates": [
          12.4933,
          45.4261
        ]
      },
      "properties": {
        "icao24": "345042",
        "callsign": "VLG55RF",
        "origin_country": "Spain",
        "time_position": 1786061879,
        "last_contact": 1786061880,
        "baro_altitude": 2202.18,
        "on_ground": false,
        "velocity": 131.74,
        "true_track": 229.59,
        "vertical_rate": 13.98,
        "geo_altitude": 2369.82,
        "squawk": "1000",
        "spi": false,
        "position_source": 0
      }
    },
    {
      "type": "Feature",
      "geometry": {
        "type": "Point",
        "coordinates": [
          16.2336,
          45.3181
        ]
      },
      "properties": {
        "icao24": "4ac8da",
        "callsign": "TOM9PL",
        "origin_country": "Sweden",
        "time_position": 1786061879,
        "last_contact": 1786061879,
        "baro_altitude": 13098.78,
        "on_ground": false,
        "velocity": 245.93,
        "true_track": 308.72,
        "vertical_rate": -0.33,
        "geo_altitude": 13754.1,
        "squawk": "2061",
        "spi": false,
        "position_source": 0
      }
    },
    {
      "type": "Feature",
      "geometry": {
        "type": "Point",
        "coordinates": [
          7.4512,
          43.3833
        ]
      },
      "properties": {
        "icao24": "4d0215",
        "callsign": "JFA54J",
        "origin_country": "Luxembourg",
        "time_position": 1786061879,
        "last_contact": 1786061879,
        "baro_altitude": 3291.84,
        "on_ground": false,
        "velocity": 179.85,
        "true_track": 159.75,
        "vertical_rate": 3.58,
        "geo_altitude": 3543.3,
        "squawk": "5662",
        "spi": false,
        "position_source": 0
      }
    },
    {
      "type": "Feature",
      "geometry": {
        "type": "Point",
        "coordinates": [
          7.5305,
          47.5856
        ]
      },
      "properties": {
        "icao24": "3859ff",
        "callsign": "INFRA52",
        "origin_country": "France",
        "time_position": 1786061879,
        "last_contact": 1786061879,
        "baro_altitude": null,
        "on_ground": true,
        "velocity": 16.46,
        "true_track": 64.69,
        "vertical_rate": null,
        "geo_altitude": null,
        "squawk": null,
        "spi": false,
        "position_source": 0
      }
    },
    {
      "type": "Feature",
      "geometry": {
        "type": "Point",
        "coordinates": [
          14.4707,
          35.8563
        ]
      },
      "properties": {
        "icao24": "4078dd",
        "callsign": "GXWBF",
        "origin_country": "United Kingdom",
        "time_position": 1786061879,
        "last_contact": 1786061879,
        "baro_altitude": null,
        "on_ground": true,
        "velocity": 0,
        "true_track": 236.25,
        "vertical_rate": null,
        "geo_altitude": null,
        "squawk": null,
        "spi": false,
        "position_source": 0
      }
    },
    {
      "type": "Feature",
      "geometry": {
        "type": "Point",
        "coordinates": [
          18.5529,
          44.5531
        ]
      },
      "properties": {
        "icao24": "4bcd83",
        "callsign": "SXS2GA",
        "origin_country": "Turkey",
        "time_position": 1786061879,
        "last_contact": 1786061879,
        "baro_altitude": 11277.6,
        "on_ground": false,
        "velocity": 250.28,
        "true_track": 135.33,
        "vertical_rate": 0,
        "geo_altitude": 11871.96,
        "squawk": "7646",
        "spi": false,
        "position_source": 0
      }
    },
    {
      "type": "Feature",
      "geometry": {
        "type": "Point",
        "coordinates": [
          17.6062,
          35.7029
        ]
      },
      "properties": {
        "icao24": "040143",
        "callsign": "ETH741",
        "origin_country": "Ethiopia",
        "time_position": 1786061879,
        "last_contact": 1786061879,
        "baro_altitude": 11269.98,
        "on_ground": false,
        "velocity": 266.17,
        "true_track": 102.05,
        "vertical_rate": 0,
        "geo_altitude": 11978.64,
        "squawk": "4113",
        "spi": false,
        "position_source": 0
      }
    },
    {
      "type": "Feature",
      "geometry": {
        "type": "Point",
        "coordinates": [
          16.7618,
          41.1347
        ]
      },
      "properties": {
        "icao24": "4ca4f4",
        "callsign": "RYR8KM",
        "origin_country": "Ireland",
        "time_position": 1786061564,
        "last_contact": 1786061569,
        "baro_altitude": null,
        "on_ground": true,
        "velocity": 0,
        "true_track": 160.31,
        "vertical_rate": null,
        "geo_altitude": null,
        "squawk": "2256",
        "spi": false,
        "position_source": 0
      }
    },
    {
      "type": "Feature",
      "geometry": {
        "type": "Point",
        "coordinates": [
          14.5907,
          35.2559
        ]
      },
      "properties": {
        "icao24": "4ba9cd",
        "callsign": "THY43H",
        "origin_country": "Turkey",
        "time_position": 1786061879,
        "last_contact": 1786061879,
        "baro_altitude": 11887.2,
        "on_ground": false,
        "velocity": 255.63,
        "true_track": 50.06,
        "vertical_rate": 0,
        "geo_altitude": 12633.96,
        "squawk": "4102",
        "spi": false,
        "position_source": 0
      }
    },
    {
      "type": "Feature",
      "geometry": {
        "type": "Point",
        "coordinates": [
          13.1965,
          40.6559
        ]
      },
      "properties": {
        "icao24": "040045",
        "callsign": "ETH575",
        "origin_country": "Ethiopia",
        "time_position": 1786061879,
        "last_contact": 1786061879,
        "baro_altitude": 11879.58,
        "on_ground": false,
        "velocity": 255.17,
        "true_track": 127.22,
        "vertical_rate": -0.33,
        "geo_altitude": 12565.38,
        "squawk": "2237",
        "spi": false,
        "position_source": 0
      }
    },
    {
      "type": "Feature",
      "geometry": {
        "type": "Point",
        "coordinates": [
          6.2035,
          46.069
        ]
      },
      "properties": {
        "icao24": "49d414",
        "callsign": "TVS4147",
        "origin_country": "Czech Republic",
        "time_position": 1786061879,
        "last_contact": 1786061879,
        "baro_altitude": 10972.8,
        "on_ground": false,
        "velocity": 250.36,
        "true_track": 46.5,
        "vertical_rate": 0,
        "geo_altitude": 11513.82,
        "squawk": "1161",
        "spi": false,
        "position_source": 0
      }
    },
    {
      "type": "Feature",
      "geometry": {
        "type": "Point",
        "coordinates": [
          17.5629,
          39.0349
        ]
      },
      "properties": {
        "icao24": "4ba9a9",
        "callsign": "THY658",
        "origin_country": "Turkey",
        "time_position": 1786061879,
        "last_contact": 1786061879,
        "baro_altitude": 10058.4,
        "on_ground": false,
        "velocity": 244.7,
        "true_track": 76.75,
        "vertical_rate": 0,
        "geo_altitude": 10637.52,
        "squawk": "6133",
        "spi": false,
        "position_source": 0
      }
    },
    {
      "type": "Feature",
      "geometry": {
        "type": "Point",
        "coordinates": [
          18.9413,
          45.9128
        ]
      },
      "properties": {
        "icao24": "49d369",
        "callsign": "TVS5NR",
        "origin_country": "Czech Republic",
        "time_position": 1786061879,
        "last_contact": 1786061879,
        "baro_altitude": 10058.4,
        "on_ground": false,
        "velocity": 245,
        "true_track": 145.61,
        "vertical_rate": 0,
        "geo_altitude": 10576.56,
        "squawk": "4503",
        "spi": false,
        "position_source": 0
      }
    },
    {
      "type": "Feature",
      "geometry": {
        "type": "Point",
        "coordinates": [
          8.7241,
          45.6437
        ]
      },
      "properties": {
        "icao24": "31d7a5",
        "callsign": "ECHO9",
        "origin_country": "Italy",
        "time_position": 1786061870,
        "last_contact": 1786061870,
        "baro_altitude": null,
        "on_ground": true,
        "velocity": 8.75,
        "true_track": 163.12,
        "vertical_rate": null,
        "geo_altitude": null,
        "squawk": null,
        "spi": false,
        "position_source": 0
      }
    },
    {
      "type": "Feature",
      "geometry": {
        "type": "Point",
        "coordinates": [
          12.8682,
          46.7099
        ]
      },
      "properties": {
        "icao24": "407e5f",
        "callsign": "EZY75PF",
        "origin_country": "United Kingdom",
        "time_position": 1786061879,
        "last_contact": 1786061879,
        "baro_altitude": 10972.8,
        "on_ground": false,
        "velocity": 222.33,
        "true_track": 298.17,
        "vertical_rate": 0,
        "geo_altitude": 11544.3,
        "squawk": "5504",
        "spi": false,
        "position_source": 0
      }
    },
    {
      "type": "Feature",
      "geometry": {
        "type": "Point",
        "coordinates": [
          18.5425,
          47.1247
        ]
      },
      "properties": {
        "icao24": "406b13",
        "callsign": "TOM2TM",
        "origin_country": "United Kingdom",
        "time_position": 1786061879,
        "last_contact": 1786061879,
        "baro_altitude": 13098.78,
        "on_ground": false,
        "velocity": 240.95,
        "true_track": 295.14,
        "vertical_rate": -0.33,
        "geo_altitude": 13746.48,
        "squawk": "2643",
        "spi": false,
        "position_source": 0
      }
    },
    {
      "type": "Feature",
      "geometry": {
        "type": "Point",
        "coordinates": [
          15.5226,
          40.1935
        ]
      },
      "properties": {
        "icao24": "48c1a4",
        "callsign": "RYR6ZR",
        "origin_country": "Poland",
        "time_position": 1786061878,
        "last_contact": 1786061879,
        "baro_altitude": 10972.8,
        "on_ground": false,
        "velocity": 229.8,
        "true_track": 15.72,
        "vertical_rate": -0.33,
        "geo_altitude": 11620.5,
        "squawk": "6574",
        "spi": false,
        "position_source": 0
      }
    },
    {
      "type": "Feature",
      "geometry": {
        "type": "Point",
        "coordinates": [
          18.9282,
          47.7424
        ]
      },
      "properties": {
        "icao24": "48c2ad",
        "callsign": "RYR9696",
        "origin_country": "Poland",
        "time_position": 1786061879,
        "last_contact": 1786061879,
        "baro_altitude": 4876.8,
        "on_ground": false,
        "velocity": 200.21,
        "true_track": 130.94,
        "vertical_rate": -18.53,
        "geo_altitude": 5196.84,
        "squawk": "1000",
        "spi": false,
        "position_source": 0
      }
    },
    {
      "type": "Feature",
      "geometry": {
        "type": "Point",
        "coordinates": [
          6.2571,
          47.5115
        ]
      },
      "properties": {
        "icao24": "4cc4c5",
        "callsign": "ABD5054",
        "origin_country": "Iceland",
        "time_position": 1786061879,
        "last_contact": 1786061879,
        "baro_altitude": 9448.8,
        "on_ground": false,
        "velocity": 250.64,
        "true_track": 181.65,
        "vertical_rate": 0,
        "geo_altitude": 9898.38,
        "squawk": "0107",
        "spi": false,
        "position_source": 0
      }
    },
    {
      "type": "Feature",
      "geometry": {
        "type": "Point",
        "coordinates": [
          14.2825,
          46.2032
        ]
      },
      "properties": {
        "icao24": "407c26",
        "callsign": "TOM4KD",
        "origin_country": "United Kingdom",
        "time_position": 1786061878,
        "last_contact": 1786061878,
        "baro_altitude": 11582.4,
        "on_ground": false,
        "velocity": 224.17,
        "true_track": 311.37,
        "vertical_rate": -0.33,
        "geo_altitude": 12192,
        "squawk": "1336",
        "spi": false,
        "position_source": 0
      }
    },
    {
      "type": "Feature",
      "geometry": {
        "type": "Point",
        "coordinates": [
          9.4742,
          40.7872
        ]
      },
      "properties": {
        "icao24": "4bb845",
        "callsign": "PGT1742",
        "origin_country": "Turkey",
        "time_position": 1786061879,
        "last_contact": 1786061879,
        "baro_altitude": 11582.4,
        "on_ground": false,
        "velocity": 237.77,
        "true_track": 88.39,
        "vertical_rate": -0.33,
        "geo_altitude": 12245.34,
        "squawk": "1240",
        "spi": false,
        "position_source": 0
      }
    },
    {
      "type": "Feature",
      "geometry": {
        "type": "Point",
        "coordinates": [
          8.784,
          45.4471
        ]
      },
      "properties": {
        "icao24": "4402ae",
        "callsign": "EJU89NW",
        "origin_country": "Austria",
        "time_position": 1786061879,
        "last_contact": 1786061879,
        "baro_altitude": 1082.04,
        "on_ground": false,
        "velocity": 102.71,
        "true_track": 349.03,
        "vertical_rate": -2.28,
        "geo_altitude": 1203.96,
        "squawk": "1000",
        "spi": false,
        "position_source": 0
      }
    },
    {
      "type": "Feature",
      "geometry": {
        "type": "Point",
        "coordinates": [
          18.8235,
          42.1627
        ]
      },
      "properties": {
        "icao24": "407d5b",
        "callsign": "WUK13GW",
        "origin_country": "United Kingdom",
        "time_position": 1786061644,
        "last_contact": 1786061644,
        "baro_altitude": 6316.98,
        "on_ground": false,
        "velocity": 185.22,
        "true_track": 136.46,
        "vertical_rate": -8.13,
        "geo_altitude": 6736.08,
        "squawk": "0552",
        "spi": false,
        "position_source": 0
      }
    },
    {
      "type": "Feature",
      "geometry": {
        "type": "Point",
        "coordinates": [
          8.6818,
          47.0975
        ]
      },
      "properties": {
        "icao24": "408086",
        "callsign": "TOM405",
        "origin_country": "United Kingdom",
        "time_position": 1786061879,
        "last_contact": 1786061880,
        "baro_altitude": 11582.4,
        "on_ground": false,
        "velocity": 217.1,
        "true_track": 307.01,
        "vertical_rate": 0,
        "geo_altitude": 12138.66,
        "squawk": "2762",
        "spi": false,
        "position_source": 0
      }
    },
    {
      "type": "Feature",
      "geometry": {
        "type": "Point",
        "coordinates": [
          14.5421,
          44.903
        ]
      },
      "properties": {
        "icao24": "40803f",
        "callsign": "TOM39G",
        "origin_country": "United Kingdom",
        "time_position": 1786061879,
        "last_contact": 1786061879,
        "baro_altitude": 11582.4,
        "on_ground": false,
        "velocity": 218.03,
        "true_track": 294.39,
        "vertical_rate": 0.33,
        "geo_altitude": 12199.62,
        "squawk": "2244",
        "spi": false,
        "position_source": 0
      }
    },
    {
      "type": "Feature",
      "geometry": {
        "type": "Point",
        "coordinates": [
          16.7286,
          44.4191
        ]
      },
      "properties": {
        "icao24": "02a1a2",
        "callsign": "LBT829",
        "origin_country": "Tunisia",
        "time_position": 1786061878,
        "last_contact": 1786061879,
        "baro_altitude": 10668,
        "on_ground": false,
        "velocity": 241.36,
        "true_track": 212.2,
        "vertical_rate": 0,
        "geo_altitude": 11239.5,
        "squawk": "6023",
        "spi": false,
        "position_source": 0
      }
    },
    {
      "type": "Feature",
      "geometry": {
        "type": "Point",
        "coordinates": [
          12.7368,
          36.9146
        ]
      },
      "properties": {
        "icao24": "02a1a8",
        "callsign": "LBT691",
        "origin_country": "Tunisia",
        "time_position": 1786061879,
        "last_contact": 1786061879,
        "baro_altitude": 10462.26,
        "on_ground": false,
        "velocity": 227.12,
        "true_track": 253.82,
        "vertical_rate": -4.88,
        "geo_altitude": 11094.72,
        "squawk": "2321",
        "spi": false,
        "position_source": 0
      }
    },
    {
      "type": "Feature",
      "geometry": {
        "type": "Point",
        "coordinates": [
          14.4616,
          35.3296
        ]
      },
      "properties": {
        "icao24": "43eed2",
        "callsign": "EAGLE3",
        "origin_country": "United Kingdom",
        "time_position": 1786061879,
        "last_contact": 1786061879,
        "baro_altitude": 3680.46,
        "on_ground": false,
        "velocity": 115.4,
        "true_track": 21.99,
        "vertical_rate": -5.85,
        "geo_altitude": 3924.3,
        "squawk": null,
        "spi": false,
        "position_source": 0
      }
    },
    {
      "type": "Feature",
      "geometry": {
        "type": "Point",
        "coordinates": [
          6.5241,
          47.7735
        ]
      },
      "properties": {
        "icao24": "40823d",
        "callsign": "EXS47K",
        "origin_country": "United Kingdom",
        "time_position": 1786061879,
        "last_contact": 1786061879,
        "baro_altitude": 11521.44,
        "on_ground": false,
        "velocity": 215.26,
        "true_track": 309.47,
        "vertical_rate": 2.93,
        "geo_altitude": 12024.36,
        "squawk": "2755",
        "spi": false,
        "position_source": 0
      }
    },
    {
      "type": "Feature",
      "geometry": {
        "type": "Point",
        "coordinates": [
          10.8598,
          36.5541
        ]
      },
      "properties": {
        "icao24": "02a1ab",
        "callsign": "LBT7425",
        "origin_country": "Tunisia",
        "time_position": 1786061735,
        "last_contact": 1786061736,
        "baro_altitude": 5516.88,
        "on_ground": false,
        "velocity": 213.93,
        "true_track": 200.7,
        "vertical_rate": -12.68,
        "geo_altitude": 5905.5,
        "squawk": "5546",
        "spi": false,
        "position_source": 0
      }
    },
    {
      "type": "Feature",
      "geometry": {
        "type": "Point",
        "coordinates": [
          8.5291,
          47.4851
        ]
      },
      "properties": {
        "icao24": "4b5d3d",
        "callsign": "GALA23",
        "origin_country": "Switzerland",
        "time_position": 1786061879,
        "last_contact": 1786061879,
        "baro_altitude": null,
        "on_ground": true,
        "velocity": 2.06,
        "true_track": 258.75,
        "vertical_rate": null,
        "geo_altitude": null,
        "squawk": null,
        "spi": false,
        "position_source": 0
      }
    },
    {
      "type": "Feature",
      "geometry": {
        "type": "Point",
        "coordinates": [
          8.5291,
          47.4854
        ]
      },
      "properties": {
        "icao24": "4b5d3b",
        "callsign": "GALA20",
        "origin_country": "Switzerland",
        "time_position": 1786061878,
        "last_contact": 1786061878,
        "baro_altitude": null,
        "on_ground": true,
        "velocity": 0.06,
        "true_track": 239.06,
        "vertical_rate": null,
        "geo_altitude": null,
        "squawk": null,
        "spi": false,
        "position_source": 0
      }
    },
    {
      "type": "Feature",
      "geometry": {
        "type": "Point",
        "coordinates": [
          6.7694,
          47.6618
        ]
      },
      "properties": {
        "icao24": "408011",
        "callsign": "EZY89KT",
        "origin_country": "United Kingdom",
        "time_position": 1786061878,
        "last_contact": 1786061879,
        "baro_altitude": 11590.02,
        "on_ground": false,
        "velocity": 213.48,
        "true_track": 309.33,
        "vertical_rate": -0.33,
        "geo_altitude": 12100.56,
        "squawk": "6634",
        "spi": false,
        "position_source": 0
      }
    },
    {
      "type": "Feature",
      "geometry": {
        "type": "Point",
        "coordinates": [
          9.1101,
          44.7847
        ]
      },
      "properties": {
        "icao24": "440d6f",
        "callsign": "EJU92EJ",
        "origin_country": "Austria",
        "time_position": 1786061878,
        "last_contact": 1786061879,
        "baro_altitude": 6233.16,
        "on_ground": false,
        "velocity": 182.19,
        "true_track": 300.55,
        "vertical_rate": -11.7,
        "geo_altitude": 6637.02,
        "squawk": "1000",
        "spi": false,
        "position_source": 0
      }
    },
    {
      "type": "Feature",
      "geometry": {
        "type": "Point",
        "coordinates": [
          8.546,
          47.4612
        ]
      },
      "properties": {
        "icao24": "4b5c23",
        "callsign": "URSULA13",
        "origin_country": "Switzerland",
        "time_position": 1786061879,
        "last_contact": 1786061879,
        "baro_altitude": null,
        "on_ground": true,
        "velocity": 4.37,
        "true_track": 334.69,
        "vertical_rate": null,
        "geo_altitude": null,
        "squawk": null,
        "spi": false,
        "position_source": 0
      }
    },
    {
      "type": "Feature",
      "geometry": {
        "type": "Point",
        "coordinates": [
          8.7174,
          45.6308
        ]
      },
      "properties": {
        "icao24": "4ca9a1",
        "callsign": "NOS4893",
        "origin_country": "Ireland",
        "time_position": 1786061654,
        "last_contact": 1786061654,
        "baro_altitude": null,
        "on_ground": true,
        "velocity": 2.31,
        "true_track": 95.62,
        "vertical_rate": null,
        "geo_altitude": null,
        "squawk": "6630",
        "spi": false,
        "position_source": 0
      }
    },
    {
      "type": "Feature",
      "geometry": {
        "type": "Point",
        "coordinates": [
          8.5505,
          47.4585
        ]
      },
      "properties": {
        "icao24": "4b5c66",
        "callsign": "EUGEN6",
        "origin_country": "Switzerland",
        "time_position": 1786061877,
        "last_contact": 1786061879,
        "baro_altitude": null,
        "on_ground": true,
        "velocity": 0,
        "true_track": 146.25,
        "vertical_rate": null,
        "geo_altitude": null,
        "squawk": null,
        "spi": false,
        "position_source": 0
      }
    },
    {
      "type": "Feature",
      "geometry": {
        "type": "Point",
        "coordinates": [
          8.5588,
          47.4601
        ]
      },
      "properties": {
        "icao24": "4b5c3e",
        "callsign": "EISBAER1",
        "origin_country": "Switzerland",
        "time_position": 1786061832,
        "last_contact": 1786061837,
        "baro_altitude": null,
        "on_ground": true,
        "velocity": 10.8,
        "true_track": 185.62,
        "vertical_rate": null,
        "geo_altitude": null,
        "squawk": null,
        "spi": false,
        "position_source": 0
      }
    },
    {
      "type": "Feature",
      "geometry": {
        "type": "Point",
        "coordinates": [
          6.9539,
          38.9494
        ]
      },
      "properties": {
        "icao24": "4841c3",
        "callsign": "MPH8341",
        "origin_country": "Kingdom of the Netherlands",
        "time_position": 1786061879,
        "last_contact": 1786061879,
        "baro_altitude": 9448.8,
        "on_ground": false,
        "velocity": 269,
        "true_track": 186.04,
        "vertical_rate": 0,
        "geo_altitude": 9982.2,
        "squawk": "3137",
        "spi": false,
        "position_source": 0
      }
    },
    {
      "type": "Feature",
      "geometry": {
        "type": "Point",
        "coordinates": [
          17.9303,
          44.3191
        ]
      },
      "properties": {
        "icao24": "4bab2e",
        "callsign": "THY3393",
        "origin_country": "Turkey",
        "time_position": 1786061879,
        "last_contact": 1786061879,
        "baro_altitude": 10668,
        "on_ground": false,
        "velocity": 249.92,
        "true_track": 135.58,
        "vertical_rate": 0,
        "geo_altitude": 11239.5,
        "squawk": "1145",
        "spi": false,
        "position_source": 0
      }
    },
    {
      "type": "Feature",
      "geometry": {
        "type": "Point",
        "coordinates": [
          8.4833,
          44.8015
        ]
      },
      "properties": {
        "icao24": "4ca8af",
        "callsign": "RYR75LD",
        "origin_country": "Ireland",
        "time_position": 1786061879,
        "last_contact": 1786061879,
        "baro_altitude": 5204.46,
        "on_ground": false,
        "velocity": 148.96,
        "true_track": 20.63,
        "vertical_rate": -5.53,
        "geo_altitude": 5547.36,
        "squawk": "1000",
        "spi": false,
        "position_source": 0
      }
    },
    {
      "type": "Feature",
      "geometry": {
        "type": "Point",
        "coordinates": [
          10.0823,
          44.5637
        ]
      },
      "properties": {
        "icao24": "4ca912",
        "callsign": "RYR5DN",
        "origin_country": "Ireland",
        "time_position": 1786061879,
        "last_contact": 1786061879,
        "baro_altitude": 7254.24,
        "on_ground": false,
        "velocity": 238.14,
        "true_track": 354.79,
        "vertical_rate": -14.96,
        "geo_altitude": 7719.06,
        "squawk": "5151",
        "spi": false,
        "position_source": 0
      }
    },
    {
      "type": "Feature",
      "geometry": {
        "type": "Point",
        "coordinates": [
          15.7887,
          46.5941
        ]
      },
      "properties": {
        "icao24": "4bcde6",
        "callsign": "SXS2NB",
        "origin_country": "Turkey",
        "time_position": 1786061879,
        "last_contact": 1786061879,
        "baro_altitude": 11277.6,
        "on_ground": false,
        "velocity": 237.55,
        "true_track": 134.39,
        "vertical_rate": 0,
        "geo_altitude": 11864.34,
        "squawk": "7653",
        "spi": false,
        "position_source": 0
      }
    },
    {
      "type": "Feature",
      "geometry": {
        "type": "Point",
        "coordinates": [
          15.7303,
          40.7213
        ]
      },
      "properties": {
        "icao24": "4bcdac",
        "callsign": "SXS5UK",
        "origin_country": "Turkey",
        "time_position": 1786061879,
        "last_contact": 1786061879,
        "baro_altitude": 11887.2,
        "on_ground": false,
        "velocity": 238.3,
        "true_track": 91.73,
        "vertical_rate": 0,
        "geo_altitude": 12580.62,
        "squawk": "4317",
        "spi": false,
        "position_source": 0
      }
    },
    {
      "type": "Feature",
      "geometry": {
        "type": "Point",
        "coordinates": [
          11.0827,
          44.076
        ]
      },
      "properties": {
        "icao24": "424cbf",
        "callsign": "MACOR",
        "origin_country": "United Kingdom",
        "time_position": 1786061879,
        "last_contact": 1786061879,
        "baro_altitude": 9509.76,
        "on_ground": false,
        "velocity": 228.21,
        "true_track": 323.16,
        "vertical_rate": -7.8,
        "geo_altitude": 10058.4,
        "squawk": "1000",
        "spi": false,
        "position_source": 0
      }
    },
    {
      "type": "Feature",
      "geometry": {
        "type": "Point",
        "coordinates": [
          14.3518,
          45.0193
        ]
      },
      "properties": {
        "icao24": "407642",
        "callsign": "TOM269",
        "origin_country": "United Kingdom",
        "time_position": 1786061879,
        "last_contact": 1786061879,
        "baro_altitude": 11582.4,
        "on_ground": false,
        "velocity": 227.58,
        "true_track": 326.53,
        "vertical_rate": 0.33,
        "geo_altitude": 12207.24,
        "squawk": "2243",
        "spi": false,
        "position_source": 0
      }
    },
    {
      "type": "Feature",
      "geometry": {
        "type": "Point",
        "coordinates": [
          15.9326,
          46.191
        ]
      },
      "properties": {
        "icao24": "347488",
        "callsign": "CND54ZU",
        "origin_country": "Spain",
        "time_position": 1786061879,
        "last_contact": 1786061879,
        "baro_altitude": 12192,
        "on_ground": false,
        "velocity": 248.1,
        "true_track": 315.5,
        "vertical_rate": -0.33,
        "geo_altitude": 12809.22,
        "squawk": "6624",
        "spi": false,
        "position_source": 0
      }
    },
    {
      "type": "Feature",
      "geometry": {
        "type": "Point",
        "coordinates": [
          7.5306,
          47.5998
        ]
      },
      "properties": {
        "icao24": "389dff",
        "callsign": "COBRA02",
        "origin_country": "France",
        "time_position": 1786061879,
        "last_contact": 1786061879,
        "baro_altitude": null,
        "on_ground": true,
        "velocity": 7.46,
        "true_track": 213.75,
        "vertical_rate": null,
        "geo_altitude": null,
        "squawk": null,
        "spi": false,
        "position_source": 0
      }
    },
    {
      "type": "Feature",
      "geometry": {
        "type": "Point",
        "coordinates": [
          11.6827,
          39.2516
        ]
      },
      "properties": {
        "icao24": "4cafcb",
        "callsign": "MSA61P",
        "origin_country": "Ireland",
        "time_position": 1786061878,
        "last_contact": 1786061878,
        "baro_altitude": 9525,
        "on_ground": false,
        "velocity": 227,
        "true_track": 135.37,
        "vertical_rate": -4.88,
        "geo_altitude": 10066.02,
        "squawk": null,
        "spi": false,
        "position_source": 0
      }
    },
    {
      "type": "Feature",
      "geometry": {
        "type": "Point",
        "coordinates": [
          18.6045,
          38.6456
        ]
      },
      "properties": {
        "icao24": "010261",
        "callsign": "RMX6802",
        "origin_country": "Egypt",
        "time_position": 1786061879,
        "last_contact": 1786061879,
        "baro_altitude": 11887.2,
        "on_ground": false,
        "velocity": 247.78,
        "true_track": 116.78,
        "vertical_rate": 0,
        "geo_altitude": 12573,
        "squawk": "1224",
        "spi": false,
        "position_source": 0
      }
    },
    {
      "type": "Feature",
      "geometry": {
        "type": "Point",
        "coordinates": [
          17.3343,
          44.6736
        ]
      },
      "properties": {
        "icao24": "010275",
        "callsign": "RSX8504",
        "origin_country": "Egypt",
        "time_position": 1786061879,
        "last_contact": 1786061879,
        "baro_altitude": 11269.98,
        "on_ground": false,
        "velocity": 246.33,
        "true_track": 133.73,
        "vertical_rate": 0.65,
        "geo_altitude": 11871.96,
        "squawk": "0133",
        "spi": false,
        "position_source": 0
      }
    },
    {
      "type": "Feature",
      "geometry": {
        "type": "Point",
        "coordinates": [
          18.7326,
          43.365
        ]
      },
      "properties": {
        "icao24": "0101dd",
        "callsign": "MSR982",
        "origin_country": "Egypt",
        "time_position": 1786061649,
        "last_contact": 1786061683,
        "baro_altitude": 11879.58,
        "on_ground": false,
        "velocity": 268.28,
        "true_track": 142.01,
        "vertical_rate": 0,
        "geo_altitude": 12527.28,
        "squawk": "2277",
        "spi": false,
        "position_source": 0
      }
    },
    {
      "type": "Feature",
      "geometry": {
        "type": "Point",
        "coordinates": [
          18.2024,
          39.1569
        ]
      },
      "properties": {
        "icao24": "4d23b8",
        "callsign": "DAH3015",
        "origin_country": "Malta",
        "time_position": 1786061879,
        "last_contact": 1786061879,
        "baro_altitude": 10363.2,
        "on_ground": false,
        "velocity": 232.4,
        "true_track": 257.47,
        "vertical_rate": 0,
        "geo_altitude": 10957.56,
        "squawk": "2327",
        "spi": false,
        "position_source": 0
      }
    },
    {
      "type": "Feature",
      "geometry": {
        "type": "Point",
        "coordinates": [
          10.6292,
          43.4912
        ]
      },
      "properties": {
        "icao24": "300695",
        "callsign": "PEGASO2",
        "origin_country": "Italy",
        "time_position": 1786061879,
        "last_contact": 1786061879,
        "baro_altitude": 914.4,
        "on_ground": false,
        "velocity": 77.17,
        "true_track": 53.13,
        "vertical_rate": 0,
        "geo_altitude": 1028.7,
        "squawk": null,
        "spi": false,
        "position_source": 0
      }
    },
    {
      "type": "Feature",
      "geometry": {
        "type": "Point",
        "coordinates": [
          18.1106,
          41.1589
        ]
      },
      "properties": {
        "icao24": "4072c7",
        "callsign": "EZY54ZP",
        "origin_country": "United Kingdom",
        "time_position": 1786061879,
        "last_contact": 1786061879,
        "baro_altitude": 10957.56,
        "on_ground": false,
        "velocity": 222.04,
        "true_track": 320.08,
        "vertical_rate": 0,
        "geo_altitude": 11567.16,
        "squawk": "5536",
        "spi": false,
        "position_source": 0
      }
    },
    {
      "type": "Feature",
      "geometry": {
        "type": "Point",
        "coordinates": [
          18.3047,
          43.0347
        ]
      },
      "properties": {
        "icao24": "4d2424",
        "callsign": "WZZ81HW",
        "origin_country": "Malta",
        "time_position": 1786061628,
        "last_contact": 1786061635,
        "baro_altitude": 11277.6,
        "on_ground": false,
        "velocity": 234.34,
        "true_track": 81.92,
        "vertical_rate": 0,
        "geo_altitude": 11879.58,
        "squawk": "1207",
        "spi": false,
        "position_source": 0
      }
    },
    {
      "type": "Feature",
      "geometry": {
        "type": "Point",
        "coordinates": [
          12.458,
          39.1619
        ]
      },
      "properties": {
        "icao24": "4d244c",
        "callsign": "RYR8FP",
        "origin_country": "Malta",
        "time_position": 1786061879,
        "last_contact": 1786061879,
        "baro_altitude": 6751.32,
        "on_ground": false,
        "velocity": 226.33,
        "true_track": 162.68,
        "vertical_rate": -12.35,
        "geo_altitude": 7208.52,
        "squawk": "7435",
        "spi": false,
        "position_source": 0
      }
    },
    {
      "type": "Feature",
      "geometry": {
        "type": "Point",
        "coordinates": [
          12.8316,
          46.6376
        ]
      },
      "properties": {
        "icao24": "4d2490",
        "callsign": "WMT5PL",
        "origin_country": "Malta",
        "time_position": 1786061879,
        "last_contact": 1786061879,
        "baro_altitude": 11285.22,
        "on_ground": false,
        "velocity": 205.79,
        "true_track": 257.14,
        "vertical_rate": 0,
        "geo_altitude": 11879.58,
        "squawk": "1000",
        "spi": false,
        "position_source": 0
      }
    },
    {
      "type": "Feature",
      "geometry": {
        "type": "Point",
        "coordinates": [
          12.2614,
          41.8384
        ]
      },
      "properties": {
        "icao24": "4d22b6",
        "callsign": null,
        "origin_country": "Malta",
        "time_position": 1786061865,
        "last_contact": 1786061865,
        "baro_altitude": null,
        "on_ground": true,
        "velocity": 11.83,
        "true_track": 343.12,
        "vertical_rate": null,
        "geo_altitude": null,
        "squawk": null,
        "spi": false,
        "position_source": 0
      }
    },
    {
      "type": "Feature",
      "geometry": {
        "type": "Point",
        "coordinates": [
          15.6019,
          45.4499
        ]
      },
      "properties": {
        "icao24": "4d22b3",
        "callsign": "RYR64GG",
        "origin_country": "Malta",
        "time_position": 1786061567,
        "last_contact": 1786061574,
        "baro_altitude": 1996.44,
        "on_ground": false,
        "velocity": 144.46,
        "true_track": 49.33,
        "vertical_rate": -7.8,
        "geo_altitude": 2186.94,
        "squawk": "1000",
        "spi": false,
        "position_source": 0
      }
    },
    {
      "type": "Feature",
      "geometry": {
        "type": "Point",
        "coordinates": [
          8.7335,
          44.7124
        ]
      },
      "properties": {
        "icao24": "300741",
        "callsign": "IOLBI",
        "origin_country": "Italy",
        "time_position": 1786061879,
        "last_contact": 1786061879,
        "baro_altitude": 1104.9,
        "on_ground": false,
        "velocity": 70.39,
        "true_track": 164.74,
        "vertical_rate": 1.63,
        "geo_altitude": 1211.58,
        "squawk": "6270",
        "spi": false,
        "position_source": 0
      }
    },
    {
      "type": "Feature",
      "geometry": {
        "type": "Point",
        "coordinates": [
          13.8788,
          47.1254
        ]
      },
      "properties": {
        "icao24": "4d22c8",
        "callsign": "RYR61YD",
        "origin_country": "Malta",
        "time_position": 1786061879,
        "last_contact": 1786061879,
        "baro_altitude": 11887.2,
        "on_ground": false,
        "velocity": 254.81,
        "true_track": 67.32,
        "vertical_rate": 0.33,
        "geo_altitude": 12496.8,
        "squawk": "1000",
        "spi": false,
        "position_source": 0
      }
    },
    {
      "type": "Feature",
      "geometry": {
        "type": "Point",
        "coordinates": [
          14.5487,
          41.5455
        ]
      },
      "properties": {
        "icao24": "4d22c3",
        "callsign": "RYR20TL",
        "origin_country": "Malta",
        "time_position": 1786061879,
        "last_contact": 1786061879,
        "baro_altitude": 10972.8,
        "on_ground": false,
        "velocity": 232.17,
        "true_track": 17.67,
        "vertical_rate": 0.33,
        "geo_altitude": 11612.88,
        "squawk": null,
        "spi": false,
        "position_source": 0
      }
    },
    {
      "type": "Feature",
      "geometry": {
        "type": "Point",
        "coordinates": [
          9.2246,
          47.0524
        ]
      },
      "properties": {
        "icao24": "4cae9f",
        "callsign": "RYR9289",
        "origin_country": "Ireland",
        "time_position": 1786061879,
        "last_contact": 1786061879,
        "baro_altitude": 10972.8,
        "on_ground": false,
        "velocity": 232.85,
        "true_track": 330.77,
        "vertical_rate": 0,
        "geo_altitude": 11513.82,
        "squawk": "2741",
        "spi": false,
        "position_source": 0
      }
    },
    {
      "type": "Feature",
      "geometry": {
        "type": "Point",
        "coordinates": [
          17.039,
          45.4626
        ]
      },
      "properties": {
        "icao24": "4d232c",
        "callsign": "CXI9X",
        "origin_country": "Malta",
        "time_position": 1786061879,
        "last_contact": 1786061879,
        "baro_altitude": 11277.6,
        "on_ground": false,
        "velocity": 243.87,
        "true_track": 142.28,
        "vertical_rate": 0,
        "geo_altitude": 11871.96,
        "squawk": "7610",
        "spi": false,
        "position_source": 0
      }
    },
    {
      "type": "Feature",
      "geometry": {
        "type": "Point",
        "coordinates": [
          10.9019,
          44.4197
        ]
      },
      "properties": {
        "icao24": "4d2290",
        "callsign": "RYR8QZ",
        "origin_country": "Malta",
        "time_position": 1786061879,
        "last_contact": 1786061879,
        "baro_altitude": 2827.02,
        "on_ground": false,
        "velocity": 132.42,
        "true_track": 34.55,
        "vertical_rate": -4.88,
        "geo_altitude": 3048,
        "squawk": "1000",
        "spi": false,
        "position_source": 0
      }
    },
    {
      "type": "Feature",
      "geometry": {
        "type": "Point",
        "coordinates": [
          17.9307,
          43.4187
        ]
      },
      "properties": {
        "icao24": "4070e3",
        "callsign": "EXS1470",
        "origin_country": "United Kingdom",
        "time_position": 1786061878,
        "last_contact": 1786061878,
        "baro_altitude": 11582.4,
        "on_ground": false,
        "velocity": 221.19,
        "true_track": 315.75,
        "vertical_rate": 0,
        "geo_altitude": 12207.24,
        "squawk": "2045",
        "spi": false,
        "position_source": 0
      }
    },
    {
      "type": "Feature",
      "geometry": {
        "type": "Point",
        "coordinates": [
          8.7599,
          45.5346
        ]
      },
      "properties": {
        "icao24": "4d21dd",
        "callsign": "WMT7359",
        "origin_country": "Malta",
        "time_position": 1786061879,
        "last_contact": 1786061879,
        "baro_altitude": 678.18,
        "on_ground": false,
        "velocity": 72.34,
        "true_track": 348.93,
        "vertical_rate": -3.58,
        "geo_altitude": 762,
        "squawk": "1000",
        "spi": false,
        "position_source": 0
      }
    },
    {
      "type": "Feature",
      "geometry": {
        "type": "Point",
        "coordinates": [
          8.7768,
          45.335
        ]
      },
      "properties": {
        "icao24": "4d222d",
        "callsign": "RYR613K",
        "origin_country": "Malta",
        "time_position": 1786061879,
        "last_contact": 1786061879,
        "baro_altitude": 2110.74,
        "on_ground": false,
        "velocity": 111.36,
        "true_track": 25.74,
        "vertical_rate": -9.1,
        "geo_altitude": 2293.62,
        "squawk": "1000",
        "spi": false,
        "position_source": 0
      }
    },
    {
      "type": "Feature",
      "geometry": {
        "type": "Point",
        "coordinates": [
          9.9072,
          45.407
        ]
      },
      "properties": {
        "icao24": "4d225b",
        "callsign": "RYR442N",
        "origin_country": "Malta",
        "time_position": 1786061879,
        "last_contact": 1786061879,
        "baro_altitude": 3855.72,
        "on_ground": false,
        "velocity": 192.92,
        "true_track": 143.13,
        "vertical_rate": 15.61,
        "geo_altitude": 4099.56,
        "squawk": "1000",
        "spi": false,
        "position_source": 0
      }
    },
    {
      "type": "Feature",
      "geometry": {
        "type": "Point",
        "coordinates": [
          10.8534,
          46.287
        ]
      },
      "properties": {
        "icao24": "4d2263",
        "callsign": "RYR9373",
        "origin_country": "Malta",
        "time_position": 1786061879,
        "last_contact": 1786061879,
        "baro_altitude": 9334.5,
        "on_ground": false,
        "velocity": 209.61,
        "true_track": 226.59,
        "vertical_rate": -5.2,
        "geo_altitude": 9852.66,
        "squawk": "1000",
        "spi": false,
        "position_source": 0
      }
    },
    {
      "type": "Feature",
      "geometry": {
        "type": "Point",
        "coordinates": [
          18.191,
          42.418
        ]
      },
      "properties": {
        "icao24": "4d20bc",
        "callsign": "WMT2YP",
        "origin_country": "Malta",
        "time_position": 1786061879,
        "last_contact": 1786061879,
        "baro_altitude": 11277.6,
        "on_ground": false,
        "velocity": 244.53,
        "true_track": 81.41,
        "vertical_rate": 0,
        "geo_altitude": 11894.82,
        "squawk": null,
        "spi": false,
        "position_source": 0
      }
    },
    {
      "type": "Feature",
      "geometry": {
        "type": "Point",
        "coordinates": [
          16.9325,
          43.4803
        ]
      },
      "properties": {
        "icao24": "40833c",
        "callsign": "WUK7PY",
        "origin_country": "United Kingdom",
        "time_position": 1786061878,
        "last_contact": 1786061879,
        "baro_altitude": 10972.8,
        "on_ground": false,
        "velocity": 223.15,
        "true_track": 318.93,
        "vertical_rate": 0,
        "geo_altitude": 11590.02,
        "squawk": "5303",
        "spi": false,
        "position_source": 0
      }
    },
    {
      "type": "Feature",
      "geometry": {
        "type": "Point",
        "coordinates": [
          11.6806,
          47.0227
        ]
      },
      "properties": {
        "icao24": "40832c",
        "callsign": "TOM8EH",
        "origin_country": "United Kingdom",
        "time_position": 1786061879,
        "last_contact": 1786061879,
        "baro_altitude": 11582.4,
        "on_ground": false,
        "velocity": 224.81,
        "true_track": 300.38,
        "vertical_rate": 0,
        "geo_altitude": 12169.14,
        "squawk": "0514",
        "spi": false,
        "position_source": 0
      }
    },
    {
      "type": "Feature",
      "geometry": {
        "type": "Point",
        "coordinates": [
          17.3343,
          44.7311
        ]
      },
      "properties": {
        "icao24": "010154",
        "callsign": "MSR996",
        "origin_country": "Egypt",
        "time_position": 1786061879,
        "last_contact": 1786061879,
        "baro_altitude": 10058.4,
        "on_ground": false,
        "velocity": 267.02,
        "true_track": 142.36,
        "vertical_rate": 0,
        "geo_altitude": 10599.42,
        "squawk": "0720",
        "spi": false,
        "position_source": 0
      }
    },
    {
      "type": "Feature",
      "geometry": {
        "type": "Point",
        "coordinates": [
          9.9776,
          44.4332
        ]
      },
      "properties": {
        "icao24": "4d2101",
        "callsign": "WMT129",
        "origin_country": "Malta",
        "time_position": 1786061879,
        "last_contact": 1786061879,
        "baro_altitude": 10668,
        "on_ground": false,
        "velocity": 244.21,
        "true_track": 148.79,
        "vertical_rate": 0,
        "geo_altitude": 11269.98,
        "squawk": "2255",
        "spi": false,
        "position_source": 0
      }
    },
    {
      "type": "Feature",
      "geometry": {
        "type": "Point",
        "coordinates": [
          17.2468,
          40.9505
        ]
      },
      "properties": {
        "icao24": "4d206e",
        "callsign": "AIZ993",
        "origin_country": "Malta",
        "time_position": 1786061879,
        "last_contact": 1786061879,
        "baro_altitude": 10972.8,
        "on_ground": false,
        "velocity": 231.15,
        "true_track": 303.19,
        "vertical_rate": 0,
        "geo_altitude": 11605.26,
        "squawk": "4150",
        "spi": false,
        "position_source": 0
      }
    },
    {
      "type": "Feature",
      "geometry": {
        "type": "Point",
        "coordinates": [
          7.5279,
          47.5959
        ]
      },
      "properties": {
        "icao24": "38c7ff",
        "callsign": "TECH18",
        "origin_country": "France",
        "time_position": 1786061879,
        "last_contact": 1786061879,
        "baro_altitude": null,
        "on_ground": true,
        "velocity": 9.77,
        "true_track": 334.69,
        "vertical_rate": null,
        "geo_altitude": null,
        "squawk": null,
        "spi": false,
        "position_source": 0
      }
    },
    {
      "type": "Feature",
      "geometry": {
        "type": "Point",
        "coordinates": [
          17.4703,
          42.0398
        ]
      },
      "properties": {
        "icao24": "4d2049",
        "callsign": "WMT5655",
        "origin_country": "Malta",
        "time_position": 1786061879,
        "last_contact": 1786061879,
        "baro_altitude": 11071.86,
        "on_ground": false,
        "velocity": 240.88,
        "true_track": 100.09,
        "vertical_rate": -9.75,
        "geo_altitude": 11711.94,
        "squawk": "1254",
        "spi": false,
        "position_source": 0
      }
    },
    {
      "type": "Feature",
      "geometry": {
        "type": "Point",
        "coordinates": [
          9.7873,
          41.2181
        ]
      },
      "properties": {
        "icao24": "4d2022",
        "callsign": "WMT511",
        "origin_country": "Malta",
        "time_position": 1786061879,
        "last_contact": 1786061879,
        "baro_altitude": 10363.2,
        "on_ground": false,
        "velocity": 243.47,
        "true_track": 73.17,
        "vertical_rate": 0,
        "geo_altitude": 11003.28,
        "squawk": "1175",
        "spi": false,
        "position_source": 0
      }
    },
    {
      "type": "Feature",
      "geometry": {
        "type": "Point",
        "coordinates": [
          9.8916,
          46.3795
        ]
      },
      "properties": {
        "icao24": "4082cb",
        "callsign": "TOM553",
        "origin_country": "United Kingdom",
        "time_position": 1786061879,
        "last_contact": 1786061879,
        "baro_altitude": 11582.4,
        "on_ground": false,
        "velocity": 225.52,
        "true_track": 308.52,
        "vertical_rate": 0,
        "geo_altitude": 12161.52,
        "squawk": "5507",
        "spi": false,
        "position_source": 0
      }
    },
    {
      "type": "Feature",
      "geometry": {
        "type": "Point",
        "coordinates": [
          8.5651,
          47.4419
        ]
      },
      "properties": {
        "icao24": "4b17f8",
        "callsign": "SWR80K",
        "origin_country": "Switzerland",
        "time_position": 1786061820,
        "last_contact": 1786061820,
        "baro_altitude": null,
        "on_ground": true,
        "velocity": 0,
        "true_track": 146.25,
        "vertical_rate": null,
        "geo_altitude": null,
        "squawk": null,
        "spi": false,
        "position_source": 0
      }
    },
    {
      "type": "Feature",
      "geometry": {
        "type": "Point",
        "coordinates": [
          8.5678,
          47.455
        ]
      },
      "properties": {
        "icao24": "4b17fe",
        "callsign": "SWR",
        "origin_country": "Switzerland",
        "time_position": 1786061856,
        "last_contact": 1786061864,
        "baro_altitude": 358.14,
        "on_ground": true,
        "velocity": 0,
        "true_track": 129.38,
        "vertical_rate": null,
        "geo_altitude": null,
        "squawk": "2000",
        "spi": false,
        "position_source": 0
      }
    },
    {
      "type": "Feature",
      "geometry": {
        "type": "Point",
        "coordinates": [
          8.5631,
          47.4421
        ]
      },
      "properties": {
        "icao24": "4b17ff",
        "callsign": "SWR",
        "origin_country": "Switzerland",
        "time_position": 1786061875,
        "last_contact": 1786061875,
        "baro_altitude": null,
        "on_ground": true,
        "velocity": 0,
        "true_track": 64.69,
        "vertical_rate": null,
        "geo_altitude": null,
        "squawk": "2000",
        "spi": false,
        "position_source": 0
      }
    }
  ]
}