{
  "type": "FeatureCollection",
  "source": "opensky",
  "dataset": "aircraft_italy",
  "generated_at": "2026-09-19T23:26:55.159349+00:00",
  "opensky_time": 1789860397,
  "count": 131,
  "features": [
    {
      "type": "Feature",
      "geometry": {
        "type": "Point",
        "coordinates": [
          10.4169,
          39.7983
        ]
      },
      "properties": {
        "icao24": "4952d0",
        "callsign": "TAP900",
        "origin_country": "Portugal",
        "time_position": 1789860396,
        "last_contact": 1789860396,
        "baro_altitude": 11285.22,
        "on_ground": false,
        "velocity": 235.33,
        "true_track": 120.04,
        "vertical_rate": 0,
        "geo_altitude": 11772.9,
        "squawk": "1205",
        "spi": false,
        "position_source": 0
      }
    },
    {
      "type": "Feature",
      "geometry": {
        "type": "Point",
        "coordinates": [
          18.9583,
          44.0692
        ]
      },
      "properties": {
        "icao24": "471efb",
        "callsign": "WMT726",
        "origin_country": "Hungary",
        "time_position": 1789860396,
        "last_contact": 1789860396,
        "baro_altitude": 10668,
        "on_ground": false,
        "velocity": 232.51,
        "true_track": 169.93,
        "vertical_rate": 0,
        "geo_altitude": 11109.96,
        "squawk": "6036",
        "spi": false,
        "position_source": 0
      }
    },
    {
      "type": "Feature",
      "geometry": {
        "type": "Point",
        "coordinates": [
          12.2256,
          41.8173
        ]
      },
      "properties": {
        "icao24": "471efd",
        "callsign": "WMT511",
        "origin_country": "Hungary",
        "time_position": 1789860120,
        "last_contact": 1789860120,
        "baro_altitude": -45.72,
        "on_ground": false,
        "velocity": 77.77,
        "true_track": 162.28,
        "vertical_rate": -3.9,
        "geo_altitude": 83.82,
        "squawk": "5221",
        "spi": false,
        "position_source": 0
      }
    },
    {
      "type": "Feature",
      "geometry": {
        "type": "Point",
        "coordinates": [
          9.9543,
          46.3195
        ]
      },
      "properties": {
        "icao24": "40812d",
        "callsign": "EZY75PF",
        "origin_country": "United Kingdom",
        "time_position": 1789860396,
        "last_contact": 1789860397,
        "baro_altitude": 10965.18,
        "on_ground": false,
        "velocity": 220.3,
        "true_track": 308.74,
        "vertical_rate": 0,
        "geo_altitude": 11498.58,
        "squawk": "2774",
        "spi": false,
        "position_source": 0
      }
    },
    {
      "type": "Feature",
      "geometry": {
        "type": "Point",
        "coordinates": [
          8.8192,
          44.6886
        ]
      },
      "properties": {
        "icao24": "3455da",
        "callsign": "VOE2827",
        "origin_country": "Spain",
        "time_position": 1789860397,
        "last_contact": 1789860397,
        "baro_altitude": 10980.42,
        "on_ground": false,
        "velocity": 225.55,
        "true_track": 293.52,
        "vertical_rate": 0.33,
        "geo_altitude": 11513.82,
        "squawk": "5504",
        "spi": false,
        "position_source": 0
      }
    },
    {
      "type": "Feature",
      "geometry": {
        "type": "Point",
        "coordinates": [
          17.7666,
          47.6457
        ]
      },
      "properties": {
        "icao24": "4bc8cf",
        "callsign": "PGT909",
        "origin_country": "Turkey",
        "time_position": 1789860397,
        "last_contact": 1789860397,
        "baro_altitude": 5623.56,
        "on_ground": false,
        "velocity": 191.43,
        "true_track": 299.46,
        "vertical_rate": -11.05,
        "geo_altitude": 5951.22,
        "squawk": "5341",
        "spi": false,
        "position_source": 0
      }
    },
    {
      "type": "Feature",
      "geometry": {
        "type": "Point",
        "coordinates": [
          17.4652,
          43.4648
        ]
      },
      "properties": {
        "icao24": "46b82d",
        "callsign": "AEE609",
        "origin_country": "Greece",
        "time_position": 1789860396,
        "last_contact": 1789860396,
        "baro_altitude": 11277.6,
        "on_ground": false,
        "velocity": 238.53,
        "true_track": 137.71,
        "vertical_rate": 0,
        "geo_altitude": 11765.28,
        "squawk": "0562",
        "spi": false,
        "position_source": 0
      }
    },
    {
      "type": "Feature",
      "geometry": {
        "type": "Point",
        "coordinates": [
          13.0646,
          38.1245
        ]
      },
      "properties": {
        "icao24": "02a1a3",
        "callsign": "LBT7762",
        "origin_country": "Tunisia",
        "time_position": 1789860396,
        "last_contact": 1789860396,
        "baro_altitude": 10972.8,
        "on_ground": false,
        "velocity": 250.91,
        "true_track": 39.01,
        "vertical_rate": -0.33,
        "geo_altitude": 11498.58,
        "squawk": "6175",
        "spi": false,
        "position_source": 0
      }
    },
    {
      "type": "Feature",
      "geometry": {
        "type": "Point",
        "coordinates": [
          10.1677,
          38.2212
        ]
      },
      "properties": {
        "icao24": "02a1a4",
        "callsign": "LBT521",
        "origin_country": "Tunisia",
        "time_position": 1789860313,
        "last_contact": 1789860313,
        "baro_altitude": 7170.42,
        "on_ground": false,
        "velocity": 221.8,
        "true_track": 152.66,
        "vertical_rate": -11.7,
        "geo_altitude": 8907.78,
        "squawk": "4306",
        "spi": false,
        "position_source": 0
      }
    },
    {
      "type": "Feature",
      "geometry": {
        "type": "Point",
        "coordinates": [
          12.1564,
          46.198
        ]
      },
      "properties": {
        "icao24": "40820f",
        "callsign": "EXS3868",
        "origin_country": "United Kingdom",
        "time_position": 1789860395,
        "last_contact": 1789860396,
        "baro_altitude": 10363.2,
        "on_ground": false,
        "velocity": 230.68,
        "true_track": 313.73,
        "vertical_rate": 0,
        "geo_altitude": 10888.98,
        "squawk": "2065",
        "spi": false,
        "position_source": 0
      }
    },
    {
      "type": "Feature",
      "geometry": {
        "type": "Point",
        "coordinates": [
          10.8965,
          47.2559
        ]
      },
      "properties": {
        "icao24": "3c171b",
        "callsign": "IFA6538",
        "origin_country": "Germany",
        "time_position": 1789860396,
        "last_contact": 1789860397,
        "baro_altitude": 9616.44,
        "on_ground": false,
        "velocity": 245.52,
        "true_track": 12.46,
        "vertical_rate": -5.85,
        "geo_altitude": 10104.12,
        "squawk": "6343",
        "spi": false,
        "position_source": 0
      }
    },
    {
      "type": "Feature",
      "geometry": {
        "type": "Point",
        "coordinates": [
          18.9241,
          45.9073
        ]
      },
      "properties": {
        "icao24": "4bb4f2",
        "callsign": "MGH613",
        "origin_country": "Turkey",
        "time_position": 1789860396,
        "last_contact": 1789860396,
        "baro_altitude": 11269.98,
        "on_ground": false,
        "velocity": 232.45,
        "true_track": 135.45,
        "vertical_rate": 0.33,
        "geo_altitude": 11711.94,
        "squawk": "6416",
        "spi": false,
        "position_source": 0
      }
    },
    {
      "type": "Feature",
      "geometry": {
        "type": "Point",
        "coordinates": [
          15.3996,
          46.8637
        ]
      },
      "properties": {
        "icao24": "4bb4e3",
        "callsign": "MGH660",
        "origin_country": "Turkey",
        "time_position": 1789860397,
        "last_contact": 1789860397,
        "baro_altitude": 10668,
        "on_ground": false,
        "velocity": 239.42,
        "true_track": 131.6,
        "vertical_rate": 0,
        "geo_altitude": 11125.2,
        "squawk": "7660",
        "spi": false,
        "position_source": 0
      }
    },
    {
      "type": "Feature",
      "geometry": {
        "type": "Point",
        "coordinates": [
          11.1124,
          41.3765
        ]
      },
      "properties": {
        "icao24": "44033e",
        "callsign": "EJU62EL",
        "origin_country": "Austria",
        "time_position": 1789860396,
        "last_contact": 1789860396,
        "baro_altitude": 11582.4,
        "on_ground": false,
        "velocity": 221.11,
        "true_track": 330.75,
        "vertical_rate": -0.33,
        "geo_altitude": 12062.46,
        "squawk": "1000",
        "spi": false,
        "position_source": 0
      }
    },
    {
      "type": "Feature",
      "geometry": {
        "type": "Point",
        "coordinates": [
          18.4014,
          45.3922
        ]
      },
      "properties": {
        "icao24": "4bb4e7",
        "callsign": "MGH602",
        "origin_country": "Turkey",
        "time_position": 1789860396,
        "last_contact": 1789860396,
        "baro_altitude": 10058.4,
        "on_ground": false,
        "velocity": 243.4,
        "true_track": 125.54,
        "vertical_rate": 0,
        "geo_altitude": 10492.74,
        "squawk": "6422",
        "spi": false,
        "position_source": 0
      }
    },
    {
      "type": "Feature",
      "geometry": {
        "type": "Point",
        "coordinates": [
          14.0307,
          47.6806
        ]
      },
      "properties": {
        "icao24": "4068f5",
        "callsign": "EXS47MA",
        "origin_country": "United Kingdom",
        "time_position": 1789860396,
        "last_contact": 1789860396,
        "baro_altitude": 10972.8,
        "on_ground": false,
        "velocity": 219.75,
        "true_track": 309.2,
        "vertical_rate": 0,
        "geo_altitude": 11460.48,
        "squawk": "5340",
        "spi": false,
        "position_source": 0
      }
    },
    {
      "type": "Feature",
      "geometry": {
        "type": "Point",
        "coordinates": [
          14.9174,
          40.0564
        ]
      },
      "properties": {
        "icao24": "738065",
        "callsign": "ELY384",
        "origin_country": "Israel",
        "time_position": 1789860396,
        "last_contact": 1789860396,
        "baro_altitude": 11887.2,
        "on_ground": false,
        "velocity": 241.96,
        "true_track": 114.49,
        "vertical_rate": -0.33,
        "geo_altitude": 12382.5,
        "squawk": null,
        "spi": false,
        "position_source": 0
      }
    },
    {
      "type": "Feature",
      "geometry": {
        "type": "Point",
        "coordinates": [
          17.4393,
          40.6899
        ]
      },
      "properties": {
        "icao24": "4bb470",
        "callsign": "MNB546",
        "origin_country": "Turkey",
        "time_position": 1789860395,
        "last_contact": 1789860395,
        "baro_altitude": 11582.4,
        "on_ground": false,
        "velocity": 221.71,
        "true_track": 273.86,
        "vertical_rate": 0,
        "geo_altitude": 12085.32,
        "squawk": "2325",
        "spi": false,
        "position_source": 0
      }
    },
    {
      "type": "Feature",
      "geometry": {
        "type": "Point",
        "coordinates": [
          12.8015,
          44.467
        ]
      },
      "properties": {
        "icao24": "738054",
        "callsign": "ELY288",
        "origin_country": "Israel",
        "time_position": 1789860396,
        "last_contact": 1789860396,
        "baro_altitude": 10668,
        "on_ground": false,
        "velocity": 230.55,
        "true_track": 110.78,
        "vertical_rate": 0,
        "geo_altitude": 11148.06,
        "squawk": "0457",
        "spi": false,
        "position_source": 0
      }
    },
    {
      "type": "Feature",
      "geometry": {
        "type": "Point",
        "coordinates": [
          18.3742,
          38.9665
        ]
      },
      "properties": {
        "icao24": "738053",
        "callsign": "ELY284",
        "origin_country": "Israel",
        "time_position": 1789860139,
        "last_contact": 1789860139,
        "baro_altitude": 10668,
        "on_ground": false,
        "velocity": 250.32,
        "true_track": 116.09,
        "vertical_rate": -0.65,
        "geo_altitude": 11186.16,
        "squawk": null,
        "spi": false,
        "position_source": 0
      }
    },
    {
      "type": "Feature",
      "geometry": {
        "type": "Point",
        "coordinates": [
          14.4264,
          47.3508
        ]
      },
      "properties": {
        "icao24": "471d61",
        "callsign": "WZZ1FA",
        "origin_country": "Hungary",
        "time_position": 1789860396,
        "last_contact": 1789860396,
        "baro_altitude": 10980.42,
        "on_ground": false,
        "velocity": 227.29,
        "true_track": 308.66,
        "vertical_rate": 0,
        "geo_altitude": 11468.1,
        "squawk": "4521",
        "spi": false,
        "position_source": 0
      }
    },
    {
      "type": "Feature",
      "geometry": {
        "type": "Point",
        "coordinates": [
          18.4682,
          39.2053
        ]
      },
      "properties": {
        "icao24": "452165",
        "callsign": "DAH3018",
        "origin_country": "Bulgaria",
        "time_position": 1789860396,
        "last_contact": 1789860396,
        "baro_altitude": 10668,
        "on_ground": false,
        "velocity": 254.78,
        "true_track": 77.76,
        "vertical_rate": -0.33,
        "geo_altitude": 11193.78,
        "squawk": "1235",
        "spi": false,
        "position_source": 0
      }
    },
    {
      "type": "Feature",
      "geometry": {
        "type": "Point",
        "coordinates": [
          12.2118,
          41.8503
        ]
      },
      "properties": {
        "icao24": "471dba",
        "callsign": "WMT7AB",
        "origin_country": "Hungary",
        "time_position": 1789860396,
        "last_contact": 1789860396,
        "baro_altitude": 152.4,
        "on_ground": false,
        "velocity": 80.53,
        "true_track": 162.14,
        "vertical_rate": -4.23,
        "geo_altitude": 281.94,
        "squawk": null,
        "spi": false,
        "position_source": 0
      }
    },
    {
      "type": "Feature",
      "geometry": {
        "type": "Point",
        "coordinates": [
          14.0029,
          47.774
        ]
      },
      "properties": {
        "icao24": "ac3fc5",
        "callsign": "FDX10",
        "origin_country": "United States",
        "time_position": 1789860396,
        "last_contact": 1789860397,
        "baro_altitude": 9448.8,
        "on_ground": false,
        "velocity": 256.23,
        "true_track": 107.89,
        "vertical_rate": 0,
        "geo_altitude": 9906,
        "squawk": "5607",
        "spi": false,
        "position_source": 0
      }
    },
    {
      "type": "Feature",
      "geometry": {
        "type": "Point",
        "coordinates": [
          18.5779,
          46.8875
        ]
      },
      "properties": {
        "icao24": "471e60",
        "callsign": "WZZ835A",
        "origin_country": "Hungary",
        "time_position": 1789860396,
        "last_contact": 1789860396,
        "baro_altitude": 5105.4,
        "on_ground": false,
        "velocity": 194.1,
        "true_track": 58.88,
        "vertical_rate": -10.73,
        "geo_altitude": 5394.96,
        "squawk": "1000",
        "spi": false,
        "position_source": 0
      }
    },
    {
      "type": "Feature",
      "geometry": {
        "type": "Point",
        "coordinates": [
          7.767,
          42.7884
        ]
      },
      "properties": {
        "icao24": "020118",
        "callsign": "MAC465",
        "origin_country": "Morocco",
        "time_position": 1789860396,
        "last_contact": 1789860396,
        "baro_altitude": 11582.4,
        "on_ground": false,
        "velocity": 202.95,
        "true_track": 40.27,
        "vertical_rate": -0.33,
        "geo_altitude": 12115.8,
        "squawk": "1000",
        "spi": false,
        "position_source": 0
      }
    },
    {
      "type": "Feature",
      "geometry": {
        "type": "Point",
        "coordinates": [
          16.5227,
          40.8005
        ]
      },
      "properties": {
        "icao24": "020124",
        "callsign": "MAC438",
        "origin_country": "Morocco",
        "time_position": 1789860396,
        "last_contact": 1789860396,
        "baro_altitude": 10370.82,
        "on_ground": false,
        "velocity": 217.88,
        "true_track": 272.84,
        "vertical_rate": 0,
        "geo_altitude": 10873.74,
        "squawk": "2311",
        "spi": false,
        "position_source": 0
      }
    },
    {
      "type": "Feature",
      "geometry": {
        "type": "Point",
        "coordinates": [
          12.5906,
          39.0809
        ]
      },
      "properties": {
        "icao24": "8963d2",
        "callsign": "UAE194",
        "origin_country": "United Arab Emirates",
        "time_position": 1789860396,
        "last_contact": 1789860396,
        "baro_altitude": 10668,
        "on_ground": false,
        "velocity": 272.48,
        "true_track": 94.55,
        "vertical_rate": -0.33,
        "geo_altitude": 11178.54,
        "squawk": "2254",
        "spi": false,
        "position_source": 0
      }
    },
    {
      "type": "Feature",
      "geometry": {
        "type": "Point",
        "coordinates": [
          17.3813,
          41.8057
        ]
      },
      "properties": {
        "icao24": "4067ee",
        "callsign": "TOM701",
        "origin_country": "United Kingdom",
        "time_position": 1789860350,
        "last_contact": 1789860350,
        "baro_altitude": 10363.2,
        "on_ground": false,
        "velocity": 221.35,
        "true_track": 321.13,
        "vertical_rate": 0,
        "geo_altitude": 10835.64,
        "squawk": null,
        "spi": false,
        "position_source": 0
      }
    },
    {
      "type": "Feature",
      "geometry": {
        "type": "Point",
        "coordinates": [
          11.0938,
          36.9747
        ]
      },
      "properties": {
        "icao24": "4baa6f",
        "callsign": "THY658",
        "origin_country": "Turkey",
        "time_position": 1789860397,
        "last_contact": 1789860397,
        "baro_altitude": 7399.02,
        "on_ground": false,
        "velocity": 223.01,
        "true_track": 56.38,
        "vertical_rate": 5.53,
        "geo_altitude": 7810.5,
        "squawk": "6136",
        "spi": false,
        "position_source": 0
      }
    },
    {
      "type": "Feature",
      "geometry": {
        "type": "Point",
        "coordinates": [
          9.3556,
          44.7796
        ]
      },
      "properties": {
        "icao24": "4bb18f",
        "callsign": "THY41J",
        "origin_country": "Turkey",
        "time_position": 1789860396,
        "last_contact": 1789860396,
        "baro_altitude": 11887.2,
        "on_ground": false,
        "velocity": 240.97,
        "true_track": 98.72,
        "vertical_rate": -0.33,
        "geo_altitude": 12412.98,
        "squawk": "0406",
        "spi": false,
        "position_source": 0
      }
    },
    {
      "type": "Feature",
      "geometry": {
        "type": "Point",
        "coordinates": [
          17.4649,
          46.5205
        ]
      },
      "properties": {
        "icao24": "4bb18a",
        "callsign": "THY4RN",
        "origin_country": "Turkey",
        "time_position": 1789860396,
        "last_contact": 1789860396,
        "baro_altitude": 11887.2,
        "on_ground": false,
        "velocity": 252.05,
        "true_track": 119.6,
        "vertical_rate": -0.33,
        "geo_altitude": 12344.4,
        "squawk": "1167",
        "spi": false,
        "position_source": 0
      }
    },
    {
      "type": "Feature",
      "geometry": {
        "type": "Point",
        "coordinates": [
          12.1034,
          43.5479
        ]
      },
      "properties": {
        "icao24": "4ca961",
        "callsign": "NOS6149",
        "origin_country": "Ireland",
        "time_position": 1789860396,
        "last_contact": 1789860396,
        "baro_altitude": 10972.8,
        "on_ground": false,
        "velocity": 237.48,
        "true_track": 295.4,
        "vertical_rate": 0,
        "geo_altitude": 11452.86,
        "squawk": "5535",
        "spi": false,
        "position_source": 0
      }
    },
    {
      "type": "Feature",
      "geometry": {
        "type": "Point",
        "coordinates": [
          12.2258,
          41.8168
        ]
      },
      "properties": {
        "icao24": "4ca84d",
        "callsign": "RYR2EC",
        "origin_country": "Ireland",
        "time_position": 1789860252,
        "last_contact": 1789860252,
        "baro_altitude": -45.72,
        "on_ground": false,
        "velocity": 76.14,
        "true_track": 162.3,
        "vertical_rate": -3.25,
        "geo_altitude": 83.82,
        "squawk": null,
        "spi": false,
        "position_source": 0
      }
    },
    {
      "type": "Feature",
      "geometry": {
        "type": "Point",
        "coordinates": [
          18.9097,
          46.9993
        ]
      },
      "properties": {
        "icao24": "5084d1",
        "callsign": "MGH628",
        "origin_country": "Ukraine",
        "time_position": 1789860396,
        "last_contact": 1789860396,
        "baro_altitude": 10668,
        "on_ground": false,
        "velocity": 244.27,
        "true_track": 146.08,
        "vertical_rate": 0,
        "geo_altitude": 11102.34,
        "squawk": "7614",
        "spi": false,
        "position_source": 0
      }
    },
    {
      "type": "Feature",
      "geometry": {
        "type": "Point",
        "coordinates": [
          18.6485,
          47.0431
        ]
      },
      "properties": {
        "icao24": "49d5ee",
        "callsign": "TVS6EH",
        "origin_country": "Czech Republic",
        "time_position": 1789860396,
        "last_contact": 1789860397,
        "baro_altitude": 10972.8,
        "on_ground": false,
        "velocity": 221.54,
        "true_track": 307.64,
        "vertical_rate": 0,
        "geo_altitude": 11399.52,
        "squawk": "6020",
        "spi": false,
        "position_source": 0
      }
    },
    {
      "type": "Feature",
      "geometry": {
        "type": "Point",
        "coordinates": [
          8.7698,
          45.4597
        ]
      },
      "properties": {
        "icao24": "4ca847",
        "callsign": "RYR3TJ",
        "origin_country": "Ireland",
        "time_position": 1789860396,
        "last_contact": 1789860396,
        "baro_altitude": 1028.7,
        "on_ground": false,
        "velocity": 100.59,
        "true_track": 349.09,
        "vertical_rate": -4.88,
        "geo_altitude": 1203.96,
        "squawk": "1000",
        "spi": false,
        "position_source": 0
      }
    },
    {
      "type": "Feature",
      "geometry": {
        "type": "Point",
        "coordinates": [
          17.582,
          47.7302
        ]
      },
      "properties": {
        "icao24": "4bcdf9",
        "callsign": "SXS93K",
        "origin_country": "Turkey",
        "time_position": 1789860396,
        "last_contact": 1789860396,
        "baro_altitude": 11582.4,
        "on_ground": false,
        "velocity": 221.85,
        "true_track": 307.75,
        "vertical_rate": -0.33,
        "geo_altitude": 12024.36,
        "squawk": "5373",
        "spi": false,
        "position_source": 0
      }
    },
    {
      "type": "Feature",
      "geometry": {
        "type": "Point",
        "coordinates": [
          12.7173,
          36.3912
        ]
      },
      "properties": {
        "icao24": "34644d",
        "callsign": "IBS1904",
        "origin_country": "Spain",
        "time_position": 1789860396,
        "last_contact": 1789860396,
        "baro_altitude": 9753.6,
        "on_ground": false,
        "velocity": 214.06,
        "true_track": 278.99,
        "vertical_rate": 0,
        "geo_altitude": 10309.86,
        "squawk": "5520",
        "spi": false,
        "position_source": 0
      }
    },
    {
      "type": "Feature",
      "geometry": {
        "type": "Point",
        "coordinates": [
          13.177,
          47.7971
        ]
      },
      "properties": {
        "icao24": "4bcdba",
        "callsign": "SXS2NB",
        "origin_country": "Turkey",
        "time_position": 1789860396,
        "last_contact": 1789860397,
        "baro_altitude": 11277.6,
        "on_ground": false,
        "velocity": 243.32,
        "true_track": 129.68,
        "vertical_rate": 0,
        "geo_altitude": 11772.9,
        "squawk": "6423",
        "spi": false,
        "position_source": 0
      }
    },
    {
      "type": "Feature",
      "geometry": {
        "type": "Point",
        "coordinates": [
          10.0191,
          38.4504
        ]
      },
      "properties": {
        "icao24": "02a261",
        "callsign": "TAR725",
        "origin_country": "Tunisia",
        "time_position": 1789860316,
        "last_contact": 1789860317,
        "baro_altitude": 8549.64,
        "on_ground": false,
        "velocity": 218.12,
        "true_track": 152.77,
        "vertical_rate": -11.38,
        "geo_altitude": 9014.46,
        "squawk": "0203",
        "spi": false,
        "position_source": 0
      }
    },
    {
      "type": "Feature",
      "geometry": {
        "type": "Point",
        "coordinates": [
          12.5546,
          45.3525
        ]
      },
      "properties": {
        "icao24": "507cb9",
        "callsign": "QNT416",
        "origin_country": "Uzbekistan",
        "time_position": 1789860397,
        "last_contact": 1789860397,
        "baro_altitude": 10668,
        "on_ground": false,
        "velocity": 231.21,
        "true_track": 94.59,
        "vertical_rate": 0,
        "geo_altitude": 11178.54,
        "squawk": "0425",
        "spi": false,
        "position_source": 0
      }
    },
    {
      "type": "Feature",
      "geometry": {
        "type": "Point",
        "coordinates": [
          13.9276,
          46.5809
        ]
      },
      "properties": {
        "icao24": "40665f",
        "callsign": "TOM213",
        "origin_country": "United Kingdom",
        "time_position": 1789860396,
        "last_contact": 1789860396,
        "baro_altitude": 10363.2,
        "on_ground": false,
        "velocity": 231.48,
        "true_track": 309.14,
        "vertical_rate": 0,
        "geo_altitude": 10843.26,
        "squawk": "5321",
        "spi": false,
        "position_source": 0
      }
    },
    {
      "type": "Feature",
      "geometry": {
        "type": "Point",
        "coordinates": [
          16.4942,
          45.7803
        ]
      },
      "properties": {
        "icao24": "4bcda9",
        "callsign": "SXS5WD",
        "origin_country": "Turkey",
        "time_position": 1789860396,
        "last_contact": 1789860396,
        "baro_altitude": 11277.6,
        "on_ground": false,
        "velocity": 237.96,
        "true_track": 131.58,
        "vertical_rate": 0,
        "geo_altitude": 11750.04,
        "squawk": "2216",
        "spi": false,
        "position_source": 0
      }
    },
    {
      "type": "Feature",
      "geometry": {
        "type": "Point",
        "coordinates": [
          14.8866,
          47.5402
        ]
      },
      "properties": {
        "icao24": "4bcdb4",
        "callsign": "SXS3DZ",
        "origin_country": "Turkey",
        "time_position": 1789860396,
        "last_contact": 1789860396,
        "baro_altitude": 10972.8,
        "on_ground": false,
        "velocity": 226.4,
        "true_track": 300.29,
        "vertical_rate": 0,
        "geo_altitude": 11452.86,
        "squawk": "3230",
        "spi": false,
        "position_source": 0
      }
    },
    {
      "type": "Feature",
      "geometry": {
        "type": "Point",
        "coordinates": [
          6.9954,
          38.6901
        ]
      },
      "properties": {
        "icao24": "3c71a1",
        "callsign": "BCS080",
        "origin_country": "Germany",
        "time_position": 1789860396,
        "last_contact": 1789860396,
        "baro_altitude": 11582.4,
        "on_ground": false,
        "velocity": 243.41,
        "true_track": 5.46,
        "vertical_rate": 0,
        "geo_altitude": 12092.94,
        "squawk": "3157",
        "spi": false,
        "position_source": 0
      }
    },
    {
      "type": "Feature",
      "geometry": {
        "type": "Point",
        "coordinates": [
          18.5165,
          43.6087
        ]
      },
      "properties": {
        "icao24": "407913",
        "callsign": "EXS6MN",
        "origin_country": "United Kingdom",
        "time_position": 1789860394,
        "last_contact": 1789860396,
        "baro_altitude": 10972.8,
        "on_ground": false,
        "velocity": 217.55,
        "true_track": 314.23,
        "vertical_rate": 0.33,
        "geo_altitude": 11422.38,
        "squawk": "5631",
        "spi": false,
        "position_source": 0
      }
    },
    {
      "type": "Feature",
      "geometry": {
        "type": "Point",
        "coordinates": [
          8.2872,
          44.125
        ]
      },
      "properties": {
        "icao24": "4ca64e",
        "callsign": "RYR4LN",
        "origin_country": "Ireland",
        "time_position": 1789860396,
        "last_contact": 1789860396,
        "baro_altitude": 9144,
        "on_ground": false,
        "velocity": 215.87,
        "true_track": 37.25,
        "vertical_rate": 0,
        "geo_altitude": 9616.44,
        "squawk": "1000",
        "spi": false,
        "position_source": 0
      }
    },
    {
      "type": "Feature",
      "geometry": {
        "type": "Point",
        "coordinates": [
          9.4036,
          45.5114
        ]
      },
      "properties": {
        "icao24": "42441f",
        "callsign": "AZG1804",
        "origin_country": "United Kingdom",
        "time_position": 1789860396,
        "last_contact": 1789860396,
        "baro_altitude": 3688.08,
        "on_ground": false,
        "velocity": 203.47,
        "true_track": 92.9,
        "vertical_rate": 8.45,
        "geo_altitude": 3947.16,
        "squawk": "0452",
        "spi": false,
        "position_source": 0
      }
    },
    {
      "type": "Feature",
      "geometry": {
        "type": "Point",
        "coordinates": [
          18.2253,
          46.3178
        ]
      },
      "properties": {
        "icao24": "4bce14",
        "callsign": "SXS1ZQ",
        "origin_country": "Turkey",
        "time_position": 1789860396,
        "last_contact": 1789860396,
        "baro_altitude": 10668,
        "on_ground": false,
        "velocity": 238.95,
        "true_track": 128,
        "vertical_rate": 0,
        "geo_altitude": 11109.96,
        "squawk": "4533",
        "spi": false,
        "position_source": 0
      }
    },
    {
      "type": "Feature",
      "geometry": {
        "type": "Point",
        "coordinates": [
          16.4464,
          45.0435
        ]
      },
      "properties": {
        "icao24": "4bcd86",
        "callsign": "SXS2BQ",
        "origin_country": "Turkey",
        "time_position": 1789860396,
        "last_contact": 1789860396,
        "baro_altitude": 11887.2,
        "on_ground": false,
        "velocity": 242.67,
        "true_track": 130.44,
        "vertical_rate": 0,
        "geo_altitude": 12359.64,
        "squawk": "2265",
        "spi": false,
        "position_source": 0
      }
    },
    {
      "type": "Feature",
      "geometry": {
        "type": "Point",
        "coordinates": [
          14.9752,
          46.4216
        ]
      },
      "properties": {
        "icao24": "4075af",
        "callsign": "EXS3ML",
        "origin_country": "United Kingdom",
        "time_position": 1789860396,
        "last_contact": 1789860396,
        "baro_altitude": 10972.8,
        "on_ground": false,
        "velocity": 226.08,
        "true_track": 299.89,
        "vertical_rate": 0,
        "geo_altitude": 11437.62,
        "squawk": "3221",
        "spi": false,
        "position_source": 0
      }
    },
    {
      "type": "Feature",
      "geometry": {
        "type": "Point",
        "coordinates": [
          18.902,
          47.0201
        ]
      },
      "properties": {
        "icao24": "4bcd83",
        "callsign": "SXS4BD",
        "origin_country": "Turkey",
        "time_position": 1789860396,
        "last_contact": 1789860396,
        "baro_altitude": 10972.8,
        "on_ground": false,
        "velocity": 225.15,
        "true_track": 307.76,
        "vertical_rate": 0,
        "geo_altitude": 11407.14,
        "squawk": "5332",
        "spi": false,
        "position_source": 0
      }
    },
    {
      "type": "Feature",
      "geometry": {
        "type": "Point",
        "coordinates": [
          18.4357,
          38.7951
        ]
      },
      "properties": {
        "icao24": "040134",
        "callsign": "ETH727",
        "origin_country": "Ethiopia",
        "time_position": 1789860261,
        "last_contact": 1789860304,
        "baro_altitude": 11887.2,
        "on_ground": false,
        "velocity": 269.66,
        "true_track": 121.9,
        "vertical_rate": 0,
        "geo_altitude": 12405.36,
        "squawk": "0207",
        "spi": false,
        "position_source": 0
      }
    },
    {
      "type": "Feature",
      "geometry": {
        "type": "Point",
        "coordinates": [
          11.5709,
          39.0713
        ]
      },
      "properties": {
        "icao24": "407688",
        "callsign": "EZY25CQ",
        "origin_country": "United Kingdom",
        "time_position": 1789860396,
        "last_contact": 1789860396,
        "baro_altitude": 10965.18,
        "on_ground": false,
        "velocity": 211.58,
        "true_track": 301.68,
        "vertical_rate": 0,
        "geo_altitude": 11468.1,
        "squawk": "6573",
        "spi": false,
        "position_source": 0
      }
    },
    {
      "type": "Feature",
      "geometry": {
        "type": "Point",
        "coordinates": [
          16.7674,
          41.1155
        ]
      },
      "properties": {
        "icao24": "394a17",
        "callsign": "AFR672",
        "origin_country": "France",
        "time_position": 1789860396,
        "last_contact": 1789860396,
        "baro_altitude": 9448.8,
        "on_ground": false,
        "velocity": 258.31,
        "true_track": 135.97,
        "vertical_rate": 0.33,
        "geo_altitude": 9928.86,
        "squawk": "7555",
        "spi": false,
        "position_source": 0
      }
    },
    {
      "type": "Feature",
      "geometry": {
        "type": "Point",
        "coordinates": [
          7.6491,
          45.1642
        ]
      },
      "properties": {
        "icao24": "300888",
        "callsign": "IMAVV",
        "origin_country": "Italy",
        "time_position": 1789860396,
        "last_contact": 1789860396,
        "baro_altitude": 381,
        "on_ground": false,
        "velocity": 47.57,
        "true_track": 338.43,
        "vertical_rate": -2.6,
        "geo_altitude": 525.78,
        "squawk": "0500",
        "spi": false,
        "position_source": 0
      }
    },
    {
      "type": "Feature",
      "geometry": {
        "type": "Point",
        "coordinates": [
          10.0714,
          46.4574
        ]
      },
      "properties": {
        "icao24": "04004b",
        "callsign": "ETH575",
        "origin_country": "Ethiopia",
        "time_position": 1789860396,
        "last_contact": 1789860396,
        "baro_altitude": 11887.2,
        "on_ground": false,
        "velocity": 263.37,
        "true_track": 135,
        "vertical_rate": -0.33,
        "geo_altitude": 12428.22,
        "squawk": "2206",
        "spi": false,
        "position_source": 0
      }
    },
    {
      "type": "Feature",
      "geometry": {
        "type": "Point",
        "coordinates": [
          9.4363,
          47.1917
        ]
      },
      "properties": {
        "icao24": "407794",
        "callsign": "EZY56MX",
        "origin_country": "United Kingdom",
        "time_position": 1789860396,
        "last_contact": 1789860397,
        "baro_altitude": 11574.78,
        "on_ground": false,
        "velocity": 215.6,
        "true_track": 304.11,
        "vertical_rate": 0,
        "geo_altitude": 12100.56,
        "squawk": "7520",
        "spi": false,
        "position_source": 0
      }
    },
    {
      "type": "Feature",
      "geometry": {
        "type": "Point",
        "coordinates": [
          10.5038,
          47.5998
        ]
      },
      "properties": {
        "icao24": "01025e",
        "callsign": "MSR988",
        "origin_country": "Egypt",
        "time_position": 1789860396,
        "last_contact": 1789860396,
        "baro_altitude": 11277.6,
        "on_ground": false,
        "velocity": 263.89,
        "true_track": 116.76,
        "vertical_rate": -0.33,
        "geo_altitude": 11803.38,
        "squawk": "1144",
        "spi": false,
        "position_source": 0
      }
    },
    {
      "type": "Feature",
      "geometry": {
        "type": "Point",
        "coordinates": [
          18.4275,
          42.6922
        ]
      },
      "properties": {
        "icao24": "01020a",
        "callsign": "MSR780",
        "origin_country": "Egypt",
        "time_position": 1789860388,
        "last_contact": 1789860396,
        "baro_altitude": 11277.6,
        "on_ground": false,
        "velocity": 247.11,
        "true_track": 138.54,
        "vertical_rate": 0,
        "geo_altitude": 11750.04,
        "squawk": "1156",
        "spi": false,
        "position_source": 0
      }
    },
    {
      "type": "Feature",
      "geometry": {
        "type": "Point",
        "coordinates": [
          11.3129,
          44.5071
        ]
      },
      "properties": {
        "icao24": "3008b7",
        "callsign": "IATLS",
        "origin_country": "Italy",
        "time_position": 1789860312,
        "last_contact": 1789860315,
        "baro_altitude": 7.62,
        "on_ground": false,
        "velocity": 2.91,
        "true_track": 225,
        "vertical_rate": -1.63,
        "geo_altitude": 137.16,
        "squawk": "6201",
        "spi": false,
        "position_source": 0
      }
    },
    {
      "type": "Feature",
      "geometry": {
        "type": "Point",
        "coordinates": [
          17.8918,
          35.7068
        ]
      },
      "properties": {
        "icao24": "06a2ee",
        "callsign": "QTR152",
        "origin_country": "Qatar",
        "time_position": 1789860397,
        "last_contact": 1789860397,
        "baro_altitude": 11269.98,
        "on_ground": false,
        "velocity": 278.78,
        "true_track": 103.01,
        "vertical_rate": 0,
        "geo_altitude": 11887.2,
        "squawk": "6151",
        "spi": false,
        "position_source": 0
      }
    },
    {
      "type": "Feature",
      "geometry": {
        "type": "Point",
        "coordinates": [
          17.639,
          47.4282
        ]
      },
      "properties": {
        "icao24": "01028e",
        "callsign": "NMA750",
        "origin_country": "Egypt",
        "time_position": 1789860396,
        "last_contact": 1789860396,
        "baro_altitude": 10972.8,
        "on_ground": false,
        "velocity": 218.41,
        "true_track": 318.92,
        "vertical_rate": 0.33,
        "geo_altitude": 11414.76,
        "squawk": "2640",
        "spi": false,
        "position_source": 0
      }
    },
    {
      "type": "Feature",
      "geometry": {
        "type": "Point",
        "coordinates": [
          15.6498,
          40.707
        ]
      },
      "properties": {
        "icao24": "502ce6",
        "callsign": "BTI8CH",
        "origin_country": "Latvia",
        "time_position": 1789860396,
        "last_contact": 1789860396,
        "baro_altitude": 11582.4,
        "on_ground": false,
        "velocity": 229.59,
        "true_track": 2.05,
        "vertical_rate": 0,
        "geo_altitude": 12085.32,
        "squawk": "6566",
        "spi": false,
        "position_source": 0
      }
    },
    {
      "type": "Feature",
      "geometry": {
        "type": "Point",
        "coordinates": [
          10.9301,
          45.9161
        ]
      },
      "properties": {
        "icao24": "502ce3",
        "callsign": "BTI89Q",
        "origin_country": "Latvia",
        "time_position": 1789860396,
        "last_contact": 1789860396,
        "baro_altitude": 10972.8,
        "on_ground": false,
        "velocity": 217.19,
        "true_track": 45.86,
        "vertical_rate": 0,
        "geo_altitude": 11490.96,
        "squawk": "1000",
        "spi": false,
        "position_source": 0
      }
    },
    {
      "type": "Feature",
      "geometry": {
        "type": "Point",
        "coordinates": [
          11.8363,
          47.0928
        ]
      },
      "properties": {
        "icao24": "0101e0",
        "callsign": "MSR996",
        "origin_country": "Egypt",
        "time_position": 1789860396,
        "last_contact": 1789860396,
        "baro_altitude": 11887.2,
        "on_ground": false,
        "velocity": 254.96,
        "true_track": 117.65,
        "vertical_rate": 0.33,
        "geo_altitude": 12405.36,
        "squawk": "2260",
        "spi": false,
        "position_source": 0
      }
    },
    {
      "type": "Feature",
      "geometry": {
        "type": "Point",
        "coordinates": [
          13.5617,
          47.3313
        ]
      },
      "properties": {
        "icao24": "4075f3",
        "callsign": "TOM81D",
        "origin_country": "United Kingdom",
        "time_position": 1789860396,
        "last_contact": 1789860397,
        "baro_altitude": 11582.4,
        "on_ground": false,
        "velocity": 225.74,
        "true_track": 304.41,
        "vertical_rate": 0,
        "geo_altitude": 12085.32,
        "squawk": "5457",
        "spi": false,
        "position_source": 0
      }
    },
    {
      "type": "Feature",
      "geometry": {
        "type": "Point",
        "coordinates": [
          14.1378,
          46.0763
        ]
      },
      "properties": {
        "icao24": "0101dd",
        "callsign": "MSR982",
        "origin_country": "Egypt",
        "time_position": 1789860396,
        "last_contact": 1789860396,
        "baro_altitude": 11887.2,
        "on_ground": false,
        "velocity": 252.58,
        "true_track": 133.18,
        "vertical_rate": -0.33,
        "geo_altitude": 12382.5,
        "squawk": "1143",
        "spi": false,
        "position_source": 0
      }
    },
    {
      "type": "Feature",
      "geometry": {
        "type": "Point",
        "coordinates": [
          13.5792,
          45.2635
        ]
      },
      "properties": {
        "icao24": "300990",
        "callsign": "LSI156",
        "origin_country": "Italy",
        "time_position": 1789860396,
        "last_contact": 1789860396,
        "baro_altitude": 10972.8,
        "on_ground": false,
        "velocity": 254.14,
        "true_track": 270,
        "vertical_rate": 0,
        "geo_altitude": 11460.48,
        "squawk": "2333",
        "spi": false,
        "position_source": 0
      }
    },
    {
      "type": "Feature",
      "geometry": {
        "type": "Point",
        "coordinates": [
          15.0177,
          40.1867
        ]
      },
      "properties": {
        "icao24": "4caeaf",
        "callsign": "NOS6243",
        "origin_country": "Ireland",
        "time_position": 1789860396,
        "last_contact": 1789860396,
        "baro_altitude": 10363.2,
        "on_ground": false,
        "velocity": 232.63,
        "true_track": 311.05,
        "vertical_rate": 0,
        "geo_altitude": 10850.88,
        "squawk": null,
        "spi": false,
        "position_source": 0
      }
    },
    {
      "type": "Feature",
      "geometry": {
        "type": "Point",
        "coordinates": [
          14.5501,
          46.5877
        ]
      },
      "properties": {
        "icao24": "407fac",
        "callsign": "TOM23W",
        "origin_country": "United Kingdom",
        "time_position": 1789860396,
        "last_contact": 1789860396,
        "baro_altitude": 10363.2,
        "on_ground": false,
        "velocity": 226.92,
        "true_track": 320.43,
        "vertical_rate": 0,
        "geo_altitude": 10843.26,
        "squawk": "5510",
        "spi": false,
        "position_source": 0
      }
    },
    {
      "type": "Feature",
      "geometry": {
        "type": "Point",
        "coordinates": [
          17.0767,
          47.0677
        ]
      },
      "properties": {
        "icao24": "ac50fa",
        "callsign": "FDX5603",
        "origin_country": "United States",
        "time_position": 1789860396,
        "last_contact": 1789860396,
        "baro_altitude": 9448.8,
        "on_ground": false,
        "velocity": 256.38,
        "true_track": 110.43,
        "vertical_rate": 0,
        "geo_altitude": 9890.76,
        "squawk": "5605",
        "spi": false,
        "position_source": 0
      }
    },
    {
      "type": "Feature",
      "geometry": {
        "type": "Point",
        "coordinates": [
          10.7242,
          45.2063
        ]
      },
      "properties": {
        "icao24": "3004c2",
        "callsign": "NOS69MR",
        "origin_country": "Italy",
        "time_position": 1789860396,
        "last_contact": 1789860396,
        "baro_altitude": 1463.04,
        "on_ground": false,
        "velocity": 113.5,
        "true_track": 315.73,
        "vertical_rate": -4.88,
        "geo_altitude": 1645.92,
        "squawk": "2003",
        "spi": false,
        "position_source": 0
      }
    },
    {
      "type": "Feature",
      "geometry": {
        "type": "Point",
        "coordinates": [
          10.2501,
          43.3346
        ]
      },
      "properties": {
        "icao24": "4ca2ad",
        "callsign": "RYR5EA",
        "origin_country": "Ireland",
        "time_position": 1789860382,
        "last_contact": 1789860383,
        "baro_altitude": 1889.76,
        "on_ground": false,
        "velocity": 139.26,
        "true_track": 341.03,
        "vertical_rate": -6.83,
        "geo_altitude": 2095.5,
        "squawk": "5107",
        "spi": false,
        "position_source": 0
      }
    },
    {
      "type": "Feature",
      "geometry": {
        "type": "Point",
        "coordinates": [
          17.5592,
          44.3976
        ]
      },
      "properties": {
        "icao24": "40745e",
        "callsign": "TOM19E",
        "origin_country": "United Kingdom",
        "time_position": 1789860396,
        "last_contact": 1789860396,
        "baro_altitude": 12184.38,
        "on_ground": false,
        "velocity": 239.95,
        "true_track": 307.51,
        "vertical_rate": -0.33,
        "geo_altitude": 12649.2,
        "squawk": "2035",
        "spi": false,
        "position_source": 0
      }
    },
    {
      "type": "Feature",
      "geometry": {
        "type": "Point",
        "coordinates": [
          18.3349,
          42.1033
        ]
      },
      "properties": {
        "icao24": "44083f",
        "callsign": "EJU65WZ",
        "origin_country": "Austria",
        "time_position": 1789860388,
        "last_contact": 1789860389,
        "baro_altitude": 10972.8,
        "on_ground": false,
        "velocity": 221.19,
        "true_track": 320.76,
        "vertical_rate": 0.33,
        "geo_altitude": 11468.1,
        "squawk": null,
        "spi": false,
        "position_source": 0
      }
    },
    {
      "type": "Feature",
      "geometry": {
        "type": "Point",
        "coordinates": [
          12.9474,
          42.4823
        ]
      },
      "properties": {
        "icao24": "49d365",
        "callsign": "TVQ6469",
        "origin_country": "Czech Republic",
        "time_position": 1789860396,
        "last_contact": 1789860396,
        "baro_altitude": 11582.4,
        "on_ground": false,
        "velocity": 223.76,
        "true_track": 16.98,
        "vertical_rate": 0.33,
        "geo_altitude": 12047.22,
        "squawk": "6142",
        "spi": false,
        "position_source": 0
      }
    },
    {
      "type": "Feature",
      "geometry": {
        "type": "Point",
        "coordinates": [
          16.5274,
          42.2729
        ]
      },
      "properties": {
        "icao24": "48e9f3",
        "callsign": "RYR71QD",
        "origin_country": "Poland",
        "time_position": 1789860283,
        "last_contact": 1789860284,
        "baro_altitude": 9151.62,
        "on_ground": false,
        "velocity": 239.2,
        "true_track": 356.3,
        "vertical_rate": 6.83,
        "geo_altitude": 9585.96,
        "squawk": null,
        "spi": false,
        "position_source": 0
      }
    },
    {
      "type": "Feature",
      "geometry": {
        "type": "Point",
        "coordinates": [
          15.1118,
          44.0899
        ]
      },
      "properties": {
        "icao24": "4072a4",
        "callsign": "TOM2KA",
        "origin_country": "United Kingdom",
        "time_position": 1789860396,
        "last_contact": 1789860397,
        "baro_altitude": 10972.8,
        "on_ground": false,
        "velocity": 231.71,
        "true_track": 308.6,
        "vertical_rate": 0,
        "geo_altitude": 11430,
        "squawk": "0535",
        "spi": false,
        "position_source": 0
      }
    },
    {
      "type": "Feature",
      "geometry": {
        "type": "Point",
        "coordinates": [
          11.6569,
          43.6049
        ]
      },
      "properties": {
        "icao24": "4d241f",
        "callsign": "WMT892",
        "origin_country": "Malta",
        "time_position": 1789860396,
        "last_contact": 1789860396,
        "baro_altitude": 10355.58,
        "on_ground": false,
        "velocity": 240.64,
        "true_track": 299.03,
        "vertical_rate": 0.33,
        "geo_altitude": 10843.26,
        "squawk": "5537",
        "spi": false,
        "position_source": 0
      }
    },
    {
      "type": "Feature",
      "geometry": {
        "type": "Point",
        "coordinates": [
          16.591,
          41.9075
        ]
      },
      "properties": {
        "icao24": "503e61",
        "callsign": "CXI9A",
        "origin_country": "Lithuania",
        "time_position": 1789860396,
        "last_contact": 1789860396,
        "baro_altitude": 10370.82,
        "on_ground": false,
        "velocity": 222.19,
        "true_track": 310.59,
        "vertical_rate": 0,
        "geo_altitude": 10850.88,
        "squawk": null,
        "spi": false,
        "position_source": 0
      }
    },
    {
      "type": "Feature",
      "geometry": {
        "type": "Point",
        "coordinates": [
          8.7319,
          45.5979
        ]
      },
      "properties": {
        "icao24": "4d2427",
        "callsign": "WMT6VM",
        "origin_country": "Malta",
        "time_position": 1789860396,
        "last_contact": 1789860397,
        "baro_altitude": 236.22,
        "on_ground": false,
        "velocity": 67.09,
        "true_track": 348.95,
        "vertical_rate": -3.58,
        "geo_altitude": 381,
        "squawk": "1000",
        "spi": false,
        "position_source": 0
      }
    },
    {
      "type": "Feature",
      "geometry": {
        "type": "Point",
        "coordinates": [
          14.0635,
          40.0883
        ]
      },
      "properties": {
        "icao24": "4cade7",
        "callsign": "RYR72XH",
        "origin_country": "Ireland",
        "time_position": 1789860395,
        "last_contact": 1789860395,
        "baro_altitude": 11887.2,
        "on_ground": false,
        "velocity": 230.07,
        "true_track": 159.17,
        "vertical_rate": -0.65,
        "geo_altitude": 12382.5,
        "squawk": "0515",
        "spi": false,
        "position_source": 0
      }
    },
    {
      "type": "Feature",
      "geometry": {
        "type": "Point",
        "coordinates": [
          11.3529,
          45.6376
        ]
      },
      "properties": {
        "icao24": "4ba892",
        "callsign": "THY6429",
        "origin_country": "Turkey",
        "time_position": 1789860396,
        "last_contact": 1789860397,
        "baro_altitude": 7658.1,
        "on_ground": false,
        "velocity": 212.53,
        "true_track": 271.39,
        "vertical_rate": -5.2,
        "geo_altitude": 8107.68,
        "squawk": "2342",
        "spi": false,
        "position_source": 0
      }
    },
    {
      "type": "Feature",
      "geometry": {
        "type": "Point",
        "coordinates": [
          12.0887,
          45.2785
        ]
      },
      "properties": {
        "icao24": "4ca251",
        "callsign": "RYR83ZV",
        "origin_country": "Ireland",
        "time_position": 1789860396,
        "last_contact": 1789860396,
        "baro_altitude": 1562.1,
        "on_ground": false,
        "velocity": 118.99,
        "true_track": 28.12,
        "vertical_rate": -6.18,
        "geo_altitude": 1760.22,
        "squawk": "1000",
        "spi": false,
        "position_source": 0
      }
    },
    {
      "type": "Feature",
      "geometry": {
        "type": "Point",
        "coordinates": [
          15.6077,
          39.4553
        ]
      },
      "properties": {
        "icao24": "4ca245",
        "callsign": "RYR13LL",
        "origin_country": "Ireland",
        "time_position": 1789860396,
        "last_contact": 1789860396,
        "baro_altitude": 6888.48,
        "on_ground": false,
        "velocity": 200.58,
        "true_track": 324.39,
        "vertical_rate": 8.78,
        "geo_altitude": 7277.1,
        "squawk": null,
        "spi": false,
        "position_source": 0
      }
    },
    {
      "type": "Feature",
      "geometry": {
        "type": "Point",
        "coordinates": [
          12.1905,
          43.156
        ]
      },
      "properties": {
        "icao24": "4d22b9",
        "callsign": "RYR7GC",
        "origin_country": "Malta",
        "time_position": 1789860397,
        "last_contact": 1789860397,
        "baro_altitude": 10972.8,
        "on_ground": false,
        "velocity": 220.08,
        "true_track": 44.91,
        "vertical_rate": 0,
        "geo_altitude": 11483.34,
        "squawk": "1000",
        "spi": false,
        "position_source": 0
      }
    },
    {
      "type": "Feature",
      "geometry": {
        "type": "Point",
        "coordinates": [
          13.6971,
          37.1099
        ]
      },
      "properties": {
        "icao24": "4cae4b",
        "callsign": "RYR93WG",
        "origin_country": "Ireland",
        "time_position": 1789860396,
        "last_contact": 1789860396,
        "baro_altitude": 8778.24,
        "on_ground": false,
        "velocity": 213.61,
        "true_track": 145.7,
        "vertical_rate": -9.1,
        "geo_altitude": 9288.78,
        "squawk": "0521",
        "spi": false,
        "position_source": 0
      }
    },
    {
      "type": "Feature",
      "geometry": {
        "type": "Point",
        "coordinates": [
          15.5752,
          36.3991
        ]
      },
      "properties": {
        "icao24": "4cae6a",
        "callsign": "RYR9257",
        "origin_country": "Ireland",
        "time_position": 1789860397,
        "last_contact": 1789860397,
        "baro_altitude": 6842.76,
        "on_ground": false,
        "velocity": 207.72,
        "true_track": 224.5,
        "vertical_rate": -13,
        "geo_altitude": 7277.1,
        "squawk": "3726",
        "spi": false,
        "position_source": 0
      }
    },
    {
      "type": "Feature",
      "geometry": {
        "type": "Point",
        "coordinates": [
          9.1978,
          44.8946
        ]
      },
      "properties": {
        "icao24": "4ca27a",
        "callsign": "RYR9JF",
        "origin_country": "Ireland",
        "time_position": 1789860397,
        "last_contact": 1789860397,
        "baro_altitude": 11582.4,
        "on_ground": false,
        "velocity": 213.53,
        "true_track": 44.9,
        "vertical_rate": 0,
        "geo_altitude": 12100.56,
        "squawk": "0440",
        "spi": false,
        "position_source": 0
      }
    },
    {
      "type": "Feature",
      "geometry": {
        "type": "Point",
        "coordinates": [
          9.0465,
          47.0661
        ]
      },
      "properties": {
        "icao24": "407fff",
        "callsign": "EZY89KT",
        "origin_country": "United Kingdom",
        "time_position": 1789860396,
        "last_contact": 1789860396,
        "baro_altitude": 10980.42,
        "on_ground": false,
        "velocity": 215.78,
        "true_track": 306.08,
        "vertical_rate": 0,
        "geo_altitude": 11513.82,
        "squawk": "2754",
        "spi": false,
        "position_source": 0
      }
    },
    {
      "type": "Feature",
      "geometry": {
        "type": "Point",
        "coordinates": [
          14.4933,
          35.8479
        ]
      },
      "properties": {
        "icao24": "4d2304",
        "callsign": "RYR70CR",
        "origin_country": "Malta",
        "time_position": 1789860395,
        "last_contact": 1789860395,
        "baro_altitude": null,
        "on_ground": true,
        "velocity": 0,
        "true_track": 225,
        "vertical_rate": null,
        "geo_altitude": null,
        "squawk": "2215",
        "spi": false,
        "position_source": 0
      }
    },
    {
      "type": "Feature",
      "geometry": {
        "type": "Point",
        "coordinates": [
          8.9328,
          45.9764
        ]
      },
      "properties": {
        "icao24": "4d234c",
        "callsign": "RYR52TC",
        "origin_country": "Malta",
        "time_position": 1789860396,
        "last_contact": 1789860396,
        "baro_altitude": 6256.02,
        "on_ground": false,
        "velocity": 203.22,
        "true_track": 126.14,
        "vertical_rate": -10.4,
        "geo_altitude": 6667.5,
        "squawk": "6370",
        "spi": false,
        "position_source": 0
      }
    },
    {
      "type": "Feature",
      "geometry": {
        "type": "Point",
        "coordinates": [
          17.9129,
          42.406
        ]
      },
      "properties": {
        "icao24": "406b13",
        "callsign": "TOM96B",
        "origin_country": "United Kingdom",
        "time_position": 1789860380,
        "last_contact": 1789860380,
        "baro_altitude": 13098.78,
        "on_ground": false,
        "velocity": 240.44,
        "true_track": 310.57,
        "vertical_rate": -0.33,
        "geo_altitude": 13594.08,
        "squawk": null,
        "spi": false,
        "position_source": 0
      }
    },
    {
      "type": "Feature",
      "geometry": {
        "type": "Point",
        "coordinates": [
          10.8725,
          44.5094
        ]
      },
      "properties": {
        "icao24": "44064a",
        "callsign": "EJU64AT",
        "origin_country": "Austria",
        "time_position": 1789860396,
        "last_contact": 1789860396,
        "baro_altitude": 11582.4,
        "on_ground": false,
        "velocity": 223.44,
        "true_track": 285.76,
        "vertical_rate": 0,
        "geo_altitude": 12070.08,
        "squawk": "3702",
        "spi": false,
        "position_source": 0
      }
    },
    {
      "type": "Feature",
      "geometry": {
        "type": "Point",
        "coordinates": [
          10.9326,
          46.4879
        ]
      },
      "properties": {
        "icao24": "4083e6",
        "callsign": "EZY18WJ",
        "origin_country": "United Kingdom",
        "time_position": 1789860396,
        "last_contact": 1789860396,
        "baro_altitude": 11574.78,
        "on_ground": false,
        "velocity": 214.48,
        "true_track": 304.64,
        "vertical_rate": 0,
        "geo_altitude": 12085.32,
        "squawk": "0230",
        "spi": false,
        "position_source": 0
      }
    },
    {
      "type": "Feature",
      "geometry": {
        "type": "Point",
        "coordinates": [
          7.2556,
          42.4635
        ]
      },
      "properties": {
        "icao24": "440610",
        "callsign": "EJU46ZK",
        "origin_country": "Austria",
        "time_position": 1789860396,
        "last_contact": 1789860396,
        "baro_altitude": 10972.8,
        "on_ground": false,
        "velocity": 199.39,
        "true_track": 31.07,
        "vertical_rate": 0,
        "geo_altitude": 11483.34,
        "squawk": "1000",
        "spi": false,
        "position_source": 0
      }
    },
    {
      "type": "Feature",
      "geometry": {
        "type": "Point",
        "coordinates": [
          7.6683,
          40.4039
        ]
      },
      "properties": {
        "icao24": "4cad47",
        "callsign": "ITY680",
        "origin_country": "Ireland",
        "time_position": 1789860396,
        "last_contact": 1789860396,
        "baro_altitude": 10576.56,
        "on_ground": false,
        "velocity": 264.85,
        "true_track": 251.42,
        "vertical_rate": 2.6,
        "geo_altitude": 11049,
        "squawk": "4032",
        "spi": false,
        "position_source": 0
      }
    },
    {
      "type": "Feature",
      "geometry": {
        "type": "Point",
        "coordinates": [
          13.3169,
          41.0497
        ]
      },
      "properties": {
        "icao24": "4d21f0",
        "callsign": "RYR49CP",
        "origin_country": "Malta",
        "time_position": 1789860396,
        "last_contact": 1789860396,
        "baro_altitude": 11285.22,
        "on_ground": false,
        "velocity": 238.3,
        "true_track": 149.23,
        "vertical_rate": 0,
        "geo_altitude": 11765.28,
        "squawk": "1000",
        "spi": false,
        "position_source": 0
      }
    },
    {
      "type": "Feature",
      "geometry": {
        "type": "Point",
        "coordinates": [
          11.9666,
          39.4204
        ]
      },
      "properties": {
        "icao24": "4d226b",
        "callsign": "RYR12AB",
        "origin_country": "Malta",
        "time_position": 1789860396,
        "last_contact": 1789860396,
        "baro_altitude": 10241.28,
        "on_ground": false,
        "velocity": 233.52,
        "true_track": 160.17,
        "vertical_rate": -3.58,
        "geo_altitude": 10744.2,
        "squawk": "1000",
        "spi": false,
        "position_source": 0
      }
    },
    {
      "type": "Feature",
      "geometry": {
        "type": "Point",
        "coordinates": [
          16.0583,
          45.8401
        ]
      },
      "properties": {
        "icao24": "407f7d",
        "callsign": "EXS11MG",
        "origin_country": "United Kingdom",
        "time_position": 1789860396,
        "last_contact": 1789860396,
        "baro_altitude": 10972.8,
        "on_ground": false,
        "velocity": 226.22,
        "true_track": 318.04,
        "vertical_rate": 0,
        "geo_altitude": 11437.62,
        "squawk": "5460",
        "spi": false,
        "position_source": 0
      }
    },
    {
      "type": "Feature",
      "geometry": {
        "type": "Point",
        "coordinates": [
          12.9332,
          45.739
        ]
      },
      "properties": {
        "icao24": "406016",
        "callsign": "EZY73EF",
        "origin_country": "United Kingdom",
        "time_position": 1789860396,
        "last_contact": 1789860396,
        "baro_altitude": 10378.44,
        "on_ground": false,
        "velocity": 229.93,
        "true_track": 315.91,
        "vertical_rate": 0,
        "geo_altitude": 10866.12,
        "squawk": "7737",
        "spi": false,
        "position_source": 0
      }
    },
    {
      "type": "Feature",
      "geometry": {
        "type": "Point",
        "coordinates": [
          17.7145,
          42.5622
        ]
      },
      "properties": {
        "icao24": "407f67",
        "callsign": "EZY98FB",
        "origin_country": "United Kingdom",
        "time_position": 1789860395,
        "last_contact": 1789860395,
        "baro_altitude": 10355.58,
        "on_ground": false,
        "velocity": 225.15,
        "true_track": 311.85,
        "vertical_rate": 0,
        "geo_altitude": 10812.78,
        "squawk": null,
        "spi": false,
        "position_source": 0
      }
    },
    {
      "type": "Feature",
      "geometry": {
        "type": "Point",
        "coordinates": [
          9.2644,
          44.8621
        ]
      },
      "properties": {
        "icao24": "4d216a",
        "callsign": "WMT3C",
        "origin_country": "Malta",
        "time_position": 1789860396,
        "last_contact": 1789860396,
        "baro_altitude": 4838.7,
        "on_ground": false,
        "velocity": 182.37,
        "true_track": 327.21,
        "vertical_rate": -9.1,
        "geo_altitude": 5151.12,
        "squawk": "2014",
        "spi": false,
        "position_source": 0
      }
    },
    {
      "type": "Feature",
      "geometry": {
        "type": "Point",
        "coordinates": [
          12.9795,
          46.9567
        ]
      },
      "properties": {
        "icao24": "48c2b7",
        "callsign": "RYR2DL",
        "origin_country": "Poland",
        "time_position": 1789860396,
        "last_contact": 1789860396,
        "baro_altitude": 10668,
        "on_ground": false,
        "velocity": 226.68,
        "true_track": 52.38,
        "vertical_rate": 0,
        "geo_altitude": 11163.3,
        "squawk": "1000",
        "spi": false,
        "position_source": 0
      }
    },
    {
      "type": "Feature",
      "geometry": {
        "type": "Point",
        "coordinates": [
          12.029,
          45.8734
        ]
      },
      "properties": {
        "icao24": "48c2b3",
        "callsign": "RYS7239",
        "origin_country": "Poland",
        "time_position": 1789860396,
        "last_contact": 1789860396,
        "baro_altitude": 11277.6,
        "on_ground": false,
        "velocity": 241.79,
        "true_track": 227.59,
        "vertical_rate": 0,
        "geo_altitude": 11788.14,
        "squawk": "1000",
        "spi": false,
        "position_source": 0
      }
    },
    {
      "type": "Feature",
      "geometry": {
        "type": "Point",
        "coordinates": [
          13.2174,
          37.7077
        ]
      },
      "properties": {
        "icao24": "4cac56",
        "callsign": "RYR78NW",
        "origin_country": "Ireland",
        "time_position": 1789860396,
        "last_contact": 1789860396,
        "baro_altitude": 11277.6,
        "on_ground": false,
        "velocity": 243.86,
        "true_track": 149.16,
        "vertical_rate": 0,
        "geo_altitude": 11833.86,
        "squawk": "7630",
        "spi": false,
        "position_source": 0
      }
    },
    {
      "type": "Feature",
      "geometry": {
        "type": "Point",
        "coordinates": [
          12.7004,
          47.6633
        ]
      },
      "properties": {
        "icao24": "406ac4",
        "callsign": "EXS34RY",
        "origin_country": "United Kingdom",
        "time_position": 1789860396,
        "last_contact": 1789860396,
        "baro_altitude": 11582.4,
        "on_ground": false,
        "velocity": 218.46,
        "true_track": 304.25,
        "vertical_rate": 0,
        "geo_altitude": 12085.32,
        "squawk": "3123",
        "spi": false,
        "position_source": 0
      }
    },
    {
      "type": "Feature",
      "geometry": {
        "type": "Point",
        "coordinates": [
          16.6793,
          43.0341
        ]
      },
      "properties": {
        "icao24": "4d20bc",
        "callsign": "WMT1001",
        "origin_country": "Malta",
        "time_position": 1789860382,
        "last_contact": 1789860384,
        "baro_altitude": 10972.8,
        "on_ground": false,
        "velocity": 213.25,
        "true_track": 262.51,
        "vertical_rate": 0,
        "geo_altitude": 11445.24,
        "squawk": "2334",
        "spi": false,
        "position_source": 0
      }
    },
    {
      "type": "Feature",
      "geometry": {
        "type": "Point",
        "coordinates": [
          13.3744,
          44.4558
        ]
      },
      "properties": {
        "icao24": "408356",
        "callsign": "EXS6FZ",
        "origin_country": "United Kingdom",
        "time_position": 1789860396,
        "last_contact": 1789860396,
        "baro_altitude": 10355.58,
        "on_ground": false,
        "velocity": 239.19,
        "true_track": 309.06,
        "vertical_rate": 0,
        "geo_altitude": 10828.02,
        "squawk": "3727",
        "spi": false,
        "position_source": 0
      }
    },
    {
      "type": "Feature",
      "geometry": {
        "type": "Point",
        "coordinates": [
          17.2992,
          42.7441
        ]
      },
      "properties": {
        "icao24": "40832c",
        "callsign": "TOM423",
        "origin_country": "United Kingdom",
        "time_position": 1789860395,
        "last_contact": 1789860395,
        "baro_altitude": 10972.8,
        "on_ground": false,
        "velocity": 221.85,
        "true_track": 307.75,
        "vertical_rate": 0,
        "geo_altitude": 11437.62,
        "squawk": null,
        "spi": false,
        "position_source": 0
      }
    },
    {
      "type": "Feature",
      "geometry": {
        "type": "Point",
        "coordinates": [
          9.2835,
          47.1567
        ]
      },
      "properties": {
        "icao24": "40836c",
        "callsign": "EZY34PE",
        "origin_country": "United Kingdom",
        "time_position": 1789860396,
        "last_contact": 1789860396,
        "baro_altitude": 10370.82,
        "on_ground": false,
        "velocity": 219.91,
        "true_track": 304.81,
        "vertical_rate": 0,
        "geo_altitude": 10888.98,
        "squawk": "7532",
        "spi": false,
        "position_source": 0
      }
    },
    {
      "type": "Feature",
      "geometry": {
        "type": "Point",
        "coordinates": [
          12.4573,
          44.9914
        ]
      },
      "properties": {
        "icao24": "407c0b",
        "callsign": "TOM359",
        "origin_country": "United Kingdom",
        "time_position": 1789860396,
        "last_contact": 1789860396,
        "baro_altitude": 10363.2,
        "on_ground": false,
        "velocity": 236.93,
        "true_track": 308.39,
        "vertical_rate": 0,
        "geo_altitude": 10850.88,
        "squawk": "5524",
        "spi": false,
        "position_source": 0
      }
    },
    {
      "type": "Feature",
      "geometry": {
        "type": "Point",
        "coordinates": [
          17.7286,
          45.5141
        ]
      },
      "properties": {
        "icao24": "39d2b7",
        "callsign": "AFR188",
        "origin_country": "France",
        "time_position": 1789860396,
        "last_contact": 1789860396,
        "baro_altitude": 11277.6,
        "on_ground": false,
        "velocity": 251.7,
        "true_track": 116.98,
        "vertical_rate": -0.33,
        "geo_altitude": 11711.94,
        "squawk": "5611",
        "spi": false,
        "position_source": 0
      }
    },
    {
      "type": "Feature",
      "geometry": {
        "type": "Point",
        "coordinates": [
          18.6289,
          42.537
        ]
      },
      "properties": {
        "icao24": "4d207e",
        "callsign": "VJT720",
        "origin_country": "Malta",
        "time_position": 1789860395,
        "last_contact": 1789860395,
        "baro_altitude": 12496.8,
        "on_ground": false,
        "velocity": 251.22,
        "true_track": 138.9,
        "vertical_rate": 0.65,
        "geo_altitude": 12969.24,
        "squawk": "5245",
        "spi": false,
        "position_source": 0
      }
    },
    {
      "type": "Feature",
      "geometry": {
        "type": "Point",
        "coordinates": [
          13.0631,
          47.0296
        ]
      },
      "properties": {
        "icao24": "4081a9",
        "callsign": "EXS65LG",
        "origin_country": "United Kingdom",
        "time_position": 1789860396,
        "last_contact": 1789860396,
        "baro_altitude": 11582.4,
        "on_ground": false,
        "velocity": 225.34,
        "true_track": 307.39,
        "vertical_rate": 0,
        "geo_altitude": 12092.94,
        "squawk": "2051",
        "spi": false,
        "position_source": 0
      }
    },
    {
      "type": "Feature",
      "geometry": {
        "type": "Point",
        "coordinates": [
          18.2989,
          42.855
        ]
      },
      "properties": {
        "icao24": "06a1e7",
        "callsign": "QTR10A",
        "origin_country": "Qatar",
        "time_position": 1789860393,
        "last_contact": 1789860393,
        "baro_altitude": 10363.2,
        "on_ground": false,
        "velocity": 233.95,
        "true_track": 318.39,
        "vertical_rate": 0,
        "geo_altitude": 10828.02,
        "squawk": "2026",
        "spi": false,
        "position_source": 0
      }
    },
    {
      "type": "Feature",
      "geometry": {
        "type": "Point",
        "coordinates": [
          7.5944,
          40.6456
        ]
      },
      "properties": {
        "icao24": "4bb844",
        "callsign": "PGT1742",
        "origin_country": "Turkey",
        "time_position": 1789860396,
        "last_contact": 1789860396,
        "baro_altitude": 11582.4,
        "on_ground": false,
        "velocity": 226.91,
        "true_track": 96.77,
        "vertical_rate": 0,
        "geo_altitude": 12077.7,
        "squawk": "5210",
        "spi": false,
        "position_source": 0
      }
    },
    {
      "type": "Feature",
      "geometry": {
        "type": "Point",
        "coordinates": [
          15.3286,
          40.2112
        ]
      },
      "properties": {
        "icao24": "711469",
        "callsign": "KNE660",
        "origin_country": "Saudi Arabia",
        "time_position": 1789860395,
        "last_contact": 1789860396,
        "baro_altitude": 10668,
        "on_ground": false,
        "velocity": 237.05,
        "true_track": 119.51,
        "vertical_rate": 0,
        "geo_altitude": 11163.3,
        "squawk": "3640",
        "spi": true,
        "position_source": 0
      }
    },
    {
      "type": "Feature",
      "geometry": {
        "type": "Point",
        "coordinates": [
          13.2185,
          38.2186
        ]
      },
      "properties": {
        "icao24": "4d208e",
        "callsign": "WMT5HV",
        "origin_country": "Malta",
        "time_position": 1789860396,
        "last_contact": 1789860396,
        "baro_altitude": 441.96,
        "on_ground": false,
        "velocity": 82.28,
        "true_track": 246.8,
        "vertical_rate": -3.25,
        "geo_altitude": 586.74,
        "squawk": "1363",
        "spi": false,
        "position_source": 0
      }
    },
    {
      "type": "Feature",
      "geometry": {
        "type": "Point",
        "coordinates": [
          13.5444,
          43.9365
        ]
      },
      "properties": {
        "icao24": "4402f1",
        "callsign": "EJU34CG",
        "origin_country": "Austria",
        "time_position": 1789860396,
        "last_contact": 1789860396,
        "baro_altitude": 10965.18,
        "on_ground": false,
        "velocity": 226.64,
        "true_track": 287.57,
        "vertical_rate": 0,
        "geo_altitude": 11437.62,
        "squawk": "6622",
        "spi": false,
        "position_source": 0
      }
    },
    {
      "type": "Feature",
      "geometry": {
        "type": "Point",
        "coordinates": [
          17.7258,
          43.2838
        ]
      },
      "properties": {
        "icao24": "406a63",
        "callsign": "EXS37G",
        "origin_country": "United Kingdom",
        "time_position": 1789860395,
        "last_contact": 1789860395,
        "baro_altitude": 10972.8,
        "on_ground": false,
        "velocity": 216.47,
        "true_track": 318.47,
        "vertical_rate": 0,
        "geo_altitude": 11430,
        "squawk": "6621",
        "spi": false,
        "position_source": 0
      }
    },
    {
      "type": "Feature",
      "geometry": {
        "type": "Point",
        "coordinates": [
          12.8204,
          45.3289
        ]
      },
      "properties": {
        "icao24": "407d5b",
        "callsign": "WUK7PY",
        "origin_country": "United Kingdom",
        "time_position": 1789860397,
        "last_contact": 1789860397,
        "baro_altitude": 10980.42,
        "on_ground": false,
        "velocity": 227.12,
        "true_track": 301.85,
        "vertical_rate": 0,
        "geo_altitude": 11468.1,
        "squawk": "5345",
        "spi": false,
        "position_source": 0
      }
    },
    {
      "type": "Feature",
      "geometry": {
        "type": "Point",
        "coordinates": [
          17.2639,
          40.145
        ]
      },
      "properties": {
        "icao24": "80159e",
        "callsign": "AIC191",
        "origin_country": "India",
        "time_position": 1789860393,
        "last_contact": 1789860395,
        "baro_altitude": 10972.8,
        "on_ground": false,
        "velocity": 228.7,
        "true_track": 301.76,
        "vertical_rate": 0,
        "geo_altitude": 11468.1,
        "squawk": "4735",
        "spi": false,
        "position_source": 0
      }
    },
    {
      "type": "Feature",
      "geometry": {
        "type": "Point",
        "coordinates": [
          14.5201,
          35.6542
        ]
      },
      "properties": {
        "icao24": "4d203a",
        "callsign": "KNE672",
        "origin_country": "Malta",
        "time_position": 1789860396,
        "last_contact": 1789860396,
        "baro_altitude": 11887.2,
        "on_ground": false,
        "velocity": 272.58,
        "true_track": 95.96,
        "vertical_rate": 0,
        "geo_altitude": 12496.8,
        "squawk": "7747",
        "spi": false,
        "position_source": 0
      }
    },
    {
      "type": "Feature",
      "geometry": {
        "type": "Point",
        "coordinates": [
          14.2835,
          44.8483
        ]
      },
      "properties": {
        "icao24": "4d203d",
        "callsign": "CHZ312",
        "origin_country": "Malta",
        "time_position": 1789860396,
        "last_contact": 1789860396,
        "baro_altitude": 10683.24,
        "on_ground": false,
        "velocity": 235.75,
        "true_track": 122.62,
        "vertical_rate": 0,
        "geo_altitude": 11109.96,
        "squawk": "7567",
        "spi": false,
        "position_source": 0
      }
    },
    {
      "type": "Feature",
      "geometry": {
        "type": "Point",
        "coordinates": [
          8.7166,
          45.624
        ]
      },
      "properties": {
        "icao24": "4d2022",
        "callsign": "WMT1RB",
        "origin_country": "Malta",
        "time_position": 1789860095,
        "last_contact": 1789860095,
        "baro_altitude": null,
        "on_ground": true,
        "velocity": 0.51,
        "true_track": 348.75,
        "vertical_rate": null,
        "geo_altitude": null,
        "squawk": "2061",
        "spi": false,
        "position_source": 0
      }
    },
    {
      "type": "Feature",
      "geometry": {
        "type": "Point",
        "coordinates": [
          18.926,
          35.4394
        ]
      },
      "properties": {
        "icao24": "06a0b2",
        "callsign": "QTR52A",
        "origin_country": "Qatar",
        "time_position": 1789860324,
        "last_contact": 1789860324,
        "baro_altitude": 12496.8,
        "on_ground": false,
        "velocity": 263.99,
        "true_track": 102.49,
        "vertical_rate": 0,
        "geo_altitude": 13106.4,
        "squawk": "6145",
        "spi": false,
        "position_source": 0
      }
    },
    {
      "type": "Feature",
      "geometry": {
        "type": "Point",
        "coordinates": [
          18.9333,
          42.1541
        ]
      },
      "properties": {
        "icao24": "4082ac",
        "callsign": "EZY28QN",
        "origin_country": "United Kingdom",
        "time_position": 1789860392,
        "last_contact": 1789860394,
        "baro_altitude": 10980.42,
        "on_ground": false,
        "velocity": 218.96,
        "true_track": 323.7,
        "vertical_rate": 0,
        "geo_altitude": 11468.1,
        "squawk": null,
        "spi": false,
        "position_source": 0
      }
    },
    {
      "type": "Feature",
      "geometry": {
        "type": "Point",
        "coordinates": [
          8.5664,
          47.444
        ]
      },
      "properties": {
        "icao24": "4b17e6",
        "callsign": "SWR",
        "origin_country": "Switzerland",
        "time_position": 1789853748,
        "last_contact": 1789860392,
        "baro_altitude": null,
        "on_ground": true,
        "velocity": 0.26,
        "true_track": 326.25,
        "vertical_rate": null,
        "geo_altitude": null,
        "squawk": "2000",
        "spi": false,
        "position_source": 0
      }
    }
  ]
}