{
  "type": "FeatureCollection",
  "source": "opensky",
  "dataset": "aircraft_italy",
  "generated_at": "2026-08-12T00:45:42.158209+00:00",
  "opensky_time": 1786495538,
  "count": 79,
  "features": [
    {
      "type": "Feature",
      "geometry": {
        "type": "Point",
        "coordinates": [
          8.5662,
          40.3912
        ]
      },
      "properties": {
        "icao24": "46b82c",
        "callsign": "AEE3EM",
        "origin_country": "Greece",
        "time_position": 1786495537,
        "last_contact": 1786495537,
        "baro_altitude": 11574.78,
        "on_ground": false,
        "velocity": 254.78,
        "true_track": 98.36,
        "vertical_rate": -0.33,
        "geo_altitude": 12199.62,
        "squawk": "0201",
        "spi": false,
        "position_source": 0
      }
    },
    {
      "type": "Feature",
      "geometry": {
        "type": "Point",
        "coordinates": [
          8.7326,
          45.5909
        ]
      },
      "properties": {
        "icao24": "34310d",
        "callsign": "BCS7CK",
        "origin_country": "Spain",
        "time_position": 1786495537,
        "last_contact": 1786495537,
        "baro_altitude": 1074.42,
        "on_ground": false,
        "velocity": 83.51,
        "true_track": 206.72,
        "vertical_rate": 7.15,
        "geo_altitude": 1211.58,
        "squawk": "1000",
        "spi": false,
        "position_source": 0
      }
    },
    {
      "type": "Feature",
      "geometry": {
        "type": "Point",
        "coordinates": [
          13.4133,
          41.2478
        ]
      },
      "properties": {
        "icao24": "471f70",
        "callsign": "WZZ50HD",
        "origin_country": "Hungary",
        "time_position": 1786495537,
        "last_contact": 1786495538,
        "baro_altitude": 11574.78,
        "on_ground": false,
        "velocity": 244.91,
        "true_track": 3.85,
        "vertical_rate": 0,
        "geo_altitude": 12237.72,
        "squawk": null,
        "spi": false,
        "position_source": 0
      }
    },
    {
      "type": "Feature",
      "geometry": {
        "type": "Point",
        "coordinates": [
          14.033,
          39.5581
        ]
      },
      "properties": {
        "icao24": "738068",
        "callsign": "ELY376",
        "origin_country": "Israel",
        "time_position": 1786495538,
        "last_contact": 1786495538,
        "baro_altitude": 10668,
        "on_ground": false,
        "velocity": 255.92,
        "true_track": 103.37,
        "vertical_rate": 0,
        "geo_altitude": 11315.7,
        "squawk": "2226",
        "spi": false,
        "position_source": 0
      }
    },
    {
      "type": "Feature",
      "geometry": {
        "type": "Point",
        "coordinates": [
          18.8087,
          38.5651
        ]
      },
      "properties": {
        "icao24": "738050",
        "callsign": "ELY398",
        "origin_country": "Israel",
        "time_position": 1786495351,
        "last_contact": 1786495434,
        "baro_altitude": 10668,
        "on_ground": false,
        "velocity": 251.53,
        "true_track": 112.11,
        "vertical_rate": 0,
        "geo_altitude": 11338.56,
        "squawk": "0207",
        "spi": false,
        "position_source": 0
      }
    },
    {
      "type": "Feature",
      "geometry": {
        "type": "Point",
        "coordinates": [
          12.8118,
          44.2957
        ]
      },
      "properties": {
        "icao24": "738053",
        "callsign": "ELY388",
        "origin_country": "Israel",
        "time_position": 1786495538,
        "last_contact": 1786495538,
        "baro_altitude": 10668,
        "on_ground": false,
        "velocity": 233.52,
        "true_track": 116.85,
        "vertical_rate": 0,
        "geo_altitude": 11224.26,
        "squawk": "0444",
        "spi": false,
        "position_source": 0
      }
    },
    {
      "type": "Feature",
      "geometry": {
        "type": "Point",
        "coordinates": [
          16.7725,
          44.6073
        ]
      },
      "properties": {
        "icao24": "738101",
        "callsign": "ELY025",
        "origin_country": "Israel",
        "time_position": 1786495538,
        "last_contact": 1786495538,
        "baro_altitude": 10965.18,
        "on_ground": false,
        "velocity": 242.99,
        "true_track": 304.13,
        "vertical_rate": -0.33,
        "geo_altitude": 11559.54,
        "squawk": "5602",
        "spi": false,
        "position_source": 0
      }
    },
    {
      "type": "Feature",
      "geometry": {
        "type": "Point",
        "coordinates": [
          18.2447,
          44.4903
        ]
      },
      "properties": {
        "icao24": "738100",
        "callsign": "ELY015",
        "origin_country": "Israel",
        "time_position": 1786495538,
        "last_contact": 1786495538,
        "baro_altitude": 10965.18,
        "on_ground": false,
        "velocity": 243.15,
        "true_track": 317.06,
        "vertical_rate": -0.33,
        "geo_altitude": 11559.54,
        "squawk": "6016",
        "spi": false,
        "position_source": 0
      }
    },
    {
      "type": "Feature",
      "geometry": {
        "type": "Point",
        "coordinates": [
          15.8334,
          45.0218
        ]
      },
      "properties": {
        "icao24": "45213d",
        "callsign": "MSC2967",
        "origin_country": "Bulgaria",
        "time_position": 1786495537,
        "last_contact": 1786495537,
        "baro_altitude": 10668,
        "on_ground": false,
        "velocity": 243.82,
        "true_track": 138.51,
        "vertical_rate": -0.33,
        "geo_altitude": 11239.5,
        "squawk": "5625",
        "spi": false,
        "position_source": 0
      }
    },
    {
      "type": "Feature",
      "geometry": {
        "type": "Point",
        "coordinates": [
          13.826,
          45.9253
        ]
      },
      "properties": {
        "icao24": "7380c1",
        "callsign": "ELY027",
        "origin_country": "Israel",
        "time_position": 1786495538,
        "last_contact": 1786495538,
        "baro_altitude": 10965.18,
        "on_ground": false,
        "velocity": 250.14,
        "true_track": 300.26,
        "vertical_rate": 0,
        "geo_altitude": 11551.92,
        "squawk": "1162",
        "spi": false,
        "position_source": 0
      }
    },
    {
      "type": "Feature",
      "geometry": {
        "type": "Point",
        "coordinates": [
          9.8885,
          44.2397
        ]
      },
      "properties": {
        "icao24": "7380c0",
        "callsign": "ELY018",
        "origin_country": "Israel",
        "time_position": 1786495537,
        "last_contact": 1786495538,
        "baro_altitude": 11879.58,
        "on_ground": false,
        "velocity": 254.81,
        "true_track": 112.68,
        "vertical_rate": 0,
        "geo_altitude": 12489.18,
        "squawk": "3745",
        "spi": false,
        "position_source": 0
      }
    },
    {
      "type": "Feature",
      "geometry": {
        "type": "Point",
        "coordinates": [
          11.5233,
          40.2503
        ]
      },
      "properties": {
        "icao24": "7380c3",
        "callsign": "ELY017",
        "origin_country": "Israel",
        "time_position": 1786495538,
        "last_contact": 1786495538,
        "baro_altitude": 10355.58,
        "on_ground": false,
        "velocity": 245.18,
        "true_track": 284.21,
        "vertical_rate": 0.33,
        "geo_altitude": 10957.56,
        "squawk": "6015",
        "spi": false,
        "position_source": 0
      }
    },
    {
      "type": "Feature",
      "geometry": {
        "type": "Point",
        "coordinates": [
          18.5778,
          44.1379
        ]
      },
      "properties": {
        "icao24": "7380cb",
        "callsign": "ELY005",
        "origin_country": "Israel",
        "time_position": 1786495537,
        "last_contact": 1786495537,
        "baro_altitude": 9753.6,
        "on_ground": false,
        "velocity": 248.82,
        "true_track": 315.34,
        "vertical_rate": -0.33,
        "geo_altitude": 10317.48,
        "squawk": "6015",
        "spi": false,
        "position_source": 0
      }
    },
    {
      "type": "Feature",
      "geometry": {
        "type": "Point",
        "coordinates": [
          11.9957,
          40.6991
        ]
      },
      "properties": {
        "icao24": "020176",
        "callsign": "MAC438",
        "origin_country": "Morocco",
        "time_position": 1786495538,
        "last_contact": 1786495538,
        "baro_altitude": 10355.58,
        "on_ground": false,
        "velocity": 219.15,
        "true_track": 266.1,
        "vertical_rate": 0,
        "geo_altitude": 10942.32,
        "squawk": "2333",
        "spi": false,
        "position_source": 0
      }
    },
    {
      "type": "Feature",
      "geometry": {
        "type": "Point",
        "coordinates": [
          10.7134,
          44.5302
        ]
      },
      "properties": {
        "icao24": "020175",
        "callsign": "MAC466C",
        "origin_country": "Morocco",
        "time_position": 1786495537,
        "last_contact": 1786495537,
        "baro_altitude": 3589.02,
        "on_ground": false,
        "velocity": 177.45,
        "true_track": 261.33,
        "vertical_rate": 14.63,
        "geo_altitude": 3886.2,
        "squawk": "3747",
        "spi": false,
        "position_source": 0
      }
    },
    {
      "type": "Feature",
      "geometry": {
        "type": "Point",
        "coordinates": [
          14.5028,
          41.981
        ]
      },
      "properties": {
        "icao24": "4bb14c",
        "callsign": "THY6418",
        "origin_country": "Turkey",
        "time_position": 1786495538,
        "last_contact": 1786495538,
        "baro_altitude": 10668,
        "on_ground": false,
        "velocity": 267.14,
        "true_track": 76.07,
        "vertical_rate": 0,
        "geo_altitude": 11262.36,
        "squawk": "1451",
        "spi": false,
        "position_source": 0
      }
    },
    {
      "type": "Feature",
      "geometry": {
        "type": "Point",
        "coordinates": [
          16.2906,
          47.7353
        ]
      },
      "properties": {
        "icao24": "4067ee",
        "callsign": "TOM513",
        "origin_country": "United Kingdom",
        "time_position": 1786495538,
        "last_contact": 1786495538,
        "baro_altitude": 11582.4,
        "on_ground": false,
        "velocity": 217.22,
        "true_track": 297.66,
        "vertical_rate": 0,
        "geo_altitude": 12146.28,
        "squawk": "3232",
        "spi": false,
        "position_source": 0
      }
    },
    {
      "type": "Feature",
      "geometry": {
        "type": "Point",
        "coordinates": [
          12.9577,
          47.0879
        ]
      },
      "properties": {
        "icao24": "4067f6",
        "callsign": "TOM50W",
        "origin_country": "United Kingdom",
        "time_position": 1786495538,
        "last_contact": 1786495538,
        "baro_altitude": 13106.4,
        "on_ground": false,
        "velocity": 243.56,
        "true_track": 307.62,
        "vertical_rate": 0,
        "geo_altitude": 13716,
        "squawk": "5527",
        "spi": false,
        "position_source": 0
      }
    },
    {
      "type": "Feature",
      "geometry": {
        "type": "Point",
        "coordinates": [
          16.0234,
          47.7106
        ]
      },
      "properties": {
        "icao24": "4bb18e",
        "callsign": "THY4JD",
        "origin_country": "Turkey",
        "time_position": 1786495538,
        "last_contact": 1786495538,
        "baro_altitude": 10355.58,
        "on_ground": false,
        "velocity": 242.33,
        "true_track": 306.02,
        "vertical_rate": -0.33,
        "geo_altitude": 10904.22,
        "squawk": "5302",
        "spi": false,
        "position_source": 0
      }
    },
    {
      "type": "Feature",
      "geometry": {
        "type": "Point",
        "coordinates": [
          8.7153,
          39.783
        ]
      },
      "properties": {
        "icao24": "34538d",
        "callsign": "VLG2691",
        "origin_country": "Spain",
        "time_position": 1786495537,
        "last_contact": 1786495537,
        "baro_altitude": 10370.82,
        "on_ground": false,
        "velocity": 220.86,
        "true_track": 333.43,
        "vertical_rate": -0.33,
        "geo_altitude": 10965.18,
        "squawk": null,
        "spi": false,
        "position_source": 0
      }
    },
    {
      "type": "Feature",
      "geometry": {
        "type": "Point",
        "coordinates": [
          8.4008,
          45.0007
        ]
      },
      "properties": {
        "icao24": "4ac98a",
        "callsign": "BCS422",
        "origin_country": "Sweden",
        "time_position": 1786495538,
        "last_contact": 1786495538,
        "baro_altitude": 7071.36,
        "on_ground": false,
        "velocity": 215.88,
        "true_track": 213.24,
        "vertical_rate": 11.7,
        "geo_altitude": 7528.56,
        "squawk": "1000",
        "spi": false,
        "position_source": 0
      }
    },
    {
      "type": "Feature",
      "geometry": {
        "type": "Point",
        "coordinates": [
          18.3446,
          38.1693
        ]
      },
      "properties": {
        "icao24": "4bb065",
        "callsign": "THY3KA",
        "origin_country": "Turkey",
        "time_position": 1786495537,
        "last_contact": 1786495537,
        "baro_altitude": 10660.38,
        "on_ground": false,
        "velocity": 255.16,
        "true_track": 42.96,
        "vertical_rate": 0.65,
        "geo_altitude": 11346.18,
        "squawk": "3145",
        "spi": false,
        "position_source": 0
      }
    },
    {
      "type": "Feature",
      "geometry": {
        "type": "Point",
        "coordinates": [
          15.3214,
          46.7825
        ]
      },
      "properties": {
        "icao24": "89661e",
        "callsign": "UAE70",
        "origin_country": "United Arab Emirates",
        "time_position": 1786495538,
        "last_contact": 1786495538,
        "baro_altitude": 11887.2,
        "on_ground": false,
        "velocity": 258.06,
        "true_track": 121.22,
        "vertical_rate": 0,
        "geo_altitude": 12451.08,
        "squawk": "2236",
        "spi": false,
        "position_source": 0
      }
    },
    {
      "type": "Feature",
      "geometry": {
        "type": "Point",
        "coordinates": [
          9.9324,
          36.4264
        ]
      },
      "properties": {
        "icao24": "4bb06a",
        "callsign": "THY597",
        "origin_country": "Turkey",
        "time_position": 1786495436,
        "last_contact": 1786495494,
        "baro_altitude": 10668,
        "on_ground": false,
        "velocity": 253.58,
        "true_track": 58.44,
        "vertical_rate": 0,
        "geo_altitude": 11376.66,
        "squawk": null,
        "spi": false,
        "position_source": 0
      }
    },
    {
      "type": "Feature",
      "geometry": {
        "type": "Point",
        "coordinates": [
          13.8289,
          45.6322
        ]
      },
      "properties": {
        "icao24": "3008c4",
        "callsign": "IDNAM",
        "origin_country": "Italy",
        "time_position": 1786495538,
        "last_contact": 1786495538,
        "baro_altitude": 251.46,
        "on_ground": false,
        "velocity": 5.56,
        "true_track": 56.31,
        "vertical_rate": -1.3,
        "geo_altitude": 350.52,
        "squawk": "1040",
        "spi": false,
        "position_source": 0
      }
    },
    {
      "type": "Feature",
      "geometry": {
        "type": "Point",
        "coordinates": [
          12.7625,
          46.2964
        ]
      },
      "properties": {
        "icao24": "406669",
        "callsign": "EZY41FQ",
        "origin_country": "United Kingdom",
        "time_position": 1786495538,
        "last_contact": 1786495538,
        "baro_altitude": 10972.8,
        "on_ground": false,
        "velocity": 220.14,
        "true_track": 301.72,
        "vertical_rate": -0.33,
        "geo_altitude": 11544.3,
        "squawk": "5507",
        "spi": false,
        "position_source": 0
      }
    },
    {
      "type": "Feature",
      "geometry": {
        "type": "Point",
        "coordinates": [
          13.718,
          37.9023
        ]
      },
      "properties": {
        "icao24": "0201d9",
        "callsign": "AOM035T",
        "origin_country": "Morocco",
        "time_position": 1786495537,
        "last_contact": 1786495537,
        "baro_altitude": 13106.4,
        "on_ground": false,
        "velocity": 262.14,
        "true_track": 112.14,
        "vertical_rate": 0.33,
        "geo_altitude": 13898.88,
        "squawk": "1266",
        "spi": false,
        "position_source": 0
      }
    },
    {
      "type": "Feature",
      "geometry": {
        "type": "Point",
        "coordinates": [
          12.1415,
          44.8339
        ]
      },
      "properties": {
        "icao24": "49d3d5",
        "callsign": "TVS2788",
        "origin_country": "Czech Republic",
        "time_position": 1786495538,
        "last_contact": 1786495538,
        "baro_altitude": 10668,
        "on_ground": false,
        "velocity": 230.81,
        "true_track": 201.3,
        "vertical_rate": -0.33,
        "geo_altitude": 11231.88,
        "squawk": "6012",
        "spi": false,
        "position_source": 0
      }
    },
    {
      "type": "Feature",
      "geometry": {
        "type": "Point",
        "coordinates": [
          16.1626,
          45.9795
        ]
      },
      "properties": {
        "icao24": "406f3b",
        "callsign": "TOM24T",
        "origin_country": "United Kingdom",
        "time_position": 1786495537,
        "last_contact": 1786495538,
        "baro_altitude": 12192,
        "on_ground": false,
        "velocity": 240.86,
        "true_track": 303.15,
        "vertical_rate": -0.33,
        "geo_altitude": 12786.36,
        "squawk": "5333",
        "spi": false,
        "position_source": 0
      }
    },
    {
      "type": "Feature",
      "geometry": {
        "type": "Point",
        "coordinates": [
          14.4708,
          36.0512
        ]
      },
      "properties": {
        "icao24": "4ba9cb",
        "callsign": "THY5YP",
        "origin_country": "Turkey",
        "time_position": 1786495538,
        "last_contact": 1786495538,
        "baro_altitude": 11887.2,
        "on_ground": false,
        "velocity": 262.24,
        "true_track": 68.72,
        "vertical_rate": 0,
        "geo_altitude": 12687.3,
        "squawk": "4103",
        "spi": false,
        "position_source": 0
      }
    },
    {
      "type": "Feature",
      "geometry": {
        "type": "Point",
        "coordinates": [
          12.7432,
          39.2005
        ]
      },
      "properties": {
        "icao24": "06a30a",
        "callsign": "QTR20X",
        "origin_country": "Qatar",
        "time_position": 1786495538,
        "last_contact": 1786495538,
        "baro_altitude": 11277.6,
        "on_ground": false,
        "velocity": 268.74,
        "true_track": 112.39,
        "vertical_rate": 0,
        "geo_altitude": 11955.78,
        "squawk": "0216",
        "spi": false,
        "position_source": 0
      }
    },
    {
      "type": "Feature",
      "geometry": {
        "type": "Point",
        "coordinates": [
          17.0107,
          39.7101
        ]
      },
      "properties": {
        "icao24": "4ba9c9",
        "callsign": "THY43H",
        "origin_country": "Turkey",
        "time_position": 1786495538,
        "last_contact": 1786495538,
        "baro_altitude": 12192,
        "on_ground": false,
        "velocity": 264.15,
        "true_track": 59.19,
        "vertical_rate": 0,
        "geo_altitude": 12938.76,
        "squawk": "4311",
        "spi": false,
        "position_source": 0
      }
    },
    {
      "type": "Feature",
      "geometry": {
        "type": "Point",
        "coordinates": [
          14.8861,
          46.9529
        ]
      },
      "properties": {
        "icao24": "4ba959",
        "callsign": "THY4",
        "origin_country": "Turkey",
        "time_position": 1786495538,
        "last_contact": 1786495538,
        "baro_altitude": 11277.6,
        "on_ground": false,
        "velocity": 250.03,
        "true_track": 122.48,
        "vertical_rate": 0,
        "geo_altitude": 11856.72,
        "squawk": "1157",
        "spi": false,
        "position_source": 0
      }
    },
    {
      "type": "Feature",
      "geometry": {
        "type": "Point",
        "coordinates": [
          15.9337,
          44.9181
        ]
      },
      "properties": {
        "icao24": "4a1265",
        "callsign": "DNA412",
        "origin_country": "Romania",
        "time_position": 1786495538,
        "last_contact": 1786495538,
        "baro_altitude": 9433.56,
        "on_ground": false,
        "velocity": 232.59,
        "true_track": 83.27,
        "vertical_rate": 0,
        "geo_altitude": 9989.82,
        "squawk": "0466",
        "spi": false,
        "position_source": 0
      }
    },
    {
      "type": "Feature",
      "geometry": {
        "type": "Point",
        "coordinates": [
          8.7171,
          45.639
        ]
      },
      "properties": {
        "icao24": "31d7b1",
        "callsign": "MIKE1",
        "origin_country": "Italy",
        "time_position": 1786495340,
        "last_contact": 1786495340,
        "baro_altitude": null,
        "on_ground": true,
        "velocity": 13.38,
        "true_track": 343.12,
        "vertical_rate": null,
        "geo_altitude": null,
        "squawk": null,
        "spi": false,
        "position_source": 0
      }
    },
    {
      "type": "Feature",
      "geometry": {
        "type": "Point",
        "coordinates": [
          10.9977,
          39.4728
        ]
      },
      "properties": {
        "icao24": "4ca27b",
        "callsign": "RYR7UH",
        "origin_country": "Ireland",
        "time_position": 1786495537,
        "last_contact": 1786495537,
        "baro_altitude": 10972.8,
        "on_ground": false,
        "velocity": 222.54,
        "true_track": 301.96,
        "vertical_rate": 0,
        "geo_altitude": 11612.88,
        "squawk": null,
        "spi": false,
        "position_source": 0
      }
    },
    {
      "type": "Feature",
      "geometry": {
        "type": "Point",
        "coordinates": [
          18.0823,
          47.746
        ]
      },
      "properties": {
        "icao24": "503cb7",
        "callsign": "KLJ6997",
        "origin_country": "Lithuania",
        "time_position": 1786495537,
        "last_contact": 1786495537,
        "baro_altitude": 3627.12,
        "on_ground": false,
        "velocity": 170.65,
        "true_track": 308.39,
        "vertical_rate": -10.73,
        "geo_altitude": 3878.58,
        "squawk": "2367",
        "spi": false,
        "position_source": 0
      }
    },
    {
      "type": "Feature",
      "geometry": {
        "type": "Point",
        "coordinates": [
          15.4473,
          46.0912
        ]
      },
      "properties": {
        "icao24": "407c26",
        "callsign": "TOM871",
        "origin_country": "United Kingdom",
        "time_position": 1786495538,
        "last_contact": 1786495538,
        "baro_altitude": 11590.02,
        "on_ground": false,
        "velocity": 233.76,
        "true_track": 323.23,
        "vertical_rate": 0.33,
        "geo_altitude": 12176.76,
        "squawk": "5516",
        "spi": false,
        "position_source": 0
      }
    },
    {
      "type": "Feature",
      "geometry": {
        "type": "Point",
        "coordinates": [
          16.564,
          45.038
        ]
      },
      "properties": {
        "icao24": "407c0a",
        "callsign": "TOM8FL",
        "origin_country": "United Kingdom",
        "time_position": 1786495537,
        "last_contact": 1786495537,
        "baro_altitude": 11582.4,
        "on_ground": false,
        "velocity": 228.93,
        "true_track": 324.88,
        "vertical_rate": 0,
        "geo_altitude": 12184.38,
        "squawk": "2066",
        "spi": false,
        "position_source": 0
      }
    },
    {
      "type": "Feature",
      "geometry": {
        "type": "Point",
        "coordinates": [
          8.5633,
          47.4417
        ]
      },
      "properties": {
        "icao24": "4b1805",
        "callsign": "EDW433",
        "origin_country": "Switzerland",
        "time_position": 1786495534,
        "last_contact": 1786495536,
        "baro_altitude": null,
        "on_ground": true,
        "velocity": 0,
        "true_track": 64.69,
        "vertical_rate": null,
        "geo_altitude": null,
        "squawk": null,
        "spi": false,
        "position_source": 0
      }
    },
    {
      "type": "Feature",
      "geometry": {
        "type": "Point",
        "coordinates": [
          14.437,
          46.2298
        ]
      },
      "properties": {
        "icao24": "40804e",
        "callsign": "WUK962",
        "origin_country": "United Kingdom",
        "time_position": 1786495538,
        "last_contact": 1786495538,
        "baro_altitude": 10980.42,
        "on_ground": false,
        "velocity": 232.85,
        "true_track": 313.93,
        "vertical_rate": 0,
        "geo_altitude": 11559.54,
        "squawk": "0504",
        "spi": false,
        "position_source": 0
      }
    },
    {
      "type": "Feature",
      "geometry": {
        "type": "Point",
        "coordinates": [
          6.672,
          40.2222
        ]
      },
      "properties": {
        "icao24": "a4ac4c",
        "callsign": "N40WR",
        "origin_country": "United States",
        "time_position": 1786495538,
        "last_contact": 1786495538,
        "baro_altitude": 9144,
        "on_ground": false,
        "velocity": 261.25,
        "true_track": 86.73,
        "vertical_rate": 0,
        "geo_altitude": 9700.26,
        "squawk": "1410",
        "spi": false,
        "position_source": 0
      }
    },
    {
      "type": "Feature",
      "geometry": {
        "type": "Point",
        "coordinates": [
          17.9107,
          40.1211
        ]
      },
      "properties": {
        "icao24": "4ca9a1",
        "callsign": "AIZ302",
        "origin_country": "Ireland",
        "time_position": 1786495538,
        "last_contact": 1786495538,
        "baro_altitude": 12496.8,
        "on_ground": false,
        "velocity": 244.11,
        "true_track": 134.23,
        "vertical_rate": 0,
        "geo_altitude": 13258.8,
        "squawk": "0241",
        "spi": false,
        "position_source": 0
      }
    },
    {
      "type": "Feature",
      "geometry": {
        "type": "Point",
        "coordinates": [
          8.558,
          47.4526
        ]
      },
      "properties": {
        "icao24": "4b5c27",
        "callsign": "EUGEN11",
        "origin_country": "Switzerland",
        "time_position": 1786495537,
        "last_contact": 1786495537,
        "baro_altitude": null,
        "on_ground": true,
        "velocity": 9.77,
        "true_track": 275.62,
        "vertical_rate": null,
        "geo_altitude": null,
        "squawk": null,
        "spi": false,
        "position_source": 0
      }
    },
    {
      "type": "Feature",
      "geometry": {
        "type": "Point",
        "coordinates": [
          8.2446,
          40.5551
        ]
      },
      "properties": {
        "icao24": "4ca97a",
        "callsign": "RYR3788",
        "origin_country": "Ireland",
        "time_position": 1786495537,
        "last_contact": 1786495537,
        "baro_altitude": 426.72,
        "on_ground": false,
        "velocity": 91.62,
        "true_track": 24.55,
        "vertical_rate": -5.53,
        "geo_altitude": 541.02,
        "squawk": null,
        "spi": false,
        "position_source": 0
      }
    },
    {
      "type": "Feature",
      "geometry": {
        "type": "Point",
        "coordinates": [
          11.0165,
          41.7345
        ]
      },
      "properties": {
        "icao24": "4ca8af",
        "callsign": "RYR218",
        "origin_country": "Ireland",
        "time_position": 1786495537,
        "last_contact": 1786495537,
        "baro_altitude": 12192,
        "on_ground": false,
        "velocity": 238.58,
        "true_track": 333.77,
        "vertical_rate": 0,
        "geo_altitude": 12847.32,
        "squawk": "1000",
        "spi": false,
        "position_source": 0
      }
    },
    {
      "type": "Feature",
      "geometry": {
        "type": "Point",
        "coordinates": [
          16.9326,
          39.0049
        ]
      },
      "properties": {
        "icao24": "4ca961",
        "callsign": "NOS9030",
        "origin_country": "Ireland",
        "time_position": 1786495538,
        "last_contact": 1786495538,
        "baro_altitude": 10668,
        "on_ground": false,
        "velocity": 254.18,
        "true_track": 105.98,
        "vertical_rate": 0,
        "geo_altitude": 11346.18,
        "squawk": "1417",
        "spi": false,
        "position_source": 0
      }
    },
    {
      "type": "Feature",
      "geometry": {
        "type": "Point",
        "coordinates": [
          17.3766,
          46.8059
        ]
      },
      "properties": {
        "icao24": "4bcdf2",
        "callsign": "SXS5CQ",
        "origin_country": "Turkey",
        "time_position": 1786495537,
        "last_contact": 1786495537,
        "baro_altitude": 11887.2,
        "on_ground": false,
        "velocity": 235.53,
        "true_track": 132.79,
        "vertical_rate": 0,
        "geo_altitude": 12473.94,
        "squawk": "7647",
        "spi": false,
        "position_source": 0
      }
    },
    {
      "type": "Feature",
      "geometry": {
        "type": "Point",
        "coordinates": [
          13.8593,
          47.4104
        ]
      },
      "properties": {
        "icao24": "4bcde2",
        "callsign": "SXS3FP",
        "origin_country": "Turkey",
        "time_position": 1786495538,
        "last_contact": 1786495538,
        "baro_altitude": 11277.6,
        "on_ground": false,
        "velocity": 237.06,
        "true_track": 129.81,
        "vertical_rate": 0.33,
        "geo_altitude": 11856.72,
        "squawk": "7647",
        "spi": false,
        "position_source": 0
      }
    },
    {
      "type": "Feature",
      "geometry": {
        "type": "Point",
        "coordinates": [
          7.263,
          45.4007
        ]
      },
      "properties": {
        "icao24": "405e23",
        "callsign": "TOM8XG",
        "origin_country": "United Kingdom",
        "time_position": 1786495538,
        "last_contact": 1786495538,
        "baro_altitude": 11887.2,
        "on_ground": false,
        "velocity": 228.68,
        "true_track": 121.01,
        "vertical_rate": 0,
        "geo_altitude": 12481.56,
        "squawk": "0505",
        "spi": false,
        "position_source": 0
      }
    },
    {
      "type": "Feature",
      "geometry": {
        "type": "Point",
        "coordinates": [
          18.7813,
          44.1812
        ]
      },
      "properties": {
        "icao24": "4bce42",
        "callsign": "SXS2NB",
        "origin_country": "Turkey",
        "time_position": 1786495538,
        "last_contact": 1786495538,
        "baro_altitude": 11277.6,
        "on_ground": false,
        "velocity": 240.38,
        "true_track": 130.75,
        "vertical_rate": 0,
        "geo_altitude": 11887.2,
        "squawk": "7665",
        "spi": false,
        "position_source": 0
      }
    },
    {
      "type": "Feature",
      "geometry": {
        "type": "Point",
        "coordinates": [
          15.5832,
          39.4129
        ]
      },
      "properties": {
        "icao24": "48ea3a",
        "callsign": "ENT2DJ",
        "origin_country": "Poland",
        "time_position": 1786495392,
        "last_contact": 1786495538,
        "baro_altitude": 3520.44,
        "on_ground": false,
        "velocity": 130.98,
        "true_track": 146.37,
        "vertical_rate": 0,
        "geo_altitude": 3779.52,
        "squawk": "1000",
        "spi": false,
        "position_source": 0
      }
    },
    {
      "type": "Feature",
      "geometry": {
        "type": "Point",
        "coordinates": [
          13.9303,
          47.709
        ]
      },
      "properties": {
        "icao24": "4bcdb0",
        "callsign": "SXS9WA",
        "origin_country": "Turkey",
        "time_position": 1786495538,
        "last_contact": 1786495538,
        "baro_altitude": 11277.6,
        "on_ground": false,
        "velocity": 238.2,
        "true_track": 127.36,
        "vertical_rate": 0,
        "geo_altitude": 11856.72,
        "squawk": "7643",
        "spi": false,
        "position_source": 0
      }
    },
    {
      "type": "Feature",
      "geometry": {
        "type": "Point",
        "coordinates": [
          6.2224,
          40.2378
        ]
      },
      "properties": {
        "icao24": "4a5df7",
        "callsign": "HYS7202",
        "origin_country": "Romania",
        "time_position": 1786495538,
        "last_contact": 1786495538,
        "baro_altitude": 10355.58,
        "on_ground": false,
        "velocity": 251.32,
        "true_track": 75.05,
        "vertical_rate": 0,
        "geo_altitude": 10980.42,
        "squawk": "1423",
        "spi": false,
        "position_source": 0
      }
    },
    {
      "type": "Feature",
      "geometry": {
        "type": "Point",
        "coordinates": [
          14.4866,
          35.8502
        ]
      },
      "properties": {
        "icao24": "407637",
        "callsign": "OSPREY2",
        "origin_country": "United Kingdom",
        "time_position": 1786495537,
        "last_contact": 1786495537,
        "baro_altitude": null,
        "on_ground": true,
        "velocity": 12.35,
        "true_track": 312.19,
        "vertical_rate": null,
        "geo_altitude": null,
        "squawk": "6563",
        "spi": false,
        "position_source": 0
      }
    },
    {
      "type": "Feature",
      "geometry": {
        "type": "Point",
        "coordinates": [
          12.2431,
          41.7755
        ]
      },
      "properties": {
        "icao24": "4cafc2",
        "callsign": "RYR2JJ",
        "origin_country": "Ireland",
        "time_position": 1786495514,
        "last_contact": 1786495515,
        "baro_altitude": 38.1,
        "on_ground": false,
        "velocity": 76.97,
        "true_track": 342.9,
        "vertical_rate": -4.88,
        "geo_altitude": 114.3,
        "squawk": "2275",
        "spi": false,
        "position_source": 0
      }
    },
    {
      "type": "Feature",
      "geometry": {
        "type": "Point",
        "coordinates": [
          15.6382,
          36.5141
        ]
      },
      "properties": {
        "icao24": "4d24de",
        "callsign": "KMM669",
        "origin_country": "Malta",
        "time_position": 1786495537,
        "last_contact": 1786495537,
        "baro_altitude": 7155.18,
        "on_ground": false,
        "velocity": 230.17,
        "true_track": 232.72,
        "vertical_rate": -8.45,
        "geo_altitude": 7665.72,
        "squawk": "1274",
        "spi": false,
        "position_source": 0
      }
    },
    {
      "type": "Feature",
      "geometry": {
        "type": "Point",
        "coordinates": [
          14.952,
          40.8671
        ]
      },
      "properties": {
        "icao24": "010288",
        "callsign": "MSR986",
        "origin_country": "Egypt",
        "time_position": 1786495537,
        "last_contact": 1786495537,
        "baro_altitude": 12496.8,
        "on_ground": false,
        "velocity": 269.68,
        "true_track": 115.54,
        "vertical_rate": 0,
        "geo_altitude": 13205.46,
        "squawk": "1145",
        "spi": false,
        "position_source": 0
      }
    },
    {
      "type": "Feature",
      "geometry": {
        "type": "Point",
        "coordinates": [
          16.1562,
          45.1506
        ]
      },
      "properties": {
        "icao24": "010289",
        "callsign": "MSR947",
        "origin_country": "Egypt",
        "time_position": 1786495538,
        "last_contact": 1786495538,
        "baro_altitude": 10972.8,
        "on_ground": false,
        "velocity": 243.76,
        "true_track": 316.03,
        "vertical_rate": 0,
        "geo_altitude": 11529.06,
        "squawk": "5526",
        "spi": false,
        "position_source": 0
      }
    },
    {
      "type": "Feature",
      "geometry": {
        "type": "Point",
        "coordinates": [
          14.9972,
          40.8629
        ]
      },
      "properties": {
        "icao24": "0101e0",
        "callsign": "MSR996",
        "origin_country": "Egypt",
        "time_position": 1786495538,
        "last_contact": 1786495538,
        "baro_altitude": 11879.58,
        "on_ground": false,
        "velocity": 268.98,
        "true_track": 115.73,
        "vertical_rate": 0.33,
        "geo_altitude": 12603.48,
        "squawk": "1147",
        "spi": false,
        "position_source": 0
      }
    },
    {
      "type": "Feature",
      "geometry": {
        "type": "Point",
        "coordinates": [
          11.8289,
          39.9661
        ]
      },
      "properties": {
        "icao24": "4caecc",
        "callsign": "RYR14YV",
        "origin_country": "Ireland",
        "time_position": 1786495537,
        "last_contact": 1786495537,
        "baro_altitude": 11887.2,
        "on_ground": false,
        "velocity": 222.37,
        "true_track": 168.12,
        "vertical_rate": 0,
        "geo_altitude": 12580.62,
        "squawk": "5215",
        "spi": false,
        "position_source": 0
      }
    },
    {
      "type": "Feature",
      "geometry": {
        "type": "Point",
        "coordinates": [
          8.7615,
          45.4527
        ]
      },
      "properties": {
        "icao24": "4d23fb",
        "callsign": "RYR3008",
        "origin_country": "Malta",
        "time_position": 1786495538,
        "last_contact": 1786495538,
        "baro_altitude": 2270.76,
        "on_ground": false,
        "velocity": 139.45,
        "true_track": 192.14,
        "vertical_rate": 5.53,
        "geo_altitude": 2484.12,
        "squawk": "1000",
        "spi": false,
        "position_source": 0
      }
    },
    {
      "type": "Feature",
      "geometry": {
        "type": "Point",
        "coordinates": [
          9.4898,
          40.9615
        ]
      },
      "properties": {
        "icao24": "3472c3",
        "callsign": "VLG2KQ",
        "origin_country": "Spain",
        "time_position": 1786495538,
        "last_contact": 1786495538,
        "baro_altitude": 10980.42,
        "on_ground": false,
        "velocity": 219.85,
        "true_track": 265.44,
        "vertical_rate": 0,
        "geo_altitude": 11590.02,
        "squawk": null,
        "spi": false,
        "position_source": 0
      }
    },
    {
      "type": "Feature",
      "geometry": {
        "type": "Point",
        "coordinates": [
          7.7635,
          43.8714
        ]
      },
      "properties": {
        "icao24": "4d2304",
        "callsign": "RYR7BE",
        "origin_country": "Malta",
        "time_position": 1786495538,
        "last_contact": 1786495538,
        "baro_altitude": 9144,
        "on_ground": false,
        "velocity": 222.17,
        "true_track": 42.18,
        "vertical_rate": 0,
        "geo_altitude": 9669.78,
        "squawk": "1000",
        "spi": false,
        "position_source": 0
      }
    },
    {
      "type": "Feature",
      "geometry": {
        "type": "Point",
        "coordinates": [
          11.3061,
          41.8807
        ]
      },
      "properties": {
        "icao24": "4bd023",
        "callsign": "TCTAC",
        "origin_country": "Turkey",
        "time_position": 1786495537,
        "last_contact": 1786495537,
        "baro_altitude": 9814.56,
        "on_ground": false,
        "velocity": 215.79,
        "true_track": 130.07,
        "vertical_rate": 2.93,
        "geo_altitude": 10355.58,
        "squawk": "1221",
        "spi": false,
        "position_source": 0
      }
    },
    {
      "type": "Feature",
      "geometry": {
        "type": "Point",
        "coordinates": [
          17.2312,
          41.9377
        ]
      },
      "properties": {
        "icao24": "4c01e5",
        "callsign": "ASL9870",
        "origin_country": "Serbia",
        "time_position": 1786495537,
        "last_contact": 1786495537,
        "baro_altitude": 11277.6,
        "on_ground": false,
        "velocity": 214.32,
        "true_track": 216.7,
        "vertical_rate": 0,
        "geo_altitude": 11925.3,
        "squawk": "7343",
        "spi": false,
        "position_source": 0
      }
    },
    {
      "type": "Feature",
      "geometry": {
        "type": "Point",
        "coordinates": [
          9.1473,
          39.8003
        ]
      },
      "properties": {
        "icao24": "4d21fe",
        "callsign": "RYR3986",
        "origin_country": "Malta",
        "time_position": 1786495432,
        "last_contact": 1786495432,
        "baro_altitude": 3177.54,
        "on_ground": false,
        "velocity": 192.51,
        "true_track": 192.03,
        "vertical_rate": -14.96,
        "geo_altitude": 3512.82,
        "squawk": "7035",
        "spi": false,
        "position_source": 0
      }
    },
    {
      "type": "Feature",
      "geometry": {
        "type": "Point",
        "coordinates": [
          11.4449,
          40.8855
        ]
      },
      "properties": {
        "icao24": "4d20fd",
        "callsign": "WMT7A",
        "origin_country": "Malta",
        "time_position": 1786495538,
        "last_contact": 1786495538,
        "baro_altitude": 10660.38,
        "on_ground": false,
        "velocity": 230.14,
        "true_track": 158.77,
        "vertical_rate": 0,
        "geo_altitude": 11269.98,
        "squawk": "1000",
        "spi": false,
        "position_source": 0
      }
    },
    {
      "type": "Feature",
      "geometry": {
        "type": "Point",
        "coordinates": [
          16.7151,
          43.315
        ]
      },
      "properties": {
        "icao24": "4d217a",
        "callsign": "VJT645",
        "origin_country": "Malta",
        "time_position": 1786495537,
        "last_contact": 1786495537,
        "baro_altitude": 10058.4,
        "on_ground": false,
        "velocity": 225.55,
        "true_track": 135.55,
        "vertical_rate": 0,
        "geo_altitude": 10637.52,
        "squawk": "2152",
        "spi": false,
        "position_source": 0
      }
    },
    {
      "type": "Feature",
      "geometry": {
        "type": "Point",
        "coordinates": [
          12.2428,
          41.7762
        ]
      },
      "properties": {
        "icao24": "4d20f3",
        "callsign": "WMT1488",
        "origin_country": "Malta",
        "time_position": 1786495322,
        "last_contact": 1786495322,
        "baro_altitude": 38.1,
        "on_ground": false,
        "velocity": 67.52,
        "true_track": 342.26,
        "vertical_rate": -3.9,
        "geo_altitude": 106.68,
        "squawk": "1000",
        "spi": false,
        "position_source": 0
      }
    },
    {
      "type": "Feature",
      "geometry": {
        "type": "Point",
        "coordinates": [
          15.5897,
          44.4283
        ]
      },
      "properties": {
        "icao24": "40832a",
        "callsign": "TOM4TG",
        "origin_country": "United Kingdom",
        "time_position": 1786495538,
        "last_contact": 1786495538,
        "baro_altitude": 12496.8,
        "on_ground": false,
        "velocity": 238.01,
        "true_track": 147,
        "vertical_rate": 0,
        "geo_altitude": 13144.5,
        "squawk": "5226",
        "spi": false,
        "position_source": 0
      }
    },
    {
      "type": "Feature",
      "geometry": {
        "type": "Point",
        "coordinates": [
          12.5699,
          45.6486
        ]
      },
      "properties": {
        "icao24": "40836b",
        "callsign": "EZY41GE",
        "origin_country": "United Kingdom",
        "time_position": 1786495537,
        "last_contact": 1786495537,
        "baro_altitude": 10972.8,
        "on_ground": false,
        "velocity": 232.32,
        "true_track": 306.72,
        "vertical_rate": 0,
        "geo_altitude": 11536.68,
        "squawk": "5515",
        "spi": false,
        "position_source": 0
      }
    },
    {
      "type": "Feature",
      "geometry": {
        "type": "Point",
        "coordinates": [
          10.3142,
          45.4466
        ]
      },
      "properties": {
        "icao24": "30019c",
        "callsign": "NOS14RP",
        "origin_country": "Italy",
        "time_position": 1786495537,
        "last_contact": 1786495537,
        "baro_altitude": 7452.36,
        "on_ground": false,
        "velocity": 222.11,
        "true_track": 293.48,
        "vertical_rate": -12.35,
        "geo_altitude": 7947.66,
        "squawk": "2075",
        "spi": false,
        "position_source": 0
      }
    },
    {
      "type": "Feature",
      "geometry": {
        "type": "Point",
        "coordinates": [
          16.478,
          44.8202
        ]
      },
      "properties": {
        "icao24": "408314",
        "callsign": "TOM1NL",
        "origin_country": "United Kingdom",
        "time_position": 1786495538,
        "last_contact": 1786495538,
        "baro_altitude": 9144,
        "on_ground": false,
        "velocity": 244.63,
        "true_track": 312.78,
        "vertical_rate": 0,
        "geo_altitude": 9669.78,
        "squawk": "0526",
        "spi": false,
        "position_source": 0
      }
    },
    {
      "type": "Feature",
      "geometry": {
        "type": "Point",
        "coordinates": [
          16.5083,
          45.7813
        ]
      },
      "properties": {
        "icao24": "4d206e",
        "callsign": "AIZ991",
        "origin_country": "Malta",
        "time_position": 1786495538,
        "last_contact": 1786495538,
        "baro_altitude": 10972.8,
        "on_ground": false,
        "velocity": 232.47,
        "true_track": 315.81,
        "vertical_rate": 0,
        "geo_altitude": 11551.92,
        "squawk": "6001",
        "spi": false,
        "position_source": 0
      }
    },
    {
      "type": "Feature",
      "geometry": {
        "type": "Point",
        "coordinates": [
          8.7207,
          45.6253
        ]
      },
      "properties": {
        "icao24": "451dad",
        "callsign": "BCS460",
        "origin_country": "Bulgaria",
        "time_position": 1786495538,
        "last_contact": 1786495538,
        "baro_altitude": null,
        "on_ground": true,
        "velocity": 10.8,
        "true_track": 348.75,
        "vertical_rate": null,
        "geo_altitude": null,
        "squawk": "1000",
        "spi": false,
        "position_source": 0
      }
    },
    {
      "type": "Feature",
      "geometry": {
        "type": "Point",
        "coordinates": [
          7.0638,
          43.5725
        ]
      },
      "properties": {
        "icao24": "47ae38",
        "callsign": "NBT50P",
        "origin_country": "Norway",
        "time_position": 1786495538,
        "last_contact": 1786495538,
        "baro_altitude": 11887.2,
        "on_ground": false,
        "velocity": 259.8,
        "true_track": 117.73,
        "vertical_rate": 0,
        "geo_altitude": 12519.66,
        "squawk": "3367",
        "spi": false,
        "position_source": 0
      }
    },
    {
      "type": "Feature",
      "geometry": {
        "type": "Point",
        "coordinates": [
          12.9278,
          38.3405
        ]
      },
      "properties": {
        "icao24": "4d201e",
        "callsign": "WMT288",
        "origin_country": "Malta",
        "time_position": 1786495440,
        "last_contact": 1786495442,
        "baro_altitude": 2377.44,
        "on_ground": false,
        "velocity": 154.35,
        "true_track": 222.84,
        "vertical_rate": -8.45,
        "geo_altitude": 2606.04,
        "squawk": "1000",
        "spi": false,
        "position_source": 0
      }
    },
    {
      "type": "Feature",
      "geometry": {
        "type": "Point",
        "coordinates": [
          10.8518,
          45.3707
        ]
      },
      "properties": {
        "icao24": "3481c4",
        "callsign": "VOE6KX",
        "origin_country": "Spain",
        "time_position": 1786495450,
        "last_contact": 1786495450,
        "baro_altitude": 198.12,
        "on_ground": false,
        "velocity": 70.21,
        "true_track": 45.3,
        "vertical_rate": -3.9,
        "geo_altitude": 342.9,
        "squawk": "5477",
        "spi": false,
        "position_source": 0
      }
    }
  ]
}