{
  "type": "FeatureCollection",
  "source": "opensky",
  "dataset": "aircraft_italy",
  "generated_at": "2026-09-08T01:06:38.674681+00:00",
  "opensky_time": 1788829594,
  "count": 58,
  "features": [
    {
      "type": "Feature",
      "geometry": {
        "type": "Point",
        "coordinates": [
          6.9529,
          44.2244
        ]
      },
      "properties": {
        "icao24": "407a06",
        "callsign": "EZY63MD",
        "origin_country": "United Kingdom",
        "time_position": 1788829594,
        "last_contact": 1788829594,
        "baro_altitude": 11582.4,
        "on_ground": false,
        "velocity": 221.88,
        "true_track": 325.87,
        "vertical_rate": 0,
        "geo_altitude": 12169.14,
        "squawk": "4016",
        "spi": false,
        "position_source": 0
      }
    },
    {
      "type": "Feature",
      "geometry": {
        "type": "Point",
        "coordinates": [
          15.8313,
          41.076
        ]
      },
      "properties": {
        "icao24": "801666",
        "callsign": "AIC105",
        "origin_country": "India",
        "time_position": 1788829594,
        "last_contact": 1788829594,
        "baro_altitude": 12192,
        "on_ground": false,
        "velocity": 238.5,
        "true_track": 286.28,
        "vertical_rate": 0,
        "geo_altitude": 12786.36,
        "squawk": null,
        "spi": false,
        "position_source": 0
      }
    },
    {
      "type": "Feature",
      "geometry": {
        "type": "Point",
        "coordinates": [
          12.2704,
          41.8169
        ]
      },
      "properties": {
        "icao24": "8015a7",
        "callsign": "AIC119",
        "origin_country": "India",
        "time_position": 1788829594,
        "last_contact": 1788829594,
        "baro_altitude": null,
        "on_ground": true,
        "velocity": 4.89,
        "true_track": 180,
        "vertical_rate": null,
        "geo_altitude": null,
        "squawk": null,
        "spi": false,
        "position_source": 0
      }
    },
    {
      "type": "Feature",
      "geometry": {
        "type": "Point",
        "coordinates": [
          8.1018,
          44.6716
        ]
      },
      "properties": {
        "icao24": "452084",
        "callsign": "BCS460",
        "origin_country": "Bulgaria",
        "time_position": 1788829594,
        "last_contact": 1788829594,
        "baro_altitude": 8191.5,
        "on_ground": false,
        "velocity": 231.15,
        "true_track": 213.19,
        "vertical_rate": 9.43,
        "geo_altitude": 8663.94,
        "squawk": "1000",
        "spi": false,
        "position_source": 0
      }
    },
    {
      "type": "Feature",
      "geometry": {
        "type": "Point",
        "coordinates": [
          18.3297,
          38.6832
        ]
      },
      "properties": {
        "icao24": "738068",
        "callsign": "ELY376",
        "origin_country": "Israel",
        "time_position": 1788829583,
        "last_contact": 1788829593,
        "baro_altitude": 11277.6,
        "on_ground": false,
        "velocity": 254.17,
        "true_track": 107.19,
        "vertical_rate": 0,
        "geo_altitude": 11902.44,
        "squawk": "1211",
        "spi": false,
        "position_source": 0
      }
    },
    {
      "type": "Feature",
      "geometry": {
        "type": "Point",
        "coordinates": [
          18.0838,
          44.6521
        ]
      },
      "properties": {
        "icao24": "738076",
        "callsign": "ELY001",
        "origin_country": "Israel",
        "time_position": 1788829594,
        "last_contact": 1788829594,
        "baro_altitude": 9753.6,
        "on_ground": false,
        "velocity": 240.3,
        "true_track": 317.43,
        "vertical_rate": 0,
        "geo_altitude": 10294.62,
        "squawk": "1334",
        "spi": false,
        "position_source": 0
      }
    },
    {
      "type": "Feature",
      "geometry": {
        "type": "Point",
        "coordinates": [
          17.9766,
          39.7109
        ]
      },
      "properties": {
        "icao24": "80189d",
        "callsign": "AIC188",
        "origin_country": "India",
        "time_position": 1788829594,
        "last_contact": 1788829594,
        "baro_altitude": 11269.98,
        "on_ground": false,
        "velocity": 261.62,
        "true_track": 117.52,
        "vertical_rate": -0.33,
        "geo_altitude": 11894.82,
        "squawk": "1226",
        "spi": false,
        "position_source": 0
      }
    },
    {
      "type": "Feature",
      "geometry": {
        "type": "Point",
        "coordinates": [
          17.2067,
          42.5235
        ]
      },
      "properties": {
        "icao24": "738100",
        "callsign": "ELY018",
        "origin_country": "Israel",
        "time_position": 1788829594,
        "last_contact": 1788829594,
        "baro_altitude": 12496.8,
        "on_ground": false,
        "velocity": 261.7,
        "true_track": 118.28,
        "vertical_rate": 0,
        "geo_altitude": 13091.16,
        "squawk": "0437",
        "spi": false,
        "position_source": 0
      }
    },
    {
      "type": "Feature",
      "geometry": {
        "type": "Point",
        "coordinates": [
          8.418,
          39.5794
        ]
      },
      "properties": {
        "icao24": "4a3121",
        "callsign": "AIZ026",
        "origin_country": "Romania",
        "time_position": 1788829593,
        "last_contact": 1788829594,
        "baro_altitude": 10668,
        "on_ground": false,
        "velocity": 238.06,
        "true_track": 104.01,
        "vertical_rate": 0,
        "geo_altitude": 11277.6,
        "squawk": "1414",
        "spi": false,
        "position_source": 0
      }
    },
    {
      "type": "Feature",
      "geometry": {
        "type": "Point",
        "coordinates": [
          18.0807,
          43.1905
        ]
      },
      "properties": {
        "icao24": "452169",
        "callsign": "MSC2967",
        "origin_country": "Bulgaria",
        "time_position": 1788829593,
        "last_contact": 1788829594,
        "baro_altitude": 10660.38,
        "on_ground": false,
        "velocity": 239.76,
        "true_track": 140.57,
        "vertical_rate": -0.33,
        "geo_altitude": 11239.5,
        "squawk": "1175",
        "spi": false,
        "position_source": 0
      }
    },
    {
      "type": "Feature",
      "geometry": {
        "type": "Point",
        "coordinates": [
          16.6608,
          42.7428
        ]
      },
      "properties": {
        "icao24": "452124",
        "callsign": "LZB564",
        "origin_country": "Bulgaria",
        "time_position": 1788829591,
        "last_contact": 1788829591,
        "baro_altitude": 11887.2,
        "on_ground": false,
        "velocity": 242.56,
        "true_track": 76.26,
        "vertical_rate": -0.33,
        "geo_altitude": 12466.32,
        "squawk": "1225",
        "spi": false,
        "position_source": 0
      }
    },
    {
      "type": "Feature",
      "geometry": {
        "type": "Point",
        "coordinates": [
          18.3405,
          46.1758
        ]
      },
      "properties": {
        "icao24": "4892c7",
        "callsign": "ENT1BP",
        "origin_country": "Poland",
        "time_position": 1788829593,
        "last_contact": 1788829593,
        "baro_altitude": 11277.6,
        "on_ground": false,
        "velocity": 237.82,
        "true_track": 173.17,
        "vertical_rate": 0,
        "geo_altitude": 11811,
        "squawk": "2216",
        "spi": false,
        "position_source": 0
      }
    },
    {
      "type": "Feature",
      "geometry": {
        "type": "Point",
        "coordinates": [
          11.5362,
          44.4281
        ]
      },
      "properties": {
        "icao24": "7380c2",
        "callsign": "ELY028",
        "origin_country": "Israel",
        "time_position": 1788829594,
        "last_contact": 1788829594,
        "baro_altitude": 11887.2,
        "on_ground": false,
        "velocity": 262.2,
        "true_track": 102.81,
        "vertical_rate": 0,
        "geo_altitude": 12473.94,
        "squawk": "0471",
        "spi": false,
        "position_source": 0
      }
    },
    {
      "type": "Feature",
      "geometry": {
        "type": "Point",
        "coordinates": [
          9.0176,
          47.4514
        ]
      },
      "properties": {
        "icao24": "7380c1",
        "callsign": "ELY027",
        "origin_country": "Israel",
        "time_position": 1788829594,
        "last_contact": 1788829594,
        "baro_altitude": 10363.2,
        "on_ground": false,
        "velocity": 251.18,
        "true_track": 307.76,
        "vertical_rate": -0.33,
        "geo_altitude": 10904.22,
        "squawk": "2756",
        "spi": false,
        "position_source": 0
      }
    },
    {
      "type": "Feature",
      "geometry": {
        "type": "Point",
        "coordinates": [
          18.7165,
          41.846
        ]
      },
      "properties": {
        "icao24": "7380cb",
        "callsign": "ELY010",
        "origin_country": "Israel",
        "time_position": 1788829594,
        "last_contact": 1788829594,
        "baro_altitude": 11879.58,
        "on_ground": false,
        "velocity": 258.31,
        "true_track": 128.13,
        "vertical_rate": -0.33,
        "geo_altitude": 12489.18,
        "squawk": "3745",
        "spi": false,
        "position_source": 0
      }
    },
    {
      "type": "Feature",
      "geometry": {
        "type": "Point",
        "coordinates": [
          11.6207,
          45.3979
        ]
      },
      "properties": {
        "icao24": "506ca3",
        "callsign": "RMB1",
        "origin_country": "Slovenia",
        "time_position": 1788829594,
        "last_contact": 1788829594,
        "baro_altitude": 12146.28,
        "on_ground": false,
        "velocity": 199.61,
        "true_track": 270.59,
        "vertical_rate": -5.85,
        "geo_altitude": 12687.3,
        "squawk": "1000",
        "spi": false,
        "position_source": 0
      }
    },
    {
      "type": "Feature",
      "geometry": {
        "type": "Point",
        "coordinates": [
          12.6673,
          46.8113
        ]
      },
      "properties": {
        "icao24": "4bb146",
        "callsign": "THY9LC",
        "origin_country": "Turkey",
        "time_position": 1788829593,
        "last_contact": 1788829593,
        "baro_altitude": 11277.6,
        "on_ground": false,
        "velocity": 252.61,
        "true_track": 116.62,
        "vertical_rate": 0.33,
        "geo_altitude": 11795.76,
        "squawk": "2215",
        "spi": false,
        "position_source": 0
      }
    },
    {
      "type": "Feature",
      "geometry": {
        "type": "Point",
        "coordinates": [
          11.2161,
          47.5748
        ]
      },
      "properties": {
        "icao24": "4067f3",
        "callsign": "TOM397",
        "origin_country": "United Kingdom",
        "time_position": 1788829594,
        "last_contact": 1788829594,
        "baro_altitude": 11582.4,
        "on_ground": false,
        "velocity": 228.09,
        "true_track": 308.5,
        "vertical_rate": 0,
        "geo_altitude": 12115.8,
        "squawk": "6614",
        "spi": false,
        "position_source": 0
      }
    },
    {
      "type": "Feature",
      "geometry": {
        "type": "Point",
        "coordinates": [
          13.5249,
          46.6692
        ]
      },
      "properties": {
        "icao24": "4bb194",
        "callsign": "THY84U",
        "origin_country": "Turkey",
        "time_position": 1788829593,
        "last_contact": 1788829593,
        "baro_altitude": 11879.58,
        "on_ground": false,
        "velocity": 262.06,
        "true_track": 115.96,
        "vertical_rate": -0.33,
        "geo_altitude": 12405.36,
        "squawk": "2360",
        "spi": false,
        "position_source": 0
      }
    },
    {
      "type": "Feature",
      "geometry": {
        "type": "Point",
        "coordinates": [
          18.8211,
          45.0056
        ]
      },
      "properties": {
        "icao24": "896626",
        "callsign": "UAE70",
        "origin_country": "United Arab Emirates",
        "time_position": 1788829593,
        "last_contact": 1788829594,
        "baro_altitude": 12496.8,
        "on_ground": false,
        "velocity": 264.25,
        "true_track": 123.97,
        "vertical_rate": 0.33,
        "geo_altitude": 13014.96,
        "squawk": "2247",
        "spi": false,
        "position_source": 0
      }
    },
    {
      "type": "Feature",
      "geometry": {
        "type": "Point",
        "coordinates": [
          6.8651,
          36.7065
        ]
      },
      "properties": {
        "icao24": "44ccc2",
        "callsign": "BEL39G",
        "origin_country": "Belgium",
        "time_position": 1788829565,
        "last_contact": 1788829566,
        "baro_altitude": 10972.8,
        "on_ground": false,
        "velocity": 248.89,
        "true_track": 3.32,
        "vertical_rate": 0,
        "geo_altitude": 11597.64,
        "squawk": null,
        "spi": false,
        "position_source": 0
      }
    },
    {
      "type": "Feature",
      "geometry": {
        "type": "Point",
        "coordinates": [
          14.8442,
          45.3677
        ]
      },
      "properties": {
        "icao24": "406696",
        "callsign": "TOM843",
        "origin_country": "United Kingdom",
        "time_position": 1788829593,
        "last_contact": 1788829593,
        "baro_altitude": 11582.4,
        "on_ground": false,
        "velocity": 220.92,
        "true_track": 320.01,
        "vertical_rate": 0,
        "geo_altitude": 12138.66,
        "squawk": "2047",
        "spi": false,
        "position_source": 0
      }
    },
    {
      "type": "Feature",
      "geometry": {
        "type": "Point",
        "coordinates": [
          11.542,
          47.4313
        ]
      },
      "properties": {
        "icao24": "40796b",
        "callsign": "TOM451",
        "origin_country": "United Kingdom",
        "time_position": 1788829594,
        "last_contact": 1788829594,
        "baro_altitude": 10972.8,
        "on_ground": false,
        "velocity": 224.08,
        "true_track": 308.47,
        "vertical_rate": 0,
        "geo_altitude": 11498.58,
        "squawk": "0501",
        "spi": false,
        "position_source": 0
      }
    },
    {
      "type": "Feature",
      "geometry": {
        "type": "Point",
        "coordinates": [
          8.2614,
          43.1917
        ]
      },
      "properties": {
        "icao24": "8965b9",
        "callsign": "UAE6MR",
        "origin_country": "United Arab Emirates",
        "time_position": 1788829593,
        "last_contact": 1788829593,
        "baro_altitude": 11277.6,
        "on_ground": false,
        "velocity": 257.82,
        "true_track": 121.79,
        "vertical_rate": 0,
        "geo_altitude": 11879.58,
        "squawk": "3365",
        "spi": false,
        "position_source": 0
      }
    },
    {
      "type": "Feature",
      "geometry": {
        "type": "Point",
        "coordinates": [
          18.7988,
          44.1991
        ]
      },
      "properties": {
        "icao24": "4b8533",
        "callsign": "PGT66L",
        "origin_country": "Turkey",
        "time_position": 1788829594,
        "last_contact": 1788829594,
        "baro_altitude": 10668,
        "on_ground": false,
        "velocity": 245.27,
        "true_track": 131.51,
        "vertical_rate": 0,
        "geo_altitude": 11224.26,
        "squawk": "7713",
        "spi": false,
        "position_source": 0
      }
    },
    {
      "type": "Feature",
      "geometry": {
        "type": "Point",
        "coordinates": [
          15.3012,
          44.6322
        ]
      },
      "properties": {
        "icao24": "49d2ee",
        "callsign": "TVQ6460",
        "origin_country": "Czech Republic",
        "time_position": 1788829594,
        "last_contact": 1788829594,
        "baro_altitude": 11277.6,
        "on_ground": false,
        "velocity": 230.79,
        "true_track": 195.65,
        "vertical_rate": 0.33,
        "geo_altitude": 11841.48,
        "squawk": "7374",
        "spi": false,
        "position_source": 0
      }
    },
    {
      "type": "Feature",
      "geometry": {
        "type": "Point",
        "coordinates": [
          18.5449,
          37.2782
        ]
      },
      "properties": {
        "icao24": "040087",
        "callsign": "ETH575",
        "origin_country": "Ethiopia",
        "time_position": 1788829591,
        "last_contact": 1788829591,
        "baro_altitude": 11887.2,
        "on_ground": false,
        "velocity": 260.59,
        "true_track": 130.36,
        "vertical_rate": 0,
        "geo_altitude": 12565.38,
        "squawk": "1223",
        "spi": false,
        "position_source": 0
      }
    },
    {
      "type": "Feature",
      "geometry": {
        "type": "Point",
        "coordinates": [
          11.4228,
          46.4947
        ]
      },
      "properties": {
        "icao24": "406d95",
        "callsign": "EZY2140",
        "origin_country": "United Kingdom",
        "time_position": 1788829593,
        "last_contact": 1788829593,
        "baro_altitude": 10972.8,
        "on_ground": false,
        "velocity": 228.43,
        "true_track": 289.33,
        "vertical_rate": 0,
        "geo_altitude": 11513.82,
        "squawk": "3263",
        "spi": false,
        "position_source": 0
      }
    },
    {
      "type": "Feature",
      "geometry": {
        "type": "Point",
        "coordinates": [
          10.4638,
          42.1922
        ]
      },
      "properties": {
        "icao24": "744841",
        "callsign": "RJA272",
        "origin_country": "Jordan",
        "time_position": 1788829593,
        "last_contact": 1788829593,
        "baro_altitude": 11887.2,
        "on_ground": false,
        "velocity": 251.26,
        "true_track": 123.56,
        "vertical_rate": -0.33,
        "geo_altitude": 12496.8,
        "squawk": "1231",
        "spi": false,
        "position_source": 0
      }
    },
    {
      "type": "Feature",
      "geometry": {
        "type": "Point",
        "coordinates": [
          17.4655,
          35.8098
        ]
      },
      "properties": {
        "icao24": "744831",
        "callsign": "RJA517",
        "origin_country": "Jordan",
        "time_position": 1788829593,
        "last_contact": 1788829593,
        "baro_altitude": 10363.2,
        "on_ground": false,
        "velocity": 215.71,
        "true_track": 274.51,
        "vertical_rate": 0,
        "geo_altitude": 10988.04,
        "squawk": null,
        "spi": false,
        "position_source": 0
      }
    },
    {
      "type": "Feature",
      "geometry": {
        "type": "Point",
        "coordinates": [
          7.5606,
          46.9337
        ]
      },
      "properties": {
        "icao24": "3939e4",
        "callsign": "TJT013P",
        "origin_country": "France",
        "time_position": 1788829594,
        "last_contact": 1788829594,
        "baro_altitude": 7620,
        "on_ground": false,
        "velocity": 139.33,
        "true_track": 217.8,
        "vertical_rate": 0,
        "geo_altitude": 8092.44,
        "squawk": "4163",
        "spi": false,
        "position_source": 0
      }
    },
    {
      "type": "Feature",
      "geometry": {
        "type": "Point",
        "coordinates": [
          10.3486,
          47.6983
        ]
      },
      "properties": {
        "icao24": "407f96",
        "callsign": "TOM8XC",
        "origin_country": "United Kingdom",
        "time_position": 1788829593,
        "last_contact": 1788829593,
        "baro_altitude": 11582.4,
        "on_ground": false,
        "velocity": 229.62,
        "true_track": 293.92,
        "vertical_rate": 0.33,
        "geo_altitude": 12115.8,
        "squawk": "0516",
        "spi": false,
        "position_source": 0
      }
    },
    {
      "type": "Feature",
      "geometry": {
        "type": "Point",
        "coordinates": [
          16.7835,
          45.4686
        ]
      },
      "properties": {
        "icao24": "49d034",
        "callsign": "TVS2292",
        "origin_country": "Czech Republic",
        "time_position": 1788829594,
        "last_contact": 1788829594,
        "baro_altitude": 11277.6,
        "on_ground": false,
        "velocity": 233.07,
        "true_track": 163.32,
        "vertical_rate": 0,
        "geo_altitude": 11826.24,
        "squawk": "6025",
        "spi": false,
        "position_source": 0
      }
    },
    {
      "type": "Feature",
      "geometry": {
        "type": "Point",
        "coordinates": [
          17.9076,
          45.1155
        ]
      },
      "properties": {
        "icao24": "504e87",
        "callsign": "FIA5812",
        "origin_country": "Republic of Moldova",
        "time_position": 1788829594,
        "last_contact": 1788829594,
        "baro_altitude": 11277.6,
        "on_ground": false,
        "velocity": 242.42,
        "true_track": 85.86,
        "vertical_rate": 0,
        "geo_altitude": 11826.24,
        "squawk": "1167",
        "spi": false,
        "position_source": 0
      }
    },
    {
      "type": "Feature",
      "geometry": {
        "type": "Point",
        "coordinates": [
          18.7373,
          47.207
        ]
      },
      "properties": {
        "icao24": "600b20",
        "callsign": "AZG3821",
        "origin_country": "Azerbaijan",
        "time_position": 1788829594,
        "last_contact": 1788829594,
        "baro_altitude": 9753.6,
        "on_ground": false,
        "velocity": 227.66,
        "true_track": 292.45,
        "vertical_rate": -0.33,
        "geo_altitude": 10210.8,
        "squawk": "2644",
        "spi": false,
        "position_source": 0
      }
    },
    {
      "type": "Feature",
      "geometry": {
        "type": "Point",
        "coordinates": [
          8.5554,
          47.456
        ]
      },
      "properties": {
        "icao24": "4b1809",
        "callsign": "SWR9EX",
        "origin_country": "Switzerland",
        "time_position": 1788829304,
        "last_contact": 1788829304,
        "baro_altitude": null,
        "on_ground": true,
        "velocity": 0,
        "true_track": 5.62,
        "vertical_rate": null,
        "geo_altitude": null,
        "squawk": "2000",
        "spi": false,
        "position_source": 0
      }
    },
    {
      "type": "Feature",
      "geometry": {
        "type": "Point",
        "coordinates": [
          8.5602,
          47.4462
        ]
      },
      "properties": {
        "icao24": "4b1802",
        "callsign": "SWR",
        "origin_country": "Switzerland",
        "time_position": 1788829589,
        "last_contact": 1788829593,
        "baro_altitude": 373.38,
        "on_ground": true,
        "velocity": 0,
        "true_track": 244.69,
        "vertical_rate": null,
        "geo_altitude": null,
        "squawk": "2000",
        "spi": false,
        "position_source": 0
      }
    },
    {
      "type": "Feature",
      "geometry": {
        "type": "Point",
        "coordinates": [
          12.6916,
          42.3618
        ]
      },
      "properties": {
        "icao24": "02a1a2",
        "callsign": "LBT809",
        "origin_country": "Tunisia",
        "time_position": 1788829593,
        "last_contact": 1788829594,
        "baro_altitude": 11277.6,
        "on_ground": false,
        "velocity": 230.24,
        "true_track": 193.04,
        "vertical_rate": 0,
        "geo_altitude": 11849.1,
        "squawk": "1172",
        "spi": false,
        "position_source": 0
      }
    },
    {
      "type": "Feature",
      "geometry": {
        "type": "Point",
        "coordinates": [
          8.9366,
          37.4354
        ]
      },
      "properties": {
        "icao24": "3c6568",
        "callsign": "OCN133",
        "origin_country": "Germany",
        "time_position": 1788829586,
        "last_contact": 1788829586,
        "baro_altitude": 12192,
        "on_ground": false,
        "velocity": 243.51,
        "true_track": 357.82,
        "vertical_rate": 0,
        "geo_altitude": 12824.46,
        "squawk": "4432",
        "spi": false,
        "position_source": 0
      }
    },
    {
      "type": "Feature",
      "geometry": {
        "type": "Point",
        "coordinates": [
          12.3904,
          47.1272
        ]
      },
      "properties": {
        "icao24": "40823c",
        "callsign": "EXS7K",
        "origin_country": "United Kingdom",
        "time_position": 1788829593,
        "last_contact": 1788829593,
        "baro_altitude": 10980.42,
        "on_ground": false,
        "velocity": 229.06,
        "true_track": 304.94,
        "vertical_rate": -0.33,
        "geo_altitude": 11513.82,
        "squawk": "5325",
        "spi": false,
        "position_source": 0
      }
    },
    {
      "type": "Feature",
      "geometry": {
        "type": "Point",
        "coordinates": [
          10.2195,
          36.8455
        ]
      },
      "properties": {
        "icao24": "02a1ab",
        "callsign": "LBT691",
        "origin_country": "Tunisia",
        "time_position": 1788829440,
        "last_contact": 1788829449,
        "baro_altitude": null,
        "on_ground": true,
        "velocity": 0,
        "true_track": 320.62,
        "vertical_rate": null,
        "geo_altitude": null,
        "squawk": "2334",
        "spi": false,
        "position_source": 0
      }
    },
    {
      "type": "Feature",
      "geometry": {
        "type": "Point",
        "coordinates": [
          16.295,
          38.6042
        ]
      },
      "properties": {
        "icao24": "0a0075",
        "callsign": "DAH3023",
        "origin_country": "Algeria",
        "time_position": 1788829593,
        "last_contact": 1788829593,
        "baro_altitude": 10965.18,
        "on_ground": false,
        "velocity": 221.91,
        "true_track": 251.06,
        "vertical_rate": 0,
        "geo_altitude": 11582.4,
        "squawk": "2344",
        "spi": false,
        "position_source": 0
      }
    },
    {
      "type": "Feature",
      "geometry": {
        "type": "Point",
        "coordinates": [
          9.0228,
          36.1021
        ]
      },
      "properties": {
        "icao24": "3c64ef",
        "callsign": "DLH595",
        "origin_country": "Germany",
        "time_position": 1788829593,
        "last_contact": 1788829593,
        "baro_altitude": 12192,
        "on_ground": false,
        "velocity": 244.11,
        "true_track": 357.34,
        "vertical_rate": 0,
        "geo_altitude": 12824.46,
        "squawk": null,
        "spi": false,
        "position_source": 0
      }
    },
    {
      "type": "Feature",
      "geometry": {
        "type": "Point",
        "coordinates": [
          18.9666,
          43.6974
        ]
      },
      "properties": {
        "icao24": "738c0c",
        "callsign": "ICL907",
        "origin_country": "Israel",
        "time_position": 1788829594,
        "last_contact": 1788829594,
        "baro_altitude": 12192,
        "on_ground": false,
        "velocity": 235.7,
        "true_track": 310.57,
        "vertical_rate": 0,
        "geo_altitude": 12740.64,
        "squawk": "0512",
        "spi": false,
        "position_source": 0
      }
    },
    {
      "type": "Feature",
      "geometry": {
        "type": "Point",
        "coordinates": [
          9.7128,
          36.1651
        ]
      },
      "properties": {
        "icao24": "4951d3",
        "callsign": "TAP9003",
        "origin_country": "Portugal",
        "time_position": 1788829593,
        "last_contact": 1788829593,
        "baro_altitude": 11269.98,
        "on_ground": false,
        "velocity": 226.52,
        "true_track": 162.96,
        "vertical_rate": 0,
        "geo_altitude": 11887.2,
        "squawk": "1153",
        "spi": false,
        "position_source": 0
      }
    },
    {
      "type": "Feature",
      "geometry": {
        "type": "Point",
        "coordinates": [
          11.364,
          41.1949
        ]
      },
      "properties": {
        "icao24": "4ca82c",
        "callsign": "MSA9784",
        "origin_country": "Ireland",
        "time_position": 1788829593,
        "last_contact": 1788829593,
        "baro_altitude": 7825.74,
        "on_ground": false,
        "velocity": 243.31,
        "true_track": 28.41,
        "vertical_rate": -5.2,
        "geo_altitude": 8313.42,
        "squawk": null,
        "spi": false,
        "position_source": 0
      }
    },
    {
      "type": "Feature",
      "geometry": {
        "type": "Point",
        "coordinates": [
          14.7895,
          47.4197
        ]
      },
      "properties": {
        "icao24": "4bce42",
        "callsign": "SXS9WA",
        "origin_country": "Turkey",
        "time_position": 1788829593,
        "last_contact": 1788829593,
        "baro_altitude": 10668,
        "on_ground": false,
        "velocity": 243,
        "true_track": 135.17,
        "vertical_rate": 0.33,
        "geo_altitude": 11170.92,
        "squawk": "6431",
        "spi": false,
        "position_source": 0
      }
    },
    {
      "type": "Feature",
      "geometry": {
        "type": "Point",
        "coordinates": [
          17.018,
          47.162
        ]
      },
      "properties": {
        "icao24": "4bcdb3",
        "callsign": "SXS6XR",
        "origin_country": "Turkey",
        "time_position": 1788829593,
        "last_contact": 1788829593,
        "baro_altitude": 11277.6,
        "on_ground": false,
        "velocity": 257.46,
        "true_track": 132.33,
        "vertical_rate": 0,
        "geo_altitude": 11788.14,
        "squawk": "7662",
        "spi": false,
        "position_source": 0
      }
    },
    {
      "type": "Feature",
      "geometry": {
        "type": "Point",
        "coordinates": [
          15.6339,
          46.8354
        ]
      },
      "properties": {
        "icao24": "4bcdae",
        "callsign": "SXS363",
        "origin_country": "Turkey",
        "time_position": 1788829594,
        "last_contact": 1788829594,
        "baro_altitude": 11277.6,
        "on_ground": false,
        "velocity": 250.8,
        "true_track": 137.08,
        "vertical_rate": 0,
        "geo_altitude": 11803.38,
        "squawk": "7714",
        "spi": false,
        "position_source": 0
      }
    },
    {
      "type": "Feature",
      "geometry": {
        "type": "Point",
        "coordinates": [
          15.6604,
          44.1323
        ]
      },
      "properties": {
        "icao24": "424cbf",
        "callsign": "MACOR",
        "origin_country": "United Kingdom",
        "time_position": 1788829593,
        "last_contact": 1788829593,
        "baro_altitude": 12496.8,
        "on_ground": false,
        "velocity": 240.93,
        "true_track": 112.07,
        "vertical_rate": -0.33,
        "geo_altitude": 13060.68,
        "squawk": "0455",
        "spi": false,
        "position_source": 0
      }
    },
    {
      "type": "Feature",
      "geometry": {
        "type": "Point",
        "coordinates": [
          11.8848,
          36.0345
        ]
      },
      "properties": {
        "icao24": "010242",
        "callsign": "MSR892",
        "origin_country": "Egypt",
        "time_position": 1788829593,
        "last_contact": 1788829593,
        "baro_altitude": 10675.62,
        "on_ground": false,
        "velocity": 247.5,
        "true_track": 91.19,
        "vertical_rate": 0,
        "geo_altitude": 11277.6,
        "squawk": "4103",
        "spi": false,
        "position_source": 0
      }
    },
    {
      "type": "Feature",
      "geometry": {
        "type": "Point",
        "coordinates": [
          16.863,
          36.8331
        ]
      },
      "properties": {
        "icao24": "010275",
        "callsign": "RSX6082",
        "origin_country": "Egypt",
        "time_position": 1788829593,
        "last_contact": 1788829593,
        "baro_altitude": 11269.98,
        "on_ground": false,
        "velocity": 248.69,
        "true_track": 114.18,
        "vertical_rate": 0,
        "geo_altitude": 11917.68,
        "squawk": "2220",
        "spi": false,
        "position_source": 0
      }
    },
    {
      "type": "Feature",
      "geometry": {
        "type": "Point",
        "coordinates": [
          7.1932,
          44.1133
        ]
      },
      "properties": {
        "icao24": "346318",
        "callsign": "BCS7CK",
        "origin_country": "Spain",
        "time_position": 1788829593,
        "last_contact": 1788829594,
        "baro_altitude": 10668,
        "on_ground": false,
        "velocity": 211.92,
        "true_track": 237.39,
        "vertical_rate": 0,
        "geo_altitude": 11224.26,
        "squawk": "1000",
        "spi": false,
        "position_source": 0
      }
    },
    {
      "type": "Feature",
      "geometry": {
        "type": "Point",
        "coordinates": [
          17.7629,
          38.8955
        ]
      },
      "properties": {
        "icao24": "34860c",
        "callsign": "AEA35SY",
        "origin_country": "Spain",
        "time_position": 1788829594,
        "last_contact": 1788829594,
        "baro_altitude": 10972.8,
        "on_ground": false,
        "velocity": 225.65,
        "true_track": 279.18,
        "vertical_rate": 0,
        "geo_altitude": 11582.4,
        "squawk": null,
        "spi": false,
        "position_source": 0
      }
    },
    {
      "type": "Feature",
      "geometry": {
        "type": "Point",
        "coordinates": [
          14.1167,
          46.2615
        ]
      },
      "properties": {
        "icao24": "407512",
        "callsign": "TOM8MW",
        "origin_country": "United Kingdom",
        "time_position": 1788829594,
        "last_contact": 1788829594,
        "baro_altitude": 13106.4,
        "on_ground": false,
        "velocity": 234.9,
        "true_track": 306.72,
        "vertical_rate": -0.33,
        "geo_altitude": 13609.32,
        "squawk": "5531",
        "spi": false,
        "position_source": 0
      }
    },
    {
      "type": "Feature",
      "geometry": {
        "type": "Point",
        "coordinates": [
          12.2499,
          41.8011
        ]
      },
      "properties": {
        "icao24": "4cac36",
        "callsign": "NOS1586",
        "origin_country": "Ireland",
        "time_position": 1788829337,
        "last_contact": 1788829337,
        "baro_altitude": null,
        "on_ground": true,
        "velocity": 7.72,
        "true_track": 278.44,
        "vertical_rate": null,
        "geo_altitude": null,
        "squawk": "5337",
        "spi": false,
        "position_source": 0
      }
    },
    {
      "type": "Feature",
      "geometry": {
        "type": "Point",
        "coordinates": [
          8.9888,
          44.1289
        ]
      },
      "properties": {
        "icao24": "4d204d",
        "callsign": "LWG5330",
        "origin_country": "Malta",
        "time_position": 1788829593,
        "last_contact": 1788829593,
        "baro_altitude": 4564.38,
        "on_ground": false,
        "velocity": 142.05,
        "true_track": 149.53,
        "vertical_rate": 6.83,
        "geo_altitude": 4892.04,
        "squawk": "0404",
        "spi": false,
        "position_source": 0
      }
    },
    {
      "type": "Feature",
      "geometry": {
        "type": "Point",
        "coordinates": [
          8.5645,
          47.442
        ]
      },
      "properties": {
        "icao24": "4b17f8",
        "callsign": "SWR",
        "origin_country": "Switzerland",
        "time_position": 1788829588,
        "last_contact": 1788829593,
        "baro_altitude": null,
        "on_ground": true,
        "velocity": 0,
        "true_track": 146.25,
        "vertical_rate": null,
        "geo_altitude": null,
        "squawk": null,
        "spi": false,
        "position_source": 0
      }
    }
  ]
}