{
  "type": "FeatureCollection",
  "source": "opensky",
  "dataset": "aircraft_italy",
  "generated_at": "2026-08-25T01:46:38.910549+00:00",
  "opensky_time": 1787622394,
  "count": 87,
  "features": [
    {
      "type": "Feature",
      "geometry": {
        "type": "Point",
        "coordinates": [
          8.1938,
          38.5032
        ]
      },
      "properties": {
        "icao24": "46b831",
        "callsign": "AEE9PM",
        "origin_country": "Greece",
        "time_position": 1787622393,
        "last_contact": 1787622393,
        "baro_altitude": 10668,
        "on_ground": false,
        "velocity": 259.28,
        "true_track": 90.34,
        "vertical_rate": 0.33,
        "geo_altitude": 11315.7,
        "squawk": "1454",
        "spi": false,
        "position_source": 0
      }
    },
    {
      "type": "Feature",
      "geometry": {
        "type": "Point",
        "coordinates": [
          16.2011,
          44.8195
        ]
      },
      "properties": {
        "icao24": "46b833",
        "callsign": "AEE631",
        "origin_country": "Greece",
        "time_position": 1787622394,
        "last_contact": 1787622394,
        "baro_altitude": 8854.44,
        "on_ground": false,
        "velocity": 246.63,
        "true_track": 139.4,
        "vertical_rate": -0.33,
        "geo_altitude": 9319.26,
        "squawk": "0501",
        "spi": false,
        "position_source": 0
      }
    },
    {
      "type": "Feature",
      "geometry": {
        "type": "Point",
        "coordinates": [
          10.2211,
          37.2228
        ]
      },
      "properties": {
        "icao24": "46b822",
        "callsign": "AEE713",
        "origin_country": "Greece",
        "time_position": 1787622384,
        "last_contact": 1787622384,
        "baro_altitude": 11277.6,
        "on_ground": false,
        "velocity": 257.81,
        "true_track": 76.85,
        "vertical_rate": 0,
        "geo_altitude": 11986.26,
        "squawk": "1427",
        "spi": false,
        "position_source": 0
      }
    },
    {
      "type": "Feature",
      "geometry": {
        "type": "Point",
        "coordinates": [
          6.2328,
          38.3462
        ]
      },
      "properties": {
        "icao24": "3c4b26",
        "callsign": "DLH573",
        "origin_country": "Germany",
        "time_position": 1787622394,
        "last_contact": 1787622394,
        "baro_altitude": 11582.4,
        "on_ground": false,
        "velocity": 257.36,
        "true_track": 350.22,
        "vertical_rate": 0,
        "geo_altitude": 12230.1,
        "squawk": null,
        "spi": false,
        "position_source": 0
      }
    },
    {
      "type": "Feature",
      "geometry": {
        "type": "Point",
        "coordinates": [
          13.6107,
          42.2126
        ]
      },
      "properties": {
        "icao24": "8015f7",
        "callsign": "AIC101",
        "origin_country": "India",
        "time_position": 1787622394,
        "last_contact": 1787622394,
        "baro_altitude": 5989.32,
        "on_ground": false,
        "velocity": 185.21,
        "true_track": 0.64,
        "vertical_rate": -4.23,
        "geo_altitude": 6355.08,
        "squawk": "2001",
        "spi": true,
        "position_source": 0
      }
    },
    {
      "type": "Feature",
      "geometry": {
        "type": "Point",
        "coordinates": [
          12.6503,
          39.8855
        ]
      },
      "properties": {
        "icao24": "73806b",
        "callsign": "ELY398",
        "origin_country": "Israel",
        "time_position": 1787622393,
        "last_contact": 1787622394,
        "baro_altitude": 10668,
        "on_ground": false,
        "velocity": 260.4,
        "true_track": 103.6,
        "vertical_rate": 0,
        "geo_altitude": 11285.22,
        "squawk": "2255",
        "spi": false,
        "position_source": 0
      }
    },
    {
      "type": "Feature",
      "geometry": {
        "type": "Point",
        "coordinates": [
          8.9338,
          40.519
        ]
      },
      "properties": {
        "icao24": "738069",
        "callsign": "ELY376",
        "origin_country": "Israel",
        "time_position": 1787622393,
        "last_contact": 1787622393,
        "baro_altitude": 10972.8,
        "on_ground": false,
        "velocity": 251.12,
        "true_track": 101.1,
        "vertical_rate": 0,
        "geo_altitude": 11590.02,
        "squawk": "2255",
        "spi": false,
        "position_source": 0
      }
    },
    {
      "type": "Feature",
      "geometry": {
        "type": "Point",
        "coordinates": [
          8.8303,
          45.3373
        ]
      },
      "properties": {
        "icao24": "440036",
        "callsign": "EJU39CR",
        "origin_country": "Austria",
        "time_position": 1787622393,
        "last_contact": 1787622393,
        "baro_altitude": 1440.18,
        "on_ground": false,
        "velocity": 144.93,
        "true_track": 338.99,
        "vertical_rate": -4.88,
        "geo_altitude": 1524,
        "squawk": "5144",
        "spi": false,
        "position_source": 0
      }
    },
    {
      "type": "Feature",
      "geometry": {
        "type": "Point",
        "coordinates": [
          13.1566,
          47.4134
        ]
      },
      "properties": {
        "icao24": "8960fa",
        "callsign": "UAE242",
        "origin_country": "United Arab Emirates",
        "time_position": 1787622393,
        "last_contact": 1787622393,
        "baro_altitude": 11277.6,
        "on_ground": false,
        "velocity": 280.38,
        "true_track": 121.04,
        "vertical_rate": -2.28,
        "geo_altitude": 11734.8,
        "squawk": "2216",
        "spi": false,
        "position_source": 0
      }
    },
    {
      "type": "Feature",
      "geometry": {
        "type": "Point",
        "coordinates": [
          13.1639,
          38.6292
        ]
      },
      "properties": {
        "icao24": "4891b4",
        "callsign": "ENT7132",
        "origin_country": "Poland",
        "time_position": 1787622393,
        "last_contact": 1787622393,
        "baro_altitude": 10972.8,
        "on_ground": false,
        "velocity": 238.82,
        "true_track": 18.59,
        "vertical_rate": -0.33,
        "geo_altitude": 11643.36,
        "squawk": "6146",
        "spi": false,
        "position_source": 0
      }
    },
    {
      "type": "Feature",
      "geometry": {
        "type": "Point",
        "coordinates": [
          13.3891,
          46.0136
        ]
      },
      "properties": {
        "icao24": "471d62",
        "callsign": "WZZ9198",
        "origin_country": "Hungary",
        "time_position": 1787622394,
        "last_contact": 1787622394,
        "baro_altitude": 10972.8,
        "on_ground": false,
        "velocity": 269.62,
        "true_track": 98.01,
        "vertical_rate": 0,
        "geo_altitude": 11460.48,
        "squawk": "0413",
        "spi": false,
        "position_source": 0
      }
    },
    {
      "type": "Feature",
      "geometry": {
        "type": "Point",
        "coordinates": [
          9.03,
          43.53
        ]
      },
      "properties": {
        "icao24": "471d5f",
        "callsign": "WMT2WP",
        "origin_country": "Hungary",
        "time_position": 1787622393,
        "last_contact": 1787622393,
        "baro_altitude": 10965.18,
        "on_ground": false,
        "velocity": 273.31,
        "true_track": 57.69,
        "vertical_rate": 0.33,
        "geo_altitude": 11490.96,
        "squawk": "1000",
        "spi": false,
        "position_source": 0
      }
    },
    {
      "type": "Feature",
      "geometry": {
        "type": "Point",
        "coordinates": [
          14.6963,
          35.8731
        ]
      },
      "properties": {
        "icao24": "452165",
        "callsign": "DAH4036",
        "origin_country": "Bulgaria",
        "time_position": 1787622393,
        "last_contact": 1787622393,
        "baro_altitude": 10675.62,
        "on_ground": false,
        "velocity": 252.53,
        "true_track": 95.03,
        "vertical_rate": -0.33,
        "geo_altitude": 11376.66,
        "squawk": "4103",
        "spi": false,
        "position_source": 0
      }
    },
    {
      "type": "Feature",
      "geometry": {
        "type": "Point",
        "coordinates": [
          12.8707,
          38.0866
        ]
      },
      "properties": {
        "icao24": "452134",
        "callsign": "DAH3015",
        "origin_country": "Bulgaria",
        "time_position": 1787622393,
        "last_contact": 1787622393,
        "baro_altitude": 10744.2,
        "on_ground": false,
        "velocity": 205.78,
        "true_track": 253.74,
        "vertical_rate": 7.48,
        "geo_altitude": 11430,
        "squawk": "2336",
        "spi": false,
        "position_source": 0
      }
    },
    {
      "type": "Feature",
      "geometry": {
        "type": "Point",
        "coordinates": [
          12.4958,
          40.4033
        ]
      },
      "properties": {
        "icao24": "452124",
        "callsign": "LZB564",
        "origin_country": "Bulgaria",
        "time_position": 1787622393,
        "last_contact": 1787622393,
        "baro_altitude": 11582.4,
        "on_ground": false,
        "velocity": 245.69,
        "true_track": 80.48,
        "vertical_rate": -0.33,
        "geo_altitude": 12222.48,
        "squawk": "5265",
        "spi": false,
        "position_source": 0
      }
    },
    {
      "type": "Feature",
      "geometry": {
        "type": "Point",
        "coordinates": [
          18.5328,
          47.2293
        ]
      },
      "properties": {
        "icao24": "4bb18a",
        "callsign": "THY9LC",
        "origin_country": "Turkey",
        "time_position": 1787622393,
        "last_contact": 1787622393,
        "baro_altitude": 11879.58,
        "on_ground": false,
        "velocity": 270.15,
        "true_track": 117.69,
        "vertical_rate": -0.33,
        "geo_altitude": 12313.92,
        "squawk": "1146",
        "spi": false,
        "position_source": 0
      }
    },
    {
      "type": "Feature",
      "geometry": {
        "type": "Point",
        "coordinates": [
          13.439,
          43.1176
        ]
      },
      "properties": {
        "icao24": "3a2e24",
        "callsign": "REU975",
        "origin_country": "France",
        "time_position": 1787622393,
        "last_contact": 1787622393,
        "baro_altitude": 10965.18,
        "on_ground": false,
        "velocity": 221.4,
        "true_track": 317.64,
        "vertical_rate": 0,
        "geo_altitude": 11521.44,
        "squawk": "5504",
        "spi": false,
        "position_source": 0
      }
    },
    {
      "type": "Feature",
      "geometry": {
        "type": "Point",
        "coordinates": [
          6.5382,
          43.7992
        ]
      },
      "properties": {
        "icao24": "345042",
        "callsign": "VLG55RF",
        "origin_country": "Spain",
        "time_position": 1787622393,
        "last_contact": 1787622394,
        "baro_altitude": 10668,
        "on_ground": false,
        "velocity": 201.23,
        "true_track": 237.53,
        "vertical_rate": 0,
        "geo_altitude": 11125.2,
        "squawk": "1000",
        "spi": false,
        "position_source": 0
      }
    },
    {
      "type": "Feature",
      "geometry": {
        "type": "Point",
        "coordinates": [
          6.3771,
          43.2357
        ]
      },
      "properties": {
        "icao24": "44ccc8",
        "callsign": "BEL5TA",
        "origin_country": "Belgium",
        "time_position": 1787622394,
        "last_contact": 1787622394,
        "baro_altitude": 11582.4,
        "on_ground": false,
        "velocity": 255.98,
        "true_track": 10.66,
        "vertical_rate": 0,
        "geo_altitude": 12077.7,
        "squawk": "1000",
        "spi": false,
        "position_source": 0
      }
    },
    {
      "type": "Feature",
      "geometry": {
        "type": "Point",
        "coordinates": [
          7.1577,
          40.7476
        ]
      },
      "properties": {
        "icao24": "44ccc4",
        "callsign": "BEL39G",
        "origin_country": "Belgium",
        "time_position": 1787622393,
        "last_contact": 1787622393,
        "baro_altitude": 11590.02,
        "on_ground": false,
        "velocity": 258.62,
        "true_track": 3.08,
        "vertical_rate": 0,
        "geo_altitude": 12176.76,
        "squawk": "1000",
        "spi": false,
        "position_source": 0
      }
    },
    {
      "type": "Feature",
      "geometry": {
        "type": "Point",
        "coordinates": [
          18.6129,
          47.2528
        ]
      },
      "properties": {
        "icao24": "8965fc",
        "callsign": "ROJ006",
        "origin_country": "United Arab Emirates",
        "time_position": 1787622394,
        "last_contact": 1787622394,
        "baro_altitude": 10668,
        "on_ground": false,
        "velocity": 256.75,
        "true_track": 121.4,
        "vertical_rate": 0,
        "geo_altitude": 11087.1,
        "squawk": "2202",
        "spi": false,
        "position_source": 0
      }
    },
    {
      "type": "Feature",
      "geometry": {
        "type": "Point",
        "coordinates": [
          16.6098,
          44.2391
        ]
      },
      "properties": {
        "icao24": "471a7e",
        "callsign": "FRF141",
        "origin_country": "Hungary",
        "time_position": 1787622393,
        "last_contact": 1787622393,
        "baro_altitude": 6697.98,
        "on_ground": false,
        "velocity": 143.59,
        "true_track": 1.64,
        "vertical_rate": -0.33,
        "geo_altitude": 7056.12,
        "squawk": "1000",
        "spi": false,
        "position_source": 0
      }
    },
    {
      "type": "Feature",
      "geometry": {
        "type": "Point",
        "coordinates": [
          8.9101,
          47.1168
        ]
      },
      "properties": {
        "icao24": "40796a",
        "callsign": "TOM16H",
        "origin_country": "United Kingdom",
        "time_position": 1787622393,
        "last_contact": 1787622393,
        "baro_altitude": 11582.4,
        "on_ground": false,
        "velocity": 227.01,
        "true_track": 304.19,
        "vertical_rate": 0,
        "geo_altitude": 12009.12,
        "squawk": "2767",
        "spi": false,
        "position_source": 0
      }
    },
    {
      "type": "Feature",
      "geometry": {
        "type": "Point",
        "coordinates": [
          13.7297,
          41.3132
        ]
      },
      "properties": {
        "icao24": "040188",
        "callsign": "ETH552",
        "origin_country": "Ethiopia",
        "time_position": 1787622394,
        "last_contact": 1787622394,
        "baro_altitude": 7894.32,
        "on_ground": false,
        "velocity": 190.99,
        "true_track": 290.83,
        "vertical_rate": -8.78,
        "geo_altitude": 8389.62,
        "squawk": "2057",
        "spi": false,
        "position_source": 0
      }
    },
    {
      "type": "Feature",
      "geometry": {
        "type": "Point",
        "coordinates": [
          17.4633,
          47.0489
        ]
      },
      "properties": {
        "icao24": "4bcd85",
        "callsign": "SXS6YM",
        "origin_country": "Turkey",
        "time_position": 1787622393,
        "last_contact": 1787622393,
        "baro_altitude": 11582.4,
        "on_ground": false,
        "velocity": 203.14,
        "true_track": 317.26,
        "vertical_rate": 0.33,
        "geo_altitude": 12024.36,
        "squawk": "3206",
        "spi": false,
        "position_source": 0
      }
    },
    {
      "type": "Feature",
      "geometry": {
        "type": "Point",
        "coordinates": [
          13.5321,
          36.2856
        ]
      },
      "properties": {
        "icao24": "04019a",
        "callsign": "ETH740",
        "origin_country": "Ethiopia",
        "time_position": 1787622393,
        "last_contact": 1787622394,
        "baro_altitude": 11574.78,
        "on_ground": false,
        "velocity": 228.35,
        "true_track": 279.33,
        "vertical_rate": 0,
        "geo_altitude": 12306.3,
        "squawk": "2023",
        "spi": false,
        "position_source": 0
      }
    },
    {
      "type": "Feature",
      "geometry": {
        "type": "Point",
        "coordinates": [
          18.7946,
          46.9838
        ]
      },
      "properties": {
        "icao24": "394a03",
        "callsign": "AFR111",
        "origin_country": "France",
        "time_position": 1787622393,
        "last_contact": 1787622393,
        "baro_altitude": 10972.8,
        "on_ground": false,
        "velocity": 211.03,
        "true_track": 293.57,
        "vertical_rate": 0,
        "geo_altitude": 11414.76,
        "squawk": "3212",
        "spi": false,
        "position_source": 0
      }
    },
    {
      "type": "Feature",
      "geometry": {
        "type": "Point",
        "coordinates": [
          17.759,
          47.0412
        ]
      },
      "properties": {
        "icao24": "394a18",
        "callsign": "AFR257",
        "origin_country": "France",
        "time_position": 1787622394,
        "last_contact": 1787622394,
        "baro_altitude": 9753.6,
        "on_ground": false,
        "velocity": 221.74,
        "true_track": 287.97,
        "vertical_rate": -0.33,
        "geo_altitude": 10172.7,
        "squawk": "3211",
        "spi": false,
        "position_source": 0
      }
    },
    {
      "type": "Feature",
      "geometry": {
        "type": "Point",
        "coordinates": [
          6.9951,
          38.7649
        ]
      },
      "properties": {
        "icao24": "04022c",
        "callsign": "ETH3905",
        "origin_country": "Ethiopia",
        "time_position": 1787622393,
        "last_contact": 1787622393,
        "baro_altitude": 12192,
        "on_ground": false,
        "velocity": 235.39,
        "true_track": 7.16,
        "vertical_rate": 0,
        "geo_altitude": 12832.08,
        "squawk": null,
        "spi": false,
        "position_source": 0
      }
    },
    {
      "type": "Feature",
      "geometry": {
        "type": "Point",
        "coordinates": [
          12.0687,
          38.9734
        ]
      },
      "properties": {
        "icao24": "49d2ee",
        "callsign": "TVQ6460",
        "origin_country": "Czech Republic",
        "time_position": 1787622393,
        "last_contact": 1787622393,
        "baro_altitude": 11277.6,
        "on_ground": false,
        "velocity": 219.91,
        "true_track": 204.17,
        "vertical_rate": 0,
        "geo_altitude": 11932.92,
        "squawk": "6021",
        "spi": false,
        "position_source": 0
      }
    },
    {
      "type": "Feature",
      "geometry": {
        "type": "Point",
        "coordinates": [
          9.8835,
          39.3523
        ]
      },
      "properties": {
        "icao24": "49d328",
        "callsign": "EWG8LZ",
        "origin_country": "Czech Republic",
        "time_position": 1787622394,
        "last_contact": 1787622394,
        "baro_altitude": 10972.8,
        "on_ground": false,
        "velocity": 231.5,
        "true_track": 359.87,
        "vertical_rate": 0,
        "geo_altitude": 11605.26,
        "squawk": null,
        "spi": false,
        "position_source": 0
      }
    },
    {
      "type": "Feature",
      "geometry": {
        "type": "Point",
        "coordinates": [
          8.0986,
          44.1109
        ]
      },
      "properties": {
        "icao24": "4ca301",
        "callsign": "RYR2UJ",
        "origin_country": "Ireland",
        "time_position": 1787622394,
        "last_contact": 1787622394,
        "baro_altitude": 9151.62,
        "on_ground": false,
        "velocity": 242.36,
        "true_track": 41.47,
        "vertical_rate": 0,
        "geo_altitude": 9563.1,
        "squawk": "1000",
        "spi": false,
        "position_source": 0
      }
    },
    {
      "type": "Feature",
      "geometry": {
        "type": "Point",
        "coordinates": [
          9.0174,
          45.6584
        ]
      },
      "properties": {
        "icao24": "3420c6",
        "callsign": "BCS8UM",
        "origin_country": "Spain",
        "time_position": 1787622394,
        "last_contact": 1787622394,
        "baro_altitude": 3352.8,
        "on_ground": false,
        "velocity": 166.1,
        "true_track": 108.6,
        "vertical_rate": 13,
        "geo_altitude": 3497.58,
        "squawk": "0460",
        "spi": false,
        "position_source": 0
      }
    },
    {
      "type": "Feature",
      "geometry": {
        "type": "Point",
        "coordinates": [
          8.1018,
          47.5329
        ]
      },
      "properties": {
        "icao24": "407e53",
        "callsign": "EXS59WJ",
        "origin_country": "United Kingdom",
        "time_position": 1787622393,
        "last_contact": 1787622393,
        "baro_altitude": 10957.56,
        "on_ground": false,
        "velocity": 228.44,
        "true_track": 307.77,
        "vertical_rate": -0.33,
        "geo_altitude": 11369.04,
        "squawk": "7513",
        "spi": false,
        "position_source": 0
      }
    },
    {
      "type": "Feature",
      "geometry": {
        "type": "Point",
        "coordinates": [
          11.8808,
          47.6545
        ]
      },
      "properties": {
        "icao24": "406b13",
        "callsign": "TOM8MW",
        "origin_country": "United Kingdom",
        "time_position": 1787622394,
        "last_contact": 1787622394,
        "baro_altitude": 13098.78,
        "on_ground": false,
        "velocity": 239.22,
        "true_track": 306.87,
        "vertical_rate": -0.33,
        "geo_altitude": 13555.98,
        "squawk": "3126",
        "spi": false,
        "position_source": 0
      }
    },
    {
      "type": "Feature",
      "geometry": {
        "type": "Point",
        "coordinates": [
          16.8566,
          42.9544
        ]
      },
      "properties": {
        "icao24": "440614",
        "callsign": "EJU91BN",
        "origin_country": "Austria",
        "time_position": 1787622393,
        "last_contact": 1787622393,
        "baro_altitude": 10965.18,
        "on_ground": false,
        "velocity": 209.94,
        "true_track": 308.13,
        "vertical_rate": -0.33,
        "geo_altitude": 11529.06,
        "squawk": null,
        "spi": false,
        "position_source": 0
      }
    },
    {
      "type": "Feature",
      "geometry": {
        "type": "Point",
        "coordinates": [
          9.011,
          44.9499
        ]
      },
      "properties": {
        "icao24": "48c1a5",
        "callsign": "RYR14ZD",
        "origin_country": "Poland",
        "time_position": 1787622393,
        "last_contact": 1787622393,
        "baro_altitude": 10972.8,
        "on_ground": false,
        "velocity": 257.21,
        "true_track": 39.64,
        "vertical_rate": 0,
        "geo_altitude": 11414.76,
        "squawk": "1000",
        "spi": false,
        "position_source": 0
      }
    },
    {
      "type": "Feature",
      "geometry": {
        "type": "Point",
        "coordinates": [
          18.067,
          47.4389
        ]
      },
      "properties": {
        "icao24": "7c8069",
        "callsign": "QFA255",
        "origin_country": "Australia",
        "time_position": 1787622393,
        "last_contact": 1787622393,
        "baro_altitude": 12184.38,
        "on_ground": false,
        "velocity": 229.09,
        "true_track": 292.3,
        "vertical_rate": -0.33,
        "geo_altitude": 12618.72,
        "squawk": "3202",
        "spi": false,
        "position_source": 0
      }
    },
    {
      "type": "Feature",
      "geometry": {
        "type": "Point",
        "coordinates": [
          9.9324,
          45.6254
        ]
      },
      "properties": {
        "icao24": "45cf24",
        "callsign": "SRR6402",
        "origin_country": "Denmark",
        "time_position": 1787622393,
        "last_contact": 1787622393,
        "baro_altitude": 1150.62,
        "on_ground": false,
        "velocity": 115.24,
        "true_track": 290.38,
        "vertical_rate": -6.18,
        "geo_altitude": 1226.82,
        "squawk": "2503",
        "spi": false,
        "position_source": 0
      }
    },
    {
      "type": "Feature",
      "geometry": {
        "type": "Point",
        "coordinates": [
          6.2821,
          37.7249
        ]
      },
      "properties": {
        "icao24": "4cc4bd",
        "callsign": "ABD2610",
        "origin_country": "Iceland",
        "time_position": 1787622192,
        "last_contact": 1787622192,
        "baro_altitude": 10058.4,
        "on_ground": false,
        "velocity": 243.44,
        "true_track": 173.33,
        "vertical_rate": 0.33,
        "geo_altitude": 10652.76,
        "squawk": "0110",
        "spi": false,
        "position_source": 0
      }
    },
    {
      "type": "Feature",
      "geometry": {
        "type": "Point",
        "coordinates": [
          8.7248,
          45.6454
        ]
      },
      "properties": {
        "icao24": "440425",
        "callsign": "EJU3978",
        "origin_country": "Austria",
        "time_position": 1787622074,
        "last_contact": 1787622083,
        "baro_altitude": null,
        "on_ground": true,
        "velocity": 0,
        "true_track": 348.75,
        "vertical_rate": null,
        "geo_altitude": null,
        "squawk": "0736",
        "spi": false,
        "position_source": 0
      }
    },
    {
      "type": "Feature",
      "geometry": {
        "type": "Point",
        "coordinates": [
          18.0224,
          44.6949
        ]
      },
      "properties": {
        "icao24": "4bb848",
        "callsign": "PGT66L",
        "origin_country": "Turkey",
        "time_position": 1787622393,
        "last_contact": 1787622394,
        "baro_altitude": 11285.22,
        "on_ground": false,
        "velocity": 245.75,
        "true_track": 131.1,
        "vertical_rate": 0,
        "geo_altitude": 11803.38,
        "squawk": "7701",
        "spi": false,
        "position_source": 0
      }
    },
    {
      "type": "Feature",
      "geometry": {
        "type": "Point",
        "coordinates": [
          17.5246,
          44.559
        ]
      },
      "properties": {
        "icao24": "4bb861",
        "callsign": "PGT1562",
        "origin_country": "Turkey",
        "time_position": 1787622393,
        "last_contact": 1787622393,
        "baro_altitude": 11277.6,
        "on_ground": false,
        "velocity": 251.15,
        "true_track": 126.59,
        "vertical_rate": 0,
        "geo_altitude": 11788.14,
        "squawk": "2263",
        "spi": false,
        "position_source": 0
      }
    },
    {
      "type": "Feature",
      "geometry": {
        "type": "Point",
        "coordinates": [
          15.7545,
          46.7888
        ]
      },
      "properties": {
        "icao24": "4bb87a",
        "callsign": "PGT5056",
        "origin_country": "Turkey",
        "time_position": 1787622393,
        "last_contact": 1787622393,
        "baro_altitude": 11277.6,
        "on_ground": false,
        "velocity": 259.51,
        "true_track": 128.64,
        "vertical_rate": 0,
        "geo_altitude": 11734.8,
        "squawk": "7713",
        "spi": false,
        "position_source": 0
      }
    },
    {
      "type": "Feature",
      "geometry": {
        "type": "Point",
        "coordinates": [
          13.6448,
          45.9788
        ]
      },
      "properties": {
        "icao24": "504e72",
        "callsign": "FIA5812",
        "origin_country": "Republic of Moldova",
        "time_position": 1787622393,
        "last_contact": 1787622393,
        "baro_altitude": 10668,
        "on_ground": false,
        "velocity": 259.38,
        "true_track": 88.41,
        "vertical_rate": 0.33,
        "geo_altitude": 11148.06,
        "squawk": "2213",
        "spi": false,
        "position_source": 0
      }
    },
    {
      "type": "Feature",
      "geometry": {
        "type": "Point",
        "coordinates": [
          17.0191,
          46.0702
        ]
      },
      "properties": {
        "icao24": "4bb864",
        "callsign": "PGT23AG",
        "origin_country": "Turkey",
        "time_position": 1787622394,
        "last_contact": 1787622394,
        "baro_altitude": 10668,
        "on_ground": false,
        "velocity": 253.43,
        "true_track": 124.5,
        "vertical_rate": -0.33,
        "geo_altitude": 11132.82,
        "squawk": "6434",
        "spi": false,
        "position_source": 0
      }
    },
    {
      "type": "Feature",
      "geometry": {
        "type": "Point",
        "coordinates": [
          14.1783,
          47.3493
        ]
      },
      "properties": {
        "icao24": "4bb870",
        "callsign": "PGT99HZ",
        "origin_country": "Turkey",
        "time_position": 1787622394,
        "last_contact": 1787622394,
        "baro_altitude": 11277.6,
        "on_ground": false,
        "velocity": 251.5,
        "true_track": 133.09,
        "vertical_rate": 0.33,
        "geo_altitude": 11734.8,
        "squawk": "7665",
        "spi": false,
        "position_source": 0
      }
    },
    {
      "type": "Feature",
      "geometry": {
        "type": "Point",
        "coordinates": [
          13.1399,
          45.3746
        ]
      },
      "properties": {
        "icao24": "407d10",
        "callsign": "TOM8XC",
        "origin_country": "United Kingdom",
        "time_position": 1787622393,
        "last_contact": 1787622394,
        "baro_altitude": 11590.02,
        "on_ground": false,
        "velocity": 208.61,
        "true_track": 317.3,
        "vertical_rate": 0.33,
        "geo_altitude": 12070.08,
        "squawk": "0233",
        "spi": false,
        "position_source": 0
      }
    },
    {
      "type": "Feature",
      "geometry": {
        "type": "Point",
        "coordinates": [
          18.4028,
          42.9054
        ]
      },
      "properties": {
        "icao24": "407d44",
        "callsign": "WUK26NJ",
        "origin_country": "United Kingdom",
        "time_position": 1787622393,
        "last_contact": 1787622393,
        "baro_altitude": 10233.66,
        "on_ground": false,
        "velocity": 215.48,
        "true_track": 321.11,
        "vertical_rate": 5.53,
        "geo_altitude": 10782.3,
        "squawk": null,
        "spi": false,
        "position_source": 0
      }
    },
    {
      "type": "Feature",
      "geometry": {
        "type": "Point",
        "coordinates": [
          15.3063,
          42.487
        ]
      },
      "properties": {
        "icao24": "408051",
        "callsign": "EZY63MD",
        "origin_country": "United Kingdom",
        "time_position": 1787622393,
        "last_contact": 1787622394,
        "baro_altitude": 11574.78,
        "on_ground": false,
        "velocity": 207.76,
        "true_track": 316.3,
        "vertical_rate": 0,
        "geo_altitude": 12169.14,
        "squawk": "5520",
        "spi": false,
        "position_source": 0
      }
    },
    {
      "type": "Feature",
      "geometry": {
        "type": "Point",
        "coordinates": [
          11.1209,
          36.332
        ]
      },
      "properties": {
        "icao24": "02a1a7",
        "callsign": "LBT809",
        "origin_country": "Tunisia",
        "time_position": 1787622242,
        "last_contact": 1787622242,
        "baro_altitude": 3116.58,
        "on_ground": false,
        "velocity": 171.92,
        "true_track": 191.04,
        "vertical_rate": -8.78,
        "geo_altitude": 5212.08,
        "squawk": "6036",
        "spi": false,
        "position_source": 0
      }
    },
    {
      "type": "Feature",
      "geometry": {
        "type": "Point",
        "coordinates": [
          17.2986,
          43.2053
        ]
      },
      "properties": {
        "icao24": "40825f",
        "callsign": "EXS96PS",
        "origin_country": "United Kingdom",
        "time_position": 1787622392,
        "last_contact": 1787622393,
        "baro_altitude": 10972.8,
        "on_ground": false,
        "velocity": 211.21,
        "true_track": 302.57,
        "vertical_rate": 0.33,
        "geo_altitude": 11544.3,
        "squawk": "1162",
        "spi": false,
        "position_source": 0
      }
    },
    {
      "type": "Feature",
      "geometry": {
        "type": "Point",
        "coordinates": [
          7.2798,
          40.7261
        ]
      },
      "properties": {
        "icao24": "3c656e",
        "callsign": "DLH595",
        "origin_country": "Germany",
        "time_position": 1787622393,
        "last_contact": 1787622393,
        "baro_altitude": 12192,
        "on_ground": false,
        "velocity": 251.62,
        "true_track": 6.46,
        "vertical_rate": 0.33,
        "geo_altitude": 12786.36,
        "squawk": "1000",
        "spi": false,
        "position_source": 0
      }
    },
    {
      "type": "Feature",
      "geometry": {
        "type": "Point",
        "coordinates": [
          17.6345,
          47.253
        ]
      },
      "properties": {
        "icao24": "40823c",
        "callsign": "EXS7K",
        "origin_country": "United Kingdom",
        "time_position": 1787622393,
        "last_contact": 1787622393,
        "baro_altitude": 10980.42,
        "on_ground": false,
        "velocity": 206.44,
        "true_track": 298.1,
        "vertical_rate": 0,
        "geo_altitude": 11430,
        "squawk": "3272",
        "spi": false,
        "position_source": 0
      }
    },
    {
      "type": "Feature",
      "geometry": {
        "type": "Point",
        "coordinates": [
          14.3969,
          35.7918
        ]
      },
      "properties": {
        "icao24": "0a0046",
        "callsign": "DAH329",
        "origin_country": "Algeria",
        "time_position": 1787622393,
        "last_contact": 1787622393,
        "baro_altitude": 11582.4,
        "on_ground": false,
        "velocity": 221.23,
        "true_track": 276.81,
        "vertical_rate": 0.33,
        "geo_altitude": 12336.78,
        "squawk": "6637",
        "spi": false,
        "position_source": 0
      }
    },
    {
      "type": "Feature",
      "geometry": {
        "type": "Point",
        "coordinates": [
          10.2358,
          37.8505
        ]
      },
      "properties": {
        "icao24": "02a1b3",
        "callsign": "LBT791",
        "origin_country": "Tunisia",
        "time_position": 1787622393,
        "last_contact": 1787622393,
        "baro_altitude": 7688.58,
        "on_ground": false,
        "velocity": 213.78,
        "true_track": 184.97,
        "vertical_rate": -4.88,
        "geo_altitude": 8244.84,
        "squawk": "5670",
        "spi": false,
        "position_source": 0
      }
    },
    {
      "type": "Feature",
      "geometry": {
        "type": "Point",
        "coordinates": [
          17.3406,
          35.4652
        ]
      },
      "properties": {
        "icao24": "0a0087",
        "callsign": "DAH461",
        "origin_country": "Algeria",
        "time_position": 1787622393,
        "last_contact": 1787622393,
        "baro_altitude": 12192,
        "on_ground": false,
        "velocity": 226.34,
        "true_track": 278.63,
        "vertical_rate": 0,
        "geo_altitude": 12946.38,
        "squawk": null,
        "spi": false,
        "position_source": 0
      }
    },
    {
      "type": "Feature",
      "geometry": {
        "type": "Point",
        "coordinates": [
          8.048,
          46.5868
        ]
      },
      "properties": {
        "icao24": "440bca",
        "callsign": "BCS7332",
        "origin_country": "Austria",
        "time_position": 1787622393,
        "last_contact": 1787622394,
        "baro_altitude": 9852.66,
        "on_ground": false,
        "velocity": 235.57,
        "true_track": 146.76,
        "vertical_rate": -4.55,
        "geo_altitude": 10226.04,
        "squawk": "1000",
        "spi": false,
        "position_source": 0
      }
    },
    {
      "type": "Feature",
      "geometry": {
        "type": "Point",
        "coordinates": [
          8.5504,
          47.4612
        ]
      },
      "properties": {
        "icao24": "4b5c36",
        "callsign": "URSULA3",
        "origin_country": "Switzerland",
        "time_position": 1787622393,
        "last_contact": 1787622393,
        "baro_altitude": null,
        "on_ground": true,
        "velocity": 7.46,
        "true_track": 163.12,
        "vertical_rate": null,
        "geo_altitude": null,
        "squawk": null,
        "spi": false,
        "position_source": 0
      }
    },
    {
      "type": "Feature",
      "geometry": {
        "type": "Point",
        "coordinates": [
          8.5535,
          47.4487
        ]
      },
      "properties": {
        "icao24": "4b5c27",
        "callsign": "EUGEN11",
        "origin_country": "Switzerland",
        "time_position": 1787622393,
        "last_contact": 1787622393,
        "baro_altitude": null,
        "on_ground": true,
        "velocity": 9.26,
        "true_track": 244.69,
        "vertical_rate": null,
        "geo_altitude": null,
        "squawk": null,
        "spi": false,
        "position_source": 0
      }
    },
    {
      "type": "Feature",
      "geometry": {
        "type": "Point",
        "coordinates": [
          8.3657,
          47.1691
        ]
      },
      "properties": {
        "icao24": "440bc7",
        "callsign": "BCS409",
        "origin_country": "Austria",
        "time_position": 1787622393,
        "last_contact": 1787622393,
        "baro_altitude": 9441.18,
        "on_ground": false,
        "velocity": 193.62,
        "true_track": 175.12,
        "vertical_rate": -5.53,
        "geo_altitude": 9814.56,
        "squawk": "2517",
        "spi": false,
        "position_source": 0
      }
    },
    {
      "type": "Feature",
      "geometry": {
        "type": "Point",
        "coordinates": [
          18.6462,
          47.4557
        ]
      },
      "properties": {
        "icao24": "400775",
        "callsign": "BAW2160",
        "origin_country": "United Kingdom",
        "time_position": 1787622393,
        "last_contact": 1787622393,
        "baro_altitude": 11582.4,
        "on_ground": false,
        "velocity": 211.46,
        "true_track": 290.51,
        "vertical_rate": 0,
        "geo_altitude": 12024.36,
        "squawk": "3261",
        "spi": false,
        "position_source": 0
      }
    },
    {
      "type": "Feature",
      "geometry": {
        "type": "Point",
        "coordinates": [
          6.1864,
          40.4854
        ]
      },
      "properties": {
        "icao24": "02a192",
        "callsign": "TAR681",
        "origin_country": "Tunisia",
        "time_position": 1787622393,
        "last_contact": 1787622393,
        "baro_altitude": 11887.2,
        "on_ground": false,
        "velocity": 225.87,
        "true_track": 160.16,
        "vertical_rate": 0.33,
        "geo_altitude": 12466.32,
        "squawk": "2357",
        "spi": false,
        "position_source": 0
      }
    },
    {
      "type": "Feature",
      "geometry": {
        "type": "Point",
        "coordinates": [
          12.2575,
          41.8559
        ]
      },
      "properties": {
        "icao24": "4ca82c",
        "callsign": "MSA9784",
        "origin_country": "Ireland",
        "time_position": 1787622085,
        "last_contact": 1787622085,
        "baro_altitude": 60.96,
        "on_ground": false,
        "velocity": 67.85,
        "true_track": 162.8,
        "vertical_rate": -4.55,
        "geo_altitude": 144.78,
        "squawk": "5114",
        "spi": false,
        "position_source": 0
      }
    },
    {
      "type": "Feature",
      "geometry": {
        "type": "Point",
        "coordinates": [
          9.7227,
          45.6649
        ]
      },
      "properties": {
        "icao24": "4ca762",
        "callsign": "RYR5DN",
        "origin_country": "Ireland",
        "time_position": 1787622342,
        "last_contact": 1787622342,
        "baro_altitude": 251.46,
        "on_ground": false,
        "velocity": 78.87,
        "true_track": 285.12,
        "vertical_rate": -3.58,
        "geo_altitude": 304.8,
        "squawk": "0016",
        "spi": false,
        "position_source": 0
      }
    },
    {
      "type": "Feature",
      "geometry": {
        "type": "Point",
        "coordinates": [
          15.5094,
          45.722
        ]
      },
      "properties": {
        "icao24": "405e24",
        "callsign": "TOM575",
        "origin_country": "United Kingdom",
        "time_position": 1787622393,
        "last_contact": 1787622393,
        "baro_altitude": 10972.8,
        "on_ground": false,
        "velocity": 200.38,
        "true_track": 308.22,
        "vertical_rate": -0.33,
        "geo_altitude": 11445.24,
        "squawk": "5356",
        "spi": false,
        "position_source": 0
      }
    },
    {
      "type": "Feature",
      "geometry": {
        "type": "Point",
        "coordinates": [
          17.3359,
          35.7164
        ]
      },
      "properties": {
        "icao24": "02a262",
        "callsign": "TAR714",
        "origin_country": "Tunisia",
        "time_position": 1787622393,
        "last_contact": 1787622393,
        "baro_altitude": 10378.44,
        "on_ground": false,
        "velocity": 222.57,
        "true_track": 281.47,
        "vertical_rate": 0,
        "geo_altitude": 11056.62,
        "squawk": null,
        "spi": false,
        "position_source": 0
      }
    },
    {
      "type": "Feature",
      "geometry": {
        "type": "Point",
        "coordinates": [
          14.4299,
          46.9807
        ]
      },
      "properties": {
        "icao24": "4bcdb0",
        "callsign": "SXS1PJ",
        "origin_country": "Turkey",
        "time_position": 1787622394,
        "last_contact": 1787622394,
        "baro_altitude": 11887.2,
        "on_ground": false,
        "velocity": 253.95,
        "true_track": 134.02,
        "vertical_rate": -0.33,
        "geo_altitude": 12359.64,
        "squawk": "7645",
        "spi": false,
        "position_source": 0
      }
    },
    {
      "type": "Feature",
      "geometry": {
        "type": "Point",
        "coordinates": [
          14.4286,
          46.8278
        ]
      },
      "properties": {
        "icao24": "4bcdae",
        "callsign": "SXS1BQ",
        "origin_country": "Turkey",
        "time_position": 1787622393,
        "last_contact": 1787622393,
        "baro_altitude": 12496.8,
        "on_ground": false,
        "velocity": 255.09,
        "true_track": 128.7,
        "vertical_rate": -0.33,
        "geo_altitude": 12961.62,
        "squawk": "1154",
        "spi": false,
        "position_source": 0
      }
    },
    {
      "type": "Feature",
      "geometry": {
        "type": "Point",
        "coordinates": [
          10.1273,
          46.104
        ]
      },
      "properties": {
        "icao24": "8940d1",
        "callsign": "DHX755",
        "origin_country": "Bahrain",
        "time_position": 1787622394,
        "last_contact": 1787622394,
        "baro_altitude": 8831.58,
        "on_ground": false,
        "velocity": 213.82,
        "true_track": 229.49,
        "vertical_rate": 0.65,
        "geo_altitude": 9204.96,
        "squawk": "1000",
        "spi": false,
        "position_source": 0
      }
    },
    {
      "type": "Feature",
      "geometry": {
        "type": "Point",
        "coordinates": [
          8.2447,
          44.5816
        ]
      },
      "properties": {
        "icao24": "424cbf",
        "callsign": "MACOR",
        "origin_country": "United Kingdom",
        "time_position": 1787622393,
        "last_contact": 1787622393,
        "baro_altitude": 12222.48,
        "on_ground": false,
        "velocity": 193.9,
        "true_track": 225.75,
        "vertical_rate": 5.2,
        "geo_altitude": 12694.92,
        "squawk": "1000",
        "spi": false,
        "position_source": 0
      }
    },
    {
      "type": "Feature",
      "geometry": {
        "type": "Point",
        "coordinates": [
          6.5779,
          36.4464
        ]
      },
      "properties": {
        "icao24": "010245",
        "callsign": "MSR862",
        "origin_country": "Egypt",
        "time_position": 1787622129,
        "last_contact": 1787622309,
        "baro_altitude": 10668,
        "on_ground": false,
        "velocity": 253.18,
        "true_track": 91.4,
        "vertical_rate": 0,
        "geo_altitude": 11369.04,
        "squawk": null,
        "spi": false,
        "position_source": 0
      }
    },
    {
      "type": "Feature",
      "geometry": {
        "type": "Point",
        "coordinates": [
          11.2279,
          36.088
        ]
      },
      "properties": {
        "icao24": "010275",
        "callsign": "RSX6082",
        "origin_country": "Egypt",
        "time_position": 1787622393,
        "last_contact": 1787622393,
        "baro_altitude": 10660.38,
        "on_ground": false,
        "velocity": 244.34,
        "true_track": 95.19,
        "vertical_rate": 0,
        "geo_altitude": 11346.18,
        "squawk": "2203",
        "spi": false,
        "position_source": 0
      }
    },
    {
      "type": "Feature",
      "geometry": {
        "type": "Point",
        "coordinates": [
          13.9362,
          46.2064
        ]
      },
      "properties": {
        "icao24": "4075f3",
        "callsign": "TOM397",
        "origin_country": "United Kingdom",
        "time_position": 1787622393,
        "last_contact": 1787622393,
        "baro_altitude": 10972.8,
        "on_ground": false,
        "velocity": 204.94,
        "true_track": 312.86,
        "vertical_rate": 0,
        "geo_altitude": 11452.86,
        "squawk": "2060",
        "spi": false,
        "position_source": 0
      }
    },
    {
      "type": "Feature",
      "geometry": {
        "type": "Point",
        "coordinates": [
          9.263,
          46.3772
        ]
      },
      "properties": {
        "icao24": "4d251c",
        "callsign": "RYR52TC",
        "origin_country": "Malta",
        "time_position": 1787622393,
        "last_contact": 1787622394,
        "baro_altitude": 8054.34,
        "on_ground": false,
        "velocity": 221.43,
        "true_track": 156.59,
        "vertical_rate": -13.33,
        "geo_altitude": 8397.24,
        "squawk": "2270",
        "spi": false,
        "position_source": 0
      }
    },
    {
      "type": "Feature",
      "geometry": {
        "type": "Point",
        "coordinates": [
          18.3491,
          44.7585
        ]
      },
      "properties": {
        "icao24": "39b225",
        "callsign": "CMA575",
        "origin_country": "France",
        "time_position": 1787622392,
        "last_contact": 1787622393,
        "baro_altitude": 10363.2,
        "on_ground": false,
        "velocity": 226.02,
        "true_track": 291.78,
        "vertical_rate": 0,
        "geo_altitude": 10858.5,
        "squawk": "3276",
        "spi": false,
        "position_source": 0
      }
    },
    {
      "type": "Feature",
      "geometry": {
        "type": "Point",
        "coordinates": [
          11.4103,
          46.812
        ]
      },
      "properties": {
        "icao24": "424c8c",
        "callsign": "MABSU",
        "origin_country": "United Kingdom",
        "time_position": 1787622393,
        "last_contact": 1787622394,
        "baro_altitude": 13716,
        "on_ground": false,
        "velocity": 230.3,
        "true_track": 314,
        "vertical_rate": -0.33,
        "geo_altitude": 14188.44,
        "squawk": "2076",
        "spi": false,
        "position_source": 0
      }
    },
    {
      "type": "Feature",
      "geometry": {
        "type": "Point",
        "coordinates": [
          11.5865,
          46.1535
        ]
      },
      "properties": {
        "icao24": "4d22b9",
        "callsign": "RYR519Q",
        "origin_country": "Malta",
        "time_position": 1787622393,
        "last_contact": 1787622393,
        "baro_altitude": 11277.6,
        "on_ground": false,
        "velocity": 193.46,
        "true_track": 220.25,
        "vertical_rate": 0.33,
        "geo_altitude": 11788.14,
        "squawk": "1000",
        "spi": false,
        "position_source": 0
      }
    },
    {
      "type": "Feature",
      "geometry": {
        "type": "Point",
        "coordinates": [
          6.4553,
          40.7037
        ]
      },
      "properties": {
        "icao24": "4cad3d",
        "callsign": "RYR729Z",
        "origin_country": "Ireland",
        "time_position": 1787622393,
        "last_contact": 1787622393,
        "baro_altitude": 11277.6,
        "on_ground": false,
        "velocity": 202.29,
        "true_track": 259,
        "vertical_rate": 0,
        "geo_altitude": 11849.1,
        "squawk": "1000",
        "spi": false,
        "position_source": 0
      }
    },
    {
      "type": "Feature",
      "geometry": {
        "type": "Point",
        "coordinates": [
          16.6283,
          47.204
        ]
      },
      "properties": {
        "icao24": "4c0221",
        "callsign": "ASL501",
        "origin_country": "Serbia",
        "time_position": 1787622394,
        "last_contact": 1787622394,
        "baro_altitude": 11277.6,
        "on_ground": false,
        "velocity": 256.86,
        "true_track": 128.82,
        "vertical_rate": 0.33,
        "geo_altitude": 11734.8,
        "squawk": "2224",
        "spi": false,
        "position_source": 0
      }
    },
    {
      "type": "Feature",
      "geometry": {
        "type": "Point",
        "coordinates": [
          15.4847,
          38.4161
        ]
      },
      "properties": {
        "icao24": "4d2190",
        "callsign": "DAH3018",
        "origin_country": "Malta",
        "time_position": 1787622393,
        "last_contact": 1787622393,
        "baro_altitude": 10668,
        "on_ground": false,
        "velocity": 255.42,
        "true_track": 71.2,
        "vertical_rate": 0.33,
        "geo_altitude": 11323.32,
        "squawk": "0204",
        "spi": false,
        "position_source": 0
      }
    },
    {
      "type": "Feature",
      "geometry": {
        "type": "Point",
        "coordinates": [
          6.564,
          36.851
        ]
      },
      "properties": {
        "icao24": "39c428",
        "callsign": "AFR923",
        "origin_country": "France",
        "time_position": 1787622393,
        "last_contact": 1787622393,
        "baro_altitude": 12184.38,
        "on_ground": false,
        "velocity": 252.12,
        "true_track": 350.25,
        "vertical_rate": 0,
        "geo_altitude": 12900.66,
        "squawk": null,
        "spi": false,
        "position_source": 0
      }
    },
    {
      "type": "Feature",
      "geometry": {
        "type": "Point",
        "coordinates": [
          8.3565,
          45.2775
        ]
      },
      "properties": {
        "icao24": "4cac62",
        "callsign": "ABR420",
        "origin_country": "Ireland",
        "time_position": 1787622393,
        "last_contact": 1787622394,
        "baro_altitude": 5913.12,
        "on_ground": false,
        "velocity": 206.67,
        "true_track": 205.03,
        "vertical_rate": 13.33,
        "geo_altitude": 6172.2,
        "squawk": "1000",
        "spi": false,
        "position_source": 0
      }
    },
    {
      "type": "Feature",
      "geometry": {
        "type": "Point",
        "coordinates": [
          17.1544,
          47.0135
        ]
      },
      "properties": {
        "icao24": "4691c4",
        "callsign": "AEE515",
        "origin_country": "Greece",
        "time_position": 1787622393,
        "last_contact": 1787622393,
        "baro_altitude": 11887.2,
        "on_ground": false,
        "velocity": 241.84,
        "true_track": 150.71,
        "vertical_rate": -0.33,
        "geo_altitude": 12344.4,
        "squawk": "7616",
        "spi": false,
        "position_source": 0
      }
    },
    {
      "type": "Feature",
      "geometry": {
        "type": "Point",
        "coordinates": [
          13.8077,
          46.6714
        ]
      },
      "properties": {
        "icao24": "4d2153",
        "callsign": "CXI7FT",
        "origin_country": "Malta",
        "time_position": 1787622394,
        "last_contact": 1787622394,
        "baro_altitude": 11277.6,
        "on_ground": false,
        "velocity": 253.07,
        "true_track": 137.55,
        "vertical_rate": 0,
        "geo_altitude": 11742.42,
        "squawk": "6022",
        "spi": false,
        "position_source": 0
      }
    },
    {
      "type": "Feature",
      "geometry": {
        "type": "Point",
        "coordinates": [
          6.31,
          38.0136
        ]
      },
      "properties": {
        "icao24": "39d2ab",
        "callsign": "AFR995",
        "origin_country": "France",
        "time_position": 1787622394,
        "last_contact": 1787622394,
        "baro_altitude": 12192,
        "on_ground": false,
        "velocity": 247.56,
        "true_track": 350.07,
        "vertical_rate": 0,
        "geo_altitude": 12824.46,
        "squawk": null,
        "spi": false,
        "position_source": 0
      }
    },
    {
      "type": "Feature",
      "geometry": {
        "type": "Point",
        "coordinates": [
          12.2532,
          41.8657
        ]
      },
      "properties": {
        "icao24": "4d2090",
        "callsign": "WMT511",
        "origin_country": "Malta",
        "time_position": 1787622393,
        "last_contact": 1787622393,
        "baro_altitude": 114.3,
        "on_ground": false,
        "velocity": 78.45,
        "true_track": 163.23,
        "vertical_rate": -3.58,
        "geo_altitude": 205.74,
        "squawk": "2225",
        "spi": false,
        "position_source": 0
      }
    }
  ]
}