{
  "type": "FeatureCollection",
  "source": "opensky",
  "dataset": "aircraft_italy",
  "generated_at": "2026-06-23T00:17:23.837125+00:00",
  "opensky_time": 1782173834,
  "count": 84,
  "features": [
    {
      "type": "Feature",
      "geometry": {
        "type": "Point",
        "coordinates": [
          9.2953,
          45.4894
        ]
      },
      "properties": {
        "icao24": "471eff",
        "callsign": "WZZ411",
        "origin_country": "Hungary",
        "time_position": 1782173834,
        "last_contact": 1782173834,
        "baro_altitude": 3345.18,
        "on_ground": false,
        "velocity": 160.05,
        "true_track": 253.95,
        "vertical_rate": -4.88,
        "geo_altitude": 3634.74,
        "squawk": "1000",
        "spi": false,
        "position_source": 0
      }
    },
    {
      "type": "Feature",
      "geometry": {
        "type": "Point",
        "coordinates": [
          8.2061,
          44.5362
        ]
      },
      "properties": {
        "icao24": "4400b7",
        "callsign": "EJU73ZE",
        "origin_country": "Austria",
        "time_position": 1782173833,
        "last_contact": 1782173833,
        "baro_altitude": 6324.6,
        "on_ground": false,
        "velocity": 215.11,
        "true_track": 26.57,
        "vertical_rate": -13.98,
        "geo_altitude": 6804.66,
        "squawk": "0003",
        "spi": false,
        "position_source": 0
      }
    },
    {
      "type": "Feature",
      "geometry": {
        "type": "Point",
        "coordinates": [
          12.5744,
          45.7997
        ]
      },
      "properties": {
        "icao24": "407b8b",
        "callsign": "WUK7402",
        "origin_country": "United Kingdom",
        "time_position": 1782173834,
        "last_contact": 1782173834,
        "baro_altitude": 10675.62,
        "on_ground": false,
        "velocity": 231.37,
        "true_track": 135.72,
        "vertical_rate": 0,
        "geo_altitude": 11247.12,
        "squawk": "2230",
        "spi": false,
        "position_source": 0
      }
    },
    {
      "type": "Feature",
      "geometry": {
        "type": "Point",
        "coordinates": [
          8.8349,
          44.1428
        ]
      },
      "properties": {
        "icao24": "440352",
        "callsign": "EJU54MD",
        "origin_country": "Austria",
        "time_position": 1782173833,
        "last_contact": 1782173833,
        "baro_altitude": 7627.62,
        "on_ground": false,
        "velocity": 200.37,
        "true_track": 353.51,
        "vertical_rate": -4.88,
        "geo_altitude": 8145.78,
        "squawk": "1000",
        "spi": false,
        "position_source": 0
      }
    },
    {
      "type": "Feature",
      "geometry": {
        "type": "Point",
        "coordinates": [
          9.6298,
          41.1501
        ]
      },
      "properties": {
        "icao24": "471fad",
        "callsign": "WMT49BD",
        "origin_country": "Hungary",
        "time_position": 1782173833,
        "last_contact": 1782173833,
        "baro_altitude": 10980.42,
        "on_ground": false,
        "velocity": 220.4,
        "true_track": 63.38,
        "vertical_rate": -0.33,
        "geo_altitude": 11529.06,
        "squawk": "1000",
        "spi": false,
        "position_source": 0
      }
    },
    {
      "type": "Feature",
      "geometry": {
        "type": "Point",
        "coordinates": [
          16.1186,
          44.9594
        ]
      },
      "properties": {
        "icao24": "8015c3",
        "callsign": "VTSSR",
        "origin_country": "India",
        "time_position": 1782173833,
        "last_contact": 1782173833,
        "baro_altitude": 11887.2,
        "on_ground": false,
        "velocity": 232.84,
        "true_track": 134.1,
        "vertical_rate": -0.65,
        "geo_altitude": 12451.08,
        "squawk": "0117",
        "spi": false,
        "position_source": 0
      }
    },
    {
      "type": "Feature",
      "geometry": {
        "type": "Point",
        "coordinates": [
          15.4403,
          45.4819
        ]
      },
      "properties": {
        "icao24": "73806c",
        "callsign": "ELY314",
        "origin_country": "Israel",
        "time_position": 1782173834,
        "last_contact": 1782173834,
        "baro_altitude": 10668,
        "on_ground": false,
        "velocity": 246,
        "true_track": 131.52,
        "vertical_rate": 0,
        "geo_altitude": 11186.16,
        "squawk": "5202",
        "spi": false,
        "position_source": 0
      }
    },
    {
      "type": "Feature",
      "geometry": {
        "type": "Point",
        "coordinates": [
          14.1264,
          47.7022
        ]
      },
      "properties": {
        "icao24": "4068f6",
        "callsign": "EXS35MT",
        "origin_country": "United Kingdom",
        "time_position": 1782173834,
        "last_contact": 1782173834,
        "baro_altitude": 10972.8,
        "on_ground": false,
        "velocity": 213.9,
        "true_track": 314.81,
        "vertical_rate": 0,
        "geo_altitude": 11506.2,
        "squawk": "5343",
        "spi": false,
        "position_source": 0
      }
    },
    {
      "type": "Feature",
      "geometry": {
        "type": "Point",
        "coordinates": [
          9.7455,
          45.2379
        ]
      },
      "properties": {
        "icao24": "738065",
        "callsign": "ELY388",
        "origin_country": "Israel",
        "time_position": 1782173833,
        "last_contact": 1782173833,
        "baro_altitude": 6896.1,
        "on_ground": false,
        "velocity": 210.17,
        "true_track": 111.54,
        "vertical_rate": 2.6,
        "geo_altitude": 7330.44,
        "squawk": "0436",
        "spi": false,
        "position_source": 0
      }
    },
    {
      "type": "Feature",
      "geometry": {
        "type": "Point",
        "coordinates": [
          12.6762,
          39.2997
        ]
      },
      "properties": {
        "icao24": "738069",
        "callsign": "ELY376",
        "origin_country": "Israel",
        "time_position": 1782173833,
        "last_contact": 1782173834,
        "baro_altitude": 10972.8,
        "on_ground": false,
        "velocity": 229.65,
        "true_track": 97.08,
        "vertical_rate": 0,
        "geo_altitude": 11529.06,
        "squawk": "2203",
        "spi": false,
        "position_source": 0
      }
    },
    {
      "type": "Feature",
      "geometry": {
        "type": "Point",
        "coordinates": [
          9.1878,
          42.9739
        ]
      },
      "properties": {
        "icao24": "440080",
        "callsign": "EJU3602",
        "origin_country": "Austria",
        "time_position": 1782173833,
        "last_contact": 1782173833,
        "baro_altitude": 9144,
        "on_ground": false,
        "velocity": 194,
        "true_track": 358.63,
        "vertical_rate": -0.65,
        "geo_altitude": 9685.02,
        "squawk": null,
        "spi": false,
        "position_source": 0
      }
    },
    {
      "type": "Feature",
      "geometry": {
        "type": "Point",
        "coordinates": [
          8.9362,
          47.1541
        ]
      },
      "properties": {
        "icao24": "452119",
        "callsign": "AMQ169",
        "origin_country": "Bulgaria",
        "time_position": 1782173833,
        "last_contact": 1782173833,
        "baro_altitude": 10972.8,
        "on_ground": false,
        "velocity": 231.34,
        "true_track": 58.64,
        "vertical_rate": 0,
        "geo_altitude": 11567.16,
        "squawk": "1000",
        "spi": false,
        "position_source": 0
      }
    },
    {
      "type": "Feature",
      "geometry": {
        "type": "Point",
        "coordinates": [
          16.4371,
          44.3038
        ]
      },
      "properties": {
        "icao24": "300a5c",
        "callsign": "LSI125",
        "origin_country": "Italy",
        "time_position": 1782173833,
        "last_contact": 1782173833,
        "baro_altitude": 11887.2,
        "on_ground": false,
        "velocity": 250.67,
        "true_track": 103.89,
        "vertical_rate": 0,
        "geo_altitude": 12428.22,
        "squawk": "0464",
        "spi": false,
        "position_source": 0
      }
    },
    {
      "type": "Feature",
      "geometry": {
        "type": "Point",
        "coordinates": [
          18.3328,
          46.9764
        ]
      },
      "properties": {
        "icao24": "4bb2b2",
        "callsign": "TKJ3MQ",
        "origin_country": "Turkey",
        "time_position": 1782173833,
        "last_contact": 1782173834,
        "baro_altitude": 10690.86,
        "on_ground": false,
        "velocity": 245.44,
        "true_track": 118.82,
        "vertical_rate": 0,
        "geo_altitude": 11186.16,
        "squawk": "2251",
        "spi": false,
        "position_source": 0
      }
    },
    {
      "type": "Feature",
      "geometry": {
        "type": "Point",
        "coordinates": [
          10.6818,
          47.5275
        ]
      },
      "properties": {
        "icao24": "7380c6",
        "callsign": "ELY010",
        "origin_country": "Israel",
        "time_position": 1782173833,
        "last_contact": 1782173834,
        "baro_altitude": 11887.2,
        "on_ground": false,
        "velocity": 256.52,
        "true_track": 116.57,
        "vertical_rate": -0.33,
        "geo_altitude": 12473.94,
        "squawk": "6706",
        "spi": false,
        "position_source": 0
      }
    },
    {
      "type": "Feature",
      "geometry": {
        "type": "Point",
        "coordinates": [
          17.95,
          38.6974
        ]
      },
      "properties": {
        "icao24": "7380c9",
        "callsign": "ELY017",
        "origin_country": "Israel",
        "time_position": 1782173833,
        "last_contact": 1782173833,
        "baro_altitude": 10363.2,
        "on_ground": false,
        "velocity": 254.78,
        "true_track": 289.09,
        "vertical_rate": 0,
        "geo_altitude": 10919.46,
        "squawk": "4134",
        "spi": false,
        "position_source": 0
      }
    },
    {
      "type": "Feature",
      "geometry": {
        "type": "Point",
        "coordinates": [
          18.3202,
          44.3899
        ]
      },
      "properties": {
        "icao24": "7380cb",
        "callsign": "ELY027",
        "origin_country": "Israel",
        "time_position": 1782173833,
        "last_contact": 1782173833,
        "baro_altitude": 10972.8,
        "on_ground": false,
        "velocity": 245.87,
        "true_track": 317.97,
        "vertical_rate": -0.65,
        "geo_altitude": 11521.44,
        "squawk": "6001",
        "spi": false,
        "position_source": 0
      }
    },
    {
      "type": "Feature",
      "geometry": {
        "type": "Point",
        "coordinates": [
          7.5729,
          39.7125
        ]
      },
      "properties": {
        "icao24": "02010d",
        "callsign": "MAC438",
        "origin_country": "Morocco",
        "time_position": 1782173833,
        "last_contact": 1782173834,
        "baro_altitude": 10668,
        "on_ground": false,
        "velocity": 235.81,
        "true_track": 257.78,
        "vertical_rate": 0,
        "geo_altitude": 11193.78,
        "squawk": "2336",
        "spi": false,
        "position_source": 0
      }
    },
    {
      "type": "Feature",
      "geometry": {
        "type": "Point",
        "coordinates": [
          14.238,
          37.9552
        ]
      },
      "properties": {
        "icao24": "4bb292",
        "callsign": "THY5LY",
        "origin_country": "Turkey",
        "time_position": 1782173834,
        "last_contact": 1782173834,
        "baro_altitude": 10675.62,
        "on_ground": false,
        "velocity": 231.86,
        "true_track": 76.92,
        "vertical_rate": -0.33,
        "geo_altitude": 11231.88,
        "squawk": "1262",
        "spi": false,
        "position_source": 0
      }
    },
    {
      "type": "Feature",
      "geometry": {
        "type": "Point",
        "coordinates": [
          17.182,
          43.6417
        ]
      },
      "properties": {
        "icao24": "4066ce",
        "callsign": "TOM9YC",
        "origin_country": "United Kingdom",
        "time_position": 1782173833,
        "last_contact": 1782173833,
        "baro_altitude": 10972.8,
        "on_ground": false,
        "velocity": 221.23,
        "true_track": 307.54,
        "vertical_rate": 0,
        "geo_altitude": 11513.82,
        "squawk": "5322",
        "spi": false,
        "position_source": 0
      }
    },
    {
      "type": "Feature",
      "geometry": {
        "type": "Point",
        "coordinates": [
          17.3563,
          43.8986
        ]
      },
      "properties": {
        "icao24": "4bb18e",
        "callsign": "THY41J",
        "origin_country": "Turkey",
        "time_position": 1782173833,
        "last_contact": 1782173833,
        "baro_altitude": 11879.58,
        "on_ground": false,
        "velocity": 253.34,
        "true_track": 101.24,
        "vertical_rate": 0,
        "geo_altitude": 12435.84,
        "squawk": "0401",
        "spi": false,
        "position_source": 0
      }
    },
    {
      "type": "Feature",
      "geometry": {
        "type": "Point",
        "coordinates": [
          8.7215,
          45.6105
        ]
      },
      "properties": {
        "icao24": "4ac98a",
        "callsign": "BCS422",
        "origin_country": "Sweden",
        "time_position": 1782173831,
        "last_contact": 1782173831,
        "baro_altitude": null,
        "on_ground": true,
        "velocity": 0,
        "true_track": 351.56,
        "vertical_rate": null,
        "geo_altitude": null,
        "squawk": null,
        "spi": false,
        "position_source": 0
      }
    },
    {
      "type": "Feature",
      "geometry": {
        "type": "Point",
        "coordinates": [
          18.0744,
          38.1301
        ]
      },
      "properties": {
        "icao24": "4bb062",
        "callsign": "THY2DX",
        "origin_country": "Turkey",
        "time_position": 1782173833,
        "last_contact": 1782173833,
        "baro_altitude": 10972.8,
        "on_ground": false,
        "velocity": 231.55,
        "true_track": 231.04,
        "vertical_rate": 0,
        "geo_altitude": 11536.68,
        "squawk": "2337",
        "spi": false,
        "position_source": 0
      }
    },
    {
      "type": "Feature",
      "geometry": {
        "type": "Point",
        "coordinates": [
          16.8247,
          36.8374
        ]
      },
      "properties": {
        "icao24": "4bb06e",
        "callsign": "THY3KA",
        "origin_country": "Turkey",
        "time_position": 1782173833,
        "last_contact": 1782173833,
        "baro_altitude": 11277.6,
        "on_ground": false,
        "velocity": 241.64,
        "true_track": 41.46,
        "vertical_rate": 0,
        "geo_altitude": 11849.1,
        "squawk": "3177",
        "spi": false,
        "position_source": 0
      }
    },
    {
      "type": "Feature",
      "geometry": {
        "type": "Point",
        "coordinates": [
          13.9605,
          46.5342
        ]
      },
      "properties": {
        "icao24": "40665f",
        "callsign": "TOM3TH",
        "origin_country": "United Kingdom",
        "time_position": 1782173834,
        "last_contact": 1782173834,
        "baro_altitude": 10972.8,
        "on_ground": false,
        "velocity": 224.11,
        "true_track": 307.63,
        "vertical_rate": 0,
        "geo_altitude": 11521.44,
        "squawk": "5523",
        "spi": false,
        "position_source": 0
      }
    },
    {
      "type": "Feature",
      "geometry": {
        "type": "Point",
        "coordinates": [
          11.5854,
          47.7616
        ]
      },
      "properties": {
        "icao24": "406f86",
        "callsign": "EXS6MN",
        "origin_country": "United Kingdom",
        "time_position": 1782173833,
        "last_contact": 1782173833,
        "baro_altitude": 10972.8,
        "on_ground": false,
        "velocity": 218.23,
        "true_track": 306.95,
        "vertical_rate": 0,
        "geo_altitude": 11536.68,
        "squawk": "0625",
        "spi": false,
        "position_source": 0
      }
    },
    {
      "type": "Feature",
      "geometry": {
        "type": "Point",
        "coordinates": [
          16.7143,
          36.7382
        ]
      },
      "properties": {
        "icao24": "4ba9e4",
        "callsign": "THY8DL",
        "origin_country": "Turkey",
        "time_position": 1782173833,
        "last_contact": 1782173833,
        "baro_altitude": 12496.8,
        "on_ground": false,
        "velocity": 265.26,
        "true_track": 41.7,
        "vertical_rate": 0,
        "geo_altitude": 13106.4,
        "squawk": "4111",
        "spi": false,
        "position_source": 0
      }
    },
    {
      "type": "Feature",
      "geometry": {
        "type": "Point",
        "coordinates": [
          16.5907,
          35.5644
        ]
      },
      "properties": {
        "icao24": "040045",
        "callsign": "ETH519",
        "origin_country": "Ethiopia",
        "time_position": 1782173833,
        "last_contact": 1782173833,
        "baro_altitude": 12496.8,
        "on_ground": false,
        "velocity": 272.39,
        "true_track": 98.25,
        "vertical_rate": -0.33,
        "geo_altitude": 13129.26,
        "squawk": "2260",
        "spi": false,
        "position_source": 0
      }
    },
    {
      "type": "Feature",
      "geometry": {
        "type": "Point",
        "coordinates": [
          8.558,
          47.4542
        ]
      },
      "properties": {
        "icao24": "502d24",
        "callsign": "SWR2089",
        "origin_country": "Latvia",
        "time_position": 1782173824,
        "last_contact": 1782173832,
        "baro_altitude": null,
        "on_ground": true,
        "velocity": 0.06,
        "true_track": 185.62,
        "vertical_rate": null,
        "geo_altitude": null,
        "squawk": null,
        "spi": false,
        "position_source": 0
      }
    },
    {
      "type": "Feature",
      "geometry": {
        "type": "Point",
        "coordinates": [
          9.871,
          45.4099
        ]
      },
      "properties": {
        "icao24": "4ca244",
        "callsign": "RYR2UJ",
        "origin_country": "Ireland",
        "time_position": 1782173833,
        "last_contact": 1782173833,
        "baro_altitude": 2110.74,
        "on_ground": false,
        "velocity": 143.84,
        "true_track": 36.42,
        "vertical_rate": -6.83,
        "geo_altitude": 2339.34,
        "squawk": "0001",
        "spi": false,
        "position_source": 0
      }
    },
    {
      "type": "Feature",
      "geometry": {
        "type": "Point",
        "coordinates": [
          15.0808,
          44.1081
        ]
      },
      "properties": {
        "icao24": "407e7b",
        "callsign": "TOM843",
        "origin_country": "United Kingdom",
        "time_position": 1782173833,
        "last_contact": 1782173833,
        "baro_altitude": 10972.8,
        "on_ground": false,
        "velocity": 228.5,
        "true_track": 308.42,
        "vertical_rate": 0.33,
        "geo_altitude": 11521.44,
        "squawk": "2007",
        "spi": false,
        "position_source": 0
      }
    },
    {
      "type": "Feature",
      "geometry": {
        "type": "Point",
        "coordinates": [
          12.8094,
          40.7958
        ]
      },
      "properties": {
        "icao24": "06a080",
        "callsign": "QTR8264",
        "origin_country": "Qatar",
        "time_position": 1782173833,
        "last_contact": 1782173834,
        "baro_altitude": 12192,
        "on_ground": false,
        "velocity": 240.76,
        "true_track": 90.37,
        "vertical_rate": 0,
        "geo_altitude": 12740.64,
        "squawk": "1450",
        "spi": false,
        "position_source": 0
      }
    },
    {
      "type": "Feature",
      "geometry": {
        "type": "Point",
        "coordinates": [
          8.8194,
          45.4278
        ]
      },
      "properties": {
        "icao24": "44079a",
        "callsign": "EJU3704",
        "origin_country": "Austria",
        "time_position": 1782173833,
        "last_contact": 1782173834,
        "baro_altitude": 1112.52,
        "on_ground": false,
        "velocity": 105.5,
        "true_track": 286.14,
        "vertical_rate": -2.6,
        "geo_altitude": 1287.78,
        "squawk": "6622",
        "spi": false,
        "position_source": 0
      }
    },
    {
      "type": "Feature",
      "geometry": {
        "type": "Point",
        "coordinates": [
          14.2331,
          46.4105
        ]
      },
      "properties": {
        "icao24": "406ae9",
        "callsign": "TOM1AB",
        "origin_country": "United Kingdom",
        "time_position": 1782173833,
        "last_contact": 1782173833,
        "baro_altitude": 11582.4,
        "on_ground": false,
        "velocity": 222.76,
        "true_track": 307.4,
        "vertical_rate": 0,
        "geo_altitude": 12123.42,
        "squawk": "5615",
        "spi": false,
        "position_source": 0
      }
    },
    {
      "type": "Feature",
      "geometry": {
        "type": "Point",
        "coordinates": [
          18.1389,
          42.6126
        ]
      },
      "properties": {
        "icao24": "48c2a0",
        "callsign": "RYR87LT",
        "origin_country": "Poland",
        "time_position": 1782173824,
        "last_contact": 1782173828,
        "baro_altitude": 647.7,
        "on_ground": false,
        "velocity": 85.4,
        "true_track": 118.42,
        "vertical_rate": -4.23,
        "geo_altitude": 754.38,
        "squawk": null,
        "spi": false,
        "position_source": 0
      }
    },
    {
      "type": "Feature",
      "geometry": {
        "type": "Point",
        "coordinates": [
          14.5815,
          46.1373
        ]
      },
      "properties": {
        "icao24": "407c0b",
        "callsign": "TOM575",
        "origin_country": "United Kingdom",
        "time_position": 1782173833,
        "last_contact": 1782173833,
        "baro_altitude": 11582.4,
        "on_ground": false,
        "velocity": 220.4,
        "true_track": 309.41,
        "vertical_rate": 0.33,
        "geo_altitude": 12115.8,
        "squawk": "3244",
        "spi": false,
        "position_source": 0
      }
    },
    {
      "type": "Feature",
      "geometry": {
        "type": "Point",
        "coordinates": [
          12.3797,
          46.7897
        ]
      },
      "properties": {
        "icao24": "407ac3",
        "callsign": "TOM72X",
        "origin_country": "United Kingdom",
        "time_position": 1782173833,
        "last_contact": 1782173834,
        "baro_altitude": 11582.4,
        "on_ground": false,
        "velocity": 228.59,
        "true_track": 283.54,
        "vertical_rate": 0,
        "geo_altitude": 12153.9,
        "squawk": "2032",
        "spi": false,
        "position_source": 0
      }
    },
    {
      "type": "Feature",
      "geometry": {
        "type": "Point",
        "coordinates": [
          13.4772,
          39.7679
        ]
      },
      "properties": {
        "icao24": "440425",
        "callsign": "EJU39CR",
        "origin_country": "Austria",
        "time_position": 1782173833,
        "last_contact": 1782173834,
        "baro_altitude": 10972.8,
        "on_ground": false,
        "velocity": 241.31,
        "true_track": 324.11,
        "vertical_rate": -0.33,
        "geo_altitude": 11513.82,
        "squawk": null,
        "spi": false,
        "position_source": 0
      }
    },
    {
      "type": "Feature",
      "geometry": {
        "type": "Point",
        "coordinates": [
          10.6366,
          40.7373
        ]
      },
      "properties": {
        "icao24": "4bb852",
        "callsign": "PGT1562",
        "origin_country": "Turkey",
        "time_position": 1782173833,
        "last_contact": 1782173834,
        "baro_altitude": 10972.8,
        "on_ground": false,
        "velocity": 222.31,
        "true_track": 88.54,
        "vertical_rate": -0.33,
        "geo_altitude": 11506.2,
        "squawk": "1173",
        "spi": false,
        "position_source": 0
      }
    },
    {
      "type": "Feature",
      "geometry": {
        "type": "Point",
        "coordinates": [
          8.2843,
          43.9095
        ]
      },
      "properties": {
        "icao24": "504e72",
        "callsign": "FIA5812",
        "origin_country": "Republic of Moldova",
        "time_position": 1782173834,
        "last_contact": 1782173834,
        "baro_altitude": 10972.8,
        "on_ground": false,
        "velocity": 220.93,
        "true_track": 70.97,
        "vertical_rate": 0,
        "geo_altitude": 11559.54,
        "squawk": "1157",
        "spi": false,
        "position_source": 0
      }
    },
    {
      "type": "Feature",
      "geometry": {
        "type": "Point",
        "coordinates": [
          12.3626,
          47.3613
        ]
      },
      "properties": {
        "icao24": "406a59",
        "callsign": "EXS36UM",
        "origin_country": "United Kingdom",
        "time_position": 1782173833,
        "last_contact": 1782173833,
        "baro_altitude": 10972.8,
        "on_ground": false,
        "velocity": 215.97,
        "true_track": 306.38,
        "vertical_rate": 0,
        "geo_altitude": 11544.3,
        "squawk": "7546",
        "spi": false,
        "position_source": 0
      }
    },
    {
      "type": "Feature",
      "geometry": {
        "type": "Point",
        "coordinates": [
          7.145,
          43.4699
        ]
      },
      "properties": {
        "icao24": "440cb1",
        "callsign": "EJU73BK",
        "origin_country": "Austria",
        "time_position": 1782173833,
        "last_contact": 1782173833,
        "baro_altitude": 11582.4,
        "on_ground": false,
        "velocity": 222.95,
        "true_track": 51.46,
        "vertical_rate": -1.3,
        "geo_altitude": 12176.76,
        "squawk": "1000",
        "spi": false,
        "position_source": 0
      }
    },
    {
      "type": "Feature",
      "geometry": {
        "type": "Point",
        "coordinates": [
          14.2686,
          45.6511
        ]
      },
      "properties": {
        "icao24": "02a1a7",
        "callsign": "LBT809",
        "origin_country": "Tunisia",
        "time_position": 1782173833,
        "last_contact": 1782173833,
        "baro_altitude": 11269.98,
        "on_ground": false,
        "velocity": 240.76,
        "true_track": 208.32,
        "vertical_rate": 0,
        "geo_altitude": 11826.24,
        "squawk": "1163",
        "spi": false,
        "position_source": 0
      }
    },
    {
      "type": "Feature",
      "geometry": {
        "type": "Point",
        "coordinates": [
          11.1691,
          46.217
        ]
      },
      "properties": {
        "icao24": "40820f",
        "callsign": "EXS2VM",
        "origin_country": "United Kingdom",
        "time_position": 1782173833,
        "last_contact": 1782173833,
        "baro_altitude": 10980.42,
        "on_ground": false,
        "velocity": 224.21,
        "true_track": 306.13,
        "vertical_rate": 0,
        "geo_altitude": 11574.78,
        "squawk": "6631",
        "spi": false,
        "position_source": 0
      }
    },
    {
      "type": "Feature",
      "geometry": {
        "type": "Point",
        "coordinates": [
          15.4845,
          44.0754
        ]
      },
      "properties": {
        "icao24": "408262",
        "callsign": "EXS75EV",
        "origin_country": "United Kingdom",
        "time_position": 1782173833,
        "last_contact": 1782173833,
        "baro_altitude": 10980.42,
        "on_ground": false,
        "velocity": 227.37,
        "true_track": 308.48,
        "vertical_rate": 0,
        "geo_altitude": 11544.3,
        "squawk": "5521",
        "spi": false,
        "position_source": 0
      }
    },
    {
      "type": "Feature",
      "geometry": {
        "type": "Point",
        "coordinates": [
          8.5587,
          47.461
        ]
      },
      "properties": {
        "icao24": "4b5daa",
        "callsign": "ATL786",
        "origin_country": "Switzerland",
        "time_position": 1782173713,
        "last_contact": 1782173716,
        "baro_altitude": null,
        "on_ground": true,
        "velocity": 0.06,
        "true_track": 337.5,
        "vertical_rate": null,
        "geo_altitude": null,
        "squawk": null,
        "spi": false,
        "position_source": 0
      }
    },
    {
      "type": "Feature",
      "geometry": {
        "type": "Point",
        "coordinates": [
          9.6507,
          39.2113
        ]
      },
      "properties": {
        "icao24": "408040",
        "callsign": "TOM3WL",
        "origin_country": "United Kingdom",
        "time_position": 1782173833,
        "last_contact": 1782173833,
        "baro_altitude": 10972.8,
        "on_ground": false,
        "velocity": 236.68,
        "true_track": 352.38,
        "vertical_rate": 0,
        "geo_altitude": 11475.72,
        "squawk": "6173",
        "spi": false,
        "position_source": 0
      }
    },
    {
      "type": "Feature",
      "geometry": {
        "type": "Point",
        "coordinates": [
          13.2505,
          46.9202
        ]
      },
      "properties": {
        "icao24": "408033",
        "callsign": "EXS59WJ",
        "origin_country": "United Kingdom",
        "time_position": 1782173833,
        "last_contact": 1782173833,
        "baro_altitude": 10980.42,
        "on_ground": false,
        "velocity": 223.27,
        "true_track": 306.47,
        "vertical_rate": 0,
        "geo_altitude": 11544.3,
        "squawk": "2073",
        "spi": false,
        "position_source": 0
      }
    },
    {
      "type": "Feature",
      "geometry": {
        "type": "Point",
        "coordinates": [
          12.1386,
          42.0169
        ]
      },
      "properties": {
        "icao24": "4ca9c2",
        "callsign": "RYR9QM",
        "origin_country": "Ireland",
        "time_position": 1782173834,
        "last_contact": 1782173834,
        "baro_altitude": 11277.6,
        "on_ground": false,
        "velocity": 227.11,
        "true_track": 133.16,
        "vertical_rate": 0,
        "geo_altitude": 11841.48,
        "squawk": "1000",
        "spi": false,
        "position_source": 0
      }
    },
    {
      "type": "Feature",
      "geometry": {
        "type": "Point",
        "coordinates": [
          16.7618,
          41.1356
        ]
      },
      "properties": {
        "icao24": "4ca7b6",
        "callsign": "RYR3DE",
        "origin_country": "Ireland",
        "time_position": 1782173833,
        "last_contact": 1782173833,
        "baro_altitude": null,
        "on_ground": true,
        "velocity": 5.14,
        "true_track": 75.94,
        "vertical_rate": null,
        "geo_altitude": null,
        "squawk": "7461",
        "spi": false,
        "position_source": 0
      }
    },
    {
      "type": "Feature",
      "geometry": {
        "type": "Point",
        "coordinates": [
          18.5505,
          44.274
        ]
      },
      "properties": {
        "icao24": "4bcda9",
        "callsign": "SXS2GA",
        "origin_country": "Turkey",
        "time_position": 1782173834,
        "last_contact": 1782173834,
        "baro_altitude": 11277.6,
        "on_ground": false,
        "velocity": 241.94,
        "true_track": 129.48,
        "vertical_rate": 0,
        "geo_altitude": 11826.24,
        "squawk": "7707",
        "spi": false,
        "position_source": 0
      }
    },
    {
      "type": "Feature",
      "geometry": {
        "type": "Point",
        "coordinates": [
          12.531,
          43.7825
        ]
      },
      "properties": {
        "icao24": "4ca703",
        "callsign": "RYR2EH",
        "origin_country": "Ireland",
        "time_position": 1782173833,
        "last_contact": 1782173833,
        "baro_altitude": 9273.54,
        "on_ground": false,
        "velocity": 233,
        "true_track": 308.19,
        "vertical_rate": -14.96,
        "geo_altitude": 9806.94,
        "squawk": "1000",
        "spi": false,
        "position_source": 0
      }
    },
    {
      "type": "Feature",
      "geometry": {
        "type": "Point",
        "coordinates": [
          7.8737,
          43.8741
        ]
      },
      "properties": {
        "icao24": "4ca624",
        "callsign": "RYR7BE",
        "origin_country": "Ireland",
        "time_position": 1782173834,
        "last_contact": 1782173834,
        "baro_altitude": 9273.54,
        "on_ground": false,
        "velocity": 220.18,
        "true_track": 55.57,
        "vertical_rate": -5.2,
        "geo_altitude": 9814.56,
        "squawk": "0004",
        "spi": false,
        "position_source": 0
      }
    },
    {
      "type": "Feature",
      "geometry": {
        "type": "Point",
        "coordinates": [
          13.2214,
          47.4834
        ]
      },
      "properties": {
        "icao24": "4bce13",
        "callsign": "SXS3FP",
        "origin_country": "Turkey",
        "time_position": 1782173833,
        "last_contact": 1782173833,
        "baro_altitude": 11277.6,
        "on_ground": false,
        "velocity": 242.43,
        "true_track": 137.06,
        "vertical_rate": 0.33,
        "geo_altitude": 11826.24,
        "squawk": "7646",
        "spi": false,
        "position_source": 0
      }
    },
    {
      "type": "Feature",
      "geometry": {
        "type": "Point",
        "coordinates": [
          17.2229,
          45.3196
        ]
      },
      "properties": {
        "icao24": "40769a",
        "callsign": "TOM527",
        "origin_country": "United Kingdom",
        "time_position": 1782173833,
        "last_contact": 1782173833,
        "baro_altitude": 10972.8,
        "on_ground": false,
        "velocity": 220.17,
        "true_track": 316.61,
        "vertical_rate": 0,
        "geo_altitude": 11490.96,
        "squawk": "5377",
        "spi": false,
        "position_source": 0
      }
    },
    {
      "type": "Feature",
      "geometry": {
        "type": "Point",
        "coordinates": [
          11.7315,
          46.0169
        ]
      },
      "properties": {
        "icao24": "40767a",
        "callsign": "TOM3CT",
        "origin_country": "United Kingdom",
        "time_position": 1782173833,
        "last_contact": 1782173834,
        "baro_altitude": 10972.8,
        "on_ground": false,
        "velocity": 231.33,
        "true_track": 302.56,
        "vertical_rate": 0,
        "geo_altitude": 11551.92,
        "squawk": "3265",
        "spi": false,
        "position_source": 0
      }
    },
    {
      "type": "Feature",
      "geometry": {
        "type": "Point",
        "coordinates": [
          6.7834,
          43.4711
        ]
      },
      "properties": {
        "icao24": "3e1f3f",
        "callsign": "DIDAL",
        "origin_country": "Germany",
        "time_position": 1782173833,
        "last_contact": 1782173833,
        "baro_altitude": 1562.1,
        "on_ground": false,
        "velocity": 113.61,
        "true_track": 102.02,
        "vertical_rate": -5.53,
        "geo_altitude": 1729.74,
        "squawk": "1000",
        "spi": false,
        "position_source": 0
      }
    },
    {
      "type": "Feature",
      "geometry": {
        "type": "Point",
        "coordinates": [
          15.731,
          44.9074
        ]
      },
      "properties": {
        "icao24": "4d24d7",
        "callsign": "WZZ296",
        "origin_country": "",
        "time_position": 1782173833,
        "last_contact": 1782173833,
        "baro_altitude": 11285.22,
        "on_ground": false,
        "velocity": 225.77,
        "true_track": 32.53,
        "vertical_rate": 0,
        "geo_altitude": 11856.72,
        "squawk": "1000",
        "spi": false,
        "position_source": 0
      }
    },
    {
      "type": "Feature",
      "geometry": {
        "type": "Point",
        "coordinates": [
          12.6893,
          43.0565
        ]
      },
      "properties": {
        "icao24": "4d24fe",
        "callsign": "AIZ991",
        "origin_country": "",
        "time_position": 1782173834,
        "last_contact": 1782173834,
        "baro_altitude": 10363.2,
        "on_ground": false,
        "velocity": 243.63,
        "true_track": 300.03,
        "vertical_rate": 0,
        "geo_altitude": 10927.08,
        "squawk": "4130",
        "spi": false,
        "position_source": 0
      }
    },
    {
      "type": "Feature",
      "geometry": {
        "type": "Point",
        "coordinates": [
          16.7368,
          45.2159
        ]
      },
      "properties": {
        "icao24": "0101db",
        "callsign": "MSR981",
        "origin_country": "Egypt",
        "time_position": 1782173833,
        "last_contact": 1782173833,
        "baro_altitude": 10965.18,
        "on_ground": false,
        "velocity": 237.09,
        "true_track": 321.17,
        "vertical_rate": 0.33,
        "geo_altitude": 11498.58,
        "squawk": "5507",
        "spi": false,
        "position_source": 0
      }
    },
    {
      "type": "Feature",
      "geometry": {
        "type": "Point",
        "coordinates": [
          8.7167,
          45.6282
        ]
      },
      "properties": {
        "icao24": "3004c2",
        "callsign": "NOS1460",
        "origin_country": "Italy",
        "time_position": 1782173595,
        "last_contact": 1782173595,
        "baro_altitude": null,
        "on_ground": true,
        "velocity": 0,
        "true_track": 258.75,
        "vertical_rate": null,
        "geo_altitude": null,
        "squawk": "1000",
        "spi": false,
        "position_source": 0
      }
    },
    {
      "type": "Feature",
      "geometry": {
        "type": "Point",
        "coordinates": [
          15.4605,
          46.2067
        ]
      },
      "properties": {
        "icao24": "4d23c3",
        "callsign": "CXI1GQ",
        "origin_country": "Malta",
        "time_position": 1782173834,
        "last_contact": 1782173834,
        "baro_altitude": 11277.6,
        "on_ground": false,
        "velocity": 242.83,
        "true_track": 137.32,
        "vertical_rate": 0,
        "geo_altitude": 11795.76,
        "squawk": "7712",
        "spi": false,
        "position_source": 0
      }
    },
    {
      "type": "Feature",
      "geometry": {
        "type": "Point",
        "coordinates": [
          11.4762,
          42.8887
        ]
      },
      "properties": {
        "icao24": "300695",
        "callsign": "PEGASO2",
        "origin_country": "Italy",
        "time_position": 1782173833,
        "last_contact": 1782173834,
        "baro_altitude": 876.3,
        "on_ground": false,
        "velocity": 54.02,
        "true_track": 90,
        "vertical_rate": 0,
        "geo_altitude": 1021.08,
        "squawk": null,
        "spi": false,
        "position_source": 0
      }
    },
    {
      "type": "Feature",
      "geometry": {
        "type": "Point",
        "coordinates": [
          8.3005,
          40.445
        ]
      },
      "properties": {
        "icao24": "4d2475",
        "callsign": "BBG251",
        "origin_country": "",
        "time_position": 1782173833,
        "last_contact": 1782173833,
        "baro_altitude": 10363.2,
        "on_ground": false,
        "velocity": 223.87,
        "true_track": 99.66,
        "vertical_rate": 0,
        "geo_altitude": 10888.98,
        "squawk": "1411",
        "spi": false,
        "position_source": 0
      }
    },
    {
      "type": "Feature",
      "geometry": {
        "type": "Point",
        "coordinates": [
          16.9867,
          45.4501
        ]
      },
      "properties": {
        "icao24": "4d2455",
        "callsign": "WZZ6579",
        "origin_country": "",
        "time_position": 1782173833,
        "last_contact": 1782173833,
        "baro_altitude": 10668,
        "on_ground": false,
        "velocity": 242.46,
        "true_track": 102,
        "vertical_rate": 0,
        "geo_altitude": 11193.78,
        "squawk": "0456",
        "spi": false,
        "position_source": 0
      }
    },
    {
      "type": "Feature",
      "geometry": {
        "type": "Point",
        "coordinates": [
          18.8812,
          41.974
        ]
      },
      "properties": {
        "icao24": "4d248e",
        "callsign": "WMT5655",
        "origin_country": "",
        "time_position": 1782173754,
        "last_contact": 1782173772,
        "baro_altitude": 4808.22,
        "on_ground": false,
        "velocity": 175.32,
        "true_track": 117.24,
        "vertical_rate": -16.26,
        "geo_altitude": 5113.02,
        "squawk": "1277",
        "spi": false,
        "position_source": 0
      }
    },
    {
      "type": "Feature",
      "geometry": {
        "type": "Point",
        "coordinates": [
          12.2574,
          41.8559
        ]
      },
      "properties": {
        "icao24": "4d2492",
        "callsign": "WMT9GW",
        "origin_country": "",
        "time_position": 1782173771,
        "last_contact": 1782173775,
        "baro_altitude": 45.72,
        "on_ground": false,
        "velocity": 75.99,
        "true_track": 162.67,
        "vertical_rate": -3.9,
        "geo_altitude": 137.16,
        "squawk": "2261",
        "spi": false,
        "position_source": 0
      }
    },
    {
      "type": "Feature",
      "geometry": {
        "type": "Point",
        "coordinates": [
          11.828,
          42.5882
        ]
      },
      "properties": {
        "icao24": "424c8c",
        "callsign": "MABSU",
        "origin_country": "United Kingdom",
        "time_position": 1782173833,
        "last_contact": 1782173833,
        "baro_altitude": 3672.84,
        "on_ground": false,
        "velocity": 167.3,
        "true_track": 154.7,
        "vertical_rate": -9.43,
        "geo_altitude": 3931.92,
        "squawk": "4666",
        "spi": false,
        "position_source": 0
      }
    },
    {
      "type": "Feature",
      "geometry": {
        "type": "Point",
        "coordinates": [
          14.5908,
          35.7329
        ]
      },
      "properties": {
        "icao24": "4cae54",
        "callsign": "RYR5382",
        "origin_country": "Ireland",
        "time_position": 1782173833,
        "last_contact": 1782173833,
        "baro_altitude": 678.18,
        "on_ground": false,
        "velocity": 87.81,
        "true_track": 8.08,
        "vertical_rate": -4.23,
        "geo_altitude": 792.48,
        "squawk": "1444",
        "spi": false,
        "position_source": 0
      }
    },
    {
      "type": "Feature",
      "geometry": {
        "type": "Point",
        "coordinates": [
          11.7997,
          37.9298
        ]
      },
      "properties": {
        "icao24": "4d22ab",
        "callsign": "KMM455",
        "origin_country": "Malta",
        "time_position": 1782173834,
        "last_contact": 1782173834,
        "baro_altitude": 11894.82,
        "on_ground": false,
        "velocity": 236.53,
        "true_track": 141.53,
        "vertical_rate": 0,
        "geo_altitude": 12458.7,
        "squawk": "4311",
        "spi": false,
        "position_source": 0
      }
    },
    {
      "type": "Feature",
      "geometry": {
        "type": "Point",
        "coordinates": [
          15.2401,
          37.2879
        ]
      },
      "properties": {
        "icao24": "ae68a7",
        "callsign": "P  YP",
        "origin_country": "United States",
        "time_position": 1782173832,
        "last_contact": 1782173833,
        "baro_altitude": 4396.74,
        "on_ground": false,
        "velocity": 159.81,
        "true_track": 275.91,
        "vertical_rate": -8.45,
        "geo_altitude": 4678.68,
        "squawk": "2062",
        "spi": false,
        "position_source": 0
      }
    },
    {
      "type": "Feature",
      "geometry": {
        "type": "Point",
        "coordinates": [
          9.7493,
          45.66
        ]
      },
      "properties": {
        "icao24": "4d2385",
        "callsign": "RYR465X",
        "origin_country": "Malta",
        "time_position": 1782173664,
        "last_contact": 1782173671,
        "baro_altitude": 274.32,
        "on_ground": false,
        "velocity": 75.99,
        "true_track": 284.51,
        "vertical_rate": -3.58,
        "geo_altitude": 396.24,
        "squawk": "7065",
        "spi": false,
        "position_source": 0
      }
    },
    {
      "type": "Feature",
      "geometry": {
        "type": "Point",
        "coordinates": [
          14.601,
          46.2168
        ]
      },
      "properties": {
        "icao24": "4070e7",
        "callsign": "EXS12TY",
        "origin_country": "United Kingdom",
        "time_position": 1782173833,
        "last_contact": 1782173834,
        "baro_altitude": 10972.8,
        "on_ground": false,
        "velocity": 225.96,
        "true_track": 307.6,
        "vertical_rate": -0.33,
        "geo_altitude": 11498.58,
        "squawk": "5315",
        "spi": false,
        "position_source": 0
      }
    },
    {
      "type": "Feature",
      "geometry": {
        "type": "Point",
        "coordinates": [
          14.5137,
          35.9542
        ]
      },
      "properties": {
        "icao24": "4d20ea",
        "callsign": "AS2633",
        "origin_country": "Malta",
        "time_position": 1782173833,
        "last_contact": 1782173833,
        "baro_altitude": 899.16,
        "on_ground": false,
        "velocity": 34.2,
        "true_track": 46.22,
        "vertical_rate": 0,
        "geo_altitude": 1005.84,
        "squawk": "3632",
        "spi": false,
        "position_source": 0
      }
    },
    {
      "type": "Feature",
      "geometry": {
        "type": "Point",
        "coordinates": [
          8.7377,
          45.615
        ]
      },
      "properties": {
        "icao24": "4d216a",
        "callsign": "WMT3MA",
        "origin_country": "Malta",
        "time_position": 1782173833,
        "last_contact": 1782173833,
        "baro_altitude": 167.64,
        "on_ground": false,
        "velocity": 72.75,
        "true_track": 349.41,
        "vertical_rate": -3.25,
        "geo_altitude": 304.8,
        "squawk": "5134",
        "spi": false,
        "position_source": 0
      }
    },
    {
      "type": "Feature",
      "geometry": {
        "type": "Point",
        "coordinates": [
          8.0143,
          40.6799
        ]
      },
      "properties": {
        "icao24": "4d20b1",
        "callsign": "WMT7T",
        "origin_country": "Malta",
        "time_position": 1782173833,
        "last_contact": 1782173833,
        "baro_altitude": 11574.78,
        "on_ground": false,
        "velocity": 215.5,
        "true_track": 69.75,
        "vertical_rate": 0,
        "geo_altitude": 12138.66,
        "squawk": "1000",
        "spi": false,
        "position_source": 0
      }
    },
    {
      "type": "Feature",
      "geometry": {
        "type": "Point",
        "coordinates": [
          10.1532,
          46.8441
        ]
      },
      "properties": {
        "icao24": "40833c",
        "callsign": "WUK8YM",
        "origin_country": "United Kingdom",
        "time_position": 1782173833,
        "last_contact": 1782173834,
        "baro_altitude": 10972.8,
        "on_ground": false,
        "velocity": 224.31,
        "true_track": 302.92,
        "vertical_rate": 0,
        "geo_altitude": 11574.78,
        "squawk": "2765",
        "spi": false,
        "position_source": 0
      }
    },
    {
      "type": "Feature",
      "geometry": {
        "type": "Point",
        "coordinates": [
          11.8518,
          47.6314
        ]
      },
      "properties": {
        "icao24": "408347",
        "callsign": "EXS7K",
        "origin_country": "United Kingdom",
        "time_position": 1782173833,
        "last_contact": 1782173833,
        "baro_altitude": 10972.8,
        "on_ground": false,
        "velocity": 221.42,
        "true_track": 307.16,
        "vertical_rate": 0,
        "geo_altitude": 11544.3,
        "squawk": "3231",
        "spi": false,
        "position_source": 0
      }
    },
    {
      "type": "Feature",
      "geometry": {
        "type": "Point",
        "coordinates": [
          18.9725,
          46.742
        ]
      },
      "properties": {
        "icao24": "40836b",
        "callsign": "EZY2140",
        "origin_country": "United Kingdom",
        "time_position": 1782173833,
        "last_contact": 1782173833,
        "baro_altitude": 10980.42,
        "on_ground": false,
        "velocity": 225.86,
        "true_track": 298.73,
        "vertical_rate": 0,
        "geo_altitude": 11483.34,
        "squawk": "5351",
        "spi": false,
        "position_source": 0
      }
    },
    {
      "type": "Feature",
      "geometry": {
        "type": "Point",
        "coordinates": [
          15.4474,
          45.104
        ]
      },
      "properties": {
        "icao24": "01013c",
        "callsign": "MSR996",
        "origin_country": "Egypt",
        "time_position": 1782173833,
        "last_contact": 1782173833,
        "baro_altitude": 11277.6,
        "on_ground": false,
        "velocity": 263.4,
        "true_track": 135.95,
        "vertical_rate": 0,
        "geo_altitude": 11818.62,
        "squawk": "2202",
        "spi": false,
        "position_source": 0
      }
    },
    {
      "type": "Feature",
      "geometry": {
        "type": "Point",
        "coordinates": [
          14.5481,
          44.5845
        ]
      },
      "properties": {
        "icao24": "408329",
        "callsign": "TOM285",
        "origin_country": "United Kingdom",
        "time_position": 1782173834,
        "last_contact": 1782173834,
        "baro_altitude": 10972.8,
        "on_ground": false,
        "velocity": 222.38,
        "true_track": 302.15,
        "vertical_rate": 0,
        "geo_altitude": 11529.06,
        "squawk": "2075",
        "spi": false,
        "position_source": 0
      }
    },
    {
      "type": "Feature",
      "geometry": {
        "type": "Point",
        "coordinates": [
          11.3599,
          46.1312
        ]
      },
      "properties": {
        "icao24": "408314",
        "callsign": "TOM397",
        "origin_country": "United Kingdom",
        "time_position": 1782173833,
        "last_contact": 1782173833,
        "baro_altitude": 11109.96,
        "on_ground": false,
        "velocity": 226.53,
        "true_track": 305.39,
        "vertical_rate": 3.9,
        "geo_altitude": 11681.46,
        "squawk": "2051",
        "spi": false,
        "position_source": 0
      }
    },
    {
      "type": "Feature",
      "geometry": {
        "type": "Point",
        "coordinates": [
          7.8094,
          47.6724
        ]
      },
      "properties": {
        "icao24": "407177",
        "callsign": "EXS14VP",
        "origin_country": "United Kingdom",
        "time_position": 1782173833,
        "last_contact": 1782173834,
        "baro_altitude": 10972.8,
        "on_ground": false,
        "velocity": 218.19,
        "true_track": 301.4,
        "vertical_rate": 0.33,
        "geo_altitude": 11559.54,
        "squawk": "7515",
        "spi": false,
        "position_source": 0
      }
    },
    {
      "type": "Feature",
      "geometry": {
        "type": "Point",
        "coordinates": [
          13.3721,
          46.8434
        ]
      },
      "properties": {
        "icao24": "4082cd",
        "callsign": "TOM7CV",
        "origin_country": "United Kingdom",
        "time_position": 1782173834,
        "last_contact": 1782173834,
        "baro_altitude": 11582.4,
        "on_ground": false,
        "velocity": 221.32,
        "true_track": 307.35,
        "vertical_rate": 0,
        "geo_altitude": 12146.28,
        "squawk": "5644",
        "spi": false,
        "position_source": 0
      }
    }
  ]
}