{
  "type": "FeatureCollection",
  "source": "opensky",
  "dataset": "aircraft_italy",
  "generated_at": "2026-09-25T00:35:13.931313+00:00",
  "opensky_time": 1790296512,
  "count": 86,
  "features": [
    {
      "type": "Feature",
      "geometry": {
        "type": "Point",
        "coordinates": [
          13.8515,
          44.7968
        ]
      },
      "properties": {
        "icao24": "407a3f",
        "callsign": "TOM2PJ",
        "origin_country": "United Kingdom",
        "time_position": 1790296512,
        "last_contact": 1790296512,
        "baro_altitude": 10980.42,
        "on_ground": false,
        "velocity": 219.6,
        "true_track": 307.86,
        "vertical_rate": 0,
        "geo_altitude": 11247.12,
        "squawk": "5511",
        "spi": false,
        "position_source": 0
      }
    },
    {
      "type": "Feature",
      "geometry": {
        "type": "Point",
        "coordinates": [
          7.203,
          40.59
        ]
      },
      "properties": {
        "icao24": "46b824",
        "callsign": "AEE3LP",
        "origin_country": "Greece",
        "time_position": 1790296512,
        "last_contact": 1790296512,
        "baro_altitude": 10370.82,
        "on_ground": false,
        "velocity": 240.45,
        "true_track": 97.87,
        "vertical_rate": 0,
        "geo_altitude": 10888.98,
        "squawk": "1172",
        "spi": false,
        "position_source": 0
      }
    },
    {
      "type": "Feature",
      "geometry": {
        "type": "Point",
        "coordinates": [
          11.5265,
          40.0476
        ]
      },
      "properties": {
        "icao24": "73806f",
        "callsign": "ELY376",
        "origin_country": "Israel",
        "time_position": 1790296511,
        "last_contact": 1790296511,
        "baro_altitude": 10660.38,
        "on_ground": false,
        "velocity": 250.54,
        "true_track": 130.92,
        "vertical_rate": -0.33,
        "geo_altitude": 11117.58,
        "squawk": "1274",
        "spi": false,
        "position_source": 0
      }
    },
    {
      "type": "Feature",
      "geometry": {
        "type": "Point",
        "coordinates": [
          17.5645,
          42.7641
        ]
      },
      "properties": {
        "icao24": "738068",
        "callsign": "ELY314",
        "origin_country": "Israel",
        "time_position": 1790296463,
        "last_contact": 1790296463,
        "baro_altitude": 11277.6,
        "on_ground": false,
        "velocity": 252.44,
        "true_track": 130.7,
        "vertical_rate": 0.33,
        "geo_altitude": 11498.58,
        "squawk": "5235",
        "spi": false,
        "position_source": 0
      }
    },
    {
      "type": "Feature",
      "geometry": {
        "type": "Point",
        "coordinates": [
          9.516,
          42.6521
        ]
      },
      "properties": {
        "icao24": "738073",
        "callsign": "ELY010",
        "origin_country": "Israel",
        "time_position": 1790296511,
        "last_contact": 1790296511,
        "baro_altitude": 11277.6,
        "on_ground": false,
        "velocity": 260.14,
        "true_track": 111.34,
        "vertical_rate": 0,
        "geo_altitude": 11734.8,
        "squawk": "4310",
        "spi": false,
        "position_source": 0
      }
    },
    {
      "type": "Feature",
      "geometry": {
        "type": "Point",
        "coordinates": [
          10.2338,
          45.5931
        ]
      },
      "properties": {
        "icao24": "440075",
        "callsign": "EJU18NT",
        "origin_country": "Austria",
        "time_position": 1790296511,
        "last_contact": 1790296511,
        "baro_altitude": 7978.14,
        "on_ground": false,
        "velocity": 203.86,
        "true_track": 278.42,
        "vertical_rate": -14.63,
        "geo_altitude": 8328.66,
        "squawk": "7735",
        "spi": false,
        "position_source": 0
      }
    },
    {
      "type": "Feature",
      "geometry": {
        "type": "Point",
        "coordinates": [
          9.0057,
          39.6357
        ]
      },
      "properties": {
        "icao24": "738102",
        "callsign": "ELY121",
        "origin_country": "Israel",
        "time_position": 1790296511,
        "last_contact": 1790296511,
        "baro_altitude": 11277.6,
        "on_ground": false,
        "velocity": 245.78,
        "true_track": 274.92,
        "vertical_rate": 0,
        "geo_altitude": 11772.9,
        "squawk": "3721",
        "spi": false,
        "position_source": 0
      }
    },
    {
      "type": "Feature",
      "geometry": {
        "type": "Point",
        "coordinates": [
          16.091,
          38.921
        ]
      },
      "properties": {
        "icao24": "738103",
        "callsign": "ELY017",
        "origin_country": "Israel",
        "time_position": 1790296510,
        "last_contact": 1790296511,
        "baro_altitude": 10972.8,
        "on_ground": false,
        "velocity": 232.66,
        "true_track": 279.55,
        "vertical_rate": 0,
        "geo_altitude": 11384.28,
        "squawk": "1146",
        "spi": false,
        "position_source": 0
      }
    },
    {
      "type": "Feature",
      "geometry": {
        "type": "Point",
        "coordinates": [
          8.218,
          43.1015
        ]
      },
      "properties": {
        "icao24": "7380c5",
        "callsign": "ELY018",
        "origin_country": "Israel",
        "time_position": 1790296511,
        "last_contact": 1790296511,
        "baro_altitude": 11277.6,
        "on_ground": false,
        "velocity": 261.38,
        "true_track": 117.42,
        "vertical_rate": -0.33,
        "geo_altitude": 11772.9,
        "squawk": "3366",
        "spi": false,
        "position_source": 0
      }
    },
    {
      "type": "Feature",
      "geometry": {
        "type": "Point",
        "coordinates": [
          15.0859,
          46.0173
        ]
      },
      "properties": {
        "icao24": "7380c7",
        "callsign": "ELY027",
        "origin_country": "Israel",
        "time_position": 1790296511,
        "last_contact": 1790296511,
        "baro_altitude": 11574.78,
        "on_ground": false,
        "velocity": 235.64,
        "true_track": 310.75,
        "vertical_rate": 0.33,
        "geo_altitude": 11818.62,
        "squawk": "1155",
        "spi": false,
        "position_source": 0
      }
    },
    {
      "type": "Feature",
      "geometry": {
        "type": "Point",
        "coordinates": [
          7.1807,
          45.093
        ]
      },
      "properties": {
        "icao24": "738284",
        "callsign": "ISR136",
        "origin_country": "Israel",
        "time_position": 1790296512,
        "last_contact": 1790296512,
        "baro_altitude": 9159.24,
        "on_ground": false,
        "velocity": 252.68,
        "true_track": 121,
        "vertical_rate": 6.18,
        "geo_altitude": 9639.3,
        "squawk": "3751",
        "spi": false,
        "position_source": 0
      }
    },
    {
      "type": "Feature",
      "geometry": {
        "type": "Point",
        "coordinates": [
          12.3304,
          40.5314
        ]
      },
      "properties": {
        "icao24": "020176",
        "callsign": "MAC438",
        "origin_country": "Morocco",
        "time_position": 1790296512,
        "last_contact": 1790296512,
        "baro_altitude": 10972.8,
        "on_ground": false,
        "velocity": 208.87,
        "true_track": 269.72,
        "vertical_rate": 0,
        "geo_altitude": 11391.9,
        "squawk": "2323",
        "spi": false,
        "position_source": 0
      }
    },
    {
      "type": "Feature",
      "geometry": {
        "type": "Point",
        "coordinates": [
          8.7259,
          45.6483
        ]
      },
      "properties": {
        "icao24": "345292",
        "callsign": "BCS422",
        "origin_country": "Spain",
        "time_position": 1790296511,
        "last_contact": 1790296511,
        "baro_altitude": null,
        "on_ground": true,
        "velocity": 0,
        "true_track": 42.19,
        "vertical_rate": null,
        "geo_altitude": null,
        "squawk": null,
        "spi": false,
        "position_source": 0
      }
    },
    {
      "type": "Feature",
      "geometry": {
        "type": "Point",
        "coordinates": [
          14.2683,
          40.6699
        ]
      },
      "properties": {
        "icao24": "020124",
        "callsign": "MAC529",
        "origin_country": "Morocco",
        "time_position": 1790296511,
        "last_contact": 1790296511,
        "baro_altitude": 11277.6,
        "on_ground": false,
        "velocity": 204.31,
        "true_track": 280.89,
        "vertical_rate": 0,
        "geo_altitude": 11658.6,
        "squawk": "2341",
        "spi": false,
        "position_source": 0
      }
    },
    {
      "type": "Feature",
      "geometry": {
        "type": "Point",
        "coordinates": [
          9.2785,
          39.7034
        ]
      },
      "properties": {
        "icao24": "020145",
        "callsign": "MAC523",
        "origin_country": "Morocco",
        "time_position": 1790296511,
        "last_contact": 1790296511,
        "baro_altitude": 10073.64,
        "on_ground": false,
        "velocity": 224.81,
        "true_track": 270.13,
        "vertical_rate": 0,
        "geo_altitude": 10561.32,
        "squawk": "2303",
        "spi": false,
        "position_source": 0
      }
    },
    {
      "type": "Feature",
      "geometry": {
        "type": "Point",
        "coordinates": [
          18.7498,
          35.6568
        ]
      },
      "properties": {
        "icao24": "8963d1",
        "callsign": "UAE194",
        "origin_country": "United Arab Emirates",
        "time_position": 1790296215,
        "last_contact": 1790296215,
        "baro_altitude": 10668,
        "on_ground": false,
        "velocity": 280.92,
        "true_track": 105.18,
        "vertical_rate": 0,
        "geo_altitude": 11102.34,
        "squawk": "5257",
        "spi": false,
        "position_source": 0
      }
    },
    {
      "type": "Feature",
      "geometry": {
        "type": "Point",
        "coordinates": [
          12.4941,
          47.1935
        ]
      },
      "properties": {
        "icao24": "ab3c0c",
        "callsign": "N823AM",
        "origin_country": "United States",
        "time_position": 1790296511,
        "last_contact": 1790296511,
        "baro_altitude": 12496.8,
        "on_ground": false,
        "velocity": 224.64,
        "true_track": 128.86,
        "vertical_rate": -0.33,
        "geo_altitude": 12824.46,
        "squawk": "0506",
        "spi": false,
        "position_source": 0
      }
    },
    {
      "type": "Feature",
      "geometry": {
        "type": "Point",
        "coordinates": [
          18.0731,
          38.9577
        ]
      },
      "properties": {
        "icao24": "738444",
        "callsign": "AIZ336",
        "origin_country": "Israel",
        "time_position": 1790296511,
        "last_contact": 1790296511,
        "baro_altitude": 10668,
        "on_ground": false,
        "velocity": 251.27,
        "true_track": 120.92,
        "vertical_rate": 0,
        "geo_altitude": 11026.14,
        "squawk": null,
        "spi": false,
        "position_source": 0
      }
    },
    {
      "type": "Feature",
      "geometry": {
        "type": "Point",
        "coordinates": [
          13.6828,
          35.6012
        ]
      },
      "properties": {
        "icao24": "4bb066",
        "callsign": "THY635",
        "origin_country": "Turkey",
        "time_position": 1790296511,
        "last_contact": 1790296511,
        "baro_altitude": 10972.8,
        "on_ground": false,
        "velocity": 195.97,
        "true_track": 239.73,
        "vertical_rate": 0,
        "geo_altitude": 11452.86,
        "squawk": "2347",
        "spi": false,
        "position_source": 0
      }
    },
    {
      "type": "Feature",
      "geometry": {
        "type": "Point",
        "coordinates": [
          18.2922,
          38.1253
        ]
      },
      "properties": {
        "icao24": "4bb061",
        "callsign": "THY3KA",
        "origin_country": "Turkey",
        "time_position": 1790296511,
        "last_contact": 1790296511,
        "baro_altitude": 11277.6,
        "on_ground": false,
        "velocity": 236.26,
        "true_track": 42.79,
        "vertical_rate": 0,
        "geo_altitude": 11666.22,
        "squawk": "3170",
        "spi": false,
        "position_source": 0
      }
    },
    {
      "type": "Feature",
      "geometry": {
        "type": "Point",
        "coordinates": [
          15.143,
          45.6707
        ]
      },
      "properties": {
        "icao24": "896622",
        "callsign": "UAE70",
        "origin_country": "United Arab Emirates",
        "time_position": 1790296512,
        "last_contact": 1790296512,
        "baro_altitude": 11887.2,
        "on_ground": false,
        "velocity": 260.48,
        "true_track": 128.18,
        "vertical_rate": 0,
        "geo_altitude": 12123.42,
        "squawk": "5224",
        "spi": false,
        "position_source": 0
      }
    },
    {
      "type": "Feature",
      "geometry": {
        "type": "Point",
        "coordinates": [
          12.8192,
          37.6284
        ]
      },
      "properties": {
        "icao24": "4bb06d",
        "callsign": "THY2RZ",
        "origin_country": "Turkey",
        "time_position": 1790296512,
        "last_contact": 1790296512,
        "baro_altitude": 11277.6,
        "on_ground": false,
        "velocity": 231.51,
        "true_track": 69.31,
        "vertical_rate": 0,
        "geo_altitude": 11742.42,
        "squawk": "7761",
        "spi": false,
        "position_source": 0
      }
    },
    {
      "type": "Feature",
      "geometry": {
        "type": "Point",
        "coordinates": [
          16.2814,
          39.6729
        ]
      },
      "properties": {
        "icao24": "4bb06c",
        "callsign": "THY2YD",
        "origin_country": "Turkey",
        "time_position": 1790296511,
        "last_contact": 1790296512,
        "baro_altitude": 11277.6,
        "on_ground": false,
        "velocity": 243.43,
        "true_track": 58.39,
        "vertical_rate": 0,
        "geo_altitude": 11650.98,
        "squawk": "1263",
        "spi": false,
        "position_source": 0
      }
    },
    {
      "type": "Feature",
      "geometry": {
        "type": "Point",
        "coordinates": [
          17.837,
          44.4774
        ]
      },
      "properties": {
        "icao24": "4ac8da",
        "callsign": "TOM9PL",
        "origin_country": "Sweden",
        "time_position": 1790296511,
        "last_contact": 1790296511,
        "baro_altitude": 13098.78,
        "on_ground": false,
        "velocity": 242.32,
        "true_track": 311.64,
        "vertical_rate": -0.33,
        "geo_altitude": 13365.48,
        "squawk": "6624",
        "spi": false,
        "position_source": 0
      }
    },
    {
      "type": "Feature",
      "geometry": {
        "type": "Point",
        "coordinates": [
          12.4311,
          41.9346
        ]
      },
      "properties": {
        "icao24": "3009bc",
        "callsign": "ARES44",
        "origin_country": "Italy",
        "time_position": 1790296504,
        "last_contact": 1790296505,
        "baro_altitude": 106.68,
        "on_ground": false,
        "velocity": 2.57,
        "true_track": 323.13,
        "vertical_rate": -1.3,
        "geo_altitude": 190.5,
        "squawk": null,
        "spi": false,
        "position_source": 0
      }
    },
    {
      "type": "Feature",
      "geometry": {
        "type": "Point",
        "coordinates": [
          13.5877,
          45.7415
        ]
      },
      "properties": {
        "icao24": "407837",
        "callsign": "EZY15JF",
        "origin_country": "United Kingdom",
        "time_position": 1790296511,
        "last_contact": 1790296512,
        "baro_altitude": 10363.2,
        "on_ground": false,
        "velocity": 220.94,
        "true_track": 295.07,
        "vertical_rate": -0.33,
        "geo_altitude": 10607.04,
        "squawk": "7210",
        "spi": false,
        "position_source": 0
      }
    },
    {
      "type": "Feature",
      "geometry": {
        "type": "Point",
        "coordinates": [
          14.6139,
          46.1747
        ]
      },
      "properties": {
        "icao24": "406696",
        "callsign": "TOM269",
        "origin_country": "United Kingdom",
        "time_position": 1790296511,
        "last_contact": 1790296512,
        "baro_altitude": 10972.8,
        "on_ground": false,
        "velocity": 222.16,
        "true_track": 303.29,
        "vertical_rate": 0.33,
        "geo_altitude": 11193.78,
        "squawk": "5306",
        "spi": false,
        "position_source": 0
      }
    },
    {
      "type": "Feature",
      "geometry": {
        "type": "Point",
        "coordinates": [
          16.334,
          45.2459
        ]
      },
      "properties": {
        "icao24": "40660c",
        "callsign": "TOM21N",
        "origin_country": "United Kingdom",
        "time_position": 1790296511,
        "last_contact": 1790296511,
        "baro_altitude": 11582.4,
        "on_ground": false,
        "velocity": 225.2,
        "true_track": 308.41,
        "vertical_rate": 0,
        "geo_altitude": 11795.76,
        "squawk": "2017",
        "spi": false,
        "position_source": 0
      }
    },
    {
      "type": "Feature",
      "geometry": {
        "type": "Point",
        "coordinates": [
          14.6636,
          46.1532
        ]
      },
      "properties": {
        "icao24": "40796b",
        "callsign": "TOM719",
        "origin_country": "United Kingdom",
        "time_position": 1790296511,
        "last_contact": 1790296512,
        "baro_altitude": 11582.4,
        "on_ground": false,
        "velocity": 222.59,
        "true_track": 303.21,
        "vertical_rate": 0.33,
        "geo_altitude": 11833.86,
        "squawk": "2022",
        "spi": false,
        "position_source": 0
      }
    },
    {
      "type": "Feature",
      "geometry": {
        "type": "Point",
        "coordinates": [
          11.5375,
          47.3721
        ]
      },
      "properties": {
        "icao24": "40796c",
        "callsign": "TOM32V",
        "origin_country": "United Kingdom",
        "time_position": 1790296511,
        "last_contact": 1790296511,
        "baro_altitude": 11582.4,
        "on_ground": false,
        "velocity": 213.48,
        "true_track": 294.03,
        "vertical_rate": -0.33,
        "geo_altitude": 11948.16,
        "squawk": "0502",
        "spi": false,
        "position_source": 0
      }
    },
    {
      "type": "Feature",
      "geometry": {
        "type": "Point",
        "coordinates": [
          12.3922,
          47.131
        ]
      },
      "properties": {
        "icao24": "40796a",
        "callsign": "TOM553",
        "origin_country": "United Kingdom",
        "time_position": 1790296511,
        "last_contact": 1790296512,
        "baro_altitude": 11582.4,
        "on_ground": false,
        "velocity": 216.16,
        "true_track": 300.78,
        "vertical_rate": 0.33,
        "geo_altitude": 11910.06,
        "squawk": "5524",
        "spi": false,
        "position_source": 0
      }
    },
    {
      "type": "Feature",
      "geometry": {
        "type": "Point",
        "coordinates": [
          18.225,
          39.1071
        ]
      },
      "properties": {
        "icao24": "040124",
        "callsign": "ETH575",
        "origin_country": "Ethiopia",
        "time_position": 1790296511,
        "last_contact": 1790296511,
        "baro_altitude": 11879.58,
        "on_ground": false,
        "velocity": 268.15,
        "true_track": 133.83,
        "vertical_rate": 0,
        "geo_altitude": 12230.1,
        "squawk": "1151",
        "spi": false,
        "position_source": 0
      }
    },
    {
      "type": "Feature",
      "geometry": {
        "type": "Point",
        "coordinates": [
          7.8428,
          45.5985
        ]
      },
      "properties": {
        "icao24": "abde34",
        "callsign": "FDX7",
        "origin_country": "United States",
        "time_position": 1790296511,
        "last_contact": 1790296511,
        "baro_altitude": 6042.66,
        "on_ground": false,
        "velocity": 186.64,
        "true_track": 299.74,
        "vertical_rate": 4.55,
        "geo_altitude": 6370.32,
        "squawk": "3747",
        "spi": false,
        "position_source": 0
      }
    },
    {
      "type": "Feature",
      "geometry": {
        "type": "Point",
        "coordinates": [
          6.5427,
          41.6982
        ]
      },
      "properties": {
        "icao24": "4409c0",
        "callsign": "EJU71CR",
        "origin_country": "Austria",
        "time_position": 1790296511,
        "last_contact": 1790296511,
        "baro_altitude": 11590.02,
        "on_ground": false,
        "velocity": 205.91,
        "true_track": 45.81,
        "vertical_rate": 0,
        "geo_altitude": 12146.28,
        "squawk": "1452",
        "spi": false,
        "position_source": 0
      }
    },
    {
      "type": "Feature",
      "geometry": {
        "type": "Point",
        "coordinates": [
          8.7631,
          45.5228
        ]
      },
      "properties": {
        "icao24": "4ca56b",
        "callsign": "RYR613K",
        "origin_country": "Ireland",
        "time_position": 1790296511,
        "last_contact": 1790296511,
        "baro_altitude": 716.28,
        "on_ground": false,
        "velocity": 92.82,
        "true_track": 348.81,
        "vertical_rate": -5.2,
        "geo_altitude": 822.96,
        "squawk": "1000",
        "spi": false,
        "position_source": 0
      }
    },
    {
      "type": "Feature",
      "geometry": {
        "type": "Point",
        "coordinates": [
          16.0387,
          40.7162
        ]
      },
      "properties": {
        "icao24": "040049",
        "callsign": "ETH518",
        "origin_country": "Ethiopia",
        "time_position": 1790296512,
        "last_contact": 1790296512,
        "baro_altitude": 12192,
        "on_ground": false,
        "velocity": 226.66,
        "true_track": 301.16,
        "vertical_rate": -0.33,
        "geo_altitude": 12519.66,
        "squawk": null,
        "spi": false,
        "position_source": 0
      }
    },
    {
      "type": "Feature",
      "geometry": {
        "type": "Point",
        "coordinates": [
          12.7379,
          37.5759
        ]
      },
      "properties": {
        "icao24": "4ba9f5",
        "callsign": "THY6421",
        "origin_country": "Turkey",
        "time_position": 1790296511,
        "last_contact": 1790296511,
        "baro_altitude": 11582.4,
        "on_ground": false,
        "velocity": 240.85,
        "true_track": 248.97,
        "vertical_rate": 0,
        "geo_altitude": 12062.46,
        "squawk": "2320",
        "spi": false,
        "position_source": 0
      }
    },
    {
      "type": "Feature",
      "geometry": {
        "type": "Point",
        "coordinates": [
          9.8887,
          47.4294
        ]
      },
      "properties": {
        "icao24": "71c045",
        "callsign": "KAL504",
        "origin_country": "Republic of Korea",
        "time_position": 1790296511,
        "last_contact": 1790296511,
        "baro_altitude": 9448.8,
        "on_ground": false,
        "velocity": 255.28,
        "true_track": 103.76,
        "vertical_rate": 0,
        "geo_altitude": 9837.42,
        "squawk": "0662",
        "spi": false,
        "position_source": 0
      }
    },
    {
      "type": "Feature",
      "geometry": {
        "type": "Point",
        "coordinates": [
          16.8606,
          43.2612
        ]
      },
      "properties": {
        "icao24": "06a2df",
        "callsign": "QTR8052",
        "origin_country": "Qatar",
        "time_position": 1790296495,
        "last_contact": 1790296504,
        "baro_altitude": 12192,
        "on_ground": false,
        "velocity": 233.56,
        "true_track": 308.56,
        "vertical_rate": 0,
        "geo_altitude": 12443.46,
        "squawk": "2030",
        "spi": false,
        "position_source": 0
      }
    },
    {
      "type": "Feature",
      "geometry": {
        "type": "Point",
        "coordinates": [
          13.9725,
          42.4198
        ]
      },
      "properties": {
        "icao24": "06a2b6",
        "callsign": "QTR30J",
        "origin_country": "Qatar",
        "time_position": 1790291845,
        "last_contact": 1790296510,
        "baro_altitude": 10668,
        "on_ground": false,
        "velocity": 266.29,
        "true_track": 134.37,
        "vertical_rate": 0,
        "geo_altitude": 10995.66,
        "squawk": "0460",
        "spi": false,
        "position_source": 0
      }
    },
    {
      "type": "Feature",
      "geometry": {
        "type": "Point",
        "coordinates": [
          14.675,
          46.7238
        ]
      },
      "properties": {
        "icao24": "4ba94b",
        "callsign": "THY4",
        "origin_country": "Turkey",
        "time_position": 1790296511,
        "last_contact": 1790296511,
        "baro_altitude": 11277.6,
        "on_ground": false,
        "velocity": 265.96,
        "true_track": 123.72,
        "vertical_rate": 0,
        "geo_altitude": 11513.82,
        "squawk": "2274",
        "spi": false,
        "position_source": 0
      }
    },
    {
      "type": "Feature",
      "geometry": {
        "type": "Point",
        "coordinates": [
          8.7178,
          45.6351
        ]
      },
      "properties": {
        "icao24": "31d7a4",
        "callsign": "ECHO8",
        "origin_country": "Italy",
        "time_position": 1790296352,
        "last_contact": 1790296352,
        "baro_altitude": null,
        "on_ground": true,
        "velocity": 8.23,
        "true_track": 317.81,
        "vertical_rate": null,
        "geo_altitude": null,
        "squawk": null,
        "spi": false,
        "position_source": 0
      }
    },
    {
      "type": "Feature",
      "geometry": {
        "type": "Point",
        "coordinates": [
          15.7134,
          44.0061
        ]
      },
      "properties": {
        "icao24": "407c0b",
        "callsign": "TOM4KD",
        "origin_country": "United Kingdom",
        "time_position": 1790296511,
        "last_contact": 1790296512,
        "baro_altitude": 11582.4,
        "on_ground": false,
        "velocity": 214.64,
        "true_track": 307.5,
        "vertical_rate": -0.33,
        "geo_altitude": 11818.62,
        "squawk": "2013",
        "spi": false,
        "position_source": 0
      }
    },
    {
      "type": "Feature",
      "geometry": {
        "type": "Point",
        "coordinates": [
          12.6599,
          40.7811
        ]
      },
      "properties": {
        "icao24": "4bb865",
        "callsign": "PGT1742",
        "origin_country": "Turkey",
        "time_position": 1790296511,
        "last_contact": 1790296511,
        "baro_altitude": 10972.8,
        "on_ground": false,
        "velocity": 240.76,
        "true_track": 90,
        "vertical_rate": 0,
        "geo_altitude": 11399.52,
        "squawk": "1157",
        "spi": false,
        "position_source": 0
      }
    },
    {
      "type": "Feature",
      "geometry": {
        "type": "Point",
        "coordinates": [
          12.2269,
          41.8141
        ]
      },
      "properties": {
        "icao24": "80159f",
        "callsign": "AIC191",
        "origin_country": "India",
        "time_position": 1790296254,
        "last_contact": 1790296254,
        "baro_altitude": -15.24,
        "on_ground": false,
        "velocity": 76.63,
        "true_track": 162.42,
        "vertical_rate": -3.25,
        "geo_altitude": 91.44,
        "squawk": "6006",
        "spi": false,
        "position_source": 0
      }
    },
    {
      "type": "Feature",
      "geometry": {
        "type": "Point",
        "coordinates": [
          8.5662,
          47.4435
        ]
      },
      "properties": {
        "icao24": "4b1804",
        "callsign": "SWR",
        "origin_country": "Switzerland",
        "time_position": 1790296509,
        "last_contact": 1790296510,
        "baro_altitude": null,
        "on_ground": true,
        "velocity": 0,
        "true_track": 104.06,
        "vertical_rate": null,
        "geo_altitude": null,
        "squawk": "2000",
        "spi": false,
        "position_source": 0
      }
    },
    {
      "type": "Feature",
      "geometry": {
        "type": "Point",
        "coordinates": [
          8.5645,
          47.4414
        ]
      },
      "properties": {
        "icao24": "4b1805",
        "callsign": "SWR",
        "origin_country": "Switzerland",
        "time_position": 1790296503,
        "last_contact": 1790296510,
        "baro_altitude": null,
        "on_ground": true,
        "velocity": 0.13,
        "true_track": 137.81,
        "vertical_rate": null,
        "geo_altitude": null,
        "squawk": "2000",
        "spi": false,
        "position_source": 0
      }
    },
    {
      "type": "Feature",
      "geometry": {
        "type": "Point",
        "coordinates": [
          8.556,
          47.456
        ]
      },
      "properties": {
        "icao24": "4b1808",
        "callsign": "SWR",
        "origin_country": "Switzerland",
        "time_position": 1790296510,
        "last_contact": 1790296510,
        "baro_altitude": null,
        "on_ground": true,
        "velocity": 0,
        "true_track": 5.62,
        "vertical_rate": null,
        "geo_altitude": null,
        "squawk": "2000",
        "spi": false,
        "position_source": 0
      }
    },
    {
      "type": "Feature",
      "geometry": {
        "type": "Point",
        "coordinates": [
          11.6265,
          38.3654
        ]
      },
      "properties": {
        "icao24": "02a1a5",
        "callsign": "LBT7451",
        "origin_country": "Tunisia",
        "time_position": 1790296511,
        "last_contact": 1790296511,
        "baro_altitude": 11292.84,
        "on_ground": false,
        "velocity": 240.3,
        "true_track": 199.25,
        "vertical_rate": -0.33,
        "geo_altitude": 11772.9,
        "squawk": "5223",
        "spi": false,
        "position_source": 0
      }
    },
    {
      "type": "Feature",
      "geometry": {
        "type": "Point",
        "coordinates": [
          15.2085,
          46.805
        ]
      },
      "properties": {
        "icao24": "02a1a7",
        "callsign": "LBT829",
        "origin_country": "Tunisia",
        "time_position": 1790296511,
        "last_contact": 1790296511,
        "baro_altitude": 10363.2,
        "on_ground": false,
        "velocity": 258.87,
        "true_track": 207.58,
        "vertical_rate": 0,
        "geo_altitude": 10553.7,
        "squawk": "2210",
        "spi": false,
        "position_source": 0
      }
    },
    {
      "type": "Feature",
      "geometry": {
        "type": "Point",
        "coordinates": [
          14.1166,
          35.9378
        ]
      },
      "properties": {
        "icao24": "02a1b0",
        "callsign": "LBT7690",
        "origin_country": "Tunisia",
        "time_position": 1790296511,
        "last_contact": 1790296511,
        "baro_altitude": 9928.86,
        "on_ground": false,
        "velocity": 255.81,
        "true_track": 88.16,
        "vertical_rate": 3.25,
        "geo_altitude": 10378.44,
        "squawk": "6133",
        "spi": false,
        "position_source": 0
      }
    },
    {
      "type": "Feature",
      "geometry": {
        "type": "Point",
        "coordinates": [
          8.5507,
          47.446
        ]
      },
      "properties": {
        "icao24": "4b5d51",
        "callsign": "GALA51",
        "origin_country": "Switzerland",
        "time_position": 1790296268,
        "last_contact": 1790296270,
        "baro_altitude": null,
        "on_ground": true,
        "velocity": 0,
        "true_track": 205.31,
        "vertical_rate": null,
        "geo_altitude": null,
        "squawk": null,
        "spi": false,
        "position_source": 0
      }
    },
    {
      "type": "Feature",
      "geometry": {
        "type": "Point",
        "coordinates": [
          12.3926,
          47.4927
        ]
      },
      "properties": {
        "icao24": "408041",
        "callsign": "WUK8QH",
        "origin_country": "United Kingdom",
        "time_position": 1790296511,
        "last_contact": 1790296512,
        "baro_altitude": 10965.18,
        "on_ground": false,
        "velocity": 203.32,
        "true_track": 307.39,
        "vertical_rate": 0,
        "geo_altitude": 11292.84,
        "squawk": "4460",
        "spi": false,
        "position_source": 0
      }
    },
    {
      "type": "Feature",
      "geometry": {
        "type": "Point",
        "coordinates": [
          8.5515,
          47.4458
        ]
      },
      "properties": {
        "icao24": "4b5c63",
        "callsign": "GALA57",
        "origin_country": "Switzerland",
        "time_position": 1790296324,
        "last_contact": 1790296324,
        "baro_altitude": null,
        "on_ground": true,
        "velocity": 0.13,
        "true_track": 171.56,
        "vertical_rate": null,
        "geo_altitude": null,
        "squawk": null,
        "spi": false,
        "position_source": 0
      }
    },
    {
      "type": "Feature",
      "geometry": {
        "type": "Point",
        "coordinates": [
          11.0046,
          41.1753
        ]
      },
      "properties": {
        "icao24": "ae189c",
        "callsign": "SPAR15",
        "origin_country": "United States",
        "time_position": 1790296512,
        "last_contact": 1790296512,
        "baro_altitude": 10972.8,
        "on_ground": false,
        "velocity": 226.13,
        "true_track": 71.57,
        "vertical_rate": 0,
        "geo_altitude": 11391.9,
        "squawk": "1265",
        "spi": false,
        "position_source": 0
      }
    },
    {
      "type": "Feature",
      "geometry": {
        "type": "Point",
        "coordinates": [
          14.5656,
          38.3244
        ]
      },
      "properties": {
        "icao24": "4ca911",
        "callsign": "RYR4LD",
        "origin_country": "Ireland",
        "time_position": 1790296511,
        "last_contact": 1790296511,
        "baro_altitude": 6614.16,
        "on_ground": false,
        "velocity": 221.35,
        "true_track": 175.6,
        "vertical_rate": -21.46,
        "geo_altitude": 6941.82,
        "squawk": "7421",
        "spi": false,
        "position_source": 0
      }
    },
    {
      "type": "Feature",
      "geometry": {
        "type": "Point",
        "coordinates": [
          17.0162,
          40.5764
        ]
      },
      "properties": {
        "icao24": "4ca960",
        "callsign": "NOS4893",
        "origin_country": "Ireland",
        "time_position": 1790296508,
        "last_contact": 1790296510,
        "baro_altitude": 11582.4,
        "on_ground": false,
        "velocity": 197.21,
        "true_track": 309.92,
        "vertical_rate": -0.33,
        "geo_altitude": 11894.82,
        "squawk": null,
        "spi": false,
        "position_source": 0
      }
    },
    {
      "type": "Feature",
      "geometry": {
        "type": "Point",
        "coordinates": [
          7.6184,
          47.5687
        ]
      },
      "properties": {
        "icao24": "7810b8",
        "callsign": "CCA898",
        "origin_country": "China",
        "time_position": 1790296511,
        "last_contact": 1790296511,
        "baro_altitude": 10363.2,
        "on_ground": false,
        "velocity": 222.94,
        "true_track": 26.74,
        "vertical_rate": -0.33,
        "geo_altitude": 10843.26,
        "squawk": "2320",
        "spi": false,
        "position_source": 0
      }
    },
    {
      "type": "Feature",
      "geometry": {
        "type": "Point",
        "coordinates": [
          9.0791,
          44.3609
        ]
      },
      "properties": {
        "icao24": "5084c5",
        "callsign": "VKA302",
        "origin_country": "Ukraine",
        "time_position": 1790296512,
        "last_contact": 1790296512,
        "baro_altitude": 990.6,
        "on_ground": false,
        "velocity": 85.26,
        "true_track": 287.56,
        "vertical_rate": -2.93,
        "geo_altitude": 1089.66,
        "squawk": "7103",
        "spi": false,
        "position_source": 0
      }
    },
    {
      "type": "Feature",
      "geometry": {
        "type": "Point",
        "coordinates": [
          10.9605,
          43.868
        ]
      },
      "properties": {
        "icao24": "4ca847",
        "callsign": "RYR4471",
        "origin_country": "Ireland",
        "time_position": 1790296511,
        "last_contact": 1790296512,
        "baro_altitude": 10142.22,
        "on_ground": false,
        "velocity": 206.13,
        "true_track": 301.94,
        "vertical_rate": -4.88,
        "geo_altitude": 10485.12,
        "squawk": "2641",
        "spi": false,
        "position_source": 0
      }
    },
    {
      "type": "Feature",
      "geometry": {
        "type": "Point",
        "coordinates": [
          18.0746,
          46.8722
        ]
      },
      "properties": {
        "icao24": "4bcdf2",
        "callsign": "SXS4VD",
        "origin_country": "Turkey",
        "time_position": 1790296511,
        "last_contact": 1790296511,
        "baro_altitude": 11277.6,
        "on_ground": false,
        "velocity": 250.55,
        "true_track": 146.05,
        "vertical_rate": -0.33,
        "geo_altitude": 11452.86,
        "squawk": "7676",
        "spi": false,
        "position_source": 0
      }
    },
    {
      "type": "Feature",
      "geometry": {
        "type": "Point",
        "coordinates": [
          13.9749,
          47.4973
        ]
      },
      "properties": {
        "icao24": "4bcdce",
        "callsign": "SXS9WA",
        "origin_country": "Turkey",
        "time_position": 1790296511,
        "last_contact": 1790296511,
        "baro_altitude": 11277.6,
        "on_ground": false,
        "velocity": 247.26,
        "true_track": 127.56,
        "vertical_rate": 0,
        "geo_altitude": 11529.06,
        "squawk": "7660",
        "spi": false,
        "position_source": 0
      }
    },
    {
      "type": "Feature",
      "geometry": {
        "type": "Point",
        "coordinates": [
          6.4636,
          44.8034
        ]
      },
      "properties": {
        "icao24": "3b77e7",
        "callsign": "CTM2063",
        "origin_country": "France",
        "time_position": 1790296511,
        "last_contact": 1790296512,
        "baro_altitude": 8534.4,
        "on_ground": false,
        "velocity": 148.46,
        "true_track": 316.4,
        "vertical_rate": 0,
        "geo_altitude": 8991.6,
        "squawk": "6403",
        "spi": false,
        "position_source": 0
      }
    },
    {
      "type": "Feature",
      "geometry": {
        "type": "Point",
        "coordinates": [
          14.4592,
          45.2262
        ]
      },
      "properties": {
        "icao24": "4d010c",
        "callsign": "ICV782",
        "origin_country": "Luxembourg",
        "time_position": 1790296511,
        "last_contact": 1790296511,
        "baro_altitude": 10972.8,
        "on_ground": false,
        "velocity": 248.27,
        "true_track": 275.95,
        "vertical_rate": -0.65,
        "geo_altitude": 11148.06,
        "squawk": "2304",
        "spi": false,
        "position_source": 0
      }
    },
    {
      "type": "Feature",
      "geometry": {
        "type": "Point",
        "coordinates": [
          17.6725,
          44.5821
        ]
      },
      "properties": {
        "icao24": "4076b0",
        "callsign": "TOM8EH",
        "origin_country": "United Kingdom",
        "time_position": 1790296511,
        "last_contact": 1790296512,
        "baro_altitude": 11582.4,
        "on_ground": false,
        "velocity": 216.91,
        "true_track": 311.25,
        "vertical_rate": 0.33,
        "geo_altitude": 11757.66,
        "squawk": "5614",
        "spi": false,
        "position_source": 0
      }
    },
    {
      "type": "Feature",
      "geometry": {
        "type": "Point",
        "coordinates": [
          18.8667,
          45.9807
        ]
      },
      "properties": {
        "icao24": "01024d",
        "callsign": "MSC2968",
        "origin_country": "Egypt",
        "time_position": 1790296511,
        "last_contact": 1790296511,
        "baro_altitude": 11582.4,
        "on_ground": false,
        "velocity": 232.8,
        "true_track": 318.14,
        "vertical_rate": -0.33,
        "geo_altitude": 11742.42,
        "squawk": "2040",
        "spi": false,
        "position_source": 0
      }
    },
    {
      "type": "Feature",
      "geometry": {
        "type": "Point",
        "coordinates": [
          17.1458,
          44.1384
        ]
      },
      "properties": {
        "icao24": "010275",
        "callsign": "RSX8504",
        "origin_country": "Egypt",
        "time_position": 1790296511,
        "last_contact": 1790296511,
        "baro_altitude": 11292.84,
        "on_ground": false,
        "velocity": 249.47,
        "true_track": 141.03,
        "vertical_rate": 0.33,
        "geo_altitude": 11468.1,
        "squawk": "2515",
        "spi": false,
        "position_source": 0
      }
    },
    {
      "type": "Feature",
      "geometry": {
        "type": "Point",
        "coordinates": [
          17.8161,
          35.6042
        ]
      },
      "properties": {
        "icao24": "01025d",
        "callsign": "MSR982",
        "origin_country": "Egypt",
        "time_position": 1790296512,
        "last_contact": 1790296512,
        "baro_altitude": 11887.2,
        "on_ground": false,
        "velocity": 278.15,
        "true_track": 96.69,
        "vertical_rate": 0,
        "geo_altitude": 12344.4,
        "squawk": "4110",
        "spi": false,
        "position_source": 0
      }
    },
    {
      "type": "Feature",
      "geometry": {
        "type": "Point",
        "coordinates": [
          8.7223,
          45.6074
        ]
      },
      "properties": {
        "icao24": "346318",
        "callsign": "BCS7CK",
        "origin_country": "Spain",
        "time_position": 1790296506,
        "last_contact": 1790296506,
        "baro_altitude": null,
        "on_ground": true,
        "velocity": 0,
        "true_track": 5.62,
        "vertical_rate": null,
        "geo_altitude": null,
        "squawk": null,
        "spi": false,
        "position_source": 0
      }
    },
    {
      "type": "Feature",
      "geometry": {
        "type": "Point",
        "coordinates": [
          6.3735,
          45.9517
        ]
      },
      "properties": {
        "icao24": "346319",
        "callsign": "BCS47H",
        "origin_country": "Spain",
        "time_position": 1790296511,
        "last_contact": 1790296511,
        "baro_altitude": 10668,
        "on_ground": false,
        "velocity": 254.02,
        "true_track": 211.5,
        "vertical_rate": 0,
        "geo_altitude": 11170.92,
        "squawk": "1000",
        "spi": false,
        "position_source": 0
      }
    },
    {
      "type": "Feature",
      "geometry": {
        "type": "Point",
        "coordinates": [
          17.402,
          38.9816
        ]
      },
      "properties": {
        "icao24": "4d24d2",
        "callsign": "DAH3015",
        "origin_country": "Malta",
        "time_position": 1790296511,
        "last_contact": 1790296511,
        "baro_altitude": 10370.82,
        "on_ground": false,
        "velocity": 219.01,
        "true_track": 254.89,
        "vertical_rate": 0,
        "geo_altitude": 10744.2,
        "squawk": "2334",
        "spi": false,
        "position_source": 0
      }
    },
    {
      "type": "Feature",
      "geometry": {
        "type": "Point",
        "coordinates": [
          11.0614,
          42.1636
        ]
      },
      "properties": {
        "icao24": "0101dd",
        "callsign": "MSR996",
        "origin_country": "Egypt",
        "time_position": 1790296512,
        "last_contact": 1790296512,
        "baro_altitude": 11277.6,
        "on_ground": false,
        "velocity": 271.15,
        "true_track": 112.77,
        "vertical_rate": -0.33,
        "geo_altitude": 11689.08,
        "squawk": "1167",
        "spi": false,
        "position_source": 0
      }
    },
    {
      "type": "Feature",
      "geometry": {
        "type": "Point",
        "coordinates": [
          17.6037,
          43.8281
        ]
      },
      "properties": {
        "icao24": "4d23c3",
        "callsign": "CXI9X",
        "origin_country": "Malta",
        "time_position": 1790296511,
        "last_contact": 1790296511,
        "baro_altitude": 11262.36,
        "on_ground": false,
        "velocity": 258.91,
        "true_track": 147.83,
        "vertical_rate": 3.58,
        "geo_altitude": 11445.24,
        "squawk": "2224",
        "spi": false,
        "position_source": 0
      }
    },
    {
      "type": "Feature",
      "geometry": {
        "type": "Point",
        "coordinates": [
          9.7233,
          45.6648
        ]
      },
      "properties": {
        "icao24": "4cadc3",
        "callsign": "RYR5GG",
        "origin_country": "Ireland",
        "time_position": 1790296452,
        "last_contact": 1790296452,
        "baro_altitude": 198.12,
        "on_ground": false,
        "velocity": 76.12,
        "true_track": 284.88,
        "vertical_rate": -3.58,
        "geo_altitude": 304.8,
        "squawk": "1000",
        "spi": false,
        "position_source": 0
      }
    },
    {
      "type": "Feature",
      "geometry": {
        "type": "Point",
        "coordinates": [
          9.7251,
          45.6645
        ]
      },
      "properties": {
        "icao24": "4cadf5",
        "callsign": "RYR9373",
        "origin_country": "Ireland",
        "time_position": 1790296293,
        "last_contact": 1790296294,
        "baro_altitude": 198.12,
        "on_ground": false,
        "velocity": 73.37,
        "true_track": 284.62,
        "vertical_rate": -3.9,
        "geo_altitude": 304.8,
        "squawk": "1000",
        "spi": false,
        "position_source": 0
      }
    },
    {
      "type": "Feature",
      "geometry": {
        "type": "Point",
        "coordinates": [
          14.3543,
          36.3598
        ]
      },
      "properties": {
        "icao24": "4cae90",
        "callsign": "RYR1SK",
        "origin_country": "Ireland",
        "time_position": 1790296512,
        "last_contact": 1790296512,
        "baro_altitude": 2476.5,
        "on_ground": false,
        "velocity": 189.78,
        "true_track": 189.36,
        "vertical_rate": -12.68,
        "geo_altitude": 2659.38,
        "squawk": "6041",
        "spi": false,
        "position_source": 0
      }
    },
    {
      "type": "Feature",
      "geometry": {
        "type": "Point",
        "coordinates": [
          18.2442,
          38.0851
        ]
      },
      "properties": {
        "icao24": "4d2397",
        "callsign": "MNS503A",
        "origin_country": "Malta",
        "time_position": 1790296509,
        "last_contact": 1790296509,
        "baro_altitude": 10972.8,
        "on_ground": false,
        "velocity": 221.53,
        "true_track": 233.69,
        "vertical_rate": 0.33,
        "geo_altitude": 11369.04,
        "squawk": "2364",
        "spi": false,
        "position_source": 0
      }
    },
    {
      "type": "Feature",
      "geometry": {
        "type": "Point",
        "coordinates": [
          12.9783,
          47.0919
        ]
      },
      "properties": {
        "icao24": "4d229d",
        "callsign": "CXI043P",
        "origin_country": "Malta",
        "time_position": 1790296511,
        "last_contact": 1790296511,
        "baro_altitude": 12192,
        "on_ground": false,
        "velocity": 217.84,
        "true_track": 310.5,
        "vertical_rate": 0,
        "geo_altitude": 12496.8,
        "squawk": "5526",
        "spi": false,
        "position_source": 0
      }
    },
    {
      "type": "Feature",
      "geometry": {
        "type": "Point",
        "coordinates": [
          9.7118,
          45.1168
        ]
      },
      "properties": {
        "icao24": "a1c36e",
        "callsign": "N2121C",
        "origin_country": "United States",
        "time_position": 1790296511,
        "last_contact": 1790296511,
        "baro_altitude": 8534.4,
        "on_ground": false,
        "velocity": 134.72,
        "true_track": 47.48,
        "vertical_rate": 0,
        "geo_altitude": 8900.16,
        "squawk": "1000",
        "spi": false,
        "position_source": 0
      }
    },
    {
      "type": "Feature",
      "geometry": {
        "type": "Point",
        "coordinates": [
          14.7124,
          37.4367
        ]
      },
      "properties": {
        "icao24": "4d21ea",
        "callsign": "RYR408P",
        "origin_country": "Malta",
        "time_position": 1790296511,
        "last_contact": 1790296511,
        "baro_altitude": 1546.86,
        "on_ground": false,
        "velocity": 114.99,
        "true_track": 83.32,
        "vertical_rate": -5.2,
        "geo_altitude": 1691.64,
        "squawk": "2635",
        "spi": false,
        "position_source": 0
      }
    },
    {
      "type": "Feature",
      "geometry": {
        "type": "Point",
        "coordinates": [
          11.3118,
          41.9937
        ]
      },
      "properties": {
        "icao24": "4c01ed",
        "callsign": "ASL14C",
        "origin_country": "Serbia",
        "time_position": 1790296511,
        "last_contact": 1790296512,
        "baro_altitude": 11559.54,
        "on_ground": false,
        "velocity": 209.02,
        "true_track": 68.49,
        "vertical_rate": 3.9,
        "geo_altitude": 11955.78,
        "squawk": "1160",
        "spi": false,
        "position_source": 0
      }
    },
    {
      "type": "Feature",
      "geometry": {
        "type": "Point",
        "coordinates": [
          15.7742,
          35.0284
        ]
      },
      "properties": {
        "icao24": "4d20ea",
        "callsign": null,
        "origin_country": "Malta",
        "time_position": 1790296511,
        "last_contact": 1790296512,
        "baro_altitude": 1005.84,
        "on_ground": false,
        "velocity": 34.92,
        "true_track": 135,
        "vertical_rate": -0.65,
        "geo_altitude": 1097.28,
        "squawk": null,
        "spi": false,
        "position_source": 0
      }
    },
    {
      "type": "Feature",
      "geometry": {
        "type": "Point",
        "coordinates": [
          18.9751,
          37.1321
        ]
      },
      "properties": {
        "icao24": "710110",
        "callsign": "SVA022",
        "origin_country": "Saudi Arabia",
        "time_position": 1790296467,
        "last_contact": 1790296509,
        "baro_altitude": 10668,
        "on_ground": false,
        "velocity": 264.69,
        "true_track": 123.1,
        "vertical_rate": 0,
        "geo_altitude": 11064.24,
        "squawk": "1216",
        "spi": false,
        "position_source": 0
      }
    },
    {
      "type": "Feature",
      "geometry": {
        "type": "Point",
        "coordinates": [
          8.7207,
          45.625
        ]
      },
      "properties": {
        "icao24": "451dad",
        "callsign": "BCS2204",
        "origin_country": "Bulgaria",
        "time_position": 1790296511,
        "last_contact": 1790296511,
        "baro_altitude": null,
        "on_ground": true,
        "velocity": 7.46,
        "true_track": 348.75,
        "vertical_rate": null,
        "geo_altitude": null,
        "squawk": null,
        "spi": false,
        "position_source": 0
      }
    },
    {
      "type": "Feature",
      "geometry": {
        "type": "Point",
        "coordinates": [
          11.6818,
          47.7305
        ]
      },
      "properties": {
        "icao24": "40717e",
        "callsign": "EXS1470",
        "origin_country": "United Kingdom",
        "time_position": 1790296511,
        "last_contact": 1790296511,
        "baro_altitude": 10972.8,
        "on_ground": false,
        "velocity": 199.84,
        "true_track": 307.78,
        "vertical_rate": 0,
        "geo_altitude": 11308.08,
        "squawk": "5527",
        "spi": false,
        "position_source": 0
      }
    },
    {
      "type": "Feature",
      "geometry": {
        "type": "Point",
        "coordinates": [
          18.8853,
          39.6178
        ]
      },
      "properties": {
        "icao24": "4d203d",
        "callsign": "CHZ212",
        "origin_country": "Malta",
        "time_position": 1790296511,
        "last_contact": 1790296511,
        "baro_altitude": 11262.36,
        "on_ground": false,
        "velocity": 260.93,
        "true_track": 126.82,
        "vertical_rate": -0.98,
        "geo_altitude": 11567.16,
        "squawk": "3127",
        "spi": false,
        "position_source": 0
      }
    }
  ]
}