{
  "type": "FeatureCollection",
  "source": "opensky",
  "dataset": "aircraft_italy",
  "generated_at": "2026-07-07T01:10:26.006627+00:00",
  "opensky_time": 1783386618,
  "count": 64,
  "features": [
    {
      "type": "Feature",
      "geometry": {
        "type": "Point",
        "coordinates": [
          12.811,
          47.3528
        ]
      },
      "properties": {
        "icao24": "46b830",
        "callsign": "AEE631",
        "origin_country": "Greece",
        "time_position": 1783386618,
        "last_contact": 1783386618,
        "baro_altitude": 10660.38,
        "on_ground": false,
        "velocity": 251.08,
        "true_track": 136.49,
        "vertical_rate": 0,
        "geo_altitude": 11117.58,
        "squawk": "5213",
        "spi": false,
        "position_source": 0
      }
    },
    {
      "type": "Feature",
      "geometry": {
        "type": "Point",
        "coordinates": [
          6.6679,
          44.1359
        ]
      },
      "properties": {
        "icao24": "34310d",
        "callsign": "BCS7CK",
        "origin_country": "Spain",
        "time_position": 1783386617,
        "last_contact": 1783386618,
        "baro_altitude": 10058.4,
        "on_ground": false,
        "velocity": 229.39,
        "true_track": 229.09,
        "vertical_rate": 0,
        "geo_altitude": 10584.18,
        "squawk": "1000",
        "spi": false,
        "position_source": 0
      }
    },
    {
      "type": "Feature",
      "geometry": {
        "type": "Point",
        "coordinates": [
          18.835,
          42.5838
        ]
      },
      "properties": {
        "icao24": "407b70",
        "callsign": "WUK26NJ",
        "origin_country": "United Kingdom",
        "time_position": 1783386618,
        "last_contact": 1783386618,
        "baro_altitude": 9898.38,
        "on_ground": false,
        "velocity": 212.04,
        "true_track": 320.71,
        "vertical_rate": 6.18,
        "geo_altitude": 10309.86,
        "squawk": null,
        "spi": false,
        "position_source": 0
      }
    },
    {
      "type": "Feature",
      "geometry": {
        "type": "Point",
        "coordinates": [
          16.584,
          45.3183
        ]
      },
      "properties": {
        "icao24": "471fa0",
        "callsign": "WMT3RN",
        "origin_country": "Hungary",
        "time_position": 1783386617,
        "last_contact": 1783386617,
        "baro_altitude": 10972.8,
        "on_ground": false,
        "velocity": 214.68,
        "true_track": 25.71,
        "vertical_rate": 0,
        "geo_altitude": 11414.76,
        "squawk": "1000",
        "spi": false,
        "position_source": 0
      }
    },
    {
      "type": "Feature",
      "geometry": {
        "type": "Point",
        "coordinates": [
          15.5948,
          47.6532
        ]
      },
      "properties": {
        "icao24": "4bb4e3",
        "callsign": "CAI6CP",
        "origin_country": "Turkey",
        "time_position": 1783386618,
        "last_contact": 1783386618,
        "baro_altitude": 11277.6,
        "on_ground": false,
        "velocity": 249.56,
        "true_track": 125.69,
        "vertical_rate": 0,
        "geo_altitude": 11673.84,
        "squawk": "5613",
        "spi": false,
        "position_source": 0
      }
    },
    {
      "type": "Feature",
      "geometry": {
        "type": "Point",
        "coordinates": [
          7.2033,
          43.6569
        ]
      },
      "properties": {
        "icao24": "4401fa",
        "callsign": "EJU73FG",
        "origin_country": "Austria",
        "time_position": 1783386441,
        "last_contact": 1783386441,
        "baro_altitude": null,
        "on_ground": true,
        "velocity": 0.77,
        "true_track": 309.38,
        "vertical_rate": null,
        "geo_altitude": null,
        "squawk": "6301",
        "spi": false,
        "position_source": 0
      }
    },
    {
      "type": "Feature",
      "geometry": {
        "type": "Point",
        "coordinates": [
          17.2424,
          38.9276
        ]
      },
      "properties": {
        "icao24": "73806f",
        "callsign": "ELY376",
        "origin_country": "Israel",
        "time_position": 1783386618,
        "last_contact": 1783386618,
        "baro_altitude": 11277.6,
        "on_ground": false,
        "velocity": 248.81,
        "true_track": 105.96,
        "vertical_rate": 0,
        "geo_altitude": 11788.14,
        "squawk": "2205",
        "spi": false,
        "position_source": 0
      }
    },
    {
      "type": "Feature",
      "geometry": {
        "type": "Point",
        "coordinates": [
          14.8089,
          44.5285
        ]
      },
      "properties": {
        "icao24": "738073",
        "callsign": "ELY001",
        "origin_country": "Israel",
        "time_position": 1783386617,
        "last_contact": 1783386618,
        "baro_altitude": 9753.6,
        "on_ground": false,
        "velocity": 239.39,
        "true_track": 301.91,
        "vertical_rate": 0,
        "geo_altitude": 10195.56,
        "squawk": "1157",
        "spi": false,
        "position_source": 0
      }
    },
    {
      "type": "Feature",
      "geometry": {
        "type": "Point",
        "coordinates": [
          15.3243,
          45.1546
        ]
      },
      "properties": {
        "icao24": "738100",
        "callsign": "ELY018",
        "origin_country": "Israel",
        "time_position": 1783386618,
        "last_contact": 1783386618,
        "baro_altitude": 11887.2,
        "on_ground": false,
        "velocity": 268.91,
        "true_track": 136.47,
        "vertical_rate": -0.33,
        "geo_altitude": 12321.54,
        "squawk": "1153",
        "spi": false,
        "position_source": 0
      }
    },
    {
      "type": "Feature",
      "geometry": {
        "type": "Point",
        "coordinates": [
          18.365,
          42.9456
        ]
      },
      "properties": {
        "icao24": "45213d",
        "callsign": "MSC2967",
        "origin_country": "Bulgaria",
        "time_position": 1783386618,
        "last_contact": 1783386618,
        "baro_altitude": 10668,
        "on_ground": false,
        "velocity": 245.05,
        "true_track": 140.96,
        "vertical_rate": 0,
        "geo_altitude": 11094.72,
        "squawk": "2262",
        "spi": false,
        "position_source": 0
      }
    },
    {
      "type": "Feature",
      "geometry": {
        "type": "Point",
        "coordinates": [
          8.6258,
          46.2075
        ]
      },
      "properties": {
        "icao24": "440198",
        "callsign": "EJU3978",
        "origin_country": "Austria",
        "time_position": 1783386617,
        "last_contact": 1783386618,
        "baro_altitude": 5791.2,
        "on_ground": false,
        "velocity": 215.27,
        "true_track": 164.9,
        "vertical_rate": -0.33,
        "geo_altitude": 6134.1,
        "squawk": "0744",
        "spi": false,
        "position_source": 0
      }
    },
    {
      "type": "Feature",
      "geometry": {
        "type": "Point",
        "coordinates": [
          17.1957,
          44.6067
        ]
      },
      "properties": {
        "icao24": "300a5c",
        "callsign": "LSI220",
        "origin_country": "Italy",
        "time_position": 1783386618,
        "last_contact": 1783386618,
        "baro_altitude": 10363.2,
        "on_ground": false,
        "velocity": 244.3,
        "true_track": 283.89,
        "vertical_rate": 0,
        "geo_altitude": 10782.3,
        "squawk": "2340",
        "spi": false,
        "position_source": 0
      }
    },
    {
      "type": "Feature",
      "geometry": {
        "type": "Point",
        "coordinates": [
          15.6104,
          41.0968
        ]
      },
      "properties": {
        "icao24": "452124",
        "callsign": "LZB564",
        "origin_country": "Bulgaria",
        "time_position": 1783386618,
        "last_contact": 1783386618,
        "baro_altitude": 11887.2,
        "on_ground": false,
        "velocity": 226.88,
        "true_track": 89.61,
        "vertical_rate": 0,
        "geo_altitude": 12397.74,
        "squawk": "2210",
        "spi": false,
        "position_source": 0
      }
    },
    {
      "type": "Feature",
      "geometry": {
        "type": "Point",
        "coordinates": [
          6.7984,
          45.2609
        ]
      },
      "properties": {
        "icao24": "7380c1",
        "callsign": "ELY027",
        "origin_country": "Israel",
        "time_position": 1783386617,
        "last_contact": 1783386618,
        "baro_altitude": 10363.2,
        "on_ground": false,
        "velocity": 242.97,
        "true_track": 289.93,
        "vertical_rate": -0.33,
        "geo_altitude": 10896.6,
        "squawk": "1164",
        "spi": false,
        "position_source": 0
      }
    },
    {
      "type": "Feature",
      "geometry": {
        "type": "Point",
        "coordinates": [
          17.0651,
          45.3335
        ]
      },
      "properties": {
        "icao24": "7380c0",
        "callsign": "ELY010",
        "origin_country": "Israel",
        "time_position": 1783386618,
        "last_contact": 1783386618,
        "baro_altitude": 11887.2,
        "on_ground": false,
        "velocity": 265.3,
        "true_track": 136.65,
        "vertical_rate": -0.33,
        "geo_altitude": 12313.92,
        "squawk": "2257",
        "spi": false,
        "position_source": 0
      }
    },
    {
      "type": "Feature",
      "geometry": {
        "type": "Point",
        "coordinates": [
          17.3658,
          44.9507
        ]
      },
      "properties": {
        "icao24": "7380c7",
        "callsign": "ELY028",
        "origin_country": "Israel",
        "time_position": 1783386618,
        "last_contact": 1783386618,
        "baro_altitude": 11879.58,
        "on_ground": false,
        "velocity": 262.64,
        "true_track": 134.84,
        "vertical_rate": 0.33,
        "geo_altitude": 12313.92,
        "squawk": "2202",
        "spi": false,
        "position_source": 0
      }
    },
    {
      "type": "Feature",
      "geometry": {
        "type": "Point",
        "coordinates": [
          9.2922,
          40.0614
        ]
      },
      "properties": {
        "icao24": "020140",
        "callsign": "MAC438",
        "origin_country": "Morocco",
        "time_position": 1783386617,
        "last_contact": 1783386617,
        "baro_altitude": 11125.2,
        "on_ground": false,
        "velocity": 235.94,
        "true_track": 263.87,
        "vertical_rate": 4.23,
        "geo_altitude": 11704.32,
        "squawk": "2314",
        "spi": false,
        "position_source": 0
      }
    },
    {
      "type": "Feature",
      "geometry": {
        "type": "Point",
        "coordinates": [
          7.71,
          44.3048
        ]
      },
      "properties": {
        "icao24": "02012b",
        "callsign": "MAC456Y",
        "origin_country": "Morocco",
        "time_position": 1783386617,
        "last_contact": 1783386617,
        "baro_altitude": 10317.48,
        "on_ground": false,
        "velocity": 227.17,
        "true_track": 235.52,
        "vertical_rate": 6.5,
        "geo_altitude": 10858.5,
        "squawk": "4031",
        "spi": false,
        "position_source": 0
      }
    },
    {
      "type": "Feature",
      "geometry": {
        "type": "Point",
        "coordinates": [
          8.6929,
          45.1323
        ]
      },
      "properties": {
        "icao24": "4bb182",
        "callsign": "THY4JD",
        "origin_country": "Turkey",
        "time_position": 1783386617,
        "last_contact": 1783386617,
        "baro_altitude": 10355.58,
        "on_ground": false,
        "velocity": 244.27,
        "true_track": 273.38,
        "vertical_rate": 0,
        "geo_altitude": 10866.12,
        "squawk": "3226",
        "spi": false,
        "position_source": 0
      }
    },
    {
      "type": "Feature",
      "geometry": {
        "type": "Point",
        "coordinates": [
          13.3773,
          44.8983
        ]
      },
      "properties": {
        "icao24": "4bb194",
        "callsign": "THY182",
        "origin_country": "Turkey",
        "time_position": 1783386617,
        "last_contact": 1783386618,
        "baro_altitude": 10355.58,
        "on_ground": false,
        "velocity": 245.48,
        "true_track": 276.62,
        "vertical_rate": 0.33,
        "geo_altitude": 10812.78,
        "squawk": "5377",
        "spi": false,
        "position_source": 0
      }
    },
    {
      "type": "Feature",
      "geometry": {
        "type": "Point",
        "coordinates": [
          8.7272,
          47.698
        ]
      },
      "properties": {
        "icao24": "4bb193",
        "callsign": "THY9LC",
        "origin_country": "Turkey",
        "time_position": 1783386617,
        "last_contact": 1783386617,
        "baro_altitude": 11879.58,
        "on_ground": false,
        "velocity": 264.05,
        "true_track": 104.9,
        "vertical_rate": -0.33,
        "geo_altitude": 12352.02,
        "squawk": "2231",
        "spi": false,
        "position_source": 0
      }
    },
    {
      "type": "Feature",
      "geometry": {
        "type": "Point",
        "coordinates": [
          15.738,
          47.5402
        ]
      },
      "properties": {
        "icao24": "89649d",
        "callsign": "ETD8MY",
        "origin_country": "United Arab Emirates",
        "time_position": 1783386617,
        "last_contact": 1783386618,
        "baro_altitude": 11887.2,
        "on_ground": false,
        "velocity": 263.32,
        "true_track": 125.06,
        "vertical_rate": 0.33,
        "geo_altitude": 12283.44,
        "squawk": "2230",
        "spi": false,
        "position_source": 0
      }
    },
    {
      "type": "Feature",
      "geometry": {
        "type": "Point",
        "coordinates": [
          6.8728,
          37.688
        ]
      },
      "properties": {
        "icao24": "44ccc5",
        "callsign": "BEL5TA",
        "origin_country": "Belgium",
        "time_position": 1783386617,
        "last_contact": 1783386617,
        "baro_altitude": 11582.4,
        "on_ground": false,
        "velocity": 240.29,
        "true_track": 5.41,
        "vertical_rate": 0,
        "geo_altitude": 12169.14,
        "squawk": null,
        "spi": false,
        "position_source": 0
      }
    },
    {
      "type": "Feature",
      "geometry": {
        "type": "Point",
        "coordinates": [
          16.0506,
          46.1269
        ]
      },
      "properties": {
        "icao24": "406660",
        "callsign": "TOM38A",
        "origin_country": "United Kingdom",
        "time_position": 1783386618,
        "last_contact": 1783386618,
        "baro_altitude": 12192,
        "on_ground": false,
        "velocity": 208.16,
        "true_track": 316.6,
        "vertical_rate": 0.65,
        "geo_altitude": 12611.1,
        "squawk": "5344",
        "spi": false,
        "position_source": 0
      }
    },
    {
      "type": "Feature",
      "geometry": {
        "type": "Point",
        "coordinates": [
          18.2605,
          36.1069
        ]
      },
      "properties": {
        "icao24": "040124",
        "callsign": "ETH740",
        "origin_country": "Ethiopia",
        "time_position": 1783386617,
        "last_contact": 1783386617,
        "baro_altitude": 11574.78,
        "on_ground": false,
        "velocity": 226.49,
        "true_track": 289.51,
        "vertical_rate": -0.33,
        "geo_altitude": 12169.14,
        "squawk": null,
        "spi": false,
        "position_source": 0
      }
    },
    {
      "type": "Feature",
      "geometry": {
        "type": "Point",
        "coordinates": [
          18.9783,
          39.3009
        ]
      },
      "properties": {
        "icao24": "3a4494",
        "callsign": "REU975",
        "origin_country": "France",
        "time_position": 1783386618,
        "last_contact": 1783386618,
        "baro_altitude": 10972.8,
        "on_ground": false,
        "velocity": 228.23,
        "true_track": 309.97,
        "vertical_rate": 0,
        "geo_altitude": 11437.62,
        "squawk": "2044",
        "spi": false,
        "position_source": 0
      }
    },
    {
      "type": "Feature",
      "geometry": {
        "type": "Point",
        "coordinates": [
          15.1274,
          41.1183
        ]
      },
      "properties": {
        "icao24": "040048",
        "callsign": "ETH574",
        "origin_country": "Ethiopia",
        "time_position": 1783386618,
        "last_contact": 1783386618,
        "baro_altitude": 12184.38,
        "on_ground": false,
        "velocity": 233.63,
        "true_track": 289.15,
        "vertical_rate": -0.65,
        "geo_altitude": 12694.92,
        "squawk": "7737",
        "spi": false,
        "position_source": 0
      }
    },
    {
      "type": "Feature",
      "geometry": {
        "type": "Point",
        "coordinates": [
          18.6346,
          42.8708
        ]
      },
      "properties": {
        "icao24": "49d403",
        "callsign": "TVS22H",
        "origin_country": "Czech Republic",
        "time_position": 1783386618,
        "last_contact": 1783386618,
        "baro_altitude": 10668,
        "on_ground": false,
        "velocity": 243.76,
        "true_track": 151.65,
        "vertical_rate": 0,
        "geo_altitude": 11094.72,
        "squawk": "4501",
        "spi": false,
        "position_source": 0
      }
    },
    {
      "type": "Feature",
      "geometry": {
        "type": "Point",
        "coordinates": [
          15.1658,
          44.2656
        ]
      },
      "properties": {
        "icao24": "49d414",
        "callsign": "TVQ6460",
        "origin_country": "Czech Republic",
        "time_position": 1783386618,
        "last_contact": 1783386618,
        "baro_altitude": 10668,
        "on_ground": false,
        "velocity": 241.04,
        "true_track": 195.73,
        "vertical_rate": 0,
        "geo_altitude": 11109.96,
        "squawk": "7376",
        "spi": false,
        "position_source": 0
      }
    },
    {
      "type": "Feature",
      "geometry": {
        "type": "Point",
        "coordinates": [
          17.5332,
          43.6686
        ]
      },
      "properties": {
        "icao24": "49d41e",
        "callsign": "TVS2292",
        "origin_country": "Czech Republic",
        "time_position": 1783386617,
        "last_contact": 1783386617,
        "baro_altitude": 11277.6,
        "on_ground": false,
        "velocity": 245.84,
        "true_track": 163.84,
        "vertical_rate": 0,
        "geo_altitude": 11704.32,
        "squawk": "6010",
        "spi": false,
        "position_source": 0
      }
    },
    {
      "type": "Feature",
      "geometry": {
        "type": "Point",
        "coordinates": [
          14.191,
          46.3366
        ]
      },
      "properties": {
        "icao24": "4ba959",
        "callsign": "THY4",
        "origin_country": "Turkey",
        "time_position": 1783386617,
        "last_contact": 1783386618,
        "baro_altitude": 11277.6,
        "on_ground": false,
        "velocity": 258.87,
        "true_track": 115.55,
        "vertical_rate": 0.33,
        "geo_altitude": 11734.8,
        "squawk": "1150",
        "spi": false,
        "position_source": 0
      }
    },
    {
      "type": "Feature",
      "geometry": {
        "type": "Point",
        "coordinates": [
          18.4031,
          46.22
        ]
      },
      "properties": {
        "icao24": "4b8e05",
        "callsign": "PGT96T",
        "origin_country": "Turkey",
        "time_position": 1783386618,
        "last_contact": 1783386618,
        "baro_altitude": 11277.6,
        "on_ground": false,
        "velocity": 242.65,
        "true_track": 127.94,
        "vertical_rate": -0.33,
        "geo_altitude": 11666.22,
        "squawk": "6427",
        "spi": false,
        "position_source": 0
      }
    },
    {
      "type": "Feature",
      "geometry": {
        "type": "Point",
        "coordinates": [
          16.9056,
          46.9765
        ]
      },
      "properties": {
        "icao24": "744843",
        "callsign": "RJA272",
        "origin_country": "Jordan",
        "time_position": 1783386617,
        "last_contact": 1783386618,
        "baro_altitude": 11879.58,
        "on_ground": false,
        "velocity": 260.75,
        "true_track": 126.01,
        "vertical_rate": 0.33,
        "geo_altitude": 12298.68,
        "squawk": "2232",
        "spi": false,
        "position_source": 0
      }
    },
    {
      "type": "Feature",
      "geometry": {
        "type": "Point",
        "coordinates": [
          17.9205,
          44.2084
        ]
      },
      "properties": {
        "icao24": "407f79",
        "callsign": "EZY38CZ",
        "origin_country": "United Kingdom",
        "time_position": 1783386618,
        "last_contact": 1783386618,
        "baro_altitude": 10988.04,
        "on_ground": false,
        "velocity": 218.21,
        "true_track": 321.51,
        "vertical_rate": 0,
        "geo_altitude": 11414.76,
        "squawk": "7740",
        "spi": false,
        "position_source": 0
      }
    },
    {
      "type": "Feature",
      "geometry": {
        "type": "Point",
        "coordinates": [
          15.3913,
          46.7197
        ]
      },
      "properties": {
        "icao24": "4bb868",
        "callsign": "PGT66L",
        "origin_country": "Turkey",
        "time_position": 1783386618,
        "last_contact": 1783386618,
        "baro_altitude": 11269.98,
        "on_ground": false,
        "velocity": 243.13,
        "true_track": 133.11,
        "vertical_rate": 0.33,
        "geo_altitude": 11711.94,
        "squawk": "7703",
        "spi": false,
        "position_source": 0
      }
    },
    {
      "type": "Feature",
      "geometry": {
        "type": "Point",
        "coordinates": [
          17.6491,
          46.0389
        ]
      },
      "properties": {
        "icao24": "504e81",
        "callsign": "FIA5812",
        "origin_country": "Republic of Moldova",
        "time_position": 1783386618,
        "last_contact": 1783386618,
        "baro_altitude": 10363.2,
        "on_ground": false,
        "velocity": 230.95,
        "true_track": 79.22,
        "vertical_rate": 0,
        "geo_altitude": 10774.68,
        "squawk": "2220",
        "spi": false,
        "position_source": 0
      }
    },
    {
      "type": "Feature",
      "geometry": {
        "type": "Point",
        "coordinates": [
          18.1726,
          47.3251
        ]
      },
      "properties": {
        "icao24": "4bb722",
        "callsign": "MNB9402",
        "origin_country": "Turkey",
        "time_position": 1783386618,
        "last_contact": 1783386618,
        "baro_altitude": 10058.4,
        "on_ground": false,
        "velocity": 251.26,
        "true_track": 126.42,
        "vertical_rate": 0,
        "geo_altitude": 10416.54,
        "squawk": "4371",
        "spi": false,
        "position_source": 0
      }
    },
    {
      "type": "Feature",
      "geometry": {
        "type": "Point",
        "coordinates": [
          7.1325,
          39.1009
        ]
      },
      "properties": {
        "icao24": "3c656f",
        "callsign": "OCN133",
        "origin_country": "Germany",
        "time_position": 1783386617,
        "last_contact": 1783386617,
        "baro_altitude": 12192,
        "on_ground": false,
        "velocity": 238.7,
        "true_track": 17.3,
        "vertical_rate": 0,
        "geo_altitude": 12793.98,
        "squawk": null,
        "spi": false,
        "position_source": 0
      }
    },
    {
      "type": "Feature",
      "geometry": {
        "type": "Point",
        "coordinates": [
          6.4533,
          39.4476
        ]
      },
      "properties": {
        "icao24": "02a1b3",
        "callsign": "LBT729",
        "origin_country": "Tunisia",
        "time_position": 1783386617,
        "last_contact": 1783386617,
        "baro_altitude": 11277.6,
        "on_ground": false,
        "velocity": 240.43,
        "true_track": 152.89,
        "vertical_rate": 0,
        "geo_altitude": 11833.86,
        "squawk": "2350",
        "spi": false,
        "position_source": 0
      }
    },
    {
      "type": "Feature",
      "geometry": {
        "type": "Point",
        "coordinates": [
          16.6156,
          38.6961
        ]
      },
      "properties": {
        "icao24": "0a0019",
        "callsign": "DAH3023",
        "origin_country": "Algeria",
        "time_position": 1783386617,
        "last_contact": 1783386618,
        "baro_altitude": 10363.2,
        "on_ground": false,
        "velocity": 224.02,
        "true_track": 251.11,
        "vertical_rate": 0,
        "geo_altitude": 10873.74,
        "squawk": "2353",
        "spi": false,
        "position_source": 0
      }
    },
    {
      "type": "Feature",
      "geometry": {
        "type": "Point",
        "coordinates": [
          9.9012,
          46.5569
        ]
      },
      "properties": {
        "icao24": "408181",
        "callsign": "EZY63MD",
        "origin_country": "United Kingdom",
        "time_position": 1783386617,
        "last_contact": 1783386618,
        "baro_altitude": 11346.18,
        "on_ground": false,
        "velocity": 214.36,
        "true_track": 308.96,
        "vertical_rate": 4.88,
        "geo_altitude": 11849.1,
        "squawk": "2757",
        "spi": false,
        "position_source": 0
      }
    },
    {
      "type": "Feature",
      "geometry": {
        "type": "Point",
        "coordinates": [
          8.5519,
          47.4451
        ]
      },
      "properties": {
        "icao24": "4b5c26",
        "callsign": "EUGEN5",
        "origin_country": "Switzerland",
        "time_position": 1783386597,
        "last_contact": 1783386603,
        "baro_altitude": null,
        "on_ground": true,
        "velocity": 0,
        "true_track": 205.31,
        "vertical_rate": null,
        "geo_altitude": null,
        "squawk": null,
        "spi": false,
        "position_source": 0
      }
    },
    {
      "type": "Feature",
      "geometry": {
        "type": "Point",
        "coordinates": [
          12.0534,
          41.9701
        ]
      },
      "properties": {
        "icao24": "4ca82c",
        "callsign": "MSA9784",
        "origin_country": "Ireland",
        "time_position": 1783386617,
        "last_contact": 1783386617,
        "baro_altitude": 1013.46,
        "on_ground": false,
        "velocity": 136.28,
        "true_track": 65.47,
        "vertical_rate": -5.53,
        "geo_altitude": 1150.62,
        "squawk": null,
        "spi": false,
        "position_source": 0
      }
    },
    {
      "type": "Feature",
      "geometry": {
        "type": "Point",
        "coordinates": [
          17.1102,
          46.2144
        ]
      },
      "properties": {
        "icao24": "48ea00",
        "callsign": "ENT5MZ",
        "origin_country": "Poland",
        "time_position": 1783386618,
        "last_contact": 1783386618,
        "baro_altitude": 11277.6,
        "on_ground": false,
        "velocity": 250.39,
        "true_track": 162.42,
        "vertical_rate": 0,
        "geo_altitude": 11689.08,
        "squawk": "4534",
        "spi": false,
        "position_source": 0
      }
    },
    {
      "type": "Feature",
      "geometry": {
        "type": "Point",
        "coordinates": [
          18.7673,
          44.6537
        ]
      },
      "properties": {
        "icao24": "4bce0f",
        "callsign": "SXS79Y",
        "origin_country": "Turkey",
        "time_position": 1783386618,
        "last_contact": 1783386618,
        "baro_altitude": 11887.2,
        "on_ground": false,
        "velocity": 246.77,
        "true_track": 138.63,
        "vertical_rate": -0.33,
        "geo_altitude": 12283.44,
        "squawk": "4535",
        "spi": false,
        "position_source": 0
      }
    },
    {
      "type": "Feature",
      "geometry": {
        "type": "Point",
        "coordinates": [
          18.4293,
          46.8042
        ]
      },
      "properties": {
        "icao24": "4bce12",
        "callsign": "SXS1HF",
        "origin_country": "Turkey",
        "time_position": 1783386618,
        "last_contact": 1783386618,
        "baro_altitude": 12192,
        "on_ground": false,
        "velocity": 211.65,
        "true_track": 319.53,
        "vertical_rate": 0,
        "geo_altitude": 12565.38,
        "squawk": "3201",
        "spi": false,
        "position_source": 0
      }
    },
    {
      "type": "Feature",
      "geometry": {
        "type": "Point",
        "coordinates": [
          16.8822,
          45.3178
        ]
      },
      "properties": {
        "icao24": "4d010d",
        "callsign": "ICV9261",
        "origin_country": "Luxembourg",
        "time_position": 1783386618,
        "last_contact": 1783386618,
        "baro_altitude": 10668,
        "on_ground": false,
        "velocity": 251.05,
        "true_track": 89.88,
        "vertical_rate": 0.33,
        "geo_altitude": 11041.38,
        "squawk": "6021",
        "spi": false,
        "position_source": 0
      }
    },
    {
      "type": "Feature",
      "geometry": {
        "type": "Point",
        "coordinates": [
          17.9923,
          45.3167
        ]
      },
      "properties": {
        "icao24": "01023c",
        "callsign": "MSC2987",
        "origin_country": "Egypt",
        "time_position": 1783386617,
        "last_contact": 1783386617,
        "baro_altitude": 10675.62,
        "on_ground": false,
        "velocity": 245.95,
        "true_track": 138.31,
        "vertical_rate": 0,
        "geo_altitude": 11079.48,
        "squawk": "6020",
        "spi": false,
        "position_source": 0
      }
    },
    {
      "type": "Feature",
      "geometry": {
        "type": "Point",
        "coordinates": [
          6.6601,
          36.5379
        ]
      },
      "properties": {
        "icao24": "010246",
        "callsign": "MSR892",
        "origin_country": "Egypt",
        "time_position": 1783386404,
        "last_contact": 1783386427,
        "baro_altitude": 10668,
        "on_ground": false,
        "velocity": 250.44,
        "true_track": 94.95,
        "vertical_rate": 0.33,
        "geo_altitude": 11231.88,
        "squawk": null,
        "spi": false,
        "position_source": 0
      }
    },
    {
      "type": "Feature",
      "geometry": {
        "type": "Point",
        "coordinates": [
          7.1986,
          43.6926
        ]
      },
      "properties": {
        "icao24": "010288",
        "callsign": "MSR986",
        "origin_country": "Egypt",
        "time_position": 1783386617,
        "last_contact": 1783386617,
        "baro_altitude": 11887.2,
        "on_ground": false,
        "velocity": 257.28,
        "true_track": 121.59,
        "vertical_rate": 0.33,
        "geo_altitude": 12405.36,
        "squawk": "2221",
        "spi": false,
        "position_source": 0
      }
    },
    {
      "type": "Feature",
      "geometry": {
        "type": "Point",
        "coordinates": [
          7.2261,
          40.9107
        ]
      },
      "properties": {
        "icao24": "4d24fe",
        "callsign": "AIZ991",
        "origin_country": "Malta",
        "time_position": 1783386618,
        "last_contact": 1783386618,
        "baro_altitude": 10668,
        "on_ground": false,
        "velocity": 244.85,
        "true_track": 275.18,
        "vertical_rate": 0,
        "geo_altitude": 11231.88,
        "squawk": "4136",
        "spi": false,
        "position_source": 0
      }
    },
    {
      "type": "Feature",
      "geometry": {
        "type": "Point",
        "coordinates": [
          7.3491,
          45.082
        ]
      },
      "properties": {
        "icao24": "0101dd",
        "callsign": "MSR981",
        "origin_country": "Egypt",
        "time_position": 1783386617,
        "last_contact": 1783386618,
        "baro_altitude": 10363.2,
        "on_ground": false,
        "velocity": 242.86,
        "true_track": 292.55,
        "vertical_rate": -0.33,
        "geo_altitude": 10896.6,
        "squawk": "5732",
        "spi": false,
        "position_source": 0
      }
    },
    {
      "type": "Feature",
      "geometry": {
        "type": "Point",
        "coordinates": [
          7.2359,
          44.2497
        ]
      },
      "properties": {
        "icao24": "347302",
        "callsign": "BCS460",
        "origin_country": "Spain",
        "time_position": 1783386617,
        "last_contact": 1783386617,
        "baro_altitude": 8839.2,
        "on_ground": false,
        "velocity": 211.75,
        "true_track": 232.6,
        "vertical_rate": 0,
        "geo_altitude": 9349.74,
        "squawk": "1000",
        "spi": false,
        "position_source": 0
      }
    },
    {
      "type": "Feature",
      "geometry": {
        "type": "Point",
        "coordinates": [
          8.7798,
          47.0002
        ]
      },
      "properties": {
        "icao24": "406229",
        "callsign": "EZY9742",
        "origin_country": "United Kingdom",
        "time_position": 1783386617,
        "last_contact": 1783386617,
        "baro_altitude": 10965.18,
        "on_ground": false,
        "velocity": 211.47,
        "true_track": 299.43,
        "vertical_rate": 0,
        "geo_altitude": 11460.48,
        "squawk": "2753",
        "spi": false,
        "position_source": 0
      }
    },
    {
      "type": "Feature",
      "geometry": {
        "type": "Point",
        "coordinates": [
          17.7701,
          38.8884
        ]
      },
      "properties": {
        "icao24": "34604d",
        "callsign": "AEA35SY",
        "origin_country": "Spain",
        "time_position": 1783386617,
        "last_contact": 1783386617,
        "baro_altitude": 11582.4,
        "on_ground": false,
        "velocity": 212.62,
        "true_track": 279.19,
        "vertical_rate": 0,
        "geo_altitude": 12085.32,
        "squawk": "2012",
        "spi": false,
        "position_source": 0
      }
    },
    {
      "type": "Feature",
      "geometry": {
        "type": "Point",
        "coordinates": [
          17.0095,
          40.8066
        ]
      },
      "properties": {
        "icao24": "33fcdb",
        "callsign": "FIAMM19",
        "origin_country": "Italy",
        "time_position": 1783386618,
        "last_contact": 1783386618,
        "baro_altitude": 723.9,
        "on_ground": false,
        "velocity": 48.94,
        "true_track": 236.14,
        "vertical_rate": -0.33,
        "geo_altitude": 845.82,
        "squawk": null,
        "spi": false,
        "position_source": 0
      }
    },
    {
      "type": "Feature",
      "geometry": {
        "type": "Point",
        "coordinates": [
          10.1065,
          39.9433
        ]
      },
      "properties": {
        "icao24": "4d2338",
        "callsign": "TAR857",
        "origin_country": "Malta",
        "time_position": 1783386617,
        "last_contact": 1783386617,
        "baro_altitude": 11277.6,
        "on_ground": false,
        "velocity": 230.62,
        "true_track": 175.65,
        "vertical_rate": 0.33,
        "geo_altitude": 11849.1,
        "squawk": "0460",
        "spi": false,
        "position_source": 0
      }
    },
    {
      "type": "Feature",
      "geometry": {
        "type": "Point",
        "coordinates": [
          6.0811,
          40.235
        ]
      },
      "properties": {
        "icao24": "4d222c",
        "callsign": "RYR83CM",
        "origin_country": "Malta",
        "time_position": 1783386618,
        "last_contact": 1783386618,
        "baro_altitude": 11277.6,
        "on_ground": false,
        "velocity": 237.68,
        "true_track": 112.12,
        "vertical_rate": 0,
        "geo_altitude": 11849.1,
        "squawk": "1413",
        "spi": false,
        "position_source": 0
      }
    },
    {
      "type": "Feature",
      "geometry": {
        "type": "Point",
        "coordinates": [
          10.8436,
          45.3649
        ]
      },
      "properties": {
        "icao24": "4d220a",
        "callsign": "RYR28ZB",
        "origin_country": "Malta",
        "time_position": 1783386479,
        "last_contact": 1783386488,
        "baro_altitude": 236.22,
        "on_ground": false,
        "velocity": 76.78,
        "true_track": 46.36,
        "vertical_rate": -4.88,
        "geo_altitude": 335.28,
        "squawk": "4431",
        "spi": false,
        "position_source": 0
      }
    },
    {
      "type": "Feature",
      "geometry": {
        "type": "Point",
        "coordinates": [
          16.7191,
          40.2169
        ]
      },
      "properties": {
        "icao24": "010153",
        "callsign": "MSR996",
        "origin_country": "Egypt",
        "time_position": 1783386617,
        "last_contact": 1783386618,
        "baro_altitude": 10668,
        "on_ground": false,
        "velocity": 262.51,
        "true_track": 116.92,
        "vertical_rate": 0,
        "geo_altitude": 11132.82,
        "squawk": "2215",
        "spi": false,
        "position_source": 0
      }
    },
    {
      "type": "Feature",
      "geometry": {
        "type": "Point",
        "coordinates": [
          10.2046,
          46.6946
        ]
      },
      "properties": {
        "icao24": "4082cb",
        "callsign": "TOM285",
        "origin_country": "United Kingdom",
        "time_position": 1783386618,
        "last_contact": 1783386618,
        "baro_altitude": 10972.8,
        "on_ground": false,
        "velocity": 213.14,
        "true_track": 305.57,
        "vertical_rate": -0.33,
        "geo_altitude": 11452.86,
        "squawk": "7527",
        "spi": false,
        "position_source": 0
      }
    },
    {
      "type": "Feature",
      "geometry": {
        "type": "Point",
        "coordinates": [
          8.563,
          47.4421
        ]
      },
      "properties": {
        "icao24": "4b17de",
        "callsign": "SWR",
        "origin_country": "Switzerland",
        "time_position": 1783386612,
        "last_contact": 1783386617,
        "baro_altitude": null,
        "on_ground": true,
        "velocity": 0,
        "true_track": 64.69,
        "vertical_rate": null,
        "geo_altitude": null,
        "squawk": null,
        "spi": false,
        "position_source": 0
      }
    },
    {
      "type": "Feature",
      "geometry": {
        "type": "Point",
        "coordinates": [
          8.5658,
          47.443
        ]
      },
      "properties": {
        "icao24": "4b17e6",
        "callsign": "SWR",
        "origin_country": "Switzerland",
        "time_position": 1783386297,
        "last_contact": 1783386618,
        "baro_altitude": null,
        "on_ground": true,
        "velocity": 0.32,
        "true_track": 143.44,
        "vertical_rate": null,
        "geo_altitude": null,
        "squawk": "2000",
        "spi": false,
        "position_source": 0
      }
    },
    {
      "type": "Feature",
      "geometry": {
        "type": "Point",
        "coordinates": [
          8.562,
          47.4478
        ]
      },
      "properties": {
        "icao24": "4b17fe",
        "callsign": "SWR",
        "origin_country": "Switzerland",
        "time_position": 1783386617,
        "last_contact": 1783386617,
        "baro_altitude": null,
        "on_ground": true,
        "velocity": 0,
        "true_track": 64.69,
        "vertical_rate": null,
        "geo_altitude": null,
        "squawk": null,
        "spi": false,
        "position_source": 0
      }
    }
  ]
}