{
  "type": "FeatureCollection",
  "source": "opensky",
  "dataset": "aircraft_italy",
  "generated_at": "2026-07-30T23:46:43.213316+00:00",
  "opensky_time": 1785455186,
  "count": 128,
  "features": [
    {
      "type": "Feature",
      "geometry": {
        "type": "Point",
        "coordinates": [
          10.1786,
          46.4449
        ]
      },
      "properties": {
        "icao24": "407a05",
        "callsign": "EZY89KT",
        "origin_country": "United Kingdom",
        "time_position": 1785455186,
        "last_contact": 1785455186,
        "baro_altitude": 10965.18,
        "on_ground": false,
        "velocity": 219.88,
        "true_track": 307.3,
        "vertical_rate": 0,
        "geo_altitude": 11597.64,
        "squawk": "7524",
        "spi": false,
        "position_source": 0
      }
    },
    {
      "type": "Feature",
      "geometry": {
        "type": "Point",
        "coordinates": [
          18.3994,
          42.4174
        ]
      },
      "properties": {
        "icao24": "471eff",
        "callsign": "WMT5DR",
        "origin_country": "Hungary",
        "time_position": 1785455186,
        "last_contact": 1785455186,
        "baro_altitude": 7680.96,
        "on_ground": false,
        "velocity": 251.18,
        "true_track": 132.84,
        "vertical_rate": -15.28,
        "geo_altitude": 8206.74,
        "squawk": "0250",
        "spi": false,
        "position_source": 0
      }
    },
    {
      "type": "Feature",
      "geometry": {
        "type": "Point",
        "coordinates": [
          11.9069,
          41.3403
        ]
      },
      "properties": {
        "icao24": "801666",
        "callsign": "AIC102",
        "origin_country": "India",
        "time_position": 1785455186,
        "last_contact": 1785455186,
        "baro_altitude": 11887.2,
        "on_ground": false,
        "velocity": 256.63,
        "true_track": 126.11,
        "vertical_rate": 0,
        "geo_altitude": 12611.1,
        "squawk": "1223",
        "spi": false,
        "position_source": 0
      }
    },
    {
      "type": "Feature",
      "geometry": {
        "type": "Point",
        "coordinates": [
          8.7226,
          45.6428
        ]
      },
      "properties": {
        "icao24": "440209",
        "callsign": "EJU3604",
        "origin_country": "Austria",
        "time_position": 1785455185,
        "last_contact": 1785455185,
        "baro_altitude": null,
        "on_ground": true,
        "velocity": 5.4,
        "true_track": 168.75,
        "vertical_rate": null,
        "geo_altitude": null,
        "squawk": "1000",
        "spi": false,
        "position_source": 0
      }
    },
    {
      "type": "Feature",
      "geometry": {
        "type": "Point",
        "coordinates": [
          18.0136,
          43.1428
        ]
      },
      "properties": {
        "icao24": "46b825",
        "callsign": "AEE609",
        "origin_country": "Greece",
        "time_position": 1785455186,
        "last_contact": 1785455186,
        "baro_altitude": 10668,
        "on_ground": false,
        "velocity": 255.39,
        "true_track": 139.41,
        "vertical_rate": 0,
        "geo_altitude": 11308.08,
        "squawk": "0534",
        "spi": false,
        "position_source": 0
      }
    },
    {
      "type": "Feature",
      "geometry": {
        "type": "Point",
        "coordinates": [
          8.7249,
          45.6465
        ]
      },
      "properties": {
        "icao24": "4401fa",
        "callsign": "EJU3548",
        "origin_country": "Austria",
        "time_position": 1785455064,
        "last_contact": 1785455072,
        "baro_altitude": null,
        "on_ground": true,
        "velocity": 0,
        "true_track": 258.75,
        "vertical_rate": null,
        "geo_altitude": null,
        "squawk": "5134",
        "spi": false,
        "position_source": 0
      }
    },
    {
      "type": "Feature",
      "geometry": {
        "type": "Point",
        "coordinates": [
          15.6725,
          39.2523
        ]
      },
      "properties": {
        "icao24": "73806b",
        "callsign": "ELY392",
        "origin_country": "Israel",
        "time_position": 1785455179,
        "last_contact": 1785455186,
        "baro_altitude": 10668,
        "on_ground": false,
        "velocity": 227.73,
        "true_track": 104.79,
        "vertical_rate": 0,
        "geo_altitude": 11308.08,
        "squawk": "0204",
        "spi": false,
        "position_source": 0
      }
    },
    {
      "type": "Feature",
      "geometry": {
        "type": "Point",
        "coordinates": [
          8.3914,
          40.5724
        ]
      },
      "properties": {
        "icao24": "738061",
        "callsign": "ELY376",
        "origin_country": "Israel",
        "time_position": 1785455186,
        "last_contact": 1785455186,
        "baro_altitude": 10363.2,
        "on_ground": false,
        "velocity": 241.34,
        "true_track": 100.69,
        "vertical_rate": 0,
        "geo_altitude": 11041.38,
        "squawk": "1143",
        "spi": false,
        "position_source": 0
      }
    },
    {
      "type": "Feature",
      "geometry": {
        "type": "Point",
        "coordinates": [
          17.65,
          43.25
        ]
      },
      "properties": {
        "icao24": "738065",
        "callsign": "ELY290",
        "origin_country": "Israel",
        "time_position": 1785455183,
        "last_contact": 1785455183,
        "baro_altitude": 11277.6,
        "on_ground": false,
        "velocity": 247.27,
        "true_track": 123.89,
        "vertical_rate": 0,
        "geo_altitude": 11940.54,
        "squawk": "0253",
        "spi": false,
        "position_source": 0
      }
    },
    {
      "type": "Feature",
      "geometry": {
        "type": "Point",
        "coordinates": [
          10.849,
          40.2127
        ]
      },
      "properties": {
        "icao24": "738054",
        "callsign": "ELY398",
        "origin_country": "Israel",
        "time_position": 1785455186,
        "last_contact": 1785455186,
        "baro_altitude": 10668,
        "on_ground": false,
        "velocity": 229.17,
        "true_track": 102.45,
        "vertical_rate": 0,
        "geo_altitude": 11361.42,
        "squawk": "1453",
        "spi": false,
        "position_source": 0
      }
    },
    {
      "type": "Feature",
      "geometry": {
        "type": "Point",
        "coordinates": [
          18.2393,
          46.4742
        ]
      },
      "properties": {
        "icao24": "440039",
        "callsign": "AUA1083",
        "origin_country": "Austria",
        "time_position": 1785455186,
        "last_contact": 1785455186,
        "baro_altitude": 7025.64,
        "on_ground": false,
        "velocity": 260.9,
        "true_track": 138.36,
        "vertical_rate": 4.23,
        "geo_altitude": 7490.46,
        "squawk": "7103",
        "spi": false,
        "position_source": 0
      }
    },
    {
      "type": "Feature",
      "geometry": {
        "type": "Point",
        "coordinates": [
          14.6709,
          39.1129
        ]
      },
      "properties": {
        "icao24": "738101",
        "callsign": "ELY121",
        "origin_country": "Israel",
        "time_position": 1785455186,
        "last_contact": 1785455186,
        "baro_altitude": 10972.8,
        "on_ground": false,
        "velocity": 265.85,
        "true_track": 278.57,
        "vertical_rate": 0,
        "geo_altitude": 11650.98,
        "squawk": "2216",
        "spi": false,
        "position_source": 0
      }
    },
    {
      "type": "Feature",
      "geometry": {
        "type": "Point",
        "coordinates": [
          15.2522,
          39.0395
        ]
      },
      "properties": {
        "icao24": "4a3121",
        "callsign": "AIZ264",
        "origin_country": "Romania",
        "time_position": 1785455186,
        "last_contact": 1785455186,
        "baro_altitude": 10668,
        "on_ground": false,
        "velocity": 231.23,
        "true_track": 98.96,
        "vertical_rate": 0,
        "geo_altitude": 11338.56,
        "squawk": "4312",
        "spi": false,
        "position_source": 0
      }
    },
    {
      "type": "Feature",
      "geometry": {
        "type": "Point",
        "coordinates": [
          12.5608,
          45.4736
        ]
      },
      "properties": {
        "icao24": "4a3122",
        "callsign": "AIZ1740",
        "origin_country": "Romania",
        "time_position": 1785455186,
        "last_contact": 1785455186,
        "baro_altitude": 10043.16,
        "on_ground": false,
        "velocity": 250.04,
        "true_track": 120.68,
        "vertical_rate": 0.33,
        "geo_altitude": 10629.9,
        "squawk": "0665",
        "spi": false,
        "position_source": 0
      }
    },
    {
      "type": "Feature",
      "geometry": {
        "type": "Point",
        "coordinates": [
          8.8715,
          43.7861
        ]
      },
      "properties": {
        "icao24": "44017c",
        "callsign": "EJU89NW",
        "origin_country": "Austria",
        "time_position": 1785455186,
        "last_contact": 1785455186,
        "baro_altitude": 9144,
        "on_ground": false,
        "velocity": 201.07,
        "true_track": 354.42,
        "vertical_rate": 0,
        "geo_altitude": 9761.22,
        "squawk": "1000",
        "spi": false,
        "position_source": 0
      }
    },
    {
      "type": "Feature",
      "geometry": {
        "type": "Point",
        "coordinates": [
          17.0034,
          44.6997
        ]
      },
      "properties": {
        "icao24": "7380c6",
        "callsign": "ELY318",
        "origin_country": "Israel",
        "time_position": 1785455186,
        "last_contact": 1785455186,
        "baro_altitude": 11879.58,
        "on_ground": false,
        "velocity": 271.41,
        "true_track": 130.7,
        "vertical_rate": 0,
        "geo_altitude": 12580.62,
        "squawk": "5253",
        "spi": false,
        "position_source": 0
      }
    },
    {
      "type": "Feature",
      "geometry": {
        "type": "Point",
        "coordinates": [
          12.7204,
          41.7653
        ]
      },
      "properties": {
        "icao24": "345618",
        "callsign": "LAV8594",
        "origin_country": "Spain",
        "time_position": 1785455186,
        "last_contact": 1785455186,
        "baro_altitude": 3802.38,
        "on_ground": false,
        "velocity": 159.53,
        "true_track": 291.77,
        "vertical_rate": -4.88,
        "geo_altitude": 4122.42,
        "squawk": "5532",
        "spi": false,
        "position_source": 0
      }
    },
    {
      "type": "Feature",
      "geometry": {
        "type": "Point",
        "coordinates": [
          9.2617,
          39.5778
        ]
      },
      "properties": {
        "icao24": "4bb292",
        "callsign": "THY5LY",
        "origin_country": "Turkey",
        "time_position": 1785455186,
        "last_contact": 1785455186,
        "baro_altitude": 10355.58,
        "on_ground": false,
        "velocity": 233.67,
        "true_track": 79.09,
        "vertical_rate": 0,
        "geo_altitude": 11056.62,
        "squawk": "2377",
        "spi": false,
        "position_source": 0
      }
    },
    {
      "type": "Feature",
      "geometry": {
        "type": "Point",
        "coordinates": [
          14.6299,
          44.3628
        ]
      },
      "properties": {
        "icao24": "4066ce",
        "callsign": "TOM2PJ",
        "origin_country": "United Kingdom",
        "time_position": 1785455185,
        "last_contact": 1785455186,
        "baro_altitude": 10972.8,
        "on_ground": false,
        "velocity": 217.89,
        "true_track": 308.39,
        "vertical_rate": 0,
        "geo_altitude": 11628.12,
        "squawk": "2050",
        "spi": false,
        "position_source": 0
      }
    },
    {
      "type": "Feature",
      "geometry": {
        "type": "Point",
        "coordinates": [
          14.9037,
          40.3975
        ]
      },
      "properties": {
        "icao24": "02012b",
        "callsign": "MAC523",
        "origin_country": "Morocco",
        "time_position": 1785455185,
        "last_contact": 1785455185,
        "baro_altitude": 10972.8,
        "on_ground": false,
        "velocity": 237.77,
        "true_track": 265.91,
        "vertical_rate": 0,
        "geo_altitude": 11658.6,
        "squawk": "2352",
        "spi": false,
        "position_source": 0
      }
    },
    {
      "type": "Feature",
      "geometry": {
        "type": "Point",
        "coordinates": [
          16.7115,
          44.7543
        ]
      },
      "properties": {
        "icao24": "8005f1",
        "callsign": "AIC114",
        "origin_country": "India",
        "time_position": 1785455186,
        "last_contact": 1785455186,
        "baro_altitude": 11277.6,
        "on_ground": false,
        "velocity": 276.19,
        "true_track": 136.43,
        "vertical_rate": 0,
        "geo_altitude": 11932.92,
        "squawk": "5244",
        "spi": false,
        "position_source": 0
      }
    },
    {
      "type": "Feature",
      "geometry": {
        "type": "Point",
        "coordinates": [
          11.1163,
          47.4656
        ]
      },
      "properties": {
        "icao24": "3e0fe7",
        "callsign": "CHX87",
        "origin_country": "Germany",
        "time_position": 1785455183,
        "last_contact": 1785455183,
        "baro_altitude": 1264.92,
        "on_ground": false,
        "velocity": 49.78,
        "true_track": 346.25,
        "vertical_rate": -3.9,
        "geo_altitude": 1424.94,
        "squawk": "0020",
        "spi": false,
        "position_source": 0
      }
    },
    {
      "type": "Feature",
      "geometry": {
        "type": "Point",
        "coordinates": [
          18.0084,
          45.2866
        ]
      },
      "properties": {
        "icao24": "3965b2",
        "callsign": "AFR256",
        "origin_country": "France",
        "time_position": 1785455186,
        "last_contact": 1785455186,
        "baro_altitude": 9448.8,
        "on_ground": false,
        "velocity": 269.24,
        "true_track": 115.34,
        "vertical_rate": 0,
        "geo_altitude": 10012.68,
        "squawk": "0662",
        "spi": false,
        "position_source": 0
      }
    },
    {
      "type": "Feature",
      "geometry": {
        "type": "Point",
        "coordinates": [
          12.4205,
          41.8603
        ]
      },
      "properties": {
        "icao24": "346390",
        "callsign": "EVE845",
        "origin_country": "Spain",
        "time_position": 1785455186,
        "last_contact": 1785455186,
        "baro_altitude": 10972.8,
        "on_ground": false,
        "velocity": 257.29,
        "true_track": 70.01,
        "vertical_rate": 0,
        "geo_altitude": 11658.6,
        "squawk": "0206",
        "spi": false,
        "position_source": 0
      }
    },
    {
      "type": "Feature",
      "geometry": {
        "type": "Point",
        "coordinates": [
          14.0511,
          45.0019
        ]
      },
      "properties": {
        "icao24": "40666a",
        "callsign": "EZY75PF",
        "origin_country": "United Kingdom",
        "time_position": 1785455186,
        "last_contact": 1785455186,
        "baro_altitude": 10972.8,
        "on_ground": false,
        "velocity": 209.81,
        "true_track": 312.02,
        "vertical_rate": 0,
        "geo_altitude": 11620.5,
        "squawk": "7741",
        "spi": false,
        "position_source": 0
      }
    },
    {
      "type": "Feature",
      "geometry": {
        "type": "Point",
        "coordinates": [
          7.5525,
          40.8928
        ]
      },
      "properties": {
        "icao24": "0201af",
        "callsign": "SAW2900",
        "origin_country": "Morocco",
        "time_position": 1785455186,
        "last_contact": 1785455186,
        "baro_altitude": 12176.76,
        "on_ground": false,
        "velocity": 236.51,
        "true_track": 274.99,
        "vertical_rate": 0.33,
        "geo_altitude": 12915.9,
        "squawk": "4024",
        "spi": false,
        "position_source": 0
      }
    },
    {
      "type": "Feature",
      "geometry": {
        "type": "Point",
        "coordinates": [
          17.7395,
          47.3027
        ]
      },
      "properties": {
        "icao24": "89667b",
        "callsign": "UAE78P",
        "origin_country": "United Arab Emirates",
        "time_position": 1785455186,
        "last_contact": 1785455186,
        "baro_altitude": 11887.2,
        "on_ground": false,
        "velocity": 281.36,
        "true_track": 120.55,
        "vertical_rate": 0,
        "geo_altitude": 12504.42,
        "squawk": "2207",
        "spi": false,
        "position_source": 0
      }
    },
    {
      "type": "Feature",
      "geometry": {
        "type": "Point",
        "coordinates": [
          8.0061,
          47.2629
        ]
      },
      "properties": {
        "icao24": "406660",
        "callsign": "TOM2DL",
        "origin_country": "United Kingdom",
        "time_position": 1785455186,
        "last_contact": 1785455186,
        "baro_altitude": 11582.4,
        "on_ground": false,
        "velocity": 221.22,
        "true_track": 311.51,
        "vertical_rate": 0,
        "geo_altitude": 12199.62,
        "squawk": "7511",
        "spi": false,
        "position_source": 0
      }
    },
    {
      "type": "Feature",
      "geometry": {
        "type": "Point",
        "coordinates": [
          13.1036,
          44.5749
        ]
      },
      "properties": {
        "icao24": "40796b",
        "callsign": "TOM405",
        "origin_country": "United Kingdom",
        "time_position": 1785455186,
        "last_contact": 1785455186,
        "baro_altitude": 11582.4,
        "on_ground": false,
        "velocity": 219.87,
        "true_track": 301.61,
        "vertical_rate": 0,
        "geo_altitude": 12268.2,
        "squawk": "5505",
        "spi": false,
        "position_source": 0
      }
    },
    {
      "type": "Feature",
      "geometry": {
        "type": "Point",
        "coordinates": [
          15.1367,
          35.7206
        ]
      },
      "properties": {
        "icao24": "040142",
        "callsign": "ETH741",
        "origin_country": "Ethiopia",
        "time_position": 1785455186,
        "last_contact": 1785455186,
        "baro_altitude": 10660.38,
        "on_ground": false,
        "velocity": 245.86,
        "true_track": 97.33,
        "vertical_rate": 0,
        "geo_altitude": 11254.74,
        "squawk": "4105",
        "spi": false,
        "position_source": 0
      }
    },
    {
      "type": "Feature",
      "geometry": {
        "type": "Point",
        "coordinates": [
          11.2766,
          46.1786
        ]
      },
      "properties": {
        "icao24": "406fdb",
        "callsign": "EZY17NZ",
        "origin_country": "United Kingdom",
        "time_position": 1785455186,
        "last_contact": 1785455186,
        "baro_altitude": 10980.42,
        "on_ground": false,
        "velocity": 215.95,
        "true_track": 305.2,
        "vertical_rate": 0.33,
        "geo_altitude": 11628.12,
        "squawk": "5366",
        "spi": false,
        "position_source": 0
      }
    },
    {
      "type": "Feature",
      "geometry": {
        "type": "Point",
        "coordinates": [
          18.1214,
          46.6857
        ]
      },
      "properties": {
        "icao24": "49d414",
        "callsign": "TVS7KQ",
        "origin_country": "Czech Republic",
        "time_position": 1785455186,
        "last_contact": 1785455186,
        "baro_altitude": 11277.6,
        "on_ground": false,
        "velocity": 258.25,
        "true_track": 143.02,
        "vertical_rate": 0,
        "geo_altitude": 11879.58,
        "squawk": "6002",
        "spi": false,
        "position_source": 0
      }
    },
    {
      "type": "Feature",
      "geometry": {
        "type": "Point",
        "coordinates": [
          10.3381,
          42.1947
        ]
      },
      "properties": {
        "icao24": "040102",
        "callsign": "ETH575",
        "origin_country": "Ethiopia",
        "time_position": 1785455185,
        "last_contact": 1785455186,
        "baro_altitude": 11887.2,
        "on_ground": false,
        "velocity": 258.48,
        "true_track": 125.11,
        "vertical_rate": 0,
        "geo_altitude": 12626.34,
        "squawk": "1206",
        "spi": false,
        "position_source": 0
      }
    },
    {
      "type": "Feature",
      "geometry": {
        "type": "Point",
        "coordinates": [
          18.8501,
          45.877
        ]
      },
      "properties": {
        "icao24": "4ba9c9",
        "callsign": "THY4RN",
        "origin_country": "Turkey",
        "time_position": 1785455186,
        "last_contact": 1785455186,
        "baro_altitude": 11887.2,
        "on_ground": false,
        "velocity": 264.2,
        "true_track": 129.55,
        "vertical_rate": 0,
        "geo_altitude": 12550.14,
        "squawk": "2243",
        "spi": false,
        "position_source": 0
      }
    },
    {
      "type": "Feature",
      "geometry": {
        "type": "Point",
        "coordinates": [
          18.8574,
          47.1227
        ]
      },
      "properties": {
        "icao24": "49d327",
        "callsign": "TVS7UZ",
        "origin_country": "Czech Republic",
        "time_position": 1785455186,
        "last_contact": 1785455186,
        "baro_altitude": 10668,
        "on_ground": false,
        "velocity": 252.64,
        "true_track": 147.9,
        "vertical_rate": 0,
        "geo_altitude": 11239.5,
        "squawk": "1454",
        "spi": false,
        "position_source": 0
      }
    },
    {
      "type": "Feature",
      "geometry": {
        "type": "Point",
        "coordinates": [
          15.0193,
          39.8811
        ]
      },
      "properties": {
        "icao24": "3424d2",
        "callsign": "VLG8104",
        "origin_country": "Spain",
        "time_position": 1785455186,
        "last_contact": 1785455186,
        "baro_altitude": 10668,
        "on_ground": false,
        "velocity": 236.81,
        "true_track": 99.5,
        "vertical_rate": 0,
        "geo_altitude": 11338.56,
        "squawk": "3734",
        "spi": false,
        "position_source": 0
      }
    },
    {
      "type": "Feature",
      "geometry": {
        "type": "Point",
        "coordinates": [
          12.2382,
          41.801
        ]
      },
      "properties": {
        "icao24": "31d7d3",
        "callsign": "TEKNO84",
        "origin_country": "Italy",
        "time_position": 1785455069,
        "last_contact": 1785455069,
        "baro_altitude": null,
        "on_ground": true,
        "velocity": null,
        "true_track": 247.5,
        "vertical_rate": null,
        "geo_altitude": null,
        "squawk": null,
        "spi": false,
        "position_source": 0
      }
    },
    {
      "type": "Feature",
      "geometry": {
        "type": "Point",
        "coordinates": [
          18.8651,
          40.3794
        ]
      },
      "properties": {
        "icao24": "407fff",
        "callsign": "EZY54ZP",
        "origin_country": "United Kingdom",
        "time_position": 1785455186,
        "last_contact": 1785455186,
        "baro_altitude": 10957.56,
        "on_ground": false,
        "velocity": 228.44,
        "true_track": 322.23,
        "vertical_rate": 0,
        "geo_altitude": 11605.26,
        "squawk": "2036",
        "spi": false,
        "position_source": 0
      }
    },
    {
      "type": "Feature",
      "geometry": {
        "type": "Point",
        "coordinates": [
          18.2232,
          41.3416
        ]
      },
      "properties": {
        "icao24": "407e68",
        "callsign": "EXS14VP",
        "origin_country": "United Kingdom",
        "time_position": 1785455186,
        "last_contact": 1785455186,
        "baro_altitude": 10972.8,
        "on_ground": false,
        "velocity": 228.18,
        "true_track": 309.14,
        "vertical_rate": 0,
        "geo_altitude": 11620.5,
        "squawk": "5516",
        "spi": false,
        "position_source": 0
      }
    },
    {
      "type": "Feature",
      "geometry": {
        "type": "Point",
        "coordinates": [
          15.0555,
          38.6473
        ]
      },
      "properties": {
        "icao24": "06a256",
        "callsign": "LHOB287",
        "origin_country": "Qatar",
        "time_position": 1785455186,
        "last_contact": 1785455186,
        "baro_altitude": 9753.6,
        "on_ground": false,
        "velocity": 234.05,
        "true_track": 290.19,
        "vertical_rate": 0,
        "geo_altitude": 10378.44,
        "squawk": null,
        "spi": false,
        "position_source": 0
      }
    },
    {
      "type": "Feature",
      "geometry": {
        "type": "Point",
        "coordinates": [
          7.1702,
          41.018
        ]
      },
      "properties": {
        "icao24": "4cc58a",
        "callsign": "ABD2603",
        "origin_country": "Iceland",
        "time_position": 1785455186,
        "last_contact": 1785455186,
        "baro_altitude": 10972.8,
        "on_ground": false,
        "velocity": 253.49,
        "true_track": 3.14,
        "vertical_rate": 0,
        "geo_altitude": 11673.84,
        "squawk": "1000",
        "spi": false,
        "position_source": 0
      }
    },
    {
      "type": "Feature",
      "geometry": {
        "type": "Point",
        "coordinates": [
          11.0079,
          41.7062
        ]
      },
      "properties": {
        "icao24": "44047d",
        "callsign": "EJU3500",
        "origin_country": "Austria",
        "time_position": 1785455186,
        "last_contact": 1785455186,
        "baro_altitude": 10972.8,
        "on_ground": false,
        "velocity": 234.67,
        "true_track": 333.43,
        "vertical_rate": 0,
        "geo_altitude": 11689.08,
        "squawk": "1000",
        "spi": false,
        "position_source": 0
      }
    },
    {
      "type": "Feature",
      "geometry": {
        "type": "Point",
        "coordinates": [
          8.7186,
          45.6199
        ]
      },
      "properties": {
        "icao24": "06a1ea",
        "callsign": null,
        "origin_country": "Qatar",
        "time_position": 1785455181,
        "last_contact": 1785455181,
        "baro_altitude": null,
        "on_ground": true,
        "velocity": 0,
        "true_track": 258.75,
        "vertical_rate": null,
        "geo_altitude": null,
        "squawk": null,
        "spi": false,
        "position_source": 0
      }
    },
    {
      "type": "Feature",
      "geometry": {
        "type": "Point",
        "coordinates": [
          15.0332,
          40.7266
        ]
      },
      "properties": {
        "icao24": "4bb87a",
        "callsign": "PGT1742",
        "origin_country": "Turkey",
        "time_position": 1785455184,
        "last_contact": 1785455186,
        "baro_altitude": 11285.22,
        "on_ground": false,
        "velocity": 225.87,
        "true_track": 90.91,
        "vertical_rate": 0,
        "geo_altitude": 11986.26,
        "squawk": "1262",
        "spi": false,
        "position_source": 0
      }
    },
    {
      "type": "Feature",
      "geometry": {
        "type": "Point",
        "coordinates": [
          18.5852,
          42.4037
        ]
      },
      "properties": {
        "icao24": "407d5c",
        "callsign": "WUK7PY",
        "origin_country": "United Kingdom",
        "time_position": 1785455185,
        "last_contact": 1785455186,
        "baro_altitude": 10988.04,
        "on_ground": false,
        "velocity": 229.44,
        "true_track": 306.61,
        "vertical_rate": -0.33,
        "geo_altitude": 11650.98,
        "squawk": null,
        "spi": false,
        "position_source": 0
      }
    },
    {
      "type": "Feature",
      "geometry": {
        "type": "Point",
        "coordinates": [
          12.5312,
          46.1046
        ]
      },
      "properties": {
        "icao24": "406a92",
        "callsign": "EZY64BG",
        "origin_country": "United Kingdom",
        "time_position": 1785455186,
        "last_contact": 1785455186,
        "baro_altitude": 11567.16,
        "on_ground": false,
        "velocity": 212.54,
        "true_track": 313.23,
        "vertical_rate": -0.33,
        "geo_altitude": 12230.1,
        "squawk": "7215",
        "spi": false,
        "position_source": 0
      }
    },
    {
      "type": "Feature",
      "geometry": {
        "type": "Point",
        "coordinates": [
          12.2731,
          41.8072
        ]
      },
      "properties": {
        "icao24": "80159e",
        "callsign": "AIC191",
        "origin_country": "India",
        "time_position": 1785455185,
        "last_contact": 1785455185,
        "baro_altitude": null,
        "on_ground": true,
        "velocity": 6.43,
        "true_track": 194.06,
        "vertical_rate": null,
        "geo_altitude": null,
        "squawk": "5522",
        "spi": false,
        "position_source": 0
      }
    },
    {
      "type": "Feature",
      "geometry": {
        "type": "Point",
        "coordinates": [
          16.6132,
          35.5827
        ]
      },
      "properties": {
        "icao24": "06a0b7",
        "callsign": "QTR42U",
        "origin_country": "Qatar",
        "time_position": 1785455186,
        "last_contact": 1785455186,
        "baro_altitude": 11269.98,
        "on_ground": false,
        "velocity": 259.51,
        "true_track": 98.44,
        "vertical_rate": 0,
        "geo_altitude": 11871.96,
        "squawk": "5207",
        "spi": false,
        "position_source": 0
      }
    },
    {
      "type": "Feature",
      "geometry": {
        "type": "Point",
        "coordinates": [
          8.7687,
          45.5023
        ]
      },
      "properties": {
        "icao24": "4403bb",
        "callsign": "EJU92EJ",
        "origin_country": "Austria",
        "time_position": 1785455186,
        "last_contact": 1785455186,
        "baro_altitude": 807.72,
        "on_ground": false,
        "velocity": 101.19,
        "true_track": 348.86,
        "vertical_rate": -6.18,
        "geo_altitude": 952.5,
        "squawk": "1000",
        "spi": false,
        "position_source": 0
      }
    },
    {
      "type": "Feature",
      "geometry": {
        "type": "Point",
        "coordinates": [
          8.7345,
          45.6264
        ]
      },
      "properties": {
        "icao24": "408142",
        "callsign": "DHK528",
        "origin_country": "United Kingdom",
        "time_position": 1785455185,
        "last_contact": 1785455186,
        "baro_altitude": 167.64,
        "on_ground": false,
        "velocity": 57.11,
        "true_track": 349.09,
        "vertical_rate": 0,
        "geo_altitude": 274.32,
        "squawk": "2273",
        "spi": false,
        "position_source": 0
      }
    },
    {
      "type": "Feature",
      "geometry": {
        "type": "Point",
        "coordinates": [
          15.0763,
          46.8645
        ]
      },
      "properties": {
        "icao24": "408067",
        "callsign": "EXS13DK",
        "origin_country": "United Kingdom",
        "time_position": 1785455186,
        "last_contact": 1785455186,
        "baro_altitude": 10972.8,
        "on_ground": false,
        "velocity": 221.17,
        "true_track": 315.19,
        "vertical_rate": 0,
        "geo_altitude": 11597.64,
        "squawk": "5360",
        "spi": false,
        "position_source": 0
      }
    },
    {
      "type": "Feature",
      "geometry": {
        "type": "Point",
        "coordinates": [
          13.7864,
          42.7551
        ]
      },
      "properties": {
        "icao24": "440cbf",
        "callsign": "EJU3645",
        "origin_country": "Austria",
        "time_position": 1785455185,
        "last_contact": 1785455186,
        "baro_altitude": 11590.02,
        "on_ground": false,
        "velocity": 220.64,
        "true_track": 302.43,
        "vertical_rate": 0,
        "geo_altitude": 12306.3,
        "squawk": "2630",
        "spi": false,
        "position_source": 0
      }
    },
    {
      "type": "Feature",
      "geometry": {
        "type": "Point",
        "coordinates": [
          12.8192,
          41.6162
        ]
      },
      "properties": {
        "icao24": "02a1a5",
        "callsign": "LBT7425",
        "origin_country": "Tunisia",
        "time_position": 1785455186,
        "last_contact": 1785455186,
        "baro_altitude": 11277.6,
        "on_ground": false,
        "velocity": 242.98,
        "true_track": 196.86,
        "vertical_rate": 0,
        "geo_altitude": 12001.5,
        "squawk": "5550",
        "spi": false,
        "position_source": 0
      }
    },
    {
      "type": "Feature",
      "geometry": {
        "type": "Point",
        "coordinates": [
          14.3895,
          38.5393
        ]
      },
      "properties": {
        "icao24": "02a1a2",
        "callsign": "LBT7856",
        "origin_country": "Tunisia",
        "time_position": 1785455186,
        "last_contact": 1785455186,
        "baro_altitude": 11582.4,
        "on_ground": false,
        "velocity": 214.04,
        "true_track": 42.86,
        "vertical_rate": 0,
        "geo_altitude": 12245.34,
        "squawk": "6140",
        "spi": false,
        "position_source": 0
      }
    },
    {
      "type": "Feature",
      "geometry": {
        "type": "Point",
        "coordinates": [
          7.7279,
          36.731
        ]
      },
      "properties": {
        "icao24": "0a008e",
        "callsign": "DAH6178",
        "origin_country": "Algeria",
        "time_position": 1785454853,
        "last_contact": 1785454893,
        "baro_altitude": 784.86,
        "on_ground": false,
        "velocity": 79.52,
        "true_track": 81.82,
        "vertical_rate": -4.55,
        "geo_altitude": 906.78,
        "squawk": "3462",
        "spi": false,
        "position_source": 0
      }
    },
    {
      "type": "Feature",
      "geometry": {
        "type": "Point",
        "coordinates": [
          10.7143,
          36.0594
        ]
      },
      "properties": {
        "icao24": "02a1ab",
        "callsign": null,
        "origin_country": "Tunisia",
        "time_position": 1785454919,
        "last_contact": 1785454927,
        "baro_altitude": 2621.28,
        "on_ground": false,
        "velocity": 157.14,
        "true_track": 206.65,
        "vertical_rate": -9.1,
        "geo_altitude": 2872.74,
        "squawk": null,
        "spi": false,
        "position_source": 0
      }
    },
    {
      "type": "Feature",
      "geometry": {
        "type": "Point",
        "coordinates": [
          12.6981,
          45.458
        ]
      },
      "properties": {
        "icao24": "4080e2",
        "callsign": "EXS96PS",
        "origin_country": "United Kingdom",
        "time_position": 1785455186,
        "last_contact": 1785455186,
        "baro_altitude": 10972.8,
        "on_ground": false,
        "velocity": 210.11,
        "true_track": 306.34,
        "vertical_rate": 0,
        "geo_altitude": 11612.88,
        "squawk": "0272",
        "spi": false,
        "position_source": 0
      }
    },
    {
      "type": "Feature",
      "geometry": {
        "type": "Point",
        "coordinates": [
          14.279,
          39.9974
        ]
      },
      "properties": {
        "icao24": "7103d8",
        "callsign": "SVA022",
        "origin_country": "Saudi Arabia",
        "time_position": 1785455185,
        "last_contact": 1785455185,
        "baro_altitude": 10058.4,
        "on_ground": false,
        "velocity": 257.05,
        "true_track": 127.76,
        "vertical_rate": 0,
        "geo_altitude": 10713.72,
        "squawk": "6402",
        "spi": false,
        "position_source": 0
      }
    },
    {
      "type": "Feature",
      "geometry": {
        "type": "Point",
        "coordinates": [
          10.2294,
          45.5562
        ]
      },
      "properties": {
        "icao24": "440c6f",
        "callsign": "EJU68VV",
        "origin_country": "Austria",
        "time_position": 1785455186,
        "last_contact": 1785455186,
        "baro_altitude": 8153.4,
        "on_ground": false,
        "velocity": 188.17,
        "true_track": 283.28,
        "vertical_rate": -9.1,
        "geo_altitude": 8686.8,
        "squawk": "5531",
        "spi": false,
        "position_source": 0
      }
    },
    {
      "type": "Feature",
      "geometry": {
        "type": "Point",
        "coordinates": [
          8.5448,
          47.4599
        ]
      },
      "properties": {
        "icao24": "4b5d3d",
        "callsign": "GALA23",
        "origin_country": "Switzerland",
        "time_position": 1785455186,
        "last_contact": 1785455186,
        "baro_altitude": null,
        "on_ground": true,
        "velocity": 2.06,
        "true_track": 239.06,
        "vertical_rate": null,
        "geo_altitude": null,
        "squawk": null,
        "spi": false,
        "position_source": 0
      }
    },
    {
      "type": "Feature",
      "geometry": {
        "type": "Point",
        "coordinates": [
          8.5444,
          47.4599
        ]
      },
      "properties": {
        "icao24": "4b5d3b",
        "callsign": "GALA20",
        "origin_country": "Switzerland",
        "time_position": 1785455186,
        "last_contact": 1785455186,
        "baro_altitude": null,
        "on_ground": true,
        "velocity": 1.29,
        "true_track": 177.19,
        "vertical_rate": null,
        "geo_altitude": null,
        "squawk": null,
        "spi": false,
        "position_source": 0
      }
    },
    {
      "type": "Feature",
      "geometry": {
        "type": "Point",
        "coordinates": [
          14.2831,
          46.2372
        ]
      },
      "properties": {
        "icao24": "408041",
        "callsign": "WUK8QH",
        "origin_country": "United Kingdom",
        "time_position": 1785455186,
        "last_contact": 1785455186,
        "baro_altitude": 10355.58,
        "on_ground": false,
        "velocity": 225.55,
        "true_track": 315.74,
        "vertical_rate": 0,
        "geo_altitude": 10988.04,
        "squawk": "0506",
        "spi": false,
        "position_source": 0
      }
    },
    {
      "type": "Feature",
      "geometry": {
        "type": "Point",
        "coordinates": [
          15.4635,
          45.5293
        ]
      },
      "properties": {
        "icao24": "408027",
        "callsign": "TOM39G",
        "origin_country": "United Kingdom",
        "time_position": 1785455186,
        "last_contact": 1785455186,
        "baro_altitude": 11582.4,
        "on_ground": false,
        "velocity": 210.63,
        "true_track": 306.06,
        "vertical_rate": 0.33,
        "geo_altitude": 12252.96,
        "squawk": "5521",
        "spi": false,
        "position_source": 0
      }
    },
    {
      "type": "Feature",
      "geometry": {
        "type": "Point",
        "coordinates": [
          6.9998,
          36.5952
        ]
      },
      "properties": {
        "icao24": "0a00e3",
        "callsign": "DAH4651",
        "origin_country": "Algeria",
        "time_position": 1785455171,
        "last_contact": 1785455184,
        "baro_altitude": 12192,
        "on_ground": false,
        "velocity": 236.09,
        "true_track": 275.25,
        "vertical_rate": 0,
        "geo_altitude": 12946.38,
        "squawk": null,
        "spi": false,
        "position_source": 0
      }
    },
    {
      "type": "Feature",
      "geometry": {
        "type": "Point",
        "coordinates": [
          11.8931,
          43.5327
        ]
      },
      "properties": {
        "icao24": "4ca9a1",
        "callsign": "NOS4893",
        "origin_country": "Ireland",
        "time_position": 1785455186,
        "last_contact": 1785455186,
        "baro_altitude": 10363.2,
        "on_ground": false,
        "velocity": 226.02,
        "true_track": 303.11,
        "vertical_rate": 0,
        "geo_altitude": 11010.9,
        "squawk": "2056",
        "spi": false,
        "position_source": 0
      }
    },
    {
      "type": "Feature",
      "geometry": {
        "type": "Point",
        "coordinates": [
          8.5482,
          47.4633
        ]
      },
      "properties": {
        "icao24": "4b5c37",
        "callsign": "URSULA6",
        "origin_country": "Switzerland",
        "time_position": 1785455186,
        "last_contact": 1785455186,
        "baro_altitude": null,
        "on_ground": true,
        "velocity": 7.46,
        "true_track": 19.69,
        "vertical_rate": null,
        "geo_altitude": null,
        "squawk": null,
        "spi": false,
        "position_source": 0
      }
    },
    {
      "type": "Feature",
      "geometry": {
        "type": "Point",
        "coordinates": [
          10.4906,
          47.4168
        ]
      },
      "properties": {
        "icao24": "4ca9cf",
        "callsign": "RYR1RX",
        "origin_country": "Ireland",
        "time_position": 1785455186,
        "last_contact": 1785455186,
        "baro_altitude": 10972.8,
        "on_ground": false,
        "velocity": 223.23,
        "true_track": 343.95,
        "vertical_rate": 0,
        "geo_altitude": 11597.64,
        "squawk": "1102",
        "spi": false,
        "position_source": 0
      }
    },
    {
      "type": "Feature",
      "geometry": {
        "type": "Point",
        "coordinates": [
          6.9714,
          42.5417
        ]
      },
      "properties": {
        "icao24": "4841c5",
        "callsign": "MPH8341",
        "origin_country": "Kingdom of the Netherlands",
        "time_position": 1785455186,
        "last_contact": 1785455186,
        "baro_altitude": 8839.2,
        "on_ground": false,
        "velocity": 258.79,
        "true_track": 179.2,
        "vertical_rate": 0,
        "geo_altitude": 9410.7,
        "squawk": "0166",
        "spi": false,
        "position_source": 0
      }
    },
    {
      "type": "Feature",
      "geometry": {
        "type": "Point",
        "coordinates": [
          14.4644,
          45.3189
        ]
      },
      "properties": {
        "icao24": "4841a9",
        "callsign": "TRA5312",
        "origin_country": "Kingdom of the Netherlands",
        "time_position": 1785455186,
        "last_contact": 1785455186,
        "baro_altitude": 11582.4,
        "on_ground": false,
        "velocity": 221.98,
        "true_track": 329.04,
        "vertical_rate": 0,
        "geo_altitude": 12260.58,
        "squawk": "3726",
        "spi": false,
        "position_source": 0
      }
    },
    {
      "type": "Feature",
      "geometry": {
        "type": "Point",
        "coordinates": [
          14.5977,
          45.8939
        ]
      },
      "properties": {
        "icao24": "e4850f",
        "callsign": "PRMLJ",
        "origin_country": "Brazil",
        "time_position": 1785455186,
        "last_contact": 1785455186,
        "baro_altitude": 12496.8,
        "on_ground": false,
        "velocity": 271.93,
        "true_track": 131.32,
        "vertical_rate": -0.65,
        "geo_altitude": 13197.84,
        "squawk": "2260",
        "spi": false,
        "position_source": 0
      }
    },
    {
      "type": "Feature",
      "geometry": {
        "type": "Point",
        "coordinates": [
          16.3333,
          38.7502
        ]
      },
      "properties": {
        "icao24": "4baa61",
        "callsign": "THY658",
        "origin_country": "Turkey",
        "time_position": 1785455186,
        "last_contact": 1785455186,
        "baro_altitude": 10668,
        "on_ground": false,
        "velocity": 214.68,
        "true_track": 74.43,
        "vertical_rate": 0,
        "geo_altitude": 11292.84,
        "squawk": "6141",
        "spi": false,
        "position_source": 0
      }
    },
    {
      "type": "Feature",
      "geometry": {
        "type": "Point",
        "coordinates": [
          16.142,
          41.0481
        ]
      },
      "properties": {
        "icao24": "4ca907",
        "callsign": "MSA56B",
        "origin_country": "Ireland",
        "time_position": 1785455185,
        "last_contact": 1785455185,
        "baro_altitude": 2484.12,
        "on_ground": false,
        "velocity": 150.4,
        "true_track": 97.27,
        "vertical_rate": -5.85,
        "geo_altitude": 2727.96,
        "squawk": "4621",
        "spi": false,
        "position_source": 0
      }
    },
    {
      "type": "Feature",
      "geometry": {
        "type": "Point",
        "coordinates": [
          6.3795,
          43.4286
        ]
      },
      "properties": {
        "icao24": "495037",
        "callsign": "TAP484H",
        "origin_country": "Portugal",
        "time_position": 1785455186,
        "last_contact": 1785455186,
        "baro_altitude": 4206.24,
        "on_ground": false,
        "velocity": 164.64,
        "true_track": 90.9,
        "vertical_rate": -8.45,
        "geo_altitude": 4572,
        "squawk": "2215",
        "spi": false,
        "position_source": 0
      }
    },
    {
      "type": "Feature",
      "geometry": {
        "type": "Point",
        "coordinates": [
          18.9097,
          41.7771
        ]
      },
      "properties": {
        "icao24": "4ca961",
        "callsign": "NOS4610",
        "origin_country": "Ireland",
        "time_position": 1785455186,
        "last_contact": 1785455186,
        "baro_altitude": 10668,
        "on_ground": false,
        "velocity": 250.04,
        "true_track": 129.32,
        "vertical_rate": 0,
        "geo_altitude": 11300.46,
        "squawk": "0244",
        "spi": false,
        "position_source": 0
      }
    },
    {
      "type": "Feature",
      "geometry": {
        "type": "Point",
        "coordinates": [
          9.2579,
          39.8845
        ]
      },
      "properties": {
        "icao24": "4ca894",
        "callsign": "RYR89EQ",
        "origin_country": "Ireland",
        "time_position": 1785455186,
        "last_contact": 1785455186,
        "baro_altitude": 6027.42,
        "on_ground": false,
        "velocity": 203.75,
        "true_track": 16.88,
        "vertical_rate": 11.7,
        "geo_altitude": 6469.38,
        "squawk": null,
        "spi": false,
        "position_source": 0
      }
    },
    {
      "type": "Feature",
      "geometry": {
        "type": "Point",
        "coordinates": [
          18.6946,
          44.6499
        ]
      },
      "properties": {
        "icao24": "4ca7b7",
        "callsign": "RYR99CY",
        "origin_country": "Ireland",
        "time_position": 1785455184,
        "last_contact": 1785455186,
        "baro_altitude": 10972.8,
        "on_ground": false,
        "velocity": 214.1,
        "true_track": 280.66,
        "vertical_rate": 0,
        "geo_altitude": 11597.64,
        "squawk": "7352",
        "spi": false,
        "position_source": 0
      }
    },
    {
      "type": "Feature",
      "geometry": {
        "type": "Point",
        "coordinates": [
          14.2735,
          39.919
        ]
      },
      "properties": {
        "icao24": "4ca82c",
        "callsign": "MSA92C",
        "origin_country": "Ireland",
        "time_position": 1785455185,
        "last_contact": 1785455186,
        "baro_altitude": 10668,
        "on_ground": false,
        "velocity": 236.86,
        "true_track": 151.6,
        "vertical_rate": 0,
        "geo_altitude": 11323.32,
        "squawk": "4675",
        "spi": false,
        "position_source": 0
      }
    },
    {
      "type": "Feature",
      "geometry": {
        "type": "Point",
        "coordinates": [
          11.8902,
          40.1938
        ]
      },
      "properties": {
        "icao24": "4ca80f",
        "callsign": "RYR76CW",
        "origin_country": "Ireland",
        "time_position": 1785455186,
        "last_contact": 1785455186,
        "baro_altitude": 11277.6,
        "on_ground": false,
        "velocity": 237.31,
        "true_track": 150.38,
        "vertical_rate": 0,
        "geo_altitude": 11978.64,
        "squawk": "5112",
        "spi": false,
        "position_source": 0
      }
    },
    {
      "type": "Feature",
      "geometry": {
        "type": "Point",
        "coordinates": [
          16.5784,
          40.9432
        ]
      },
      "properties": {
        "icao24": "4ca80e",
        "callsign": "RYR408P",
        "origin_country": "Ireland",
        "time_position": 1785455138,
        "last_contact": 1785455138,
        "baro_altitude": 2880.36,
        "on_ground": false,
        "velocity": 152.24,
        "true_track": 194.88,
        "vertical_rate": 12.03,
        "geo_altitude": 3032.76,
        "squawk": null,
        "spi": false,
        "position_source": 0
      }
    },
    {
      "type": "Feature",
      "geometry": {
        "type": "Point",
        "coordinates": [
          13.972,
          46.2793
        ]
      },
      "properties": {
        "icao24": "405e24",
        "callsign": "TOM3TY",
        "origin_country": "United Kingdom",
        "time_position": 1785455186,
        "last_contact": 1785455186,
        "baro_altitude": 11582.4,
        "on_ground": false,
        "velocity": 212.48,
        "true_track": 313.82,
        "vertical_rate": 0,
        "geo_altitude": 12222.48,
        "squawk": "0501",
        "spi": false,
        "position_source": 0
      }
    },
    {
      "type": "Feature",
      "geometry": {
        "type": "Point",
        "coordinates": [
          7.9356,
          44.1145
        ]
      },
      "properties": {
        "icao24": "4ca707",
        "callsign": "RYR119T",
        "origin_country": "Ireland",
        "time_position": 1785455186,
        "last_contact": 1785455186,
        "baro_altitude": 10668,
        "on_ground": false,
        "velocity": 225.26,
        "true_track": 239.69,
        "vertical_rate": 0,
        "geo_altitude": 11308.08,
        "squawk": "1000",
        "spi": false,
        "position_source": 0
      }
    },
    {
      "type": "Feature",
      "geometry": {
        "type": "Point",
        "coordinates": [
          13.6036,
          36.4016
        ]
      },
      "properties": {
        "icao24": "4bcced",
        "callsign": "THY6114",
        "origin_country": "Turkey",
        "time_position": 1785455186,
        "last_contact": 1785455186,
        "baro_altitude": 10370.82,
        "on_ground": false,
        "velocity": 243.41,
        "true_track": 266,
        "vertical_rate": 0,
        "geo_altitude": 10965.18,
        "squawk": "2341",
        "spi": false,
        "position_source": 0
      }
    },
    {
      "type": "Feature",
      "geometry": {
        "type": "Point",
        "coordinates": [
          14.0261,
          47.2726
        ]
      },
      "properties": {
        "icao24": "4bce04",
        "callsign": "SXS2GA",
        "origin_country": "Turkey",
        "time_position": 1785455186,
        "last_contact": 1785455186,
        "baro_altitude": 11277.6,
        "on_ground": false,
        "velocity": 246.08,
        "true_track": 130.08,
        "vertical_rate": 0,
        "geo_altitude": 11887.2,
        "squawk": "7667",
        "spi": false,
        "position_source": 0
      }
    },
    {
      "type": "Feature",
      "geometry": {
        "type": "Point",
        "coordinates": [
          7.9107,
          47.5819
        ]
      },
      "properties": {
        "icao24": "407666",
        "callsign": "EZY75UQ",
        "origin_country": "United Kingdom",
        "time_position": 1785455186,
        "last_contact": 1785455186,
        "baro_altitude": 10965.18,
        "on_ground": false,
        "velocity": 214.87,
        "true_track": 305.74,
        "vertical_rate": 0,
        "geo_altitude": 11574.78,
        "squawk": "2772",
        "spi": false,
        "position_source": 0
      }
    },
    {
      "type": "Feature",
      "geometry": {
        "type": "Point",
        "coordinates": [
          17.158,
          45.1821
        ]
      },
      "properties": {
        "icao24": "459a65",
        "callsign": "FRO947",
        "origin_country": "Denmark",
        "time_position": 1785455186,
        "last_contact": 1785455186,
        "baro_altitude": 3215.64,
        "on_ground": false,
        "velocity": 132.29,
        "true_track": 332.94,
        "vertical_rate": 11.7,
        "geo_altitude": 3482.34,
        "squawk": "6027",
        "spi": false,
        "position_source": 0
      }
    },
    {
      "type": "Feature",
      "geometry": {
        "type": "Point",
        "coordinates": [
          8.854,
          45.7453
        ]
      },
      "properties": {
        "icao24": "3474cb",
        "callsign": "BCS136",
        "origin_country": "Spain",
        "time_position": 1785455186,
        "last_contact": 1785455186,
        "baro_altitude": 3619.5,
        "on_ground": false,
        "velocity": 180.96,
        "true_track": 172.81,
        "vertical_rate": -9.75,
        "geo_altitude": 3954.78,
        "squawk": "1000",
        "spi": false,
        "position_source": 0
      }
    },
    {
      "type": "Feature",
      "geometry": {
        "type": "Point",
        "coordinates": [
          15.4507,
          39.6304
        ]
      },
      "properties": {
        "icao24": "4cafcb",
        "callsign": "MSA95S",
        "origin_country": "Ireland",
        "time_position": 1785455175,
        "last_contact": 1785455175,
        "baro_altitude": 5745.48,
        "on_ground": false,
        "velocity": 195.33,
        "true_track": 146.06,
        "vertical_rate": -10.08,
        "geo_altitude": 6134.1,
        "squawk": "1000",
        "spi": false,
        "position_source": 0
      }
    },
    {
      "type": "Feature",
      "geometry": {
        "type": "Point",
        "coordinates": [
          17.7499,
          40.0989
        ]
      },
      "properties": {
        "icao24": "010247",
        "callsign": "MSR716",
        "origin_country": "Egypt",
        "time_position": 1785455186,
        "last_contact": 1785455186,
        "baro_altitude": 10043.16,
        "on_ground": false,
        "velocity": 242.33,
        "true_track": 129.4,
        "vertical_rate": 0,
        "geo_altitude": 10668,
        "squawk": "0433",
        "spi": false,
        "position_source": 0
      }
    },
    {
      "type": "Feature",
      "geometry": {
        "type": "Point",
        "coordinates": [
          13.1429,
          47.7941
        ]
      },
      "properties": {
        "icao24": "010275",
        "callsign": "RSX8504",
        "origin_country": "Egypt",
        "time_position": 1785455186,
        "last_contact": 1785455186,
        "baro_altitude": 11269.98,
        "on_ground": false,
        "velocity": 253.25,
        "true_track": 133.68,
        "vertical_rate": 0,
        "geo_altitude": 11864.34,
        "squawk": "2571",
        "spi": false,
        "position_source": 0
      }
    },
    {
      "type": "Feature",
      "geometry": {
        "type": "Point",
        "coordinates": [
          14.7339,
          46.7831
        ]
      },
      "properties": {
        "icao24": "010266",
        "callsign": "MSC2986",
        "origin_country": "Egypt",
        "time_position": 1785455186,
        "last_contact": 1785455186,
        "baro_altitude": 10957.56,
        "on_ground": false,
        "velocity": 220.64,
        "true_track": 322.01,
        "vertical_rate": -3.9,
        "geo_altitude": 11574.78,
        "squawk": "0503",
        "spi": false,
        "position_source": 0
      }
    },
    {
      "type": "Feature",
      "geometry": {
        "type": "Point",
        "coordinates": [
          18.6619,
          43.2227
        ]
      },
      "properties": {
        "icao24": "010204",
        "callsign": "MSR780",
        "origin_country": "Egypt",
        "time_position": 1785455012,
        "last_contact": 1785455013,
        "baro_altitude": 10683.24,
        "on_ground": false,
        "velocity": 260.22,
        "true_track": 138.53,
        "vertical_rate": 0,
        "geo_altitude": 11315.7,
        "squawk": "5234",
        "spi": false,
        "position_source": 0
      }
    },
    {
      "type": "Feature",
      "geometry": {
        "type": "Point",
        "coordinates": [
          10.7422,
          46.313
        ]
      },
      "properties": {
        "icao24": "4d24b3",
        "callsign": "WZZ1830",
        "origin_country": "Malta",
        "time_position": 1785455186,
        "last_contact": 1785455186,
        "baro_altitude": 9296.4,
        "on_ground": false,
        "velocity": 235.14,
        "true_track": 33.76,
        "vertical_rate": 4.55,
        "geo_altitude": 9898.38,
        "squawk": "1000",
        "spi": false,
        "position_source": 0
      }
    },
    {
      "type": "Feature",
      "geometry": {
        "type": "Point",
        "coordinates": [
          14.5373,
          43.6387
        ]
      },
      "properties": {
        "icao24": "0101db",
        "callsign": "MSR982",
        "origin_country": "Egypt",
        "time_position": 1785455186,
        "last_contact": 1785455186,
        "baro_altitude": 11887.2,
        "on_ground": false,
        "velocity": 266.27,
        "true_track": 118,
        "vertical_rate": 0,
        "geo_altitude": 12603.48,
        "squawk": "0413",
        "spi": false,
        "position_source": 0
      }
    },
    {
      "type": "Feature",
      "geometry": {
        "type": "Point",
        "coordinates": [
          12.8827,
          42.6875
        ]
      },
      "properties": {
        "icao24": "347258",
        "callsign": "VOE2827",
        "origin_country": "Spain",
        "time_position": 1785455185,
        "last_contact": 1785455186,
        "baro_altitude": 10972.8,
        "on_ground": false,
        "velocity": 217.46,
        "true_track": 303.13,
        "vertical_rate": -0.33,
        "geo_altitude": 11681.46,
        "squawk": "5525",
        "spi": false,
        "position_source": 0
      }
    },
    {
      "type": "Feature",
      "geometry": {
        "type": "Point",
        "coordinates": [
          15.1851,
          46.536
        ]
      },
      "properties": {
        "icao24": "4d23ea",
        "callsign": "CXI2R",
        "origin_country": "Malta",
        "time_position": 1785455186,
        "last_contact": 1785455186,
        "baro_altitude": 11582.4,
        "on_ground": false,
        "velocity": 213.18,
        "true_track": 318.42,
        "vertical_rate": 0,
        "geo_altitude": 12214.86,
        "squawk": "2054",
        "spi": false,
        "position_source": 0
      }
    },
    {
      "type": "Feature",
      "geometry": {
        "type": "Point",
        "coordinates": [
          13.3372,
          47.1464
        ]
      },
      "properties": {
        "icao24": "4d23e1",
        "callsign": "CHZ212",
        "origin_country": "Malta",
        "time_position": 1785455186,
        "last_contact": 1785455186,
        "baro_altitude": 11277.6,
        "on_ground": false,
        "velocity": 248.12,
        "true_track": 134.16,
        "vertical_rate": 0,
        "geo_altitude": 11849.1,
        "squawk": "6036",
        "spi": false,
        "position_source": 0
      }
    },
    {
      "type": "Feature",
      "geometry": {
        "type": "Point",
        "coordinates": [
          9.9633,
          46.1445
        ]
      },
      "properties": {
        "icao24": "40753d",
        "callsign": "TOM515",
        "origin_country": "United Kingdom",
        "time_position": 1785455186,
        "last_contact": 1785455186,
        "baro_altitude": 10972.8,
        "on_ground": false,
        "velocity": 223.7,
        "true_track": 310.43,
        "vertical_rate": 0,
        "geo_altitude": 11605.26,
        "squawk": "2752",
        "spi": false,
        "position_source": 0
      }
    },
    {
      "type": "Feature",
      "geometry": {
        "type": "Point",
        "coordinates": [
          13.5352,
          46.4391
        ]
      },
      "properties": {
        "icao24": "40753f",
        "callsign": "EXS7CT",
        "origin_country": "United Kingdom",
        "time_position": 1785455186,
        "last_contact": 1785455186,
        "baro_altitude": 10972.8,
        "on_ground": false,
        "velocity": 222.14,
        "true_track": 319.23,
        "vertical_rate": 0,
        "geo_altitude": 11597.64,
        "squawk": "6630",
        "spi": false,
        "position_source": 0
      }
    },
    {
      "type": "Feature",
      "geometry": {
        "type": "Point",
        "coordinates": [
          9.7302,
          45.6635
        ]
      },
      "properties": {
        "icao24": "4cadf5",
        "callsign": "RYR51YN",
        "origin_country": "Ireland",
        "time_position": 1785454901,
        "last_contact": 1785454901,
        "baro_altitude": 228.6,
        "on_ground": false,
        "velocity": 77.88,
        "true_track": 285.32,
        "vertical_rate": -3.25,
        "geo_altitude": 358.14,
        "squawk": "5537",
        "spi": false,
        "position_source": 0
      }
    },
    {
      "type": "Feature",
      "geometry": {
        "type": "Point",
        "coordinates": [
          9.394,
          45.1058
        ]
      },
      "properties": {
        "icao24": "4cae52",
        "callsign": "RYR8512",
        "origin_country": "Ireland",
        "time_position": 1785455186,
        "last_contact": 1785455186,
        "baro_altitude": 4411.98,
        "on_ground": false,
        "velocity": 196.43,
        "true_track": 45,
        "vertical_rate": -11.38,
        "geo_altitude": 4777.74,
        "squawk": "7467",
        "spi": false,
        "position_source": 0
      }
    },
    {
      "type": "Feature",
      "geometry": {
        "type": "Point",
        "coordinates": [
          10.2718,
          45.4702
        ]
      },
      "properties": {
        "icao24": "30074f",
        "callsign": "ITIKE",
        "origin_country": "Italy",
        "time_position": 1785454935,
        "last_contact": 1785454935,
        "baro_altitude": 381,
        "on_ground": false,
        "velocity": 61.86,
        "true_track": 133.65,
        "vertical_rate": -3.58,
        "geo_altitude": 571.5,
        "squawk": null,
        "spi": false,
        "position_source": 0
      }
    },
    {
      "type": "Feature",
      "geometry": {
        "type": "Point",
        "coordinates": [
          9.0163,
          46.0194
        ]
      },
      "properties": {
        "icao24": "4caca2",
        "callsign": "ABR177",
        "origin_country": "Ireland",
        "time_position": 1785455186,
        "last_contact": 1785455186,
        "baro_altitude": 5669.28,
        "on_ground": false,
        "velocity": 106.59,
        "true_track": 325.62,
        "vertical_rate": 4.23,
        "geo_altitude": 6057.9,
        "squawk": "1000",
        "spi": false,
        "position_source": 0
      }
    },
    {
      "type": "Feature",
      "geometry": {
        "type": "Point",
        "coordinates": [
          12.3745,
          46.7945
        ]
      },
      "properties": {
        "icao24": "4d234d",
        "callsign": "RYR77UX",
        "origin_country": "Malta",
        "time_position": 1785455186,
        "last_contact": 1785455186,
        "baro_altitude": 10058.4,
        "on_ground": false,
        "velocity": 234.3,
        "true_track": 245.07,
        "vertical_rate": 0,
        "geo_altitude": 10660.38,
        "squawk": "5540",
        "spi": false,
        "position_source": 0
      }
    },
    {
      "type": "Feature",
      "geometry": {
        "type": "Point",
        "coordinates": [
          10.083,
          44.018
        ]
      },
      "properties": {
        "icao24": "4d2290",
        "callsign": "RYR46DW",
        "origin_country": "Malta",
        "time_position": 1785455186,
        "last_contact": 1785455186,
        "baro_altitude": 7025.64,
        "on_ground": false,
        "velocity": 226.12,
        "true_track": 50.26,
        "vertical_rate": -13,
        "geo_altitude": 7528.56,
        "squawk": "1000",
        "spi": false,
        "position_source": 0
      }
    },
    {
      "type": "Feature",
      "geometry": {
        "type": "Point",
        "coordinates": [
          12.335,
          44.9076
        ]
      },
      "properties": {
        "icao24": "4070f0",
        "callsign": "EXS5NK",
        "origin_country": "United Kingdom",
        "time_position": 1785455185,
        "last_contact": 1785455186,
        "baro_altitude": 10972.8,
        "on_ground": false,
        "velocity": 209.54,
        "true_track": 301.04,
        "vertical_rate": 0,
        "geo_altitude": 11620.5,
        "squawk": "7734",
        "spi": false,
        "position_source": 0
      }
    },
    {
      "type": "Feature",
      "geometry": {
        "type": "Point",
        "coordinates": [
          16.2106,
          47.2918
        ]
      },
      "properties": {
        "icao24": "4d21c8",
        "callsign": "CAI7KJ",
        "origin_country": "Malta",
        "time_position": 1785455186,
        "last_contact": 1785455186,
        "baro_altitude": 11277.6,
        "on_ground": false,
        "velocity": 254.77,
        "true_track": 125.13,
        "vertical_rate": 0,
        "geo_altitude": 11879.58,
        "squawk": "7645",
        "spi": false,
        "position_source": 0
      }
    },
    {
      "type": "Feature",
      "geometry": {
        "type": "Point",
        "coordinates": [
          12.2632,
          41.8024
        ]
      },
      "properties": {
        "icao24": "4cad52",
        "callsign": "ITY1270",
        "origin_country": "Ireland",
        "time_position": 1785455080,
        "last_contact": 1785455111,
        "baro_altitude": null,
        "on_ground": true,
        "velocity": 0,
        "true_track": 205.31,
        "vertical_rate": null,
        "geo_altitude": null,
        "squawk": null,
        "spi": false,
        "position_source": 0
      }
    },
    {
      "type": "Feature",
      "geometry": {
        "type": "Point",
        "coordinates": [
          14.3133,
          35.7627
        ]
      },
      "properties": {
        "icao24": "4d21ed",
        "callsign": "RYR45NP",
        "origin_country": "Malta",
        "time_position": 1785455186,
        "last_contact": 1785455186,
        "baro_altitude": 929.64,
        "on_ground": false,
        "velocity": 98.79,
        "true_track": 54.32,
        "vertical_rate": -5.2,
        "geo_altitude": 1051.56,
        "squawk": "3742",
        "spi": false,
        "position_source": 0
      }
    },
    {
      "type": "Feature",
      "geometry": {
        "type": "Point",
        "coordinates": [
          14.7477,
          47.4458
        ]
      },
      "properties": {
        "icao24": "4d21f0",
        "callsign": "RYR41YE",
        "origin_country": "Malta",
        "time_position": 1785455186,
        "last_contact": 1785455186,
        "baro_altitude": 9060.18,
        "on_ground": false,
        "velocity": 236.66,
        "true_track": 230.11,
        "vertical_rate": 8.45,
        "geo_altitude": 9601.2,
        "squawk": "1000",
        "spi": false,
        "position_source": 0
      }
    },
    {
      "type": "Feature",
      "geometry": {
        "type": "Point",
        "coordinates": [
          17.44,
          45.3983
        ]
      },
      "properties": {
        "icao24": "45d962",
        "callsign": "VKG039",
        "origin_country": "Denmark",
        "time_position": 1785455185,
        "last_contact": 1785455186,
        "baro_altitude": 10355.58,
        "on_ground": false,
        "velocity": 215.04,
        "true_track": 338.53,
        "vertical_rate": 0,
        "geo_altitude": 10972.8,
        "squawk": "2051",
        "spi": false,
        "position_source": 0
      }
    },
    {
      "type": "Feature",
      "geometry": {
        "type": "Point",
        "coordinates": [
          17.5254,
          42.3463
        ]
      },
      "properties": {
        "icao24": "4d20fb",
        "callsign": "WMT6876",
        "origin_country": "Malta",
        "time_position": 1785455186,
        "last_contact": 1785455186,
        "baro_altitude": 10706.1,
        "on_ground": false,
        "velocity": 230.92,
        "true_track": 84.76,
        "vertical_rate": -4.55,
        "geo_altitude": 11369.04,
        "squawk": "3730",
        "spi": false,
        "position_source": 0
      }
    },
    {
      "type": "Feature",
      "geometry": {
        "type": "Point",
        "coordinates": [
          12.177,
          42.099
        ]
      },
      "properties": {
        "icao24": "4d2274",
        "callsign": "RYR98RQ",
        "origin_country": "Malta",
        "time_position": 1785455186,
        "last_contact": 1785455186,
        "baro_altitude": 1493.52,
        "on_ground": false,
        "velocity": 116.68,
        "true_track": 192.99,
        "vertical_rate": -8.78,
        "geo_altitude": 1676.4,
        "squawk": "1171",
        "spi": false,
        "position_source": 0
      }
    },
    {
      "type": "Feature",
      "geometry": {
        "type": "Point",
        "coordinates": [
          6.6882,
          44.095
        ]
      },
      "properties": {
        "icao24": "406011",
        "callsign": "EZY92XM",
        "origin_country": "United Kingdom",
        "time_position": 1785455186,
        "last_contact": 1785455186,
        "baro_altitude": 10972.8,
        "on_ground": false,
        "velocity": 221.75,
        "true_track": 331,
        "vertical_rate": -0.33,
        "geo_altitude": 11650.98,
        "squawk": "4002",
        "spi": false,
        "position_source": 0
      }
    },
    {
      "type": "Feature",
      "geometry": {
        "type": "Point",
        "coordinates": [
          7.085,
          43.693
        ]
      },
      "properties": {
        "icao24": "4d2264",
        "callsign": "RYR68SX",
        "origin_country": "Malta",
        "time_position": 1785455186,
        "last_contact": 1785455186,
        "baro_altitude": 11277.6,
        "on_ground": false,
        "velocity": 214.27,
        "true_track": 240.36,
        "vertical_rate": 0,
        "geo_altitude": 11955.78,
        "squawk": "1000",
        "spi": false,
        "position_source": 0
      }
    },
    {
      "type": "Feature",
      "geometry": {
        "type": "Point",
        "coordinates": [
          14.4449,
          41.5969
        ]
      },
      "properties": {
        "icao24": "4d20e1",
        "callsign": "AXY496C",
        "origin_country": "Malta",
        "time_position": 1785455185,
        "last_contact": 1785455186,
        "baro_altitude": 10363.2,
        "on_ground": false,
        "velocity": 220.42,
        "true_track": 292.79,
        "vertical_rate": 0,
        "geo_altitude": 11026.14,
        "squawk": "4154",
        "spi": false,
        "position_source": 0
      }
    },
    {
      "type": "Feature",
      "geometry": {
        "type": "Point",
        "coordinates": [
          18.7473,
          43.0101
        ]
      },
      "properties": {
        "icao24": "39c428",
        "callsign": "AFR570",
        "origin_country": "France",
        "time_position": 1785454971,
        "last_contact": 1785454973,
        "baro_altitude": 11887.2,
        "on_ground": false,
        "velocity": 264.57,
        "true_track": 136.65,
        "vertical_rate": -0.33,
        "geo_altitude": 12595.86,
        "squawk": "0660",
        "spi": false,
        "position_source": 0
      }
    },
    {
      "type": "Feature",
      "geometry": {
        "type": "Point",
        "coordinates": [
          7.8427,
          44.5155
        ]
      },
      "properties": {
        "icao24": "4cac63",
        "callsign": "ABR420",
        "origin_country": "Ireland",
        "time_position": 1785455186,
        "last_contact": 1785455186,
        "baro_altitude": 10149.84,
        "on_ground": false,
        "velocity": 221.21,
        "true_track": 226.13,
        "vertical_rate": 11.38,
        "geo_altitude": 10782.3,
        "squawk": "1000",
        "spi": false,
        "position_source": 0
      }
    },
    {
      "type": "Feature",
      "geometry": {
        "type": "Point",
        "coordinates": [
          12.2687,
          41.8288
        ]
      },
      "properties": {
        "icao24": "4d20bf",
        "callsign": "WMT511",
        "origin_country": "Malta",
        "time_position": 1785455175,
        "last_contact": 1785455175,
        "baro_altitude": null,
        "on_ground": true,
        "velocity": 29.32,
        "true_track": 163.12,
        "vertical_rate": null,
        "geo_altitude": null,
        "squawk": "2247",
        "spi": false,
        "position_source": 0
      }
    },
    {
      "type": "Feature",
      "geometry": {
        "type": "Point",
        "coordinates": [
          15.4703,
          44.1565
        ]
      },
      "properties": {
        "icao24": "408352",
        "callsign": "EXS85BE",
        "origin_country": "United Kingdom",
        "time_position": 1785455186,
        "last_contact": 1785455186,
        "baro_altitude": 10972.8,
        "on_ground": false,
        "velocity": 214.61,
        "true_track": 302.97,
        "vertical_rate": 0,
        "geo_altitude": 11628.12,
        "squawk": "5664",
        "spi": false,
        "position_source": 0
      }
    },
    {
      "type": "Feature",
      "geometry": {
        "type": "Point",
        "coordinates": [
          9.3956,
          47.1228
        ]
      },
      "properties": {
        "icao24": "40702e",
        "callsign": "EXS82FT",
        "origin_country": "United Kingdom",
        "time_position": 1785455186,
        "last_contact": 1785455186,
        "baro_altitude": 11582.4,
        "on_ground": false,
        "velocity": 212.27,
        "true_track": 306.43,
        "vertical_rate": 0,
        "geo_altitude": 12207.24,
        "squawk": "2746",
        "spi": false,
        "position_source": 0
      }
    },
    {
      "type": "Feature",
      "geometry": {
        "type": "Point",
        "coordinates": [
          14.4696,
          35.7934
        ]
      },
      "properties": {
        "icao24": "710104",
        "callsign": "SVA342",
        "origin_country": "Saudi Arabia",
        "time_position": 1785455186,
        "last_contact": 1785455186,
        "baro_altitude": 11277.6,
        "on_ground": false,
        "velocity": 251.92,
        "true_track": 97.04,
        "vertical_rate": 0,
        "geo_altitude": 11925.3,
        "squawk": "4104",
        "spi": false,
        "position_source": 0
      }
    },
    {
      "type": "Feature",
      "geometry": {
        "type": "Point",
        "coordinates": [
          14.2512,
          44.0677
        ]
      },
      "properties": {
        "icao24": "408329",
        "callsign": "TOM553",
        "origin_country": "United Kingdom",
        "time_position": 1785455186,
        "last_contact": 1785455186,
        "baro_altitude": 11582.4,
        "on_ground": false,
        "velocity": 219.27,
        "true_track": 301.86,
        "vertical_rate": 0,
        "geo_altitude": 12283.44,
        "squawk": "2001",
        "spi": false,
        "position_source": 0
      }
    },
    {
      "type": "Feature",
      "geometry": {
        "type": "Point",
        "coordinates": [
          9.2689,
          45.5063
        ]
      },
      "properties": {
        "icao24": "4d2068",
        "callsign": "WMT952",
        "origin_country": "Malta",
        "time_position": 1785455186,
        "last_contact": 1785455186,
        "baro_altitude": 2819.4,
        "on_ground": false,
        "velocity": 178.79,
        "true_track": 258.04,
        "vertical_rate": -13.98,
        "geo_altitude": 3078.48,
        "squawk": "6015",
        "spi": false,
        "position_source": 0
      }
    },
    {
      "type": "Feature",
      "geometry": {
        "type": "Point",
        "coordinates": [
          13.692,
          47.4321
        ]
      },
      "properties": {
        "icao24": "407181",
        "callsign": "EXS44E",
        "origin_country": "United Kingdom",
        "time_position": 1785455186,
        "last_contact": 1785455186,
        "baro_altitude": 10972.8,
        "on_ground": false,
        "velocity": 217.84,
        "true_track": 318.06,
        "vertical_rate": 0,
        "geo_altitude": 11567.16,
        "squawk": "2041",
        "spi": false,
        "position_source": 0
      }
    },
    {
      "type": "Feature",
      "geometry": {
        "type": "Point",
        "coordinates": [
          12.5304,
          37.2074
        ]
      },
      "properties": {
        "icao24": "4d2038",
        "callsign": "KMM455",
        "origin_country": "Malta",
        "time_position": 1785455186,
        "last_contact": 1785455186,
        "baro_altitude": 11262.36,
        "on_ground": false,
        "velocity": 229.23,
        "true_track": 136.27,
        "vertical_rate": 0.33,
        "geo_altitude": 11948.16,
        "squawk": "1263",
        "spi": false,
        "position_source": 0
      }
    },
    {
      "type": "Feature",
      "geometry": {
        "type": "Point",
        "coordinates": [
          10.5501,
          47.6393
        ]
      },
      "properties": {
        "icao24": "4082e6",
        "callsign": "TOM9TD",
        "origin_country": "United Kingdom",
        "time_position": 1785455185,
        "last_contact": 1785455186,
        "baro_altitude": 10972.8,
        "on_ground": false,
        "velocity": 216.5,
        "true_track": 296.99,
        "vertical_rate": 0,
        "geo_altitude": 11582.4,
        "squawk": "1105",
        "spi": false,
        "position_source": 0
      }
    },
    {
      "type": "Feature",
      "geometry": {
        "type": "Point",
        "coordinates": [
          7.0392,
          47.7076
        ]
      },
      "properties": {
        "icao24": "4082cb",
        "callsign": "TOM4487",
        "origin_country": "United Kingdom",
        "time_position": 1785455186,
        "last_contact": 1785455186,
        "baro_altitude": 12192,
        "on_ground": false,
        "velocity": 215.16,
        "true_track": 308.79,
        "vertical_rate": 0,
        "geo_altitude": 12786.36,
        "squawk": "2776",
        "spi": false,
        "position_source": 0
      }
    },
    {
      "type": "Feature",
      "geometry": {
        "type": "Point",
        "coordinates": [
          10.9312,
          47.2148
        ]
      },
      "properties": {
        "icao24": "4082ac",
        "callsign": "EZY52DQ",
        "origin_country": "United Kingdom",
        "time_position": 1785455186,
        "last_contact": 1785455186,
        "baro_altitude": 10980.42,
        "on_ground": false,
        "velocity": 216.49,
        "true_track": 316.25,
        "vertical_rate": 0,
        "geo_altitude": 11612.88,
        "squawk": "3117",
        "spi": false,
        "position_source": 0
      }
    }
  ]
}