{
  "type": "FeatureCollection",
  "source": "opensky",
  "dataset": "aircraft_italy",
  "generated_at": "2026-08-17T01:52:55.948952+00:00",
  "opensky_time": 1786931557,
  "count": 78,
  "features": [
    {
      "type": "Feature",
      "geometry": {
        "type": "Point",
        "coordinates": [
          16.6689,
          38.8527
        ]
      },
      "properties": {
        "icao24": "46b82f",
        "callsign": "AEE7VH",
        "origin_country": "Greece",
        "time_position": 1786931557,
        "last_contact": 1786931557,
        "baro_altitude": 11285.22,
        "on_ground": false,
        "velocity": 254.57,
        "true_track": 99.54,
        "vertical_rate": 0,
        "geo_altitude": 11871.96,
        "squawk": "1232",
        "spi": false,
        "position_source": 0
      }
    },
    {
      "type": "Feature",
      "geometry": {
        "type": "Point",
        "coordinates": [
          13.6255,
          39.8056
        ]
      },
      "properties": {
        "icao24": "46b821",
        "callsign": "AEE713",
        "origin_country": "Greece",
        "time_position": 1786931556,
        "last_contact": 1786931556,
        "baro_altitude": 10949.94,
        "on_ground": false,
        "velocity": 248.98,
        "true_track": 102.77,
        "vertical_rate": -0.33,
        "geo_altitude": 11513.82,
        "squawk": "1266",
        "spi": false,
        "position_source": 0
      }
    },
    {
      "type": "Feature",
      "geometry": {
        "type": "Point",
        "coordinates": [
          14.3711,
          39.6353
        ]
      },
      "properties": {
        "icao24": "46b828",
        "callsign": "AEE3EM",
        "origin_country": "Greece",
        "time_position": 1786931556,
        "last_contact": 1786931556,
        "baro_altitude": 10675.62,
        "on_ground": false,
        "velocity": 246.36,
        "true_track": 102.79,
        "vertical_rate": 0.33,
        "geo_altitude": 11231.88,
        "squawk": "0210",
        "spi": false,
        "position_source": 0
      }
    },
    {
      "type": "Feature",
      "geometry": {
        "type": "Point",
        "coordinates": [
          8.7257,
          45.6202
        ]
      },
      "properties": {
        "icao24": "440224",
        "callsign": "EJU3618",
        "origin_country": "Austria",
        "time_position": 1786931557,
        "last_contact": 1786931557,
        "baro_altitude": 198.12,
        "on_ground": false,
        "velocity": 70.22,
        "true_track": 349.02,
        "vertical_rate": -0.33,
        "geo_altitude": 259.08,
        "squawk": "1000",
        "spi": false,
        "position_source": 0
      }
    },
    {
      "type": "Feature",
      "geometry": {
        "type": "Point",
        "coordinates": [
          7.3221,
          40.7419
        ]
      },
      "properties": {
        "icao24": "3c4b27",
        "callsign": "DLH573",
        "origin_country": "Germany",
        "time_position": 1786931556,
        "last_contact": 1786931556,
        "baro_altitude": 11582.4,
        "on_ground": false,
        "velocity": 252.11,
        "true_track": 7.39,
        "vertical_rate": 0,
        "geo_altitude": 12169.14,
        "squawk": "1000",
        "spi": false,
        "position_source": 0
      }
    },
    {
      "type": "Feature",
      "geometry": {
        "type": "Point",
        "coordinates": [
          17.8123,
          46.6052
        ]
      },
      "properties": {
        "icao24": "4bb4f0",
        "callsign": "FHY1346",
        "origin_country": "Turkey",
        "time_position": 1786931556,
        "last_contact": 1786931556,
        "baro_altitude": 10058.4,
        "on_ground": false,
        "velocity": 228.78,
        "true_track": 130.53,
        "vertical_rate": 0,
        "geo_altitude": 10507.98,
        "squawk": "4510",
        "spi": false,
        "position_source": 0
      }
    },
    {
      "type": "Feature",
      "geometry": {
        "type": "Point",
        "coordinates": [
          18.5257,
          46.4569
        ]
      },
      "properties": {
        "icao24": "505e8e",
        "callsign": "EAT301",
        "origin_country": "Slovakia",
        "time_position": 1786931556,
        "last_contact": 1786931557,
        "baro_altitude": 10149.84,
        "on_ground": false,
        "velocity": 173.31,
        "true_track": 151.84,
        "vertical_rate": 4.88,
        "geo_altitude": 10614.66,
        "squawk": "4422",
        "spi": false,
        "position_source": 0
      }
    },
    {
      "type": "Feature",
      "geometry": {
        "type": "Point",
        "coordinates": [
          12.2537,
          41.8646
        ]
      },
      "properties": {
        "icao24": "8015f7",
        "callsign": "AIC101",
        "origin_country": "India",
        "time_position": 1786931339,
        "last_contact": 1786931345,
        "baro_altitude": 121.92,
        "on_ground": false,
        "velocity": 77.61,
        "true_track": 162.65,
        "vertical_rate": -3.9,
        "geo_altitude": 182.88,
        "squawk": "2040",
        "spi": false,
        "position_source": 0
      }
    },
    {
      "type": "Feature",
      "geometry": {
        "type": "Point",
        "coordinates": [
          16.5693,
          45.047
        ]
      },
      "properties": {
        "icao24": "4521b2",
        "callsign": "GPX9RE",
        "origin_country": "Bulgaria",
        "time_position": 1786931557,
        "last_contact": 1786931557,
        "baro_altitude": 10660.38,
        "on_ground": false,
        "velocity": 232.34,
        "true_track": 137.69,
        "vertical_rate": 0,
        "geo_altitude": null,
        "squawk": "2553",
        "spi": false,
        "position_source": 0
      }
    },
    {
      "type": "Feature",
      "geometry": {
        "type": "Point",
        "coordinates": [
          16.2407,
          39.1528
        ]
      },
      "properties": {
        "icao24": "4bc883",
        "callsign": "PGT652",
        "origin_country": "Turkey",
        "time_position": 1786931556,
        "last_contact": 1786931556,
        "baro_altitude": 10683.24,
        "on_ground": false,
        "velocity": 247.67,
        "true_track": 85.59,
        "vertical_rate": 0.33,
        "geo_altitude": 11254.74,
        "squawk": "7747",
        "spi": false,
        "position_source": 0
      }
    },
    {
      "type": "Feature",
      "geometry": {
        "type": "Point",
        "coordinates": [
          18.8633,
          40.6055
        ]
      },
      "properties": {
        "icao24": "4bb470",
        "callsign": "MNB2547",
        "origin_country": "Turkey",
        "time_position": 1786931557,
        "last_contact": 1786931557,
        "baro_altitude": 11887.2,
        "on_ground": false,
        "velocity": 258.36,
        "true_track": 94,
        "vertical_rate": 0,
        "geo_altitude": 12435.84,
        "squawk": "4313",
        "spi": false,
        "position_source": 0
      }
    },
    {
      "type": "Feature",
      "geometry": {
        "type": "Point",
        "coordinates": [
          11.0803,
          40.6586
        ]
      },
      "properties": {
        "icao24": "3c4a09",
        "callsign": "DLH577",
        "origin_country": "Germany",
        "time_position": 1786931556,
        "last_contact": 1786931556,
        "baro_altitude": 12192,
        "on_ground": false,
        "velocity": 253.77,
        "true_track": 1.97,
        "vertical_rate": 0,
        "geo_altitude": 12793.98,
        "squawk": "0203",
        "spi": false,
        "position_source": 0
      }
    },
    {
      "type": "Feature",
      "geometry": {
        "type": "Point",
        "coordinates": [
          8.7245,
          45.6414
        ]
      },
      "properties": {
        "icao24": "440018",
        "callsign": "EJU73ZE",
        "origin_country": "Austria",
        "time_position": 1786931291,
        "last_contact": 1786931292,
        "baro_altitude": null,
        "on_ground": true,
        "velocity": 0,
        "true_track": 78.75,
        "vertical_rate": null,
        "geo_altitude": null,
        "squawk": "4643",
        "spi": false,
        "position_source": 0
      }
    },
    {
      "type": "Feature",
      "geometry": {
        "type": "Point",
        "coordinates": [
          8.8916,
          41.5241
        ]
      },
      "properties": {
        "icao24": "44001f",
        "callsign": "EJU12RT",
        "origin_country": "Austria",
        "time_position": 1786931556,
        "last_contact": 1786931556,
        "baro_altitude": 9753.6,
        "on_ground": false,
        "velocity": 214.08,
        "true_track": 1.51,
        "vertical_rate": 0,
        "geo_altitude": 10248.9,
        "squawk": "0206",
        "spi": false,
        "position_source": 0
      }
    },
    {
      "type": "Feature",
      "geometry": {
        "type": "Point",
        "coordinates": [
          16.7489,
          45.4286
        ]
      },
      "properties": {
        "icao24": "45216e",
        "callsign": "GPX1470",
        "origin_country": "Bulgaria",
        "time_position": 1786931556,
        "last_contact": 1786931557,
        "baro_altitude": 10363.2,
        "on_ground": false,
        "velocity": 211.22,
        "true_track": 328.75,
        "vertical_rate": 0,
        "geo_altitude": 10812.78,
        "squawk": "0512",
        "spi": false,
        "position_source": 0
      }
    },
    {
      "type": "Feature",
      "geometry": {
        "type": "Point",
        "coordinates": [
          16.5939,
          41.1698
        ]
      },
      "properties": {
        "icao24": "452179",
        "callsign": "LBT7261",
        "origin_country": "Bulgaria",
        "time_position": 1786931556,
        "last_contact": 1786931556,
        "baro_altitude": 10058.4,
        "on_ground": false,
        "velocity": 237.96,
        "true_track": 210.39,
        "vertical_rate": -0.33,
        "geo_altitude": 10576.56,
        "squawk": "2256",
        "spi": false,
        "position_source": 0
      }
    },
    {
      "type": "Feature",
      "geometry": {
        "type": "Point",
        "coordinates": [
          13.4316,
          39.7309
        ]
      },
      "properties": {
        "icao24": "4892c8",
        "callsign": "ENT4009",
        "origin_country": "Poland",
        "time_position": 1786931556,
        "last_contact": 1786931556,
        "baro_altitude": 11277.6,
        "on_ground": false,
        "velocity": 232.28,
        "true_track": 195.54,
        "vertical_rate": 0,
        "geo_altitude": 11849.1,
        "squawk": "2203",
        "spi": false,
        "position_source": 0
      }
    },
    {
      "type": "Feature",
      "geometry": {
        "type": "Point",
        "coordinates": [
          9.4494,
          47.3136
        ]
      },
      "properties": {
        "icao24": "4066d0",
        "callsign": "TOM805",
        "origin_country": "United Kingdom",
        "time_position": 1786931556,
        "last_contact": 1786931557,
        "baro_altitude": 10972.8,
        "on_ground": false,
        "velocity": 219.88,
        "true_track": 307.3,
        "vertical_rate": 0.33,
        "geo_altitude": 11422.38,
        "squawk": "7526",
        "spi": false,
        "position_source": 0
      }
    },
    {
      "type": "Feature",
      "geometry": {
        "type": "Point",
        "coordinates": [
          18.4301,
          39.1874
        ]
      },
      "properties": {
        "icao24": "4bb212",
        "callsign": "THY658",
        "origin_country": "Turkey",
        "time_position": 1786931557,
        "last_contact": 1786931557,
        "baro_altitude": 10066.02,
        "on_ground": false,
        "velocity": 239.32,
        "true_track": 76.32,
        "vertical_rate": 0,
        "geo_altitude": 10584.18,
        "squawk": "6174",
        "spi": false,
        "position_source": 0
      }
    },
    {
      "type": "Feature",
      "geometry": {
        "type": "Point",
        "coordinates": [
          12.212,
          39.2088
        ]
      },
      "properties": {
        "icao24": "489229",
        "callsign": "ENT1341",
        "origin_country": "Poland",
        "time_position": 1786931557,
        "last_contact": 1786931557,
        "baro_altitude": 11277.6,
        "on_ground": false,
        "velocity": 231.61,
        "true_track": 204.4,
        "vertical_rate": 0.33,
        "geo_altitude": 11849.1,
        "squawk": "1172",
        "spi": false,
        "position_source": 0
      }
    },
    {
      "type": "Feature",
      "geometry": {
        "type": "Point",
        "coordinates": [
          7.5821,
          44.0345
        ]
      },
      "properties": {
        "icao24": "34538e",
        "callsign": "AEA35RZ",
        "origin_country": "Spain",
        "time_position": 1786931557,
        "last_contact": 1786931557,
        "baro_altitude": 11277.6,
        "on_ground": false,
        "velocity": 220.31,
        "true_track": 238.46,
        "vertical_rate": 0,
        "geo_altitude": 11811,
        "squawk": "1000",
        "spi": false,
        "position_source": 0
      }
    },
    {
      "type": "Feature",
      "geometry": {
        "type": "Point",
        "coordinates": [
          14.2417,
          42.1709
        ]
      },
      "properties": {
        "icao24": "3a2e22",
        "callsign": "REU973",
        "origin_country": "France",
        "time_position": 1786931556,
        "last_contact": 1786931556,
        "baro_altitude": 11582.4,
        "on_ground": false,
        "velocity": 251.55,
        "true_track": 308.44,
        "vertical_rate": -0.33,
        "geo_altitude": 12138.66,
        "squawk": "2037",
        "spi": false,
        "position_source": 0
      }
    },
    {
      "type": "Feature",
      "geometry": {
        "type": "Point",
        "coordinates": [
          15.6522,
          46.3332
        ]
      },
      "properties": {
        "icao24": "3965a9",
        "callsign": "AFR111",
        "origin_country": "France",
        "time_position": 1786931556,
        "last_contact": 1786931556,
        "baro_altitude": 10972.8,
        "on_ground": false,
        "velocity": 224.93,
        "true_track": 299.91,
        "vertical_rate": 0,
        "geo_altitude": 11460.48,
        "squawk": "3217",
        "spi": false,
        "position_source": 0
      }
    },
    {
      "type": "Feature",
      "geometry": {
        "type": "Point",
        "coordinates": [
          12.4246,
          43.4808
        ]
      },
      "properties": {
        "icao24": "8964b2",
        "callsign": "UAE39L",
        "origin_country": "United Arab Emirates",
        "time_position": 1786931557,
        "last_contact": 1786931557,
        "baro_altitude": 11879.58,
        "on_ground": false,
        "velocity": 259.12,
        "true_track": 127.98,
        "vertical_rate": 0,
        "geo_altitude": 12405.36,
        "squawk": "0477",
        "spi": false,
        "position_source": 0
      }
    },
    {
      "type": "Feature",
      "geometry": {
        "type": "Point",
        "coordinates": [
          15.6823,
          46.8285
        ]
      },
      "properties": {
        "icao24": "4b990b",
        "callsign": "FHY1688",
        "origin_country": "Turkey",
        "time_position": 1786931557,
        "last_contact": 1786931557,
        "baro_altitude": 10668,
        "on_ground": false,
        "velocity": 247.86,
        "true_track": 128.51,
        "vertical_rate": -0.33,
        "geo_altitude": 11125.2,
        "squawk": "7647",
        "spi": false,
        "position_source": 0
      }
    },
    {
      "type": "Feature",
      "geometry": {
        "type": "Point",
        "coordinates": [
          6.8189,
          41.4339
        ]
      },
      "properties": {
        "icao24": "44ccc2",
        "callsign": "BEL12B",
        "origin_country": "Belgium",
        "time_position": 1786931557,
        "last_contact": 1786931557,
        "baro_altitude": 11582.4,
        "on_ground": false,
        "velocity": 238.72,
        "true_track": 356.17,
        "vertical_rate": 0.33,
        "geo_altitude": 12153.9,
        "squawk": "1000",
        "spi": false,
        "position_source": 0
      }
    },
    {
      "type": "Feature",
      "geometry": {
        "type": "Point",
        "coordinates": [
          6.9025,
          42.3532
        ]
      },
      "properties": {
        "icao24": "44ccc4",
        "callsign": "BEL8LE",
        "origin_country": "Belgium",
        "time_position": 1786931556,
        "last_contact": 1786931557,
        "baro_altitude": 11590.02,
        "on_ground": false,
        "velocity": 232.16,
        "true_track": 357.97,
        "vertical_rate": 0,
        "geo_altitude": 12146.28,
        "squawk": "1000",
        "spi": false,
        "position_source": 0
      }
    },
    {
      "type": "Feature",
      "geometry": {
        "type": "Point",
        "coordinates": [
          6.2105,
          38.1103
        ]
      },
      "properties": {
        "icao24": "407943",
        "callsign": "BAW58L",
        "origin_country": "United Kingdom",
        "time_position": 1786931556,
        "last_contact": 1786931556,
        "baro_altitude": 12192,
        "on_ground": false,
        "velocity": 252.98,
        "true_track": 353.93,
        "vertical_rate": 0,
        "geo_altitude": 12839.7,
        "squawk": null,
        "spi": false,
        "position_source": 0
      }
    },
    {
      "type": "Feature",
      "geometry": {
        "type": "Point",
        "coordinates": [
          13.9309,
          36.2319
        ]
      },
      "properties": {
        "icao24": "040199",
        "callsign": "ETH740",
        "origin_country": "Ethiopia",
        "time_position": 1786931556,
        "last_contact": 1786931556,
        "baro_altitude": 11582.4,
        "on_ground": false,
        "velocity": 227,
        "true_track": 279.65,
        "vertical_rate": 0,
        "geo_altitude": 12252.96,
        "squawk": "2011",
        "spi": false,
        "position_source": 0
      }
    },
    {
      "type": "Feature",
      "geometry": {
        "type": "Point",
        "coordinates": [
          17.6818,
          46.8866
        ]
      },
      "properties": {
        "icao24": "4bcd86",
        "callsign": "SXS6YM",
        "origin_country": "Turkey",
        "time_position": 1786931556,
        "last_contact": 1786931556,
        "baro_altitude": 10972.8,
        "on_ground": false,
        "velocity": 211.89,
        "true_track": 317.36,
        "vertical_rate": 0,
        "geo_altitude": 11452.86,
        "squawk": "3231",
        "spi": false,
        "position_source": 0
      }
    },
    {
      "type": "Feature",
      "geometry": {
        "type": "Point",
        "coordinates": [
          8.7439,
          45.5544
        ]
      },
      "properties": {
        "icao24": "4ca56b",
        "callsign": "RYR46UC",
        "origin_country": "Ireland",
        "time_position": 1786931556,
        "last_contact": 1786931557,
        "baro_altitude": 548.64,
        "on_ground": false,
        "velocity": 89.5,
        "true_track": 349.4,
        "vertical_rate": -4.55,
        "geo_altitude": 632.46,
        "squawk": "1000",
        "spi": false,
        "position_source": 0
      }
    },
    {
      "type": "Feature",
      "geometry": {
        "type": "Point",
        "coordinates": [
          10.3473,
          36.6362
        ]
      },
      "properties": {
        "icao24": "4ba9e7",
        "callsign": "THY1CT",
        "origin_country": "Turkey",
        "time_position": 1786931392,
        "last_contact": 1786931392,
        "baro_altitude": 10972.8,
        "on_ground": false,
        "velocity": 227.12,
        "true_track": 238.15,
        "vertical_rate": 0,
        "geo_altitude": 11597.64,
        "squawk": "2350",
        "spi": false,
        "position_source": 0
      }
    },
    {
      "type": "Feature",
      "geometry": {
        "type": "Point",
        "coordinates": [
          13.3544,
          41.5247
        ]
      },
      "properties": {
        "icao24": "040046",
        "callsign": "ETH518",
        "origin_country": "Ethiopia",
        "time_position": 1786931556,
        "last_contact": 1786931556,
        "baro_altitude": 7368.54,
        "on_ground": false,
        "velocity": 212.35,
        "true_track": 296.32,
        "vertical_rate": -9.43,
        "geo_altitude": 7787.64,
        "squawk": "6624",
        "spi": false,
        "position_source": 0
      }
    },
    {
      "type": "Feature",
      "geometry": {
        "type": "Point",
        "coordinates": [
          16.7818,
          47.6955
        ]
      },
      "properties": {
        "icao24": "49d2ee",
        "callsign": "TVS9A1",
        "origin_country": "Czech Republic",
        "time_position": 1786931556,
        "last_contact": 1786931556,
        "baro_altitude": 4038.6,
        "on_ground": false,
        "velocity": 182.92,
        "true_track": 64.16,
        "vertical_rate": -8.78,
        "geo_altitude": 4251.96,
        "squawk": "1000",
        "spi": false,
        "position_source": 0
      }
    },
    {
      "type": "Feature",
      "geometry": {
        "type": "Point",
        "coordinates": [
          12.735,
          36.0174
        ]
      },
      "properties": {
        "icao24": "74482f",
        "callsign": "RJA555",
        "origin_country": "Jordan",
        "time_position": 1786931556,
        "last_contact": 1786931556,
        "baro_altitude": 9753.6,
        "on_ground": false,
        "velocity": 222.85,
        "true_track": 271.72,
        "vertical_rate": 0.33,
        "geo_altitude": 10340.34,
        "squawk": "5605",
        "spi": false,
        "position_source": 0
      }
    },
    {
      "type": "Feature",
      "geometry": {
        "type": "Point",
        "coordinates": [
          12.1131,
          36.0305
        ]
      },
      "properties": {
        "icao24": "744823",
        "callsign": "RJA517",
        "origin_country": "Jordan",
        "time_position": 1786931556,
        "last_contact": 1786931557,
        "baro_altitude": 10363.2,
        "on_ground": false,
        "velocity": 219.72,
        "true_track": 271.21,
        "vertical_rate": 0,
        "geo_altitude": 10980.42,
        "squawk": "5623",
        "spi": false,
        "position_source": 0
      }
    },
    {
      "type": "Feature",
      "geometry": {
        "type": "Point",
        "coordinates": [
          8.733,
          45.6323
        ]
      },
      "properties": {
        "icao24": "31d7a4",
        "callsign": "ECHO8",
        "origin_country": "Italy",
        "time_position": 1786931556,
        "last_contact": 1786931556,
        "baro_altitude": null,
        "on_ground": true,
        "velocity": 5.66,
        "true_track": 340.31,
        "vertical_rate": null,
        "geo_altitude": null,
        "squawk": null,
        "spi": false,
        "position_source": 0
      }
    },
    {
      "type": "Feature",
      "geometry": {
        "type": "Point",
        "coordinates": [
          14.7813,
          45.0614
        ]
      },
      "properties": {
        "icao24": "407ff4",
        "callsign": "WUK26NJ",
        "origin_country": "United Kingdom",
        "time_position": 1786931556,
        "last_contact": 1786931557,
        "baro_altitude": 10378.44,
        "on_ground": false,
        "velocity": 223.57,
        "true_track": 335.68,
        "vertical_rate": 0,
        "geo_altitude": 10881.36,
        "squawk": "0510",
        "spi": false,
        "position_source": 0
      }
    },
    {
      "type": "Feature",
      "geometry": {
        "type": "Point",
        "coordinates": [
          8.4315,
          43.6976
        ]
      },
      "properties": {
        "icao24": "48e97c",
        "callsign": "LOT6230",
        "origin_country": "Poland",
        "time_position": 1786931557,
        "last_contact": 1786931557,
        "baro_altitude": 11582.4,
        "on_ground": false,
        "velocity": 235.11,
        "true_track": 43.23,
        "vertical_rate": 0,
        "geo_altitude": 12123.42,
        "squawk": "1000",
        "spi": false,
        "position_source": 0
      }
    },
    {
      "type": "Feature",
      "geometry": {
        "type": "Point",
        "coordinates": [
          12.4465,
          39.6691
        ]
      },
      "properties": {
        "icao24": "abcf7f",
        "callsign": "GTI569",
        "origin_country": "United States",
        "time_position": 1786931556,
        "last_contact": 1786931556,
        "baro_altitude": 9753.6,
        "on_ground": false,
        "velocity": 240.3,
        "true_track": 290.69,
        "vertical_rate": 0,
        "geo_altitude": 10279.38,
        "squawk": null,
        "spi": false,
        "position_source": 0
      }
    },
    {
      "type": "Feature",
      "geometry": {
        "type": "Point",
        "coordinates": [
          7.5195,
          47.608
        ]
      },
      "properties": {
        "icao24": "384bff",
        "callsign": "M03",
        "origin_country": "France",
        "time_position": 1786931556,
        "last_contact": 1786931556,
        "baro_altitude": null,
        "on_ground": true,
        "velocity": 16.46,
        "true_track": 334.69,
        "vertical_rate": null,
        "geo_altitude": null,
        "squawk": null,
        "spi": false,
        "position_source": 0
      }
    },
    {
      "type": "Feature",
      "geometry": {
        "type": "Point",
        "coordinates": [
          11.2026,
          46.4014
        ]
      },
      "properties": {
        "icao24": "406b12",
        "callsign": "TOM203",
        "origin_country": "United Kingdom",
        "time_position": 1786931557,
        "last_contact": 1786931557,
        "baro_altitude": 12184.38,
        "on_ground": false,
        "velocity": 232.15,
        "true_track": 288.07,
        "vertical_rate": 0,
        "geo_altitude": 12687.3,
        "squawk": "3271",
        "spi": false,
        "position_source": 0
      }
    },
    {
      "type": "Feature",
      "geometry": {
        "type": "Point",
        "coordinates": [
          18.6539,
          47.2459
        ]
      },
      "properties": {
        "icao24": "7c806a",
        "callsign": "QFA219",
        "origin_country": "Australia",
        "time_position": 1786931556,
        "last_contact": 1786931557,
        "baro_altitude": 12184.38,
        "on_ground": false,
        "velocity": 233.19,
        "true_track": 291.75,
        "vertical_rate": 0.33,
        "geo_altitude": 12641.58,
        "squawk": "3226",
        "spi": false,
        "position_source": 0
      }
    },
    {
      "type": "Feature",
      "geometry": {
        "type": "Point",
        "coordinates": [
          17.1233,
          47.0055
        ]
      },
      "properties": {
        "icao24": "4bb861",
        "callsign": "PGT609P",
        "origin_country": "Turkey",
        "time_position": 1786931557,
        "last_contact": 1786931557,
        "baro_altitude": 11277.6,
        "on_ground": false,
        "velocity": 253,
        "true_track": 130.13,
        "vertical_rate": 0,
        "geo_altitude": 11742.42,
        "squawk": "4505",
        "spi": false,
        "position_source": 0
      }
    },
    {
      "type": "Feature",
      "geometry": {
        "type": "Point",
        "coordinates": [
          17.0923,
          45.322
        ]
      },
      "properties": {
        "icao24": "4bb86e",
        "callsign": "PGT23AG",
        "origin_country": "Turkey",
        "time_position": 1786931556,
        "last_contact": 1786931556,
        "baro_altitude": 11285.22,
        "on_ground": false,
        "velocity": 246.48,
        "true_track": 131.11,
        "vertical_rate": 0,
        "geo_altitude": 11795.76,
        "squawk": "7655",
        "spi": false,
        "position_source": 0
      }
    },
    {
      "type": "Feature",
      "geometry": {
        "type": "Point",
        "coordinates": [
          10.1337,
          39.5552
        ]
      },
      "properties": {
        "icao24": "46b8b4",
        "callsign": "AEE3LP",
        "origin_country": "Greece",
        "time_position": 1786931554,
        "last_contact": 1786931556,
        "baro_altitude": 11269.98,
        "on_ground": false,
        "velocity": 253.33,
        "true_track": 95.71,
        "vertical_rate": -0.33,
        "geo_altitude": 11841.48,
        "squawk": "1147",
        "spi": false,
        "position_source": 0
      }
    },
    {
      "type": "Feature",
      "geometry": {
        "type": "Point",
        "coordinates": [
          8.7213,
          45.6159
        ]
      },
      "properties": {
        "icao24": "06a0dd",
        "callsign": "QTR76G",
        "origin_country": "Qatar",
        "time_position": 1786931556,
        "last_contact": 1786931556,
        "baro_altitude": null,
        "on_ground": true,
        "velocity": 1.54,
        "true_track": 351.56,
        "vertical_rate": null,
        "geo_altitude": null,
        "squawk": null,
        "spi": false,
        "position_source": 0
      }
    },
    {
      "type": "Feature",
      "geometry": {
        "type": "Point",
        "coordinates": [
          6.091,
          43.5835
        ]
      },
      "properties": {
        "icao24": "3c65e4",
        "callsign": "DLH1319",
        "origin_country": "Germany",
        "time_position": 1786931556,
        "last_contact": 1786931556,
        "baro_altitude": 10965.18,
        "on_ground": false,
        "velocity": 230.71,
        "true_track": 22.28,
        "vertical_rate": 0,
        "geo_altitude": 11490.96,
        "squawk": "1000",
        "spi": false,
        "position_source": 0
      }
    },
    {
      "type": "Feature",
      "geometry": {
        "type": "Point",
        "coordinates": [
          8.5548,
          47.4542
        ]
      },
      "properties": {
        "icao24": "4b5da8",
        "callsign": "ATL778",
        "origin_country": "Switzerland",
        "time_position": 1786931556,
        "last_contact": 1786931557,
        "baro_altitude": null,
        "on_ground": true,
        "velocity": 2.57,
        "true_track": 334.69,
        "vertical_rate": null,
        "geo_altitude": null,
        "squawk": null,
        "spi": false,
        "position_source": 0
      }
    },
    {
      "type": "Feature",
      "geometry": {
        "type": "Point",
        "coordinates": [
          8.3549,
          42.1102
        ]
      },
      "properties": {
        "icao24": "3c6561",
        "callsign": "OCN133",
        "origin_country": "Germany",
        "time_position": 1786931556,
        "last_contact": 1786931556,
        "baro_altitude": 12192,
        "on_ground": false,
        "velocity": 238.33,
        "true_track": 6.82,
        "vertical_rate": 0,
        "geo_altitude": 12748.26,
        "squawk": "1000",
        "spi": false,
        "position_source": 0
      }
    },
    {
      "type": "Feature",
      "geometry": {
        "type": "Point",
        "coordinates": [
          16.9551,
          38.7856
        ]
      },
      "properties": {
        "icao24": "0a0079",
        "callsign": "DAH3021",
        "origin_country": "Algeria",
        "time_position": 1786931556,
        "last_contact": 1786931556,
        "baro_altitude": 10972.8,
        "on_ground": false,
        "velocity": 224.34,
        "true_track": 251.69,
        "vertical_rate": 0,
        "geo_altitude": 11513.82,
        "squawk": "2343",
        "spi": false,
        "position_source": 0
      }
    },
    {
      "type": "Feature",
      "geometry": {
        "type": "Point",
        "coordinates": [
          10.1709,
          36.9715
        ]
      },
      "properties": {
        "icao24": "0a0075",
        "callsign": "DAH3023",
        "origin_country": "Algeria",
        "time_position": 1786931452,
        "last_contact": 1786931454,
        "baro_altitude": 10370.82,
        "on_ground": false,
        "velocity": 223.37,
        "true_track": 256.96,
        "vertical_rate": 0,
        "geo_altitude": 10949.94,
        "squawk": "2316",
        "spi": false,
        "position_source": 0
      }
    },
    {
      "type": "Feature",
      "geometry": {
        "type": "Point",
        "coordinates": [
          18.0119,
          35.435
        ]
      },
      "properties": {
        "icao24": "0a0086",
        "callsign": "DAH462",
        "origin_country": "Algeria",
        "time_position": 1786931553,
        "last_contact": 1786931553,
        "baro_altitude": 11887.2,
        "on_ground": false,
        "velocity": 266.28,
        "true_track": 98.44,
        "vertical_rate": 0,
        "geo_altitude": 12580.62,
        "squawk": "4110",
        "spi": false,
        "position_source": 0
      }
    },
    {
      "type": "Feature",
      "geometry": {
        "type": "Point",
        "coordinates": [
          7.9587,
          43.1626
        ]
      },
      "properties": {
        "icao24": "3c64f6",
        "callsign": "DLH595",
        "origin_country": "Germany",
        "time_position": 1786931556,
        "last_contact": 1786931556,
        "baro_altitude": 11582.4,
        "on_ground": false,
        "velocity": 236.07,
        "true_track": 14.13,
        "vertical_rate": 0,
        "geo_altitude": 12123.42,
        "squawk": "1000",
        "spi": false,
        "position_source": 0
      }
    },
    {
      "type": "Feature",
      "geometry": {
        "type": "Point",
        "coordinates": [
          10.1389,
          43.3557
        ]
      },
      "properties": {
        "icao24": "3c6489",
        "callsign": "DLH1327",
        "origin_country": "Germany",
        "time_position": 1786931556,
        "last_contact": 1786931557,
        "baro_altitude": 10378.44,
        "on_ground": false,
        "velocity": 239.94,
        "true_track": 7.89,
        "vertical_rate": 0.33,
        "geo_altitude": 10873.74,
        "squawk": "6172",
        "spi": false,
        "position_source": 0
      }
    },
    {
      "type": "Feature",
      "geometry": {
        "type": "Point",
        "coordinates": [
          8.5592,
          47.457
        ]
      },
      "properties": {
        "icao24": "4b5d62",
        "callsign": "VIKTOR21",
        "origin_country": "Switzerland",
        "time_position": 1786931556,
        "last_contact": 1786931556,
        "baro_altitude": null,
        "on_ground": true,
        "velocity": 3.6,
        "true_track": 281.25,
        "vertical_rate": null,
        "geo_altitude": null,
        "squawk": null,
        "spi": false,
        "position_source": 0
      }
    },
    {
      "type": "Feature",
      "geometry": {
        "type": "Point",
        "coordinates": [
          17.0977,
          44.7994
        ]
      },
      "properties": {
        "icao24": "408027",
        "callsign": "TOM9BW",
        "origin_country": "United Kingdom",
        "time_position": 1786931557,
        "last_contact": 1786931557,
        "baro_altitude": 10972.8,
        "on_ground": false,
        "velocity": 225.69,
        "true_track": 308.99,
        "vertical_rate": 0,
        "geo_altitude": 11468.1,
        "squawk": "5221",
        "spi": false,
        "position_source": 0
      }
    },
    {
      "type": "Feature",
      "geometry": {
        "type": "Point",
        "coordinates": [
          16.4402,
          44.6055
        ]
      },
      "properties": {
        "icao24": "70c122",
        "callsign": "OMA144",
        "origin_country": "Oman",
        "time_position": 1786931557,
        "last_contact": 1786931557,
        "baro_altitude": 11887.2,
        "on_ground": false,
        "velocity": 261.66,
        "true_track": 107.15,
        "vertical_rate": 0,
        "geo_altitude": 12412.98,
        "squawk": "1160",
        "spi": false,
        "position_source": 0
      }
    },
    {
      "type": "Feature",
      "geometry": {
        "type": "Point",
        "coordinates": [
          10.6947,
          45.2414
        ]
      },
      "properties": {
        "icao24": "4ca960",
        "callsign": "NOS7027",
        "origin_country": "Ireland",
        "time_position": 1786931557,
        "last_contact": 1786931557,
        "baro_altitude": 1310.64,
        "on_ground": false,
        "velocity": 102.8,
        "true_track": 329.97,
        "vertical_rate": -0.65,
        "geo_altitude": 1409.7,
        "squawk": "2070",
        "spi": false,
        "position_source": 0
      }
    },
    {
      "type": "Feature",
      "geometry": {
        "type": "Point",
        "coordinates": [
          14.3198,
          42.6879
        ]
      },
      "properties": {
        "icao24": "48ea3b",
        "callsign": "ENT4017",
        "origin_country": "Poland",
        "time_position": 1786931556,
        "last_contact": 1786931557,
        "baro_altitude": 11582.4,
        "on_ground": false,
        "velocity": 224.58,
        "true_track": 205.51,
        "vertical_rate": -0.33,
        "geo_altitude": 12123.42,
        "squawk": "2206",
        "spi": false,
        "position_source": 0
      }
    },
    {
      "type": "Feature",
      "geometry": {
        "type": "Point",
        "coordinates": [
          15.1666,
          45.7723
        ]
      },
      "properties": {
        "icao24": "4bcdae",
        "callsign": "SXS1BQ",
        "origin_country": "Turkey",
        "time_position": 1786931556,
        "last_contact": 1786931556,
        "baro_altitude": 11277.6,
        "on_ground": false,
        "velocity": 236.57,
        "true_track": 123.38,
        "vertical_rate": 0,
        "geo_altitude": 11772.9,
        "squawk": "1156",
        "spi": false,
        "position_source": 0
      }
    },
    {
      "type": "Feature",
      "geometry": {
        "type": "Point",
        "coordinates": [
          9.5451,
          46.1542
        ]
      },
      "properties": {
        "icao24": "407642",
        "callsign": "TOM4BJ",
        "origin_country": "United Kingdom",
        "time_position": 1786931557,
        "last_contact": 1786931557,
        "baro_altitude": 10972.8,
        "on_ground": false,
        "velocity": 226.16,
        "true_track": 310.76,
        "vertical_rate": 0,
        "geo_altitude": 11468.1,
        "squawk": "3704",
        "spi": false,
        "position_source": 0
      }
    },
    {
      "type": "Feature",
      "geometry": {
        "type": "Point",
        "coordinates": [
          17.2761,
          35.8215
        ]
      },
      "properties": {
        "icao24": "010245",
        "callsign": "MSR892",
        "origin_country": "Egypt",
        "time_position": 1786931556,
        "last_contact": 1786931556,
        "baro_altitude": 10668,
        "on_ground": false,
        "velocity": 268.26,
        "true_track": 94.29,
        "vertical_rate": 0,
        "geo_altitude": 11277.6,
        "squawk": "4116",
        "spi": false,
        "position_source": 0
      }
    },
    {
      "type": "Feature",
      "geometry": {
        "type": "Point",
        "coordinates": [
          18.5937,
          39.5647
        ]
      },
      "properties": {
        "icao24": "010271",
        "callsign": "MSC804",
        "origin_country": "Egypt",
        "time_position": 1786931556,
        "last_contact": 1786931556,
        "baro_altitude": 10660.38,
        "on_ground": false,
        "velocity": 255,
        "true_track": 130.66,
        "vertical_rate": 0.33,
        "geo_altitude": 11186.16,
        "squawk": "0440",
        "spi": false,
        "position_source": 0
      }
    },
    {
      "type": "Feature",
      "geometry": {
        "type": "Point",
        "coordinates": [
          18.8431,
          39.4026
        ]
      },
      "properties": {
        "icao24": "010297",
        "callsign": "NMA301",
        "origin_country": "Egypt",
        "time_position": 1786931545,
        "last_contact": 1786931545,
        "baro_altitude": 10066.02,
        "on_ground": false,
        "velocity": 241.44,
        "true_track": 132.32,
        "vertical_rate": 0,
        "geo_altitude": 10492.74,
        "squawk": "0404",
        "spi": false,
        "position_source": 0
      }
    },
    {
      "type": "Feature",
      "geometry": {
        "type": "Point",
        "coordinates": [
          6.5234,
          37.4472
        ]
      },
      "properties": {
        "icao24": "010289",
        "callsign": "MSR986",
        "origin_country": "Egypt",
        "time_position": 1786931257,
        "last_contact": 1786931257,
        "baro_altitude": 11894.82,
        "on_ground": false,
        "velocity": 277.72,
        "true_track": 109.14,
        "vertical_rate": 0.33,
        "geo_altitude": 12512.04,
        "squawk": "5201",
        "spi": false,
        "position_source": 0
      }
    },
    {
      "type": "Feature",
      "geometry": {
        "type": "Point",
        "coordinates": [
          12.0914,
          39.9088
        ]
      },
      "properties": {
        "icao24": "34860c",
        "callsign": "AEA35SY",
        "origin_country": "Spain",
        "time_position": 1786931556,
        "last_contact": 1786931556,
        "baro_altitude": 11582.4,
        "on_ground": false,
        "velocity": 217.23,
        "true_track": 280.64,
        "vertical_rate": 0,
        "geo_altitude": 12161.52,
        "squawk": "5520",
        "spi": false,
        "position_source": 0
      }
    },
    {
      "type": "Feature",
      "geometry": {
        "type": "Point",
        "coordinates": [
          18.4029,
          47.4381
        ]
      },
      "properties": {
        "icao24": "4bd156",
        "callsign": "CAI1M",
        "origin_country": "Turkey",
        "time_position": 1786931556,
        "last_contact": 1786931557,
        "baro_altitude": 11277.6,
        "on_ground": false,
        "velocity": 250.99,
        "true_track": 144.26,
        "vertical_rate": -0.33,
        "geo_altitude": 11727.18,
        "squawk": "7603",
        "spi": false,
        "position_source": 0
      }
    },
    {
      "type": "Feature",
      "geometry": {
        "type": "Point",
        "coordinates": [
          12.7547,
          36.1116
        ]
      },
      "properties": {
        "icao24": "3005c5",
        "callsign": "ISRNT",
        "origin_country": "Italy",
        "time_position": 1786931557,
        "last_contact": 1786931557,
        "baro_altitude": 1668.78,
        "on_ground": false,
        "velocity": 82.13,
        "true_track": 190.47,
        "vertical_rate": 0,
        "geo_altitude": 1821.18,
        "squawk": "0064",
        "spi": false,
        "position_source": 0
      }
    },
    {
      "type": "Feature",
      "geometry": {
        "type": "Point",
        "coordinates": [
          9.796,
          39.9207
        ]
      },
      "properties": {
        "icao24": "3c7a50",
        "callsign": "CFG289",
        "origin_country": "Germany",
        "time_position": 1786931556,
        "last_contact": 1786931556,
        "baro_altitude": 12192,
        "on_ground": false,
        "velocity": 239.26,
        "true_track": 1.11,
        "vertical_rate": 0,
        "geo_altitude": 12801.6,
        "squawk": "1221",
        "spi": false,
        "position_source": 0
      }
    },
    {
      "type": "Feature",
      "geometry": {
        "type": "Point",
        "coordinates": [
          6.7463,
          43.8729
        ]
      },
      "properties": {
        "icao24": "424c98",
        "callsign": "MABTE",
        "origin_country": "United Kingdom",
        "time_position": 1786931557,
        "last_contact": 1786931557,
        "baro_altitude": 12496.8,
        "on_ground": false,
        "velocity": 224.46,
        "true_track": 238.5,
        "vertical_rate": 0,
        "geo_altitude": 13022.58,
        "squawk": "1000",
        "spi": false,
        "position_source": 0
      }
    },
    {
      "type": "Feature",
      "geometry": {
        "type": "Point",
        "coordinates": [
          10.498,
          43.211
        ]
      },
      "properties": {
        "icao24": "4d2274",
        "callsign": "RYR6859",
        "origin_country": "Malta",
        "time_position": 1786931556,
        "last_contact": 1786931556,
        "baro_altitude": 10972.8,
        "on_ground": false,
        "velocity": 238.33,
        "true_track": 12.09,
        "vertical_rate": 0,
        "geo_altitude": 11490.96,
        "squawk": "5153",
        "spi": false,
        "position_source": 0
      }
    },
    {
      "type": "Feature",
      "geometry": {
        "type": "Point",
        "coordinates": [
          12.2446,
          35.9834
        ]
      },
      "properties": {
        "icao24": "71002a",
        "callsign": "SVA377",
        "origin_country": "Saudi Arabia",
        "time_position": 1786931556,
        "last_contact": 1786931556,
        "baro_altitude": 10972.8,
        "on_ground": false,
        "velocity": 234.14,
        "true_track": 275.55,
        "vertical_rate": 0,
        "geo_altitude": 11612.88,
        "squawk": "5501",
        "spi": false,
        "position_source": 0
      }
    },
    {
      "type": "Feature",
      "geometry": {
        "type": "Point",
        "coordinates": [
          17.2131,
          47.7998
        ]
      },
      "properties": {
        "icao24": "39c426",
        "callsign": "AFR201",
        "origin_country": "France",
        "time_position": 1786931556,
        "last_contact": 1786931556,
        "baro_altitude": 10355.58,
        "on_ground": false,
        "velocity": 222.85,
        "true_track": 293.25,
        "vertical_rate": -0.33,
        "geo_altitude": 10797.54,
        "squawk": "3205",
        "spi": false,
        "position_source": 0
      }
    },
    {
      "type": "Feature",
      "geometry": {
        "type": "Point",
        "coordinates": [
          10.5957,
          42.8548
        ]
      },
      "properties": {
        "icao24": "4d20be",
        "callsign": "WMT3MA",
        "origin_country": "Malta",
        "time_position": 1786931557,
        "last_contact": 1786931557,
        "baro_altitude": 10363.2,
        "on_ground": false,
        "velocity": 235.78,
        "true_track": 337.69,
        "vertical_rate": -0.33,
        "geo_altitude": 10896.6,
        "squawk": "5113",
        "spi": false,
        "position_source": 0
      }
    },
    {
      "type": "Feature",
      "geometry": {
        "type": "Point",
        "coordinates": [
          8.8946,
          45.3097
        ]
      },
      "properties": {
        "icao24": "30019c",
        "callsign": "NOS55FM",
        "origin_country": "Italy",
        "time_position": 1786931557,
        "last_contact": 1786931557,
        "baro_altitude": 1386.84,
        "on_ground": false,
        "velocity": 130.98,
        "true_track": 326.37,
        "vertical_rate": -4.23,
        "geo_altitude": 1516.38,
        "squawk": "7734",
        "spi": false,
        "position_source": 0
      }
    },
    {
      "type": "Feature",
      "geometry": {
        "type": "Point",
        "coordinates": [
          6.0367,
          39.2822
        ]
      },
      "properties": {
        "icao24": "39d2a9",
        "callsign": "AFR995",
        "origin_country": "France",
        "time_position": 1786931556,
        "last_contact": 1786931557,
        "baro_altitude": 13106.4,
        "on_ground": false,
        "velocity": 247.39,
        "true_track": 352.71,
        "vertical_rate": 0.33,
        "geo_altitude": 13731.24,
        "squawk": null,
        "spi": false,
        "position_source": 0
      }
    },
    {
      "type": "Feature",
      "geometry": {
        "type": "Point",
        "coordinates": [
          8.5636,
          47.4414
        ]
      },
      "properties": {
        "icao24": "4b17fa",
        "callsign": "SWR",
        "origin_country": "Switzerland",
        "time_position": 1786931535,
        "last_contact": 1786931535,
        "baro_altitude": null,
        "on_ground": true,
        "velocity": 0,
        "true_track": 64.69,
        "vertical_rate": null,
        "geo_altitude": null,
        "squawk": "2000",
        "spi": false,
        "position_source": 0
      }
    }
  ]
}