{
  "type": "FeatureCollection",
  "source": "opensky",
  "dataset": "aircraft_italy",
  "generated_at": "2026-08-17T02:51:08.898038+00:00",
  "opensky_time": 1786935064,
  "count": 92,
  "features": [
    {
      "type": "Feature",
      "geometry": {
        "type": "Point",
        "coordinates": [
          13.9123,
          44.9689
        ]
      },
      "properties": {
        "icao24": "39de53",
        "callsign": "TVF51EN",
        "origin_country": "France",
        "time_position": 1786935064,
        "last_contact": 1786935064,
        "baro_altitude": 10957.56,
        "on_ground": false,
        "velocity": 218.61,
        "true_track": 284.72,
        "vertical_rate": 0,
        "geo_altitude": 11460.48,
        "squawk": "5224",
        "spi": false,
        "position_source": 0
      }
    },
    {
      "type": "Feature",
      "geometry": {
        "type": "Point",
        "coordinates": [
          17.6222,
          47.4673
        ]
      },
      "properties": {
        "icao24": "4bc8c6",
        "callsign": "PGT90ET",
        "origin_country": "Turkey",
        "time_position": 1786935063,
        "last_contact": 1786935064,
        "baro_altitude": 11277.6,
        "on_ground": false,
        "velocity": 259.84,
        "true_track": 124.35,
        "vertical_rate": 0,
        "geo_altitude": 11742.42,
        "squawk": "4511",
        "spi": false,
        "position_source": 0
      }
    },
    {
      "type": "Feature",
      "geometry": {
        "type": "Point",
        "coordinates": [
          17.3068,
          45.6843
        ]
      },
      "properties": {
        "icao24": "4aca06",
        "callsign": "NSZ3355",
        "origin_country": "Sweden",
        "time_position": 1786935064,
        "last_contact": 1786935064,
        "baro_altitude": 10972.8,
        "on_ground": false,
        "velocity": 218.25,
        "true_track": 336.82,
        "vertical_rate": 0,
        "geo_altitude": 11460.48,
        "squawk": "2001",
        "spi": false,
        "position_source": 0
      }
    },
    {
      "type": "Feature",
      "geometry": {
        "type": "Point",
        "coordinates": [
          16.1311,
          46.4603
        ]
      },
      "properties": {
        "icao24": "4bb564",
        "callsign": "CAI6DT",
        "origin_country": "Turkey",
        "time_position": 1786933942,
        "last_contact": 1786935062,
        "baro_altitude": 11277.6,
        "on_ground": false,
        "velocity": 245.82,
        "true_track": 129.82,
        "vertical_rate": 0,
        "geo_altitude": 11750.04,
        "squawk": "7706",
        "spi": false,
        "position_source": 0
      }
    },
    {
      "type": "Feature",
      "geometry": {
        "type": "Point",
        "coordinates": [
          15.862,
          45.2969
        ]
      },
      "properties": {
        "icao24": "3c4a04",
        "callsign": "DLH591",
        "origin_country": "Germany",
        "time_position": 1786935064,
        "last_contact": 1786935064,
        "baro_altitude": 11582.4,
        "on_ground": false,
        "velocity": 238.19,
        "true_track": 323.25,
        "vertical_rate": -0.33,
        "geo_altitude": 12100.56,
        "squawk": "0501",
        "spi": false,
        "position_source": 0
      }
    },
    {
      "type": "Feature",
      "geometry": {
        "type": "Point",
        "coordinates": [
          13.1491,
          42.1034
        ]
      },
      "properties": {
        "icao24": "471d6f",
        "callsign": "WMT5MR",
        "origin_country": "Hungary",
        "time_position": 1786935063,
        "last_contact": 1786935064,
        "baro_altitude": 5402.58,
        "on_ground": false,
        "velocity": 153.36,
        "true_track": 271.54,
        "vertical_rate": -6.18,
        "geo_altitude": 5715,
        "squawk": "6037",
        "spi": false,
        "position_source": 0
      }
    },
    {
      "type": "Feature",
      "geometry": {
        "type": "Point",
        "coordinates": [
          18.5848,
          36.0611
        ]
      },
      "properties": {
        "icao24": "452165",
        "callsign": "DAH3031",
        "origin_country": "Bulgaria",
        "time_position": 1786935064,
        "last_contact": 1786935064,
        "baro_altitude": 10355.58,
        "on_ground": false,
        "velocity": 219.27,
        "true_track": 271.88,
        "vertical_rate": 0,
        "geo_altitude": 10919.46,
        "squawk": "2324",
        "spi": false,
        "position_source": 0
      }
    },
    {
      "type": "Feature",
      "geometry": {
        "type": "Point",
        "coordinates": [
          17.9954,
          42.2781
        ]
      },
      "properties": {
        "icao24": "440191",
        "callsign": "EJU67TU",
        "origin_country": "Austria",
        "time_position": 1786935055,
        "last_contact": 1786935055,
        "baro_altitude": 10972.8,
        "on_ground": false,
        "velocity": 234.04,
        "true_track": 311.26,
        "vertical_rate": 0.33,
        "geo_altitude": 11498.58,
        "squawk": "5503",
        "spi": false,
        "position_source": 0
      }
    },
    {
      "type": "Feature",
      "geometry": {
        "type": "Point",
        "coordinates": [
          8.6053,
          45.3427
        ]
      },
      "properties": {
        "icao24": "440117",
        "callsign": "EJU3794",
        "origin_country": "Austria",
        "time_position": 1786935064,
        "last_contact": 1786935064,
        "baro_altitude": 1958.34,
        "on_ground": false,
        "velocity": 122.18,
        "true_track": 78.83,
        "vertical_rate": -4.55,
        "geo_altitude": 2095.5,
        "squawk": "1000",
        "spi": false,
        "position_source": 0
      }
    },
    {
      "type": "Feature",
      "geometry": {
        "type": "Point",
        "coordinates": [
          18.4371,
          35.7258
        ]
      },
      "properties": {
        "icao24": "020121",
        "callsign": "RAM217",
        "origin_country": "Morocco",
        "time_position": 1786935064,
        "last_contact": 1786935064,
        "baro_altitude": 12184.38,
        "on_ground": false,
        "velocity": 231.24,
        "true_track": 285.09,
        "vertical_rate": 0,
        "geo_altitude": 12870.18,
        "squawk": null,
        "spi": false,
        "position_source": 0
      }
    },
    {
      "type": "Feature",
      "geometry": {
        "type": "Point",
        "coordinates": [
          11.4716,
          42.522
        ]
      },
      "properties": {
        "icao24": "a49ae3",
        "callsign": "UPS266",
        "origin_country": "United States",
        "time_position": 1786935064,
        "last_contact": 1786935064,
        "baro_altitude": 5684.52,
        "on_ground": false,
        "velocity": 205.91,
        "true_track": 153.43,
        "vertical_rate": -11.05,
        "geo_altitude": 5989.32,
        "squawk": "0630",
        "spi": false,
        "position_source": 0
      }
    },
    {
      "type": "Feature",
      "geometry": {
        "type": "Point",
        "coordinates": [
          17.2895,
          44.3858
        ]
      },
      "properties": {
        "icao24": "896449",
        "callsign": "ROJ008",
        "origin_country": "United Arab Emirates",
        "time_position": 1786935064,
        "last_contact": 1786935064,
        "baro_altitude": 10972.8,
        "on_ground": false,
        "velocity": 224.61,
        "true_track": 309.89,
        "vertical_rate": 0,
        "geo_altitude": 11483.34,
        "squawk": "6621",
        "spi": false,
        "position_source": 0
      }
    },
    {
      "type": "Feature",
      "geometry": {
        "type": "Point",
        "coordinates": [
          18.0097,
          35.6848
        ]
      },
      "properties": {
        "icao24": "896455",
        "callsign": "UAE213",
        "origin_country": "United Arab Emirates",
        "time_position": 1786935064,
        "last_contact": 1786935064,
        "baro_altitude": 9753.6,
        "on_ground": false,
        "velocity": 238.22,
        "true_track": 283.11,
        "vertical_rate": 0,
        "geo_altitude": 10287,
        "squawk": null,
        "spi": false,
        "position_source": 0
      }
    },
    {
      "type": "Feature",
      "geometry": {
        "type": "Point",
        "coordinates": [
          17.1944,
          35.72
        ]
      },
      "properties": {
        "icao24": "896465",
        "callsign": "ETD7LG",
        "origin_country": "United Arab Emirates",
        "time_position": 1786935064,
        "last_contact": 1786935064,
        "baro_altitude": 10965.18,
        "on_ground": false,
        "velocity": 234.97,
        "true_track": 281.24,
        "vertical_rate": 0,
        "geo_altitude": 11590.02,
        "squawk": null,
        "spi": false,
        "position_source": 0
      }
    },
    {
      "type": "Feature",
      "geometry": {
        "type": "Point",
        "coordinates": [
          15.6149,
          46.5044
        ]
      },
      "properties": {
        "icao24": "8964bf",
        "callsign": "ETD6HZ",
        "origin_country": "United Arab Emirates",
        "time_position": 1786935063,
        "last_contact": 1786935063,
        "baro_altitude": 11277.6,
        "on_ground": false,
        "velocity": 266.77,
        "true_track": 122.16,
        "vertical_rate": 0,
        "geo_altitude": 11757.66,
        "squawk": "2207",
        "spi": false,
        "position_source": 0
      }
    },
    {
      "type": "Feature",
      "geometry": {
        "type": "Point",
        "coordinates": [
          16.7031,
          46.7911
        ]
      },
      "properties": {
        "icao24": "4b990c",
        "callsign": "FHY1372",
        "origin_country": "Turkey",
        "time_position": 1786935064,
        "last_contact": 1786935064,
        "baro_altitude": 10660.38,
        "on_ground": false,
        "velocity": 248.36,
        "true_track": 118.32,
        "vertical_rate": 0,
        "geo_altitude": 11132.82,
        "squawk": "6424",
        "spi": false,
        "position_source": 0
      }
    },
    {
      "type": "Feature",
      "geometry": {
        "type": "Point",
        "coordinates": [
          13.5822,
          46.4568
        ]
      },
      "properties": {
        "icao24": "8965f3",
        "callsign": "ETD76T",
        "origin_country": "United Arab Emirates",
        "time_position": 1786935064,
        "last_contact": 1786935064,
        "baro_altitude": 11277.6,
        "on_ground": false,
        "velocity": 267.64,
        "true_track": 122.04,
        "vertical_rate": -0.33,
        "geo_altitude": 11765.28,
        "squawk": "1164",
        "spi": false,
        "position_source": 0
      }
    },
    {
      "type": "Feature",
      "geometry": {
        "type": "Point",
        "coordinates": [
          6.9573,
          40.2444
        ]
      },
      "properties": {
        "icao24": "44ccc7",
        "callsign": "BEL38K",
        "origin_country": "Belgium",
        "time_position": 1786935063,
        "last_contact": 1786935064,
        "baro_altitude": 12192,
        "on_ground": false,
        "velocity": 239.3,
        "true_track": 358.52,
        "vertical_rate": -0.33,
        "geo_altitude": 12793.98,
        "squawk": "1000",
        "spi": false,
        "position_source": 0
      }
    },
    {
      "type": "Feature",
      "geometry": {
        "type": "Point",
        "coordinates": [
          6.1348,
          46.8281
        ]
      },
      "properties": {
        "icao24": "44ccc3",
        "callsign": "BEL2XJ",
        "origin_country": "Belgium",
        "time_position": 1786935064,
        "last_contact": 1786935064,
        "baro_altitude": 12192,
        "on_ground": false,
        "velocity": 236.98,
        "true_track": 351.01,
        "vertical_rate": -0.33,
        "geo_altitude": 12672.06,
        "squawk": "5576",
        "spi": false,
        "position_source": 0
      }
    },
    {
      "type": "Feature",
      "geometry": {
        "type": "Point",
        "coordinates": [
          6.1879,
          40.9227
        ]
      },
      "properties": {
        "icao24": "44ccd8",
        "callsign": "BEL28A",
        "origin_country": "Belgium",
        "time_position": 1786935064,
        "last_contact": 1786935064,
        "baro_altitude": 11582.4,
        "on_ground": false,
        "velocity": 241.28,
        "true_track": 17.62,
        "vertical_rate": 0,
        "geo_altitude": 12085.32,
        "squawk": "1000",
        "spi": false,
        "position_source": 0
      }
    },
    {
      "type": "Feature",
      "geometry": {
        "type": "Point",
        "coordinates": [
          13.2715,
          37.2151
        ]
      },
      "properties": {
        "icao24": "0201c5",
        "callsign": "RAM272C",
        "origin_country": "Morocco",
        "time_position": 1786935064,
        "last_contact": 1786935064,
        "baro_altitude": 11277.6,
        "on_ground": false,
        "velocity": 261.82,
        "true_track": 123.78,
        "vertical_rate": 0,
        "geo_altitude": 11902.44,
        "squawk": "1255",
        "spi": false,
        "position_source": 0
      }
    },
    {
      "type": "Feature",
      "geometry": {
        "type": "Point",
        "coordinates": [
          9.9574,
          40.7131
        ]
      },
      "properties": {
        "icao24": "345207",
        "callsign": "VLG448P",
        "origin_country": "Spain",
        "time_position": 1786935064,
        "last_contact": 1786935064,
        "baro_altitude": 10668,
        "on_ground": false,
        "velocity": 217.42,
        "true_track": 276.39,
        "vertical_rate": 0,
        "geo_altitude": 11186.16,
        "squawk": "7740",
        "spi": false,
        "position_source": 0
      }
    },
    {
      "type": "Feature",
      "geometry": {
        "type": "Point",
        "coordinates": [
          14.8112,
          42.1653
        ]
      },
      "properties": {
        "icao24": "894094",
        "callsign": "GFA9019",
        "origin_country": "Bahrain",
        "time_position": 1786935064,
        "last_contact": 1786935064,
        "baro_altitude": 11582.4,
        "on_ground": false,
        "velocity": 213.51,
        "true_track": 301.2,
        "vertical_rate": 0,
        "geo_altitude": 12131.04,
        "squawk": "2017",
        "spi": false,
        "position_source": 0
      }
    },
    {
      "type": "Feature",
      "geometry": {
        "type": "Point",
        "coordinates": [
          13.5825,
          41.2173
        ]
      },
      "properties": {
        "icao24": "040190",
        "callsign": "ETH552",
        "origin_country": "Ethiopia",
        "time_position": 1786935064,
        "last_contact": 1786935064,
        "baro_altitude": 7559.04,
        "on_ground": false,
        "velocity": 203.99,
        "true_track": 308.34,
        "vertical_rate": -8.13,
        "geo_altitude": 7970.52,
        "squawk": "2077",
        "spi": false,
        "position_source": 0
      }
    },
    {
      "type": "Feature",
      "geometry": {
        "type": "Point",
        "coordinates": [
          18.169,
          43.1586
        ]
      },
      "properties": {
        "icao24": "49d3d6",
        "callsign": "TVL5006",
        "origin_country": "Czech Republic",
        "time_position": 1786935033,
        "last_contact": 1786935033,
        "baro_altitude": 11277.6,
        "on_ground": false,
        "velocity": 240.78,
        "true_track": 179.27,
        "vertical_rate": -0.33,
        "geo_altitude": 11803.38,
        "squawk": "6031",
        "spi": false,
        "position_source": 0
      }
    },
    {
      "type": "Feature",
      "geometry": {
        "type": "Point",
        "coordinates": [
          16.0183,
          40.4952
        ]
      },
      "properties": {
        "icao24": "040134",
        "callsign": "ETH736",
        "origin_country": "Ethiopia",
        "time_position": 1786935064,
        "last_contact": 1786935064,
        "baro_altitude": 12192,
        "on_ground": false,
        "velocity": 236.4,
        "true_track": 309.61,
        "vertical_rate": 0,
        "geo_altitude": 12763.5,
        "squawk": "2072",
        "spi": false,
        "position_source": 0
      }
    },
    {
      "type": "Feature",
      "geometry": {
        "type": "Point",
        "coordinates": [
          14.2343,
          41.2076
        ]
      },
      "properties": {
        "icao24": "040132",
        "callsign": "ETH712",
        "origin_country": "Ethiopia",
        "time_position": 1786935064,
        "last_contact": 1786935064,
        "baro_altitude": 11170.92,
        "on_ground": false,
        "velocity": 236.51,
        "true_track": 296.34,
        "vertical_rate": -13.66,
        "geo_altitude": 11704.32,
        "squawk": "6630",
        "spi": false,
        "position_source": 0
      }
    },
    {
      "type": "Feature",
      "geometry": {
        "type": "Point",
        "coordinates": [
          16.4549,
          42.4478
        ]
      },
      "properties": {
        "icao24": "040219",
        "callsign": "ETH734",
        "origin_country": "Ethiopia",
        "time_position": 1786935061,
        "last_contact": 1786935061,
        "baro_altitude": 12192,
        "on_ground": false,
        "velocity": 242.46,
        "true_track": 311.13,
        "vertical_rate": 0,
        "geo_altitude": 12725.4,
        "squawk": "6113",
        "spi": true,
        "position_source": 0
      }
    },
    {
      "type": "Feature",
      "geometry": {
        "type": "Point",
        "coordinates": [
          12.2997,
          42.1266
        ]
      },
      "properties": {
        "icao24": "04004a",
        "callsign": "ETH574",
        "origin_country": "Ethiopia",
        "time_position": 1786935064,
        "last_contact": 1786935064,
        "baro_altitude": 2232.66,
        "on_ground": false,
        "velocity": 125.8,
        "true_track": 286.88,
        "vertical_rate": -11.7,
        "geo_altitude": 2415.54,
        "squawk": "6633",
        "spi": false,
        "position_source": 0
      }
    },
    {
      "type": "Feature",
      "geometry": {
        "type": "Point",
        "coordinates": [
          18.0616,
          43.3936
        ]
      },
      "properties": {
        "icao24": "49d403",
        "callsign": "TVS2736",
        "origin_country": "Czech Republic",
        "time_position": 1786935064,
        "last_contact": 1786935064,
        "baro_altitude": 10668,
        "on_ground": false,
        "velocity": 236.73,
        "true_track": 157.78,
        "vertical_rate": 0,
        "geo_altitude": 11170.92,
        "squawk": "0514",
        "spi": false,
        "position_source": 0
      }
    },
    {
      "type": "Feature",
      "geometry": {
        "type": "Point",
        "coordinates": [
          10.4348,
          42.9428
        ]
      },
      "properties": {
        "icao24": "49d1c6",
        "callsign": "EWG8LZ",
        "origin_country": "Czech Republic",
        "time_position": 1786935064,
        "last_contact": 1786935064,
        "baro_altitude": 11582.4,
        "on_ground": false,
        "velocity": 226.58,
        "true_track": 9.8,
        "vertical_rate": -0.33,
        "geo_altitude": 12108.18,
        "squawk": "6132",
        "spi": false,
        "position_source": 0
      }
    },
    {
      "type": "Feature",
      "geometry": {
        "type": "Point",
        "coordinates": [
          6.4691,
          37.0373
        ]
      },
      "properties": {
        "icao24": "406d4d",
        "callsign": "VIR450",
        "origin_country": "United Kingdom",
        "time_position": 1786934846,
        "last_contact": 1786934903,
        "baro_altitude": 11574.78,
        "on_ground": false,
        "velocity": 250.2,
        "true_track": 351.49,
        "vertical_rate": 0.33,
        "geo_altitude": 12222.48,
        "squawk": null,
        "spi": false,
        "position_source": 0
      }
    },
    {
      "type": "Feature",
      "geometry": {
        "type": "Point",
        "coordinates": [
          12.8728,
          41.7359
        ]
      },
      "properties": {
        "icao24": "040243",
        "callsign": "ETH500",
        "origin_country": "Ethiopia",
        "time_position": 1786935064,
        "last_contact": 1786935064,
        "baro_altitude": 3878.58,
        "on_ground": false,
        "velocity": 169.62,
        "true_track": 309.34,
        "vertical_rate": -6.5,
        "geo_altitude": 4130.04,
        "squawk": "2055",
        "spi": false,
        "position_source": 0
      }
    },
    {
      "type": "Feature",
      "geometry": {
        "type": "Point",
        "coordinates": [
          8.7323,
          45.6132
        ]
      },
      "properties": {
        "icao24": "31d7b1",
        "callsign": "MIKE1",
        "origin_country": "Italy",
        "time_position": 1786935061,
        "last_contact": 1786935063,
        "baro_altitude": null,
        "on_ground": true,
        "velocity": 9.26,
        "true_track": 205.31,
        "vertical_rate": null,
        "geo_altitude": null,
        "squawk": null,
        "spi": false,
        "position_source": 0
      }
    },
    {
      "type": "Feature",
      "geometry": {
        "type": "Point",
        "coordinates": [
          13.1014,
          45.0274
        ]
      },
      "properties": {
        "icao24": "a4e714",
        "callsign": "DAL240",
        "origin_country": "United States",
        "time_position": 1786935064,
        "last_contact": 1786935064,
        "baro_altitude": 11887.2,
        "on_ground": false,
        "velocity": 258.53,
        "true_track": 125.52,
        "vertical_rate": 0,
        "geo_altitude": 12397.74,
        "squawk": "2213",
        "spi": false,
        "position_source": 0
      }
    },
    {
      "type": "Feature",
      "geometry": {
        "type": "Point",
        "coordinates": [
          8.9267,
          44.5881
        ]
      },
      "properties": {
        "icao24": "49d034",
        "callsign": "TVS2TU",
        "origin_country": "Czech Republic",
        "time_position": 1786935064,
        "last_contact": 1786935064,
        "baro_altitude": 10972.8,
        "on_ground": false,
        "velocity": 232.74,
        "true_track": 49.3,
        "vertical_rate": 0,
        "geo_altitude": 11475.72,
        "squawk": "1000",
        "spi": false,
        "position_source": 0
      }
    },
    {
      "type": "Feature",
      "geometry": {
        "type": "Point",
        "coordinates": [
          11.2726,
          44.5412
        ]
      },
      "properties": {
        "icao24": "45ce4d",
        "callsign": "SRR6498",
        "origin_country": "Denmark",
        "time_position": 1786934989,
        "last_contact": 1786934989,
        "baro_altitude": 68.58,
        "on_ground": false,
        "velocity": 69.48,
        "true_track": 116.38,
        "vertical_rate": -3.25,
        "geo_altitude": 121.92,
        "squawk": "4640",
        "spi": false,
        "position_source": 0
      }
    },
    {
      "type": "Feature",
      "geometry": {
        "type": "Point",
        "coordinates": [
          16.3497,
          45.8853
        ]
      },
      "properties": {
        "icao24": "4bb869",
        "callsign": "PGT15NN",
        "origin_country": "Turkey",
        "time_position": 1786935064,
        "last_contact": 1786935064,
        "baro_altitude": 11269.98,
        "on_ground": false,
        "velocity": 240.81,
        "true_track": 135.17,
        "vertical_rate": 0,
        "geo_altitude": 11757.66,
        "squawk": "7643",
        "spi": false,
        "position_source": 0
      }
    },
    {
      "type": "Feature",
      "geometry": {
        "type": "Point",
        "coordinates": [
          17.7552,
          46.9026
        ]
      },
      "properties": {
        "icao24": "504e86",
        "callsign": "TVS3QS",
        "origin_country": "Republic of Moldova",
        "time_position": 1786935064,
        "last_contact": 1786935064,
        "baro_altitude": 11277.6,
        "on_ground": false,
        "velocity": 239.46,
        "true_track": 166.71,
        "vertical_rate": 0,
        "geo_altitude": 11757.66,
        "squawk": "1457",
        "spi": false,
        "position_source": 0
      }
    },
    {
      "type": "Feature",
      "geometry": {
        "type": "Point",
        "coordinates": [
          17.825,
          45.3269
        ]
      },
      "properties": {
        "icao24": "504e85",
        "callsign": "FIE248",
        "origin_country": "Republic of Moldova",
        "time_position": 1786935064,
        "last_contact": 1786935064,
        "baro_altitude": 10050.78,
        "on_ground": false,
        "velocity": 239.03,
        "true_track": 85.19,
        "vertical_rate": -0.33,
        "geo_altitude": 10721.34,
        "squawk": "0476",
        "spi": false,
        "position_source": 0
      }
    },
    {
      "type": "Feature",
      "geometry": {
        "type": "Point",
        "coordinates": [
          14.9051,
          41.6878
        ]
      },
      "properties": {
        "icao24": "06a0dd",
        "callsign": "QTR76G",
        "origin_country": "Qatar",
        "time_position": 1786935064,
        "last_contact": 1786935064,
        "baro_altitude": 10668,
        "on_ground": false,
        "velocity": 250.27,
        "true_track": 131.92,
        "vertical_rate": 0,
        "geo_altitude": 11186.16,
        "squawk": "0424",
        "spi": false,
        "position_source": 0
      }
    },
    {
      "type": "Feature",
      "geometry": {
        "type": "Point",
        "coordinates": [
          8.5662,
          47.4423
        ]
      },
      "properties": {
        "icao24": "4b180a",
        "callsign": "SWR8YP",
        "origin_country": "Switzerland",
        "time_position": 1786935063,
        "last_contact": 1786935063,
        "baro_altitude": null,
        "on_ground": true,
        "velocity": 0.06,
        "true_track": 137.81,
        "vertical_rate": null,
        "geo_altitude": null,
        "squawk": null,
        "spi": false,
        "position_source": 0
      }
    },
    {
      "type": "Feature",
      "geometry": {
        "type": "Point",
        "coordinates": [
          12.4968,
          44.5525
        ]
      },
      "properties": {
        "icao24": "716ffc",
        "callsign": "SVA131",
        "origin_country": "Saudi Arabia",
        "time_position": 1786935064,
        "last_contact": 1786935064,
        "baro_altitude": 10363.2,
        "on_ground": false,
        "velocity": 235.63,
        "true_track": 293.82,
        "vertical_rate": 0,
        "geo_altitude": 10858.5,
        "squawk": "2061",
        "spi": false,
        "position_source": 0
      }
    },
    {
      "type": "Feature",
      "geometry": {
        "type": "Point",
        "coordinates": [
          17.0899,
          43.0086
        ]
      },
      "properties": {
        "icao24": "4b1885",
        "callsign": "SWR155",
        "origin_country": "Switzerland",
        "time_position": 1786935063,
        "last_contact": 1786935063,
        "baro_altitude": 11582.4,
        "on_ground": false,
        "velocity": 227.08,
        "true_track": 313.35,
        "vertical_rate": 0,
        "geo_altitude": 12115.8,
        "squawk": "7730",
        "spi": false,
        "position_source": 0
      }
    },
    {
      "type": "Feature",
      "geometry": {
        "type": "Point",
        "coordinates": [
          15.9414,
          47.2621
        ]
      },
      "properties": {
        "icao24": "3c65d0",
        "callsign": "DLH2647",
        "origin_country": "Germany",
        "time_position": 1786935063,
        "last_contact": 1786935063,
        "baro_altitude": 10965.18,
        "on_ground": false,
        "velocity": 205.82,
        "true_track": 293.1,
        "vertical_rate": 0,
        "geo_altitude": 11414.76,
        "squawk": "3263",
        "spi": false,
        "position_source": 0
      }
    },
    {
      "type": "Feature",
      "geometry": {
        "type": "Point",
        "coordinates": [
          8.7225,
          45.6068
        ]
      },
      "properties": {
        "icao24": "3c5433",
        "callsign": "BCS48D",
        "origin_country": "Germany",
        "time_position": 1786935056,
        "last_contact": 1786935063,
        "baro_altitude": null,
        "on_ground": true,
        "velocity": 0,
        "true_track": 168.75,
        "vertical_rate": null,
        "geo_altitude": null,
        "squawk": "1000",
        "spi": false,
        "position_source": 0
      }
    },
    {
      "type": "Feature",
      "geometry": {
        "type": "Point",
        "coordinates": [
          18.6932,
          46.9947
        ]
      },
      "properties": {
        "icao24": "3c5430",
        "callsign": "BCS5706",
        "origin_country": "Germany",
        "time_position": 1786935064,
        "last_contact": 1786935064,
        "baro_altitude": 10058.4,
        "on_ground": false,
        "velocity": 253.65,
        "true_track": 118.33,
        "vertical_rate": 0.65,
        "geo_altitude": 10507.98,
        "squawk": "1000",
        "spi": false,
        "position_source": 0
      }
    },
    {
      "type": "Feature",
      "geometry": {
        "type": "Point",
        "coordinates": [
          14.1559,
          41.4275
        ]
      },
      "properties": {
        "icao24": "02a1a3",
        "callsign": "LBT7416",
        "origin_country": "Tunisia",
        "time_position": 1786935064,
        "last_contact": 1786935064,
        "baro_altitude": 10980.42,
        "on_ground": false,
        "velocity": 236.79,
        "true_track": 25.34,
        "vertical_rate": 0,
        "geo_altitude": 11506.2,
        "squawk": "6144",
        "spi": false,
        "position_source": 0
      }
    },
    {
      "type": "Feature",
      "geometry": {
        "type": "Point",
        "coordinates": [
          11.2426,
          36.4394
        ]
      },
      "properties": {
        "icao24": "02a1a7",
        "callsign": "LBT7430",
        "origin_country": "Tunisia",
        "time_position": 1786935062,
        "last_contact": 1786935062,
        "baro_altitude": 5722.62,
        "on_ground": false,
        "velocity": 202.47,
        "true_track": 27.22,
        "vertical_rate": 7.48,
        "geo_altitude": 6096,
        "squawk": "6171",
        "spi": false,
        "position_source": 0
      }
    },
    {
      "type": "Feature",
      "geometry": {
        "type": "Point",
        "coordinates": [
          18.6242,
          42.6143
        ]
      },
      "properties": {
        "icao24": "3c64b1",
        "callsign": "DLH691",
        "origin_country": "Germany",
        "time_position": 1786935059,
        "last_contact": 1786935063,
        "baro_altitude": 10363.2,
        "on_ground": false,
        "velocity": 226.3,
        "true_track": 326.78,
        "vertical_rate": -0.33,
        "geo_altitude": 10881.36,
        "squawk": "5505",
        "spi": false,
        "position_source": 0
      }
    },
    {
      "type": "Feature",
      "geometry": {
        "type": "Point",
        "coordinates": [
          12.7019,
          37.0742
        ]
      },
      "properties": {
        "icao24": "02a1b3",
        "callsign": "LBT7535",
        "origin_country": "Tunisia",
        "time_position": 1786935063,
        "last_contact": 1786935063,
        "baro_altitude": 9860.28,
        "on_ground": false,
        "velocity": 222.7,
        "true_track": 223.5,
        "vertical_rate": -4.55,
        "geo_altitude": 10408.92,
        "squawk": "4331",
        "spi": false,
        "position_source": 0
      }
    },
    {
      "type": "Feature",
      "geometry": {
        "type": "Point",
        "coordinates": [
          16.1573,
          40.954
        ]
      },
      "properties": {
        "icao24": "39d301",
        "callsign": "TVF54TC",
        "origin_country": "France",
        "time_position": 1786935063,
        "last_contact": 1786935063,
        "baro_altitude": 11590.02,
        "on_ground": false,
        "velocity": 220.92,
        "true_track": 306.1,
        "vertical_rate": 0,
        "geo_altitude": 12138.66,
        "squawk": "5513",
        "spi": false,
        "position_source": 0
      }
    },
    {
      "type": "Feature",
      "geometry": {
        "type": "Point",
        "coordinates": [
          17.6072,
          44.4855
        ]
      },
      "properties": {
        "icao24": "3991e8",
        "callsign": "AFR1391",
        "origin_country": "France",
        "time_position": 1786935064,
        "last_contact": 1786935064,
        "baro_altitude": 10972.8,
        "on_ground": false,
        "velocity": 218.88,
        "true_track": 284.98,
        "vertical_rate": 0,
        "geo_altitude": 11475.72,
        "squawk": "1155",
        "spi": false,
        "position_source": 0
      }
    },
    {
      "type": "Feature",
      "geometry": {
        "type": "Point",
        "coordinates": [
          8.5707,
          47.4575
        ]
      },
      "properties": {
        "icao24": "4b5d6f",
        "callsign": "VIKTOR33",
        "origin_country": "Switzerland",
        "time_position": 1786935064,
        "last_contact": 1786935064,
        "baro_altitude": null,
        "on_ground": true,
        "velocity": 3.34,
        "true_track": 92.81,
        "vertical_rate": null,
        "geo_altitude": null,
        "squawk": null,
        "spi": false,
        "position_source": 0
      }
    },
    {
      "type": "Feature",
      "geometry": {
        "type": "Point",
        "coordinates": [
          8.5631,
          47.4594
        ]
      },
      "properties": {
        "icao24": "4b5c19",
        "callsign": "GUSTI1",
        "origin_country": "Switzerland",
        "time_position": 1786935064,
        "last_contact": 1786935064,
        "baro_altitude": null,
        "on_ground": true,
        "velocity": 18.01,
        "true_track": 2.81,
        "vertical_rate": null,
        "geo_altitude": null,
        "squawk": null,
        "spi": false,
        "position_source": 0
      }
    },
    {
      "type": "Feature",
      "geometry": {
        "type": "Point",
        "coordinates": [
          12.4719,
          37.5306
        ]
      },
      "properties": {
        "icao24": "0a00e4",
        "callsign": "DAH3015",
        "origin_country": "Algeria",
        "time_position": 1786935064,
        "last_contact": 1786935064,
        "baro_altitude": 10972.8,
        "on_ground": false,
        "velocity": 221.16,
        "true_track": 258.32,
        "vertical_rate": 0,
        "geo_altitude": 11574.78,
        "squawk": "2322",
        "spi": false,
        "position_source": 0
      }
    },
    {
      "type": "Feature",
      "geometry": {
        "type": "Point",
        "coordinates": [
          6.7811,
          47.7977
        ]
      },
      "properties": {
        "icao24": "440bc2",
        "callsign": "BCS30A",
        "origin_country": "Austria",
        "time_position": 1786935064,
        "last_contact": 1786935064,
        "baro_altitude": 3901.44,
        "on_ground": false,
        "velocity": 182.03,
        "true_track": 106.08,
        "vertical_rate": -16.58,
        "geo_altitude": 4114.8,
        "squawk": "6304",
        "spi": false,
        "position_source": 0
      }
    },
    {
      "type": "Feature",
      "geometry": {
        "type": "Point",
        "coordinates": [
          12.2628,
          44.2963
        ]
      },
      "properties": {
        "icao24": "440bc5",
        "callsign": "BCS7824",
        "origin_country": "Austria",
        "time_position": 1786935064,
        "last_contact": 1786935064,
        "baro_altitude": 7117.08,
        "on_ground": false,
        "velocity": 226.39,
        "true_track": 116.74,
        "vertical_rate": -12.35,
        "geo_altitude": 7505.7,
        "squawk": "1000",
        "spi": false,
        "position_source": 0
      }
    },
    {
      "type": "Feature",
      "geometry": {
        "type": "Point",
        "coordinates": [
          16.88,
          43.5503
        ]
      },
      "properties": {
        "icao24": "70c125",
        "callsign": "OMA103",
        "origin_country": "Oman",
        "time_position": 1786935064,
        "last_contact": 1786935064,
        "baro_altitude": 11582.4,
        "on_ground": false,
        "velocity": 244.29,
        "true_track": 303.05,
        "vertical_rate": 0,
        "geo_altitude": 12115.8,
        "squawk": "2264",
        "spi": false,
        "position_source": 0
      }
    },
    {
      "type": "Feature",
      "geometry": {
        "type": "Point",
        "coordinates": [
          17.7995,
          46.6653
        ]
      },
      "properties": {
        "icao24": "4bcdd2",
        "callsign": "SXS2ZN",
        "origin_country": "Turkey",
        "time_position": 1786935064,
        "last_contact": 1786935064,
        "baro_altitude": 11277.6,
        "on_ground": false,
        "velocity": 247.92,
        "true_track": 132.73,
        "vertical_rate": 0,
        "geo_altitude": 11750.04,
        "squawk": "4503",
        "spi": false,
        "position_source": 0
      }
    },
    {
      "type": "Feature",
      "geometry": {
        "type": "Point",
        "coordinates": [
          16.7971,
          47.5124
        ]
      },
      "properties": {
        "icao24": "4bcdd5",
        "callsign": "SXS197",
        "origin_country": "Turkey",
        "time_position": 1786935064,
        "last_contact": 1786935064,
        "baro_altitude": 7254.24,
        "on_ground": false,
        "velocity": 225.87,
        "true_track": 142.22,
        "vertical_rate": 13.66,
        "geo_altitude": 7581.9,
        "squawk": "7103",
        "spi": false,
        "position_source": 0
      }
    },
    {
      "type": "Feature",
      "geometry": {
        "type": "Point",
        "coordinates": [
          18.661,
          46.1076
        ]
      },
      "properties": {
        "icao24": "4bcdaa",
        "callsign": "SXS6CH",
        "origin_country": "Turkey",
        "time_position": 1786935063,
        "last_contact": 1786935064,
        "baro_altitude": 11277.6,
        "on_ground": false,
        "velocity": 251.53,
        "true_track": 132.93,
        "vertical_rate": 0,
        "geo_altitude": 11757.66,
        "squawk": "4506",
        "spi": false,
        "position_source": 0
      }
    },
    {
      "type": "Feature",
      "geometry": {
        "type": "Point",
        "coordinates": [
          18.7902,
          46.0918
        ]
      },
      "properties": {
        "icao24": "4bcdac",
        "callsign": "SXS9QQ",
        "origin_country": "Turkey",
        "time_position": 1786935064,
        "last_contact": 1786935064,
        "baro_altitude": 10972.8,
        "on_ground": false,
        "velocity": 219.62,
        "true_track": 325.3,
        "vertical_rate": 0,
        "geo_altitude": 11452.86,
        "squawk": "3277",
        "spi": false,
        "position_source": 0
      }
    },
    {
      "type": "Feature",
      "geometry": {
        "type": "Point",
        "coordinates": [
          15.3504,
          46.8608
        ]
      },
      "properties": {
        "icao24": "4bccb5",
        "callsign": "SXS3QZ",
        "origin_country": "Turkey",
        "time_position": 1786935064,
        "last_contact": 1786935064,
        "baro_altitude": 11277.6,
        "on_ground": false,
        "velocity": 248.19,
        "true_track": 126.06,
        "vertical_rate": 0,
        "geo_altitude": 11727.18,
        "squawk": "7667",
        "spi": false,
        "position_source": 0
      }
    },
    {
      "type": "Feature",
      "geometry": {
        "type": "Point",
        "coordinates": [
          15.9644,
          47.6646
        ]
      },
      "properties": {
        "icao24": "8880e1",
        "callsign": "HVN37",
        "origin_country": "Viet Nam",
        "time_position": 1786935064,
        "last_contact": 1786935064,
        "baro_altitude": 12192,
        "on_ground": false,
        "velocity": 230.08,
        "true_track": 297.14,
        "vertical_rate": 0,
        "geo_altitude": 12626.34,
        "squawk": "3262",
        "spi": false,
        "position_source": 0
      }
    },
    {
      "type": "Feature",
      "geometry": {
        "type": "Point",
        "coordinates": [
          18.6264,
          47.159
        ]
      },
      "properties": {
        "icao24": "4bce0e",
        "callsign": "SXS2YL",
        "origin_country": "Turkey",
        "time_position": 1786935064,
        "last_contact": 1786935064,
        "baro_altitude": 11582.4,
        "on_ground": false,
        "velocity": 201.75,
        "true_track": 303.77,
        "vertical_rate": 0,
        "geo_altitude": 12039.6,
        "squawk": "3227",
        "spi": false,
        "position_source": 0
      }
    },
    {
      "type": "Feature",
      "geometry": {
        "type": "Point",
        "coordinates": [
          17.5646,
          45.7023
        ]
      },
      "properties": {
        "icao24": "4bce08",
        "callsign": "SXS8DG",
        "origin_country": "Turkey",
        "time_position": 1786935064,
        "last_contact": 1786935064,
        "baro_altitude": 11582.4,
        "on_ground": false,
        "velocity": 211.37,
        "true_track": 315.89,
        "vertical_rate": 0,
        "geo_altitude": 12070.08,
        "squawk": "3247",
        "spi": false,
        "position_source": 0
      }
    },
    {
      "type": "Feature",
      "geometry": {
        "type": "Point",
        "coordinates": [
          16.7029,
          45.8535
        ]
      },
      "properties": {
        "icao24": "4bce05",
        "callsign": "SXS4UV",
        "origin_country": "Turkey",
        "time_position": 1786935064,
        "last_contact": 1786935064,
        "baro_altitude": 11582.4,
        "on_ground": false,
        "velocity": 212.47,
        "true_track": 304.34,
        "vertical_rate": 0,
        "geo_altitude": 12054.84,
        "squawk": "3260",
        "spi": false,
        "position_source": 0
      }
    },
    {
      "type": "Feature",
      "geometry": {
        "type": "Point",
        "coordinates": [
          18.2861,
          44.6525
        ]
      },
      "properties": {
        "icao24": "4bce03",
        "callsign": "SXS1PJ",
        "origin_country": "Turkey",
        "time_position": 1786935064,
        "last_contact": 1786935064,
        "baro_altitude": 11887.2,
        "on_ground": false,
        "velocity": 239.07,
        "true_track": 133.52,
        "vertical_rate": 0,
        "geo_altitude": 12397.74,
        "squawk": "7662",
        "spi": false,
        "position_source": 0
      }
    },
    {
      "type": "Feature",
      "geometry": {
        "type": "Point",
        "coordinates": [
          16.8048,
          47.5645
        ]
      },
      "properties": {
        "icao24": "4d0111",
        "callsign": "CLX942",
        "origin_country": "Luxembourg",
        "time_position": 1786935064,
        "last_contact": 1786935064,
        "baro_altitude": 10363.2,
        "on_ground": false,
        "velocity": 230.3,
        "true_track": 296.11,
        "vertical_rate": 0,
        "geo_altitude": 10805.16,
        "squawk": "0323",
        "spi": false,
        "position_source": 0
      }
    },
    {
      "type": "Feature",
      "geometry": {
        "type": "Point",
        "coordinates": [
          11.7848,
          44.9613
        ]
      },
      "properties": {
        "icao24": "346199",
        "callsign": "RGN7858",
        "origin_country": "Spain",
        "time_position": 1786935064,
        "last_contact": 1786935064,
        "baro_altitude": 10675.62,
        "on_ground": false,
        "velocity": 213.62,
        "true_track": 196.08,
        "vertical_rate": 0,
        "geo_altitude": 11148.06,
        "squawk": "7434",
        "spi": false,
        "position_source": 0
      }
    },
    {
      "type": "Feature",
      "geometry": {
        "type": "Point",
        "coordinates": [
          16.355,
          46.1711
        ]
      },
      "properties": {
        "icao24": "8966d0",
        "callsign": "ETD2",
        "origin_country": "United Arab Emirates",
        "time_position": 1786935064,
        "last_contact": 1786935064,
        "baro_altitude": 11277.6,
        "on_ground": false,
        "velocity": 268.3,
        "true_track": 122.47,
        "vertical_rate": 0,
        "geo_altitude": 11757.66,
        "squawk": "2232",
        "spi": false,
        "position_source": 0
      }
    },
    {
      "type": "Feature",
      "geometry": {
        "type": "Point",
        "coordinates": [
          17.0686,
          44.0846
        ]
      },
      "properties": {
        "icao24": "01023a",
        "callsign": "MSC2913",
        "origin_country": "Egypt",
        "time_position": 1786935064,
        "last_contact": 1786935064,
        "baro_altitude": 10668,
        "on_ground": false,
        "velocity": 241.01,
        "true_track": 140.02,
        "vertical_rate": 0,
        "geo_altitude": 11186.16,
        "squawk": "2556",
        "spi": false,
        "position_source": 0
      }
    },
    {
      "type": "Feature",
      "geometry": {
        "type": "Point",
        "coordinates": [
          13.1162,
          36.063
        ]
      },
      "properties": {
        "icao24": "010244",
        "callsign": "MSR862",
        "origin_country": "Egypt",
        "time_position": 1786935063,
        "last_contact": 1786935063,
        "baro_altitude": 10668,
        "on_ground": false,
        "velocity": 267.75,
        "true_track": 92.42,
        "vertical_rate": 0,
        "geo_altitude": 11300.46,
        "squawk": "4104",
        "spi": false,
        "position_source": 0
      }
    },
    {
      "type": "Feature",
      "geometry": {
        "type": "Point",
        "coordinates": [
          15.1325,
          45.6482
        ]
      },
      "properties": {
        "icao24": "010264",
        "callsign": "MSC2917",
        "origin_country": "Egypt",
        "time_position": 1786935064,
        "last_contact": 1786935064,
        "baro_altitude": 10668,
        "on_ground": false,
        "velocity": 245.23,
        "true_track": 138.32,
        "vertical_rate": 0,
        "geo_altitude": 11163.3,
        "squawk": "2562",
        "spi": false,
        "position_source": 0
      }
    },
    {
      "type": "Feature",
      "geometry": {
        "type": "Point",
        "coordinates": [
          18.2296,
          35.5961
        ]
      },
      "properties": {
        "icao24": "010289",
        "callsign": "MSR986",
        "origin_country": "Egypt",
        "time_position": 1786935064,
        "last_contact": 1786935064,
        "baro_altitude": 11887.2,
        "on_ground": false,
        "velocity": 280.34,
        "true_track": 102.51,
        "vertical_rate": 0,
        "geo_altitude": 12534.9,
        "squawk": "5201",
        "spi": false,
        "position_source": 0
      }
    },
    {
      "type": "Feature",
      "geometry": {
        "type": "Point",
        "coordinates": [
          15.9581,
          45.4413
        ]
      },
      "properties": {
        "icao24": "0101db",
        "callsign": "MSR995",
        "origin_country": "Egypt",
        "time_position": 1786935064,
        "last_contact": 1786935064,
        "baro_altitude": 10363.2,
        "on_ground": false,
        "velocity": 243.61,
        "true_track": 308.23,
        "vertical_rate": 0,
        "geo_altitude": 10850.88,
        "squawk": "2075",
        "spi": false,
        "position_source": 0
      }
    },
    {
      "type": "Feature",
      "geometry": {
        "type": "Point",
        "coordinates": [
          8.7171,
          45.6422
        ]
      },
      "properties": {
        "icao24": "300990",
        "callsign": "LSI219",
        "origin_country": "Italy",
        "time_position": 1786935064,
        "last_contact": 1786935064,
        "baro_altitude": null,
        "on_ground": true,
        "velocity": 12.35,
        "true_track": 348.75,
        "vertical_rate": null,
        "geo_altitude": null,
        "squawk": "3757",
        "spi": false,
        "position_source": 0
      }
    },
    {
      "type": "Feature",
      "geometry": {
        "type": "Point",
        "coordinates": [
          16.1053,
          39.3889
        ]
      },
      "properties": {
        "icao24": "33fd49",
        "callsign": "RILA",
        "origin_country": "Italy",
        "time_position": 1786933607,
        "last_contact": 1786935061,
        "baro_altitude": 1143,
        "on_ground": false,
        "velocity": 33.88,
        "true_track": 210.07,
        "vertical_rate": -0.33,
        "geo_altitude": 1249.68,
        "squawk": null,
        "spi": false,
        "position_source": 0
      }
    },
    {
      "type": "Feature",
      "geometry": {
        "type": "Point",
        "coordinates": [
          10.1939,
          45.4964
        ]
      },
      "properties": {
        "icao24": "4caed5",
        "callsign": "BCS9116",
        "origin_country": "Ireland",
        "time_position": 1786935064,
        "last_contact": 1786935064,
        "baro_altitude": 8382,
        "on_ground": false,
        "velocity": 234.07,
        "true_track": 93.78,
        "vertical_rate": 7.8,
        "geo_altitude": 8808.72,
        "squawk": "1000",
        "spi": false,
        "position_source": 0
      }
    },
    {
      "type": "Feature",
      "geometry": {
        "type": "Point",
        "coordinates": [
          9.6021,
          47.4224
        ]
      },
      "properties": {
        "icao24": "3c7a50",
        "callsign": "CFG289",
        "origin_country": "Germany",
        "time_position": 1786935064,
        "last_contact": 1786935064,
        "baro_altitude": 12192,
        "on_ground": false,
        "velocity": 241.29,
        "true_track": 356.21,
        "vertical_rate": 0.33,
        "geo_altitude": 12641.58,
        "squawk": "1000",
        "spi": false,
        "position_source": 0
      }
    },
    {
      "type": "Feature",
      "geometry": {
        "type": "Point",
        "coordinates": [
          15.3888,
          45.3295
        ]
      },
      "properties": {
        "icao24": "4d21b1",
        "callsign": "FHM5375",
        "origin_country": "Malta",
        "time_position": 1786935063,
        "last_contact": 1786935063,
        "baro_altitude": 10660.38,
        "on_ground": false,
        "velocity": 240.02,
        "true_track": 137.87,
        "vertical_rate": -0.33,
        "geo_altitude": 11148.06,
        "squawk": "0515",
        "spi": false,
        "position_source": 0
      }
    },
    {
      "type": "Feature",
      "geometry": {
        "type": "Point",
        "coordinates": [
          13.8257,
          44.9877
        ]
      },
      "properties": {
        "icao24": "3c458f",
        "callsign": "BOX615",
        "origin_country": "Germany",
        "time_position": 1786935064,
        "last_contact": 1786935064,
        "baro_altitude": 9753.6,
        "on_ground": false,
        "velocity": 251.77,
        "true_track": 310.53,
        "vertical_rate": 0,
        "geo_altitude": 10218.42,
        "squawk": "2002",
        "spi": false,
        "position_source": 0
      }
    },
    {
      "type": "Feature",
      "geometry": {
        "type": "Point",
        "coordinates": [
          18.0985,
          37.7618
        ]
      },
      "properties": {
        "icao24": "710000",
        "callsign": "RXI531",
        "origin_country": "Saudi Arabia",
        "time_position": 1786935064,
        "last_contact": 1786935064,
        "baro_altitude": 12184.38,
        "on_ground": false,
        "velocity": 231.22,
        "true_track": 296.57,
        "vertical_rate": -0.33,
        "geo_altitude": 12824.46,
        "squawk": "2021",
        "spi": false,
        "position_source": 0
      }
    },
    {
      "type": "Feature",
      "geometry": {
        "type": "Point",
        "coordinates": [
          16.119,
          44.797
        ]
      },
      "properties": {
        "icao24": "4d2278",
        "callsign": "CXI7W",
        "origin_country": "Malta",
        "time_position": 1786935064,
        "last_contact": 1786935064,
        "baro_altitude": 11277.6,
        "on_ground": false,
        "velocity": 244.8,
        "true_track": 141.23,
        "vertical_rate": 0,
        "geo_altitude": 11772.9,
        "squawk": "2115",
        "spi": false,
        "position_source": 0
      }
    },
    {
      "type": "Feature",
      "geometry": {
        "type": "Point",
        "coordinates": [
          14.116,
          47.2417
        ]
      },
      "properties": {
        "icao24": "4b19fe",
        "callsign": "CFG4104",
        "origin_country": "Switzerland",
        "time_position": 1786935064,
        "last_contact": 1786935064,
        "baro_altitude": 10363.2,
        "on_ground": false,
        "velocity": 217.97,
        "true_track": 311.36,
        "vertical_rate": 0,
        "geo_altitude": 10782.3,
        "squawk": "2047",
        "spi": false,
        "position_source": 0
      }
    },
    {
      "type": "Feature",
      "geometry": {
        "type": "Point",
        "coordinates": [
          6.099,
          38.9458
        ]
      },
      "properties": {
        "icao24": "39c424",
        "callsign": "AFR722",
        "origin_country": "France",
        "time_position": 1786935064,
        "last_contact": 1786935064,
        "baro_altitude": 11574.78,
        "on_ground": false,
        "velocity": 246.62,
        "true_track": 350.64,
        "vertical_rate": 0,
        "geo_altitude": 12192,
        "squawk": null,
        "spi": false,
        "position_source": 0
      }
    },
    {
      "type": "Feature",
      "geometry": {
        "type": "Point",
        "coordinates": [
          17.1293,
          44.9502
        ]
      },
      "properties": {
        "icao24": "4691c3",
        "callsign": "AEE525",
        "origin_country": "Greece",
        "time_position": 1786935064,
        "last_contact": 1786935064,
        "baro_altitude": 11277.6,
        "on_ground": false,
        "velocity": 242.64,
        "true_track": 135.43,
        "vertical_rate": 0,
        "geo_altitude": 11795.76,
        "squawk": "7707",
        "spi": false,
        "position_source": 0
      }
    },
    {
      "type": "Feature",
      "geometry": {
        "type": "Point",
        "coordinates": [
          11.0053,
          46.9072
        ]
      },
      "properties": {
        "icao24": "4d2159",
        "callsign": "BRD140",
        "origin_country": "Malta",
        "time_position": 1786935063,
        "last_contact": 1786935064,
        "baro_altitude": 10668,
        "on_ground": false,
        "velocity": 236.02,
        "true_track": 148.46,
        "vertical_rate": 0,
        "geo_altitude": 11109.96,
        "squawk": "0245",
        "spi": false,
        "position_source": 0
      }
    },
    {
      "type": "Feature",
      "geometry": {
        "type": "Point",
        "coordinates": [
          7.1302,
          39.1877
        ]
      },
      "properties": {
        "icao24": "4b18fd",
        "callsign": "SWR283",
        "origin_country": "Switzerland",
        "time_position": 1786935064,
        "last_contact": 1786935064,
        "baro_altitude": 12192,
        "on_ground": false,
        "velocity": 249.26,
        "true_track": 17.54,
        "vertical_rate": 0,
        "geo_altitude": 12809.22,
        "squawk": null,
        "spi": false,
        "position_source": 0
      }
    },
    {
      "type": "Feature",
      "geometry": {
        "type": "Point",
        "coordinates": [
          18.9148,
          45.4795
        ]
      },
      "properties": {
        "icao24": "4b191e",
        "callsign": "SWR139",
        "origin_country": "Switzerland",
        "time_position": 1786935064,
        "last_contact": 1786935064,
        "baro_altitude": 10972.8,
        "on_ground": false,
        "velocity": 228.41,
        "true_track": 288.11,
        "vertical_rate": 0,
        "geo_altitude": 11460.48,
        "squawk": "5350",
        "spi": false,
        "position_source": 0
      }
    },
    {
      "type": "Feature",
      "geometry": {
        "type": "Point",
        "coordinates": [
          12.0371,
          45.594
        ]
      },
      "properties": {
        "icao24": "451dbd",
        "callsign": "BCS942",
        "origin_country": "Bulgaria",
        "time_position": 1786935064,
        "last_contact": 1786935064,
        "baro_altitude": 10058.4,
        "on_ground": false,
        "velocity": 230.47,
        "true_track": 89.87,
        "vertical_rate": 0,
        "geo_altitude": 10515.6,
        "squawk": "3745",
        "spi": false,
        "position_source": 0
      }
    }
  ]
}