{
  "type": "FeatureCollection",
  "source": "opensky",
  "dataset": "aircraft_italy",
  "generated_at": "2026-08-17T23:53:27.516115+00:00",
  "opensky_time": 1787010795,
  "count": 145,
  "features": [
    {
      "type": "Feature",
      "geometry": {
        "type": "Point",
        "coordinates": [
          16.3755,
          47.6841
        ]
      },
      "properties": {
        "icao24": "4bc8cb",
        "callsign": "PGT69QK",
        "origin_country": "Turkey",
        "time_position": 1787010795,
        "last_contact": 1787010795,
        "baro_altitude": 10363.2,
        "on_ground": false,
        "velocity": 191.25,
        "true_track": 291.46,
        "vertical_rate": -0.33,
        "geo_altitude": 10683.24,
        "squawk": "5340",
        "spi": false,
        "position_source": 0
      }
    },
    {
      "type": "Feature",
      "geometry": {
        "type": "Point",
        "coordinates": [
          12.9327,
          43.5505
        ]
      },
      "properties": {
        "icao24": "46b822",
        "callsign": "AEE609",
        "origin_country": "Greece",
        "time_position": 1787010795,
        "last_contact": 1787010795,
        "baro_altitude": 11277.6,
        "on_ground": false,
        "velocity": 247.76,
        "true_track": 127.32,
        "vertical_rate": 0,
        "geo_altitude": 11788.14,
        "squawk": "0541",
        "spi": false,
        "position_source": 0
      }
    },
    {
      "type": "Feature",
      "geometry": {
        "type": "Point",
        "coordinates": [
          8.8096,
          44.4729
        ]
      },
      "properties": {
        "icao24": "440224",
        "callsign": "EJU3602",
        "origin_country": "Austria",
        "time_position": 1787010795,
        "last_contact": 1787010795,
        "baro_altitude": 6210.3,
        "on_ground": false,
        "velocity": 162.74,
        "true_track": 348.51,
        "vertical_rate": -4.23,
        "geo_altitude": 6560.82,
        "squawk": "1000",
        "spi": false,
        "position_source": 0
      }
    },
    {
      "type": "Feature",
      "geometry": {
        "type": "Point",
        "coordinates": [
          14.5953,
          45.5847
        ]
      },
      "properties": {
        "icao24": "471f9f",
        "callsign": "WZZ6579",
        "origin_country": "Hungary",
        "time_position": 1787010795,
        "last_contact": 1787010795,
        "baro_altitude": 10668,
        "on_ground": false,
        "velocity": 233.56,
        "true_track": 90,
        "vertical_rate": -0.33,
        "geo_altitude": 11132.82,
        "squawk": "0466",
        "spi": false,
        "position_source": 0
      }
    },
    {
      "type": "Feature",
      "geometry": {
        "type": "Point",
        "coordinates": [
          17.6071,
          37.6239
        ]
      },
      "properties": {
        "icao24": "471faa",
        "callsign": "WZZ58KY",
        "origin_country": "Hungary",
        "time_position": 1787010795,
        "last_contact": 1787010795,
        "baro_altitude": 10683.24,
        "on_ground": false,
        "velocity": 241.94,
        "true_track": 50.52,
        "vertical_rate": 0,
        "geo_altitude": 11209.02,
        "squawk": "6561",
        "spi": false,
        "position_source": 0
      }
    },
    {
      "type": "Feature",
      "geometry": {
        "type": "Point",
        "coordinates": [
          16.1722,
          41.3524
        ]
      },
      "properties": {
        "icao24": "a15de5",
        "callsign": "N1876P",
        "origin_country": "United States",
        "time_position": 1787010795,
        "last_contact": 1787010795,
        "baro_altitude": 11887.2,
        "on_ground": false,
        "velocity": 282.58,
        "true_track": 96.27,
        "vertical_rate": -0.33,
        "geo_altitude": 12412.98,
        "squawk": "4307",
        "spi": false,
        "position_source": 0
      }
    },
    {
      "type": "Feature",
      "geometry": {
        "type": "Point",
        "coordinates": [
          14.8359,
          44.1031
        ]
      },
      "properties": {
        "icao24": "801859",
        "callsign": "AIC188",
        "origin_country": "India",
        "time_position": 1787010795,
        "last_contact": 1787010795,
        "baro_altitude": 11262.36,
        "on_ground": false,
        "velocity": 263.21,
        "true_track": 126.18,
        "vertical_rate": 0.65,
        "geo_altitude": 11742.42,
        "squawk": "1152",
        "spi": false,
        "position_source": 0
      }
    },
    {
      "type": "Feature",
      "geometry": {
        "type": "Point",
        "coordinates": [
          7.5784,
          40.6759
        ]
      },
      "properties": {
        "icao24": "738069",
        "callsign": "ELY398",
        "origin_country": "Israel",
        "time_position": 1787010795,
        "last_contact": 1787010795,
        "baro_altitude": 10363.2,
        "on_ground": false,
        "velocity": 229.47,
        "true_track": 100.2,
        "vertical_rate": 0,
        "geo_altitude": 10972.8,
        "squawk": "1454",
        "spi": false,
        "position_source": 0
      }
    },
    {
      "type": "Feature",
      "geometry": {
        "type": "Point",
        "coordinates": [
          18.4115,
          45.262
        ]
      },
      "properties": {
        "icao24": "738073",
        "callsign": "ELY318",
        "origin_country": "Israel",
        "time_position": 1787010795,
        "last_contact": 1787010795,
        "baro_altitude": 11277.6,
        "on_ground": false,
        "velocity": 262.41,
        "true_track": 124.38,
        "vertical_rate": 0,
        "geo_altitude": 11711.94,
        "squawk": "5244",
        "spi": false,
        "position_source": 0
      }
    },
    {
      "type": "Feature",
      "geometry": {
        "type": "Point",
        "coordinates": [
          18.5338,
          39.6136
        ]
      },
      "properties": {
        "icao24": "738052",
        "callsign": "ELY326",
        "origin_country": "Israel",
        "time_position": 1787010794,
        "last_contact": 1787010795,
        "baro_altitude": 10668,
        "on_ground": false,
        "velocity": 246.04,
        "true_track": 131.35,
        "vertical_rate": 0,
        "geo_altitude": 11148.06,
        "squawk": "0670",
        "spi": false,
        "position_source": 0
      }
    },
    {
      "type": "Feature",
      "geometry": {
        "type": "Point",
        "coordinates": [
          7.6134,
          47.5739
        ]
      },
      "properties": {
        "icao24": "440036",
        "callsign": "EJU3840",
        "origin_country": "Austria",
        "time_position": 1787010795,
        "last_contact": 1787010795,
        "baro_altitude": 11894.82,
        "on_ground": false,
        "velocity": 256.15,
        "true_track": 157.19,
        "vertical_rate": 0.33,
        "geo_altitude": 12443.46,
        "squawk": "2222",
        "spi": false,
        "position_source": 0
      }
    },
    {
      "type": "Feature",
      "geometry": {
        "type": "Point",
        "coordinates": [
          18.8228,
          45.1487
        ]
      },
      "properties": {
        "icao24": "471d69",
        "callsign": "WZZ9198",
        "origin_country": "Hungary",
        "time_position": 1787010794,
        "last_contact": 1787010795,
        "baro_altitude": 7185.66,
        "on_ground": false,
        "velocity": 196.71,
        "true_track": 113.75,
        "vertical_rate": -10.4,
        "geo_altitude": 7490.46,
        "squawk": "0432",
        "spi": false,
        "position_source": 0
      }
    },
    {
      "type": "Feature",
      "geometry": {
        "type": "Point",
        "coordinates": [
          15.9831,
          45.4282
        ]
      },
      "properties": {
        "icao24": "406900",
        "callsign": "EXS7HG",
        "origin_country": "United Kingdom",
        "time_position": 1787010795,
        "last_contact": 1787010795,
        "baro_altitude": 10972.8,
        "on_ground": false,
        "velocity": 204.31,
        "true_track": 308.46,
        "vertical_rate": -0.33,
        "geo_altitude": 11414.76,
        "squawk": "5301",
        "spi": false,
        "position_source": 0
      }
    },
    {
      "type": "Feature",
      "geometry": {
        "type": "Point",
        "coordinates": [
          13.2722,
          38.5055
        ]
      },
      "properties": {
        "icao24": "44019b",
        "callsign": "TJS003",
        "origin_country": "Austria",
        "time_position": 1787010795,
        "last_contact": 1787010795,
        "baro_altitude": 3977.64,
        "on_ground": false,
        "velocity": 168.18,
        "true_track": 40.66,
        "vertical_rate": 7.8,
        "geo_altitude": 4236.72,
        "squawk": null,
        "spi": false,
        "position_source": 0
      }
    },
    {
      "type": "Feature",
      "geometry": {
        "type": "Point",
        "coordinates": [
          18.8846,
          47.0448
        ]
      },
      "properties": {
        "icao24": "471db0",
        "callsign": "WZZ2498",
        "origin_country": "Hungary",
        "time_position": 1787010795,
        "last_contact": 1787010795,
        "baro_altitude": 3230.88,
        "on_ground": false,
        "velocity": 174.85,
        "true_track": 63.06,
        "vertical_rate": -3.58,
        "geo_altitude": 3337.56,
        "squawk": "1000",
        "spi": false,
        "position_source": 0
      }
    },
    {
      "type": "Feature",
      "geometry": {
        "type": "Point",
        "coordinates": [
          15.7838,
          41.6693
        ]
      },
      "properties": {
        "icao24": "7380c0",
        "callsign": "ELY017",
        "origin_country": "Israel",
        "time_position": 1787010794,
        "last_contact": 1787010795,
        "baro_altitude": 10363.2,
        "on_ground": false,
        "velocity": 233.94,
        "true_track": 302.15,
        "vertical_rate": -0.33,
        "geo_altitude": 10858.5,
        "squawk": "5227",
        "spi": false,
        "position_source": 0
      }
    },
    {
      "type": "Feature",
      "geometry": {
        "type": "Point",
        "coordinates": [
          13.4243,
          37.7887
        ]
      },
      "properties": {
        "icao24": "4bb285",
        "callsign": "THY5LY",
        "origin_country": "Turkey",
        "time_position": 1787010795,
        "last_contact": 1787010795,
        "baro_altitude": 10668,
        "on_ground": false,
        "velocity": 253.01,
        "true_track": 69.28,
        "vertical_rate": 0,
        "geo_altitude": 11216.64,
        "squawk": "1236",
        "spi": false,
        "position_source": 0
      }
    },
    {
      "type": "Feature",
      "geometry": {
        "type": "Point",
        "coordinates": [
          10.8163,
          39.7053
        ]
      },
      "properties": {
        "icao24": "896318",
        "callsign": "UAE194",
        "origin_country": "United Arab Emirates",
        "time_position": 1787010795,
        "last_contact": 1787010795,
        "baro_altitude": 10668,
        "on_ground": false,
        "velocity": 239.96,
        "true_track": 108.63,
        "vertical_rate": -0.33,
        "geo_altitude": 11201.4,
        "squawk": "1416",
        "spi": false,
        "position_source": 0
      }
    },
    {
      "type": "Feature",
      "geometry": {
        "type": "Point",
        "coordinates": [
          14.861,
          44.1956
        ]
      },
      "properties": {
        "icao24": "4067f3",
        "callsign": "TOM619",
        "origin_country": "United Kingdom",
        "time_position": 1787010794,
        "last_contact": 1787010795,
        "baro_altitude": 10972.8,
        "on_ground": false,
        "velocity": 217.48,
        "true_track": 302.64,
        "vertical_rate": 0,
        "geo_altitude": 11437.62,
        "squawk": "5335",
        "spi": false,
        "position_source": 0
      }
    },
    {
      "type": "Feature",
      "geometry": {
        "type": "Point",
        "coordinates": [
          6.0664,
          44.8036
        ]
      },
      "properties": {
        "icao24": "4064a4",
        "callsign": "TOM613",
        "origin_country": "United Kingdom",
        "time_position": 1787010795,
        "last_contact": 1787010795,
        "baro_altitude": 11582.4,
        "on_ground": false,
        "velocity": 213.73,
        "true_track": 333.56,
        "vertical_rate": 0,
        "geo_altitude": 12184.38,
        "squawk": "4033",
        "spi": false,
        "position_source": 0
      }
    },
    {
      "type": "Feature",
      "geometry": {
        "type": "Point",
        "coordinates": [
          17.7801,
          39.052
        ]
      },
      "properties": {
        "icao24": "39a2e0",
        "callsign": "DAH3018",
        "origin_country": "France",
        "time_position": 1787010795,
        "last_contact": 1787010795,
        "baro_altitude": 10668,
        "on_ground": false,
        "velocity": 246.22,
        "true_track": 70.09,
        "vertical_rate": 0,
        "geo_altitude": 11148.06,
        "squawk": "1235",
        "spi": false,
        "position_source": 0
      }
    },
    {
      "type": "Feature",
      "geometry": {
        "type": "Point",
        "coordinates": [
          8.7321,
          44.9592
        ]
      },
      "properties": {
        "icao24": "347696",
        "callsign": "VLG6HN",
        "origin_country": "Spain",
        "time_position": 1787010795,
        "last_contact": 1787010795,
        "baro_altitude": 10668,
        "on_ground": false,
        "velocity": 234.64,
        "true_track": 224.56,
        "vertical_rate": 0,
        "geo_altitude": 11224.26,
        "squawk": "1000",
        "spi": false,
        "position_source": 0
      }
    },
    {
      "type": "Feature",
      "geometry": {
        "type": "Point",
        "coordinates": [
          18.2805,
          47.6011
        ]
      },
      "properties": {
        "icao24": "44cc42",
        "callsign": "BEL7WC",
        "origin_country": "Belgium",
        "time_position": 1787010795,
        "last_contact": 1787010795,
        "baro_altitude": 10972.8,
        "on_ground": false,
        "velocity": 215.02,
        "true_track": 290.3,
        "vertical_rate": 0.33,
        "geo_altitude": 11292.84,
        "squawk": "1000",
        "spi": false,
        "position_source": 0
      }
    },
    {
      "type": "Feature",
      "geometry": {
        "type": "Point",
        "coordinates": [
          15.3702,
          44.8985
        ]
      },
      "properties": {
        "icao24": "407838",
        "callsign": "EZY91AJ",
        "origin_country": "United Kingdom",
        "time_position": 1787010795,
        "last_contact": 1787010795,
        "baro_altitude": 10972.8,
        "on_ground": false,
        "velocity": 216.51,
        "true_track": 310.08,
        "vertical_rate": 0,
        "geo_altitude": 11422.38,
        "squawk": "0501",
        "spi": false,
        "position_source": 0
      }
    },
    {
      "type": "Feature",
      "geometry": {
        "type": "Point",
        "coordinates": [
          16.4764,
          45.5986
        ]
      },
      "properties": {
        "icao24": "4b990d",
        "callsign": "FHY1362",
        "origin_country": "Turkey",
        "time_position": 1787010795,
        "last_contact": 1787010795,
        "baro_altitude": 10668,
        "on_ground": false,
        "velocity": 248.06,
        "true_track": 129.7,
        "vertical_rate": 0,
        "geo_altitude": 11087.1,
        "squawk": "6431",
        "spi": false,
        "position_source": 0
      }
    },
    {
      "type": "Feature",
      "geometry": {
        "type": "Point",
        "coordinates": [
          6.6254,
          43.9976
        ]
      },
      "properties": {
        "icao24": "4078ef",
        "callsign": "EZY12KM",
        "origin_country": "United Kingdom",
        "time_position": 1787010795,
        "last_contact": 1787010795,
        "baro_altitude": 10980.42,
        "on_ground": false,
        "velocity": 216.96,
        "true_track": 333.07,
        "vertical_rate": 0,
        "geo_altitude": 11590.02,
        "squawk": "4007",
        "spi": false,
        "position_source": 0
      }
    },
    {
      "type": "Feature",
      "geometry": {
        "type": "Point",
        "coordinates": [
          9.0553,
          47.0093
        ]
      },
      "properties": {
        "icao24": "40666c",
        "callsign": "EZY73HP",
        "origin_country": "United Kingdom",
        "time_position": 1787010794,
        "last_contact": 1787010795,
        "baro_altitude": 10972.8,
        "on_ground": false,
        "velocity": 216.28,
        "true_track": 306.49,
        "vertical_rate": 0.33,
        "geo_altitude": 11498.58,
        "squawk": "7524",
        "spi": false,
        "position_source": 0
      }
    },
    {
      "type": "Feature",
      "geometry": {
        "type": "Point",
        "coordinates": [
          12.6725,
          45.3541
        ]
      },
      "properties": {
        "icao24": "406670",
        "callsign": "EZY26XM",
        "origin_country": "United Kingdom",
        "time_position": 1787010795,
        "last_contact": 1787010795,
        "baro_altitude": 10972.8,
        "on_ground": false,
        "velocity": 208.37,
        "true_track": 302.4,
        "vertical_rate": 0.33,
        "geo_altitude": 11452.86,
        "squawk": "5354",
        "spi": false,
        "position_source": 0
      }
    },
    {
      "type": "Feature",
      "geometry": {
        "type": "Point",
        "coordinates": [
          14.9066,
          46.0097
        ]
      },
      "properties": {
        "icao24": "407913",
        "callsign": "EXS81K",
        "origin_country": "United Kingdom",
        "time_position": 1787010795,
        "last_contact": 1787010795,
        "baro_altitude": 11582.4,
        "on_ground": false,
        "velocity": 208.33,
        "true_track": 308.48,
        "vertical_rate": 0,
        "geo_altitude": 12031.98,
        "squawk": "5313",
        "spi": false,
        "position_source": 0
      }
    },
    {
      "type": "Feature",
      "geometry": {
        "type": "Point",
        "coordinates": [
          14.1345,
          43.5463
        ]
      },
      "properties": {
        "icao24": "40796e",
        "callsign": "EXS49TA",
        "origin_country": "United Kingdom",
        "time_position": 1787010795,
        "last_contact": 1787010795,
        "baro_altitude": 10988.04,
        "on_ground": false,
        "velocity": 212.56,
        "true_track": 313.04,
        "vertical_rate": -0.33,
        "geo_altitude": 11460.48,
        "squawk": "3710",
        "spi": false,
        "position_source": 0
      }
    },
    {
      "type": "Feature",
      "geometry": {
        "type": "Point",
        "coordinates": [
          18.6125,
          39.1164
        ]
      },
      "properties": {
        "icao24": "040190",
        "callsign": "ETH553",
        "origin_country": "Ethiopia",
        "time_position": 1787010794,
        "last_contact": 1787010795,
        "baro_altitude": 11277.6,
        "on_ground": false,
        "velocity": 262.76,
        "true_track": 139.61,
        "vertical_rate": -0.33,
        "geo_altitude": 11780.52,
        "squawk": "1140",
        "spi": false,
        "position_source": 0
      }
    },
    {
      "type": "Feature",
      "geometry": {
        "type": "Point",
        "coordinates": [
          12.8935,
          41.8682
        ]
      },
      "properties": {
        "icao24": "49d3bb",
        "callsign": "ISR343",
        "origin_country": "Czech Republic",
        "time_position": 1787010795,
        "last_contact": 1787010795,
        "baro_altitude": 4152.9,
        "on_ground": false,
        "velocity": 165.36,
        "true_track": 307.8,
        "vertical_rate": -5.2,
        "geo_altitude": 4404.36,
        "squawk": "5572",
        "spi": false,
        "position_source": 0
      }
    },
    {
      "type": "Feature",
      "geometry": {
        "type": "Point",
        "coordinates": [
          15.2516,
          45.8168
        ]
      },
      "properties": {
        "icao24": "406f87",
        "callsign": "EXS2DR",
        "origin_country": "United Kingdom",
        "time_position": 1787010794,
        "last_contact": 1787010795,
        "baro_altitude": 10972.8,
        "on_ground": false,
        "velocity": 203.51,
        "true_track": 308.64,
        "vertical_rate": 0,
        "geo_altitude": 11384.28,
        "squawk": "7731",
        "spi": false,
        "position_source": 0
      }
    },
    {
      "type": "Feature",
      "geometry": {
        "type": "Point",
        "coordinates": [
          11.5493,
          38.8824
        ]
      },
      "properties": {
        "icao24": "4ca570",
        "callsign": "RYR12EE",
        "origin_country": "Ireland",
        "time_position": 1787010794,
        "last_contact": 1787010795,
        "baro_altitude": 10668,
        "on_ground": false,
        "velocity": 237.56,
        "true_track": 135.79,
        "vertical_rate": 0,
        "geo_altitude": 11178.54,
        "squawk": "0431",
        "spi": false,
        "position_source": 0
      }
    },
    {
      "type": "Feature",
      "geometry": {
        "type": "Point",
        "coordinates": [
          18.3691,
          46.3171
        ]
      },
      "properties": {
        "icao24": "49d563",
        "callsign": "TVS2516",
        "origin_country": "Czech Republic",
        "time_position": 1787010794,
        "last_contact": 1787010795,
        "baro_altitude": 11277.6,
        "on_ground": false,
        "velocity": 235.52,
        "true_track": 143.71,
        "vertical_rate": 0,
        "geo_altitude": 11658.6,
        "squawk": "6005",
        "spi": false,
        "position_source": 0
      }
    },
    {
      "type": "Feature",
      "geometry": {
        "type": "Point",
        "coordinates": [
          13.616,
          43.6987
        ]
      },
      "properties": {
        "icao24": "040046",
        "callsign": "ETH519",
        "origin_country": "Ethiopia",
        "time_position": 1787010795,
        "last_contact": 1787010795,
        "baro_altitude": 11879.58,
        "on_ground": false,
        "velocity": 277.5,
        "true_track": 138.98,
        "vertical_rate": -0.33,
        "geo_altitude": 12382.5,
        "squawk": "2203",
        "spi": false,
        "position_source": 0
      }
    },
    {
      "type": "Feature",
      "geometry": {
        "type": "Point",
        "coordinates": [
          9.0751,
          46.9893
        ]
      },
      "properties": {
        "icao24": "04004a",
        "callsign": "ETH575",
        "origin_country": "Ethiopia",
        "time_position": 1787010795,
        "last_contact": 1787010795,
        "baro_altitude": 11879.58,
        "on_ground": false,
        "velocity": 271.76,
        "true_track": 134.16,
        "vertical_rate": 0.33,
        "geo_altitude": 12428.22,
        "squawk": "1173",
        "spi": false,
        "position_source": 0
      }
    },
    {
      "type": "Feature",
      "geometry": {
        "type": "Point",
        "coordinates": [
          17.2079,
          38.0417
        ]
      },
      "properties": {
        "icao24": "06a2e6",
        "callsign": "QTR152",
        "origin_country": "Qatar",
        "time_position": 1787010795,
        "last_contact": 1787010795,
        "baro_altitude": 11887.2,
        "on_ground": false,
        "velocity": 278.78,
        "true_track": 119.64,
        "vertical_rate": -0.33,
        "geo_altitude": 12466.32,
        "squawk": "1245",
        "spi": false,
        "position_source": 0
      }
    },
    {
      "type": "Feature",
      "geometry": {
        "type": "Point",
        "coordinates": [
          15.8627,
          46.2488
        ]
      },
      "properties": {
        "icao24": "406d90",
        "callsign": "EZY97GB",
        "origin_country": "United Kingdom",
        "time_position": 1787010795,
        "last_contact": 1787010795,
        "baro_altitude": 10363.2,
        "on_ground": false,
        "velocity": 194.69,
        "true_track": 316.61,
        "vertical_rate": 0,
        "geo_altitude": 10759.44,
        "squawk": "5534",
        "spi": false,
        "position_source": 0
      }
    },
    {
      "type": "Feature",
      "geometry": {
        "type": "Point",
        "coordinates": [
          11.1371,
          39.8291
        ]
      },
      "properties": {
        "icao24": "4ca2ab",
        "callsign": "RYR8PY",
        "origin_country": "Ireland",
        "time_position": 1787010795,
        "last_contact": 1787010795,
        "baro_altitude": 10363.2,
        "on_ground": false,
        "velocity": 240.45,
        "true_track": 306.65,
        "vertical_rate": 0,
        "geo_altitude": 10873.74,
        "squawk": null,
        "spi": false,
        "position_source": 0
      }
    },
    {
      "type": "Feature",
      "geometry": {
        "type": "Point",
        "coordinates": [
          7.5124,
          47.6136
        ]
      },
      "properties": {
        "icao24": "3c3ef1",
        "callsign": "RM20",
        "origin_country": "Germany",
        "time_position": 1787010760,
        "last_contact": 1787010761,
        "baro_altitude": null,
        "on_ground": true,
        "velocity": 1.29,
        "true_track": 309.38,
        "vertical_rate": null,
        "geo_altitude": null,
        "squawk": null,
        "spi": false,
        "position_source": 0
      }
    },
    {
      "type": "Feature",
      "geometry": {
        "type": "Point",
        "coordinates": [
          17.0767,
          42.9025
        ]
      },
      "properties": {
        "icao24": "407eeb",
        "callsign": "EXS75EV",
        "origin_country": "United Kingdom",
        "time_position": 1787010793,
        "last_contact": 1787010795,
        "baro_altitude": 10972.8,
        "on_ground": false,
        "velocity": 213.29,
        "true_track": 307.26,
        "vertical_rate": -0.33,
        "geo_altitude": 11460.48,
        "squawk": "5535",
        "spi": false,
        "position_source": 0
      }
    },
    {
      "type": "Feature",
      "geometry": {
        "type": "Point",
        "coordinates": [
          16.956,
          47.4545
        ]
      },
      "properties": {
        "icao24": "503e61",
        "callsign": "CAI2E",
        "origin_country": "Lithuania",
        "time_position": 1787010795,
        "last_contact": 1787010795,
        "baro_altitude": 10995.66,
        "on_ground": false,
        "velocity": 211.97,
        "true_track": 309.49,
        "vertical_rate": -0.33,
        "geo_altitude": 11330.94,
        "squawk": "3205",
        "spi": false,
        "position_source": 0
      }
    },
    {
      "type": "Feature",
      "geometry": {
        "type": "Point",
        "coordinates": [
          14.555,
          46.2035
        ]
      },
      "properties": {
        "icao24": "407e7d",
        "callsign": "EXS14JP",
        "origin_country": "United Kingdom",
        "time_position": 1787010795,
        "last_contact": 1787010795,
        "baro_altitude": 11582.4,
        "on_ground": false,
        "velocity": 206.16,
        "true_track": 308.41,
        "vertical_rate": -0.33,
        "geo_altitude": 12009.12,
        "squawk": "2020",
        "spi": false,
        "position_source": 0
      }
    },
    {
      "type": "Feature",
      "geometry": {
        "type": "Point",
        "coordinates": [
          8.9568,
          45.9321
        ]
      },
      "properties": {
        "icao24": "3420c6",
        "callsign": "BCS136",
        "origin_country": "Spain",
        "time_position": 1787010795,
        "last_contact": 1787010795,
        "baro_altitude": 4762.5,
        "on_ground": false,
        "velocity": 200.11,
        "true_track": 190.07,
        "vertical_rate": -5.85,
        "geo_altitude": 5044.44,
        "squawk": "1000",
        "spi": false,
        "position_source": 0
      }
    },
    {
      "type": "Feature",
      "geometry": {
        "type": "Point",
        "coordinates": [
          18.4634,
          43.9898
        ]
      },
      "properties": {
        "icao24": "407e4e",
        "callsign": "EXS6MN",
        "origin_country": "United Kingdom",
        "time_position": 1787010795,
        "last_contact": 1787010795,
        "baro_altitude": 10972.8,
        "on_ground": false,
        "velocity": 216.9,
        "true_track": 310,
        "vertical_rate": -0.33,
        "geo_altitude": 11422.38,
        "squawk": "5604",
        "spi": false,
        "position_source": 0
      }
    },
    {
      "type": "Feature",
      "geometry": {
        "type": "Point",
        "coordinates": [
          10.9782,
          46.3081
        ]
      },
      "properties": {
        "icao24": "407e54",
        "callsign": "EXS96PS",
        "origin_country": "United Kingdom",
        "time_position": 1787010795,
        "last_contact": 1787010795,
        "baro_altitude": 11582.4,
        "on_ground": false,
        "velocity": 215.14,
        "true_track": 306.54,
        "vertical_rate": -0.33,
        "geo_altitude": 12131.04,
        "squawk": "6634",
        "spi": false,
        "position_source": 0
      }
    },
    {
      "type": "Feature",
      "geometry": {
        "type": "Point",
        "coordinates": [
          16.6466,
          45.0854
        ]
      },
      "properties": {
        "icao24": "407e46",
        "callsign": "EXS98H",
        "origin_country": "United Kingdom",
        "time_position": 1787010794,
        "last_contact": 1787010795,
        "baro_altitude": 10965.18,
        "on_ground": false,
        "velocity": 213.63,
        "true_track": 308.94,
        "vertical_rate": 0,
        "geo_altitude": 11384.28,
        "squawk": "2070",
        "spi": false,
        "position_source": 0
      }
    },
    {
      "type": "Feature",
      "geometry": {
        "type": "Point",
        "coordinates": [
          9.0009,
          45.1603
        ]
      },
      "properties": {
        "icao24": "440611",
        "callsign": "EJU17FM",
        "origin_country": "Austria",
        "time_position": 1787010795,
        "last_contact": 1787010795,
        "baro_altitude": 2148.84,
        "on_ground": false,
        "velocity": 130.96,
        "true_track": 169.13,
        "vertical_rate": -2.28,
        "geo_altitude": 2278.38,
        "squawk": "1143",
        "spi": false,
        "position_source": 0
      }
    },
    {
      "type": "Feature",
      "geometry": {
        "type": "Point",
        "coordinates": [
          8.722,
          45.6464
        ]
      },
      "properties": {
        "icao24": "440625",
        "callsign": "EJU73ZE",
        "origin_country": "Austria",
        "time_position": 1787010665,
        "last_contact": 1787010666,
        "baro_altitude": null,
        "on_ground": true,
        "velocity": 0,
        "true_track": 78.75,
        "vertical_rate": null,
        "geo_altitude": null,
        "squawk": "1000",
        "spi": false,
        "position_source": 0
      }
    },
    {
      "type": "Feature",
      "geometry": {
        "type": "Point",
        "coordinates": [
          18.0408,
          44.2188
        ]
      },
      "properties": {
        "icao24": "406ae8",
        "callsign": "TOM3TH",
        "origin_country": "United Kingdom",
        "time_position": 1787010795,
        "last_contact": 1787010795,
        "baro_altitude": 10972.8,
        "on_ground": false,
        "velocity": 216.85,
        "true_track": 309.13,
        "vertical_rate": 0,
        "geo_altitude": 11422.38,
        "squawk": "2035",
        "spi": false,
        "position_source": 0
      }
    },
    {
      "type": "Feature",
      "geometry": {
        "type": "Point",
        "coordinates": [
          13.6107,
          44.7214
        ]
      },
      "properties": {
        "icao24": "406ae9",
        "callsign": "TOM1AB",
        "origin_country": "United Kingdom",
        "time_position": 1787010795,
        "last_contact": 1787010795,
        "baro_altitude": 10972.8,
        "on_ground": false,
        "velocity": 207.88,
        "true_track": 305.74,
        "vertical_rate": 0,
        "geo_altitude": 11445.24,
        "squawk": "7345",
        "spi": false,
        "position_source": 0
      }
    },
    {
      "type": "Feature",
      "geometry": {
        "type": "Point",
        "coordinates": [
          11.3863,
          46.061
        ]
      },
      "properties": {
        "icao24": "48c2b9",
        "callsign": "RYR23ME",
        "origin_country": "Poland",
        "time_position": 1787010795,
        "last_contact": 1787010795,
        "baro_altitude": 11582.4,
        "on_ground": false,
        "velocity": 213.14,
        "true_track": 35.57,
        "vertical_rate": -0.33,
        "geo_altitude": 12092.94,
        "squawk": "1000",
        "spi": false,
        "position_source": 0
      }
    },
    {
      "type": "Feature",
      "geometry": {
        "type": "Point",
        "coordinates": [
          7.204,
          43.6572
        ]
      },
      "properties": {
        "icao24": "440713",
        "callsign": "EJU73FG",
        "origin_country": "Austria",
        "time_position": 1787010743,
        "last_contact": 1787010745,
        "baro_altitude": null,
        "on_ground": true,
        "velocity": 0,
        "true_track": 323.44,
        "vertical_rate": null,
        "geo_altitude": null,
        "squawk": "6336",
        "spi": false,
        "position_source": 0
      }
    },
    {
      "type": "Feature",
      "geometry": {
        "type": "Point",
        "coordinates": [
          12.3065,
          47.3924
        ]
      },
      "properties": {
        "icao24": "406ac3",
        "callsign": "EXS8GN",
        "origin_country": "United Kingdom",
        "time_position": 1787010795,
        "last_contact": 1787010795,
        "baro_altitude": 11582.4,
        "on_ground": false,
        "velocity": 203.03,
        "true_track": 305.82,
        "vertical_rate": 0,
        "geo_altitude": 12062.46,
        "squawk": "2241",
        "spi": false,
        "position_source": 0
      }
    },
    {
      "type": "Feature",
      "geometry": {
        "type": "Point",
        "coordinates": [
          15.8081,
          41.6098
        ]
      },
      "properties": {
        "icao24": "49d034",
        "callsign": "TVS2721",
        "origin_country": "Czech Republic",
        "time_position": 1787010795,
        "last_contact": 1787010795,
        "baro_altitude": 11582.4,
        "on_ground": false,
        "velocity": 224.47,
        "true_track": 357.77,
        "vertical_rate": 0,
        "geo_altitude": 12108.18,
        "squawk": null,
        "spi": false,
        "position_source": 0
      }
    },
    {
      "type": "Feature",
      "geometry": {
        "type": "Point",
        "coordinates": [
          8.7263,
          45.6188
        ]
      },
      "properties": {
        "icao24": "440417",
        "callsign": "TSW1M",
        "origin_country": "Austria",
        "time_position": 1787010795,
        "last_contact": 1787010795,
        "baro_altitude": 426.72,
        "on_ground": false,
        "velocity": 89.59,
        "true_track": 173.41,
        "vertical_rate": 12.03,
        "geo_altitude": 487.68,
        "squawk": "4662",
        "spi": false,
        "position_source": 0
      }
    },
    {
      "type": "Feature",
      "geometry": {
        "type": "Point",
        "coordinates": [
          6.7513,
          40.3267
        ]
      },
      "properties": {
        "icao24": "4b9c61",
        "callsign": "BBT200",
        "origin_country": "Turkey",
        "time_position": 1787010794,
        "last_contact": 1787010795,
        "baro_altitude": 11887.2,
        "on_ground": false,
        "velocity": 241.61,
        "true_track": 257.21,
        "vertical_rate": 0,
        "geo_altitude": 12527.28,
        "squawk": "4052",
        "spi": false,
        "position_source": 0
      }
    },
    {
      "type": "Feature",
      "geometry": {
        "type": "Point",
        "coordinates": [
          11.3717,
          45.6878
        ]
      },
      "properties": {
        "icao24": "407d4c",
        "callsign": "TOM1TK",
        "origin_country": "United Kingdom",
        "time_position": 1787010795,
        "last_contact": 1787010795,
        "baro_altitude": 11582.4,
        "on_ground": false,
        "velocity": 213.09,
        "true_track": 306.26,
        "vertical_rate": -0.33,
        "geo_altitude": 12100.56,
        "squawk": "6633",
        "spi": false,
        "position_source": 0
      }
    },
    {
      "type": "Feature",
      "geometry": {
        "type": "Point",
        "coordinates": [
          15.2889,
          42.9723
        ]
      },
      "properties": {
        "icao24": "408053",
        "callsign": "EZY17EG",
        "origin_country": "United Kingdom",
        "time_position": 1787010795,
        "last_contact": 1787010795,
        "baro_altitude": 10972.8,
        "on_ground": false,
        "velocity": 222.26,
        "true_track": 314.91,
        "vertical_rate": 0.33,
        "geo_altitude": 11452.86,
        "squawk": "5530",
        "spi": false,
        "position_source": 0
      }
    },
    {
      "type": "Feature",
      "geometry": {
        "type": "Point",
        "coordinates": [
          14.3077,
          44.5139
        ]
      },
      "properties": {
        "icao24": "40803c",
        "callsign": "EXS12TY",
        "origin_country": "United Kingdom",
        "time_position": 1787010795,
        "last_contact": 1787010795,
        "baro_altitude": 11582.4,
        "on_ground": false,
        "velocity": 211.16,
        "true_track": 299,
        "vertical_rate": 0,
        "geo_altitude": 12054.84,
        "squawk": "5315",
        "spi": false,
        "position_source": 0
      }
    },
    {
      "type": "Feature",
      "geometry": {
        "type": "Point",
        "coordinates": [
          10.7202,
          35.7497
        ]
      },
      "properties": {
        "icao24": "02a1a5",
        "callsign": null,
        "origin_country": "Tunisia",
        "time_position": 1787010778,
        "last_contact": 1787010778,
        "baro_altitude": 99.06,
        "on_ground": false,
        "velocity": 74.41,
        "true_track": 73.95,
        "vertical_rate": -3.58,
        "geo_altitude": 160.02,
        "squawk": null,
        "spi": false,
        "position_source": 0
      }
    },
    {
      "type": "Feature",
      "geometry": {
        "type": "Point",
        "coordinates": [
          11.934,
          47.5757
        ]
      },
      "properties": {
        "icao24": "40820f",
        "callsign": "EXS42KH",
        "origin_country": "United Kingdom",
        "time_position": 1787010794,
        "last_contact": 1787010795,
        "baro_altitude": 10965.18,
        "on_ground": false,
        "velocity": 202.49,
        "true_track": 306.84,
        "vertical_rate": -0.33,
        "geo_altitude": 11430,
        "squawk": "0601",
        "spi": false,
        "position_source": 0
      }
    },
    {
      "type": "Feature",
      "geometry": {
        "type": "Point",
        "coordinates": [
          16.2342,
          45.2522
        ]
      },
      "properties": {
        "icao24": "408210",
        "callsign": "EXS85BE",
        "origin_country": "United Kingdom",
        "time_position": 1787010795,
        "last_contact": 1787010795,
        "baro_altitude": 10980.42,
        "on_ground": false,
        "velocity": 214.8,
        "true_track": 309.75,
        "vertical_rate": -0.33,
        "geo_altitude": 11430,
        "squawk": "5525",
        "spi": false,
        "position_source": 0
      }
    },
    {
      "type": "Feature",
      "geometry": {
        "type": "Point",
        "coordinates": [
          13.8995,
          44.783
        ]
      },
      "properties": {
        "icao24": "408262",
        "callsign": "EXS47K",
        "origin_country": "United Kingdom",
        "time_position": 1787010795,
        "last_contact": 1787010795,
        "baro_altitude": 11590.02,
        "on_ground": false,
        "velocity": 210,
        "true_track": 307.23,
        "vertical_rate": 0,
        "geo_altitude": 12085.32,
        "squawk": "5644",
        "spi": false,
        "position_source": 0
      }
    },
    {
      "type": "Feature",
      "geometry": {
        "type": "Point",
        "coordinates": [
          8.5523,
          47.4568
        ]
      },
      "properties": {
        "icao24": "4b5dbf",
        "callsign": "EUGEN1",
        "origin_country": "Switzerland",
        "time_position": 1787010795,
        "last_contact": 1787010795,
        "baro_altitude": null,
        "on_ground": true,
        "velocity": 4.89,
        "true_track": 278.44,
        "vertical_rate": null,
        "geo_altitude": null,
        "squawk": null,
        "spi": false,
        "position_source": 0
      }
    },
    {
      "type": "Feature",
      "geometry": {
        "type": "Point",
        "coordinates": [
          16.5655,
          38.3478
        ]
      },
      "properties": {
        "icao24": "02a1ae",
        "callsign": "LBT691",
        "origin_country": "Tunisia",
        "time_position": 1787010795,
        "last_contact": 1787010795,
        "baro_altitude": 10972.8,
        "on_ground": false,
        "velocity": 218.11,
        "true_track": 243.07,
        "vertical_rate": -0.65,
        "geo_altitude": 11468.1,
        "squawk": "2343",
        "spi": false,
        "position_source": 0
      }
    },
    {
      "type": "Feature",
      "geometry": {
        "type": "Point",
        "coordinates": [
          7.7275,
          41.241
        ]
      },
      "properties": {
        "icao24": "02a1b0",
        "callsign": "LBT791",
        "origin_country": "Tunisia",
        "time_position": 1787010795,
        "last_contact": 1787010795,
        "baro_altitude": 11285.22,
        "on_ground": false,
        "velocity": 250.35,
        "true_track": 187.91,
        "vertical_rate": 0,
        "geo_altitude": 11902.44,
        "squawk": "5676",
        "spi": false,
        "position_source": 0
      }
    },
    {
      "type": "Feature",
      "geometry": {
        "type": "Point",
        "coordinates": [
          17.2277,
          44.3818
        ]
      },
      "properties": {
        "icao24": "408183",
        "callsign": "EZY2140",
        "origin_country": "United Kingdom",
        "time_position": 1787010795,
        "last_contact": 1787010795,
        "baro_altitude": 11582.4,
        "on_ground": false,
        "velocity": 213.74,
        "true_track": 303.61,
        "vertical_rate": 0,
        "geo_altitude": 12039.6,
        "squawk": "5324",
        "spi": false,
        "position_source": 0
      }
    },
    {
      "type": "Feature",
      "geometry": {
        "type": "Point",
        "coordinates": [
          8.7223,
          45.6441
        ]
      },
      "properties": {
        "icao24": "440c6f",
        "callsign": "EJU94AD",
        "origin_country": "Austria",
        "time_position": 1787010795,
        "last_contact": 1787010795,
        "baro_altitude": null,
        "on_ground": true,
        "velocity": 5.4,
        "true_track": 5.62,
        "vertical_rate": null,
        "geo_altitude": null,
        "squawk": "1000",
        "spi": false,
        "position_source": 0
      }
    },
    {
      "type": "Feature",
      "geometry": {
        "type": "Point",
        "coordinates": [
          8.5527,
          47.4474
        ]
      },
      "properties": {
        "icao24": "4b5d55",
        "callsign": "GALA7",
        "origin_country": "Switzerland",
        "time_position": 1787010612,
        "last_contact": 1787010612,
        "baro_altitude": null,
        "on_ground": true,
        "velocity": 8.75,
        "true_track": 154.69,
        "vertical_rate": null,
        "geo_altitude": null,
        "squawk": "5375",
        "spi": true,
        "position_source": 0
      }
    },
    {
      "type": "Feature",
      "geometry": {
        "type": "Point",
        "coordinates": [
          10.5864,
          40.9317
        ]
      },
      "properties": {
        "icao24": "440d6f",
        "callsign": "EJU62EL",
        "origin_country": "Austria",
        "time_position": 1787010794,
        "last_contact": 1787010794,
        "baro_altitude": 11582.4,
        "on_ground": false,
        "velocity": 213.48,
        "true_track": 344.05,
        "vertical_rate": -0.33,
        "geo_altitude": 12169.14,
        "squawk": null,
        "spi": false,
        "position_source": 0
      }
    },
    {
      "type": "Feature",
      "geometry": {
        "type": "Point",
        "coordinates": [
          9.9858,
          38.4831
        ]
      },
      "properties": {
        "icao24": "495279",
        "callsign": "TAR725",
        "origin_country": "Portugal",
        "time_position": 1787010794,
        "last_contact": 1787010794,
        "baro_altitude": 9258.3,
        "on_ground": false,
        "velocity": 247.82,
        "true_track": 163.97,
        "vertical_rate": -18.21,
        "geo_altitude": 9806.94,
        "squawk": "7634",
        "spi": false,
        "position_source": 0
      }
    },
    {
      "type": "Feature",
      "geometry": {
        "type": "Point",
        "coordinates": [
          10.4151,
          44.4709
        ]
      },
      "properties": {
        "icao24": "4ca9a1",
        "callsign": "NOS1446",
        "origin_country": "Ireland",
        "time_position": 1787010795,
        "last_contact": 1787010795,
        "baro_altitude": 3345.18,
        "on_ground": false,
        "velocity": 181.54,
        "true_track": 64.31,
        "vertical_rate": -0.65,
        "geo_altitude": 3535.68,
        "squawk": "4537",
        "spi": false,
        "position_source": 0
      }
    },
    {
      "type": "Feature",
      "geometry": {
        "type": "Point",
        "coordinates": [
          8.5506,
          47.4454
        ]
      },
      "properties": {
        "icao24": "4b5c39",
        "callsign": "GALA21",
        "origin_country": "Switzerland",
        "time_position": 1787010748,
        "last_contact": 1787010748,
        "baro_altitude": null,
        "on_ground": true,
        "velocity": 3.09,
        "true_track": 337.5,
        "vertical_rate": null,
        "geo_altitude": null,
        "squawk": null,
        "spi": false,
        "position_source": 0
      }
    },
    {
      "type": "Feature",
      "geometry": {
        "type": "Point",
        "coordinates": [
          8.547,
          47.4655
        ]
      },
      "properties": {
        "icao24": "4b5c26",
        "callsign": "EUGEN5",
        "origin_country": "Switzerland",
        "time_position": 1787010795,
        "last_contact": 1787010795,
        "baro_altitude": null,
        "on_ground": true,
        "velocity": 0.06,
        "true_track": 315,
        "vertical_rate": null,
        "geo_altitude": null,
        "squawk": null,
        "spi": false,
        "position_source": 0
      }
    },
    {
      "type": "Feature",
      "geometry": {
        "type": "Point",
        "coordinates": [
          8.5469,
          47.4593
        ]
      },
      "properties": {
        "icao24": "4b5c73",
        "callsign": "EUGEN25",
        "origin_country": "Switzerland",
        "time_position": 1787010795,
        "last_contact": 1787010795,
        "baro_altitude": null,
        "on_ground": true,
        "velocity": 5.92,
        "true_track": 98.44,
        "vertical_rate": null,
        "geo_altitude": null,
        "squawk": null,
        "spi": false,
        "position_source": 0
      }
    },
    {
      "type": "Feature",
      "geometry": {
        "type": "Point",
        "coordinates": [
          18.9325,
          40.0092
        ]
      },
      "properties": {
        "icao24": "4ca8fb",
        "callsign": "AIZ991",
        "origin_country": "Ireland",
        "time_position": 1787010795,
        "last_contact": 1787010795,
        "baro_altitude": 10355.58,
        "on_ground": false,
        "velocity": 251.7,
        "true_track": 279.17,
        "vertical_rate": 0,
        "geo_altitude": 10828.02,
        "squawk": "5637",
        "spi": false,
        "position_source": 0
      }
    },
    {
      "type": "Feature",
      "geometry": {
        "type": "Point",
        "coordinates": [
          15.7185,
          39.3565
        ]
      },
      "properties": {
        "icao24": "4ca97a",
        "callsign": "RYR3TJ",
        "origin_country": "Ireland",
        "time_position": 1787010794,
        "last_contact": 1787010795,
        "baro_altitude": 5890.26,
        "on_ground": false,
        "velocity": 200.78,
        "true_track": 325.33,
        "vertical_rate": 12.68,
        "geo_altitude": 6187.44,
        "squawk": null,
        "spi": false,
        "position_source": 0
      }
    },
    {
      "type": "Feature",
      "geometry": {
        "type": "Point",
        "coordinates": [
          6.0393,
          38.4481
        ]
      },
      "properties": {
        "icao24": "4005bd",
        "callsign": "BAW83",
        "origin_country": "United Kingdom",
        "time_position": 1787010794,
        "last_contact": 1787010794,
        "baro_altitude": 11277.6,
        "on_ground": false,
        "velocity": 260.61,
        "true_track": 172.29,
        "vertical_rate": 0.33,
        "geo_altitude": 11902.44,
        "squawk": "6310",
        "spi": false,
        "position_source": 0
      }
    },
    {
      "type": "Feature",
      "geometry": {
        "type": "Point",
        "coordinates": [
          6.2581,
          47.7426
        ]
      },
      "properties": {
        "icao24": "4ca7b3",
        "callsign": "RYR65PA",
        "origin_country": "Ireland",
        "time_position": 1787010795,
        "last_contact": 1787010795,
        "baro_altitude": 11582.4,
        "on_ground": false,
        "velocity": 212.62,
        "true_track": 357.78,
        "vertical_rate": 0,
        "geo_altitude": 12131.04,
        "squawk": "5515",
        "spi": false,
        "position_source": 0
      }
    },
    {
      "type": "Feature",
      "geometry": {
        "type": "Point",
        "coordinates": [
          16.6056,
          38.8579
        ]
      },
      "properties": {
        "icao24": "4ca82b",
        "callsign": "MSA95S",
        "origin_country": "Ireland",
        "time_position": 1787010795,
        "last_contact": 1787010795,
        "baro_altitude": 1638.3,
        "on_ground": false,
        "velocity": 115.61,
        "true_track": 16.02,
        "vertical_rate": -2.28,
        "geo_altitude": 1752.6,
        "squawk": "1000",
        "spi": false,
        "position_source": 0
      }
    },
    {
      "type": "Feature",
      "geometry": {
        "type": "Point",
        "coordinates": [
          14.3918,
          42.4631
        ]
      },
      "properties": {
        "icao24": "4ca738",
        "callsign": "RYR48TB",
        "origin_country": "Ireland",
        "time_position": 1787010795,
        "last_contact": 1787010795,
        "baro_altitude": 11140.44,
        "on_ground": false,
        "velocity": 222.46,
        "true_track": 327.08,
        "vertical_rate": -9.43,
        "geo_altitude": 11650.98,
        "squawk": "1000",
        "spi": false,
        "position_source": 0
      }
    },
    {
      "type": "Feature",
      "geometry": {
        "type": "Point",
        "coordinates": [
          12.5468,
          45.0265
        ]
      },
      "properties": {
        "icao24": "405e23",
        "callsign": "TOM285",
        "origin_country": "United Kingdom",
        "time_position": 1787010795,
        "last_contact": 1787010795,
        "baro_altitude": 11582.4,
        "on_ground": false,
        "velocity": 212.88,
        "true_track": 307.34,
        "vertical_rate": 0.33,
        "geo_altitude": 12077.7,
        "squawk": "7733",
        "spi": false,
        "position_source": 0
      }
    },
    {
      "type": "Feature",
      "geometry": {
        "type": "Point",
        "coordinates": [
          12.9295,
          47.2803
        ]
      },
      "properties": {
        "icao24": "4bcda4",
        "callsign": "SXS4PG",
        "origin_country": "Turkey",
        "time_position": 1787010795,
        "last_contact": 1787010795,
        "baro_altitude": 11582.4,
        "on_ground": false,
        "velocity": 202.81,
        "true_track": 307.68,
        "vertical_rate": 0,
        "geo_altitude": 12047.22,
        "squawk": "5326",
        "spi": false,
        "position_source": 0
      }
    },
    {
      "type": "Feature",
      "geometry": {
        "type": "Point",
        "coordinates": [
          18.1411,
          43.9689
        ]
      },
      "properties": {
        "icao24": "4bce0f",
        "callsign": "SXS6XD",
        "origin_country": "Turkey",
        "time_position": 1787010795,
        "last_contact": 1787010795,
        "baro_altitude": 11277.6,
        "on_ground": false,
        "velocity": 242.17,
        "true_track": 130.87,
        "vertical_rate": 0,
        "geo_altitude": 11734.8,
        "squawk": "7712",
        "spi": false,
        "position_source": 0
      }
    },
    {
      "type": "Feature",
      "geometry": {
        "type": "Point",
        "coordinates": [
          17.6467,
          46.9535
        ]
      },
      "properties": {
        "icao24": "4bce19",
        "callsign": "SXS4ZH",
        "origin_country": "Turkey",
        "time_position": 1787010795,
        "last_contact": 1787010795,
        "baro_altitude": 9959.34,
        "on_ground": false,
        "velocity": 230.75,
        "true_track": 138.71,
        "vertical_rate": 5.2,
        "geo_altitude": 10287,
        "squawk": "7102",
        "spi": false,
        "position_source": 0
      }
    },
    {
      "type": "Feature",
      "geometry": {
        "type": "Point",
        "coordinates": [
          16.0714,
          45.6134
        ]
      },
      "properties": {
        "icao24": "4bce15",
        "callsign": "SXS2BQ",
        "origin_country": "Turkey",
        "time_position": 1787010795,
        "last_contact": 1787010795,
        "baro_altitude": 11650.98,
        "on_ground": false,
        "velocity": 253.26,
        "true_track": 127.99,
        "vertical_rate": 2.6,
        "geo_altitude": 12077.7,
        "squawk": "2216",
        "spi": false,
        "position_source": 0
      }
    },
    {
      "type": "Feature",
      "geometry": {
        "type": "Point",
        "coordinates": [
          12.0545,
          45.2046
        ]
      },
      "properties": {
        "icao24": "4074b5",
        "callsign": "EZY89WU",
        "origin_country": "United Kingdom",
        "time_position": 1787010795,
        "last_contact": 1787010795,
        "baro_altitude": 11574.78,
        "on_ground": false,
        "velocity": 208.09,
        "true_track": 308.17,
        "vertical_rate": 0,
        "geo_altitude": 12085.32,
        "squawk": "3724",
        "spi": false,
        "position_source": 0
      }
    },
    {
      "type": "Feature",
      "geometry": {
        "type": "Point",
        "coordinates": [
          10.6013,
          40.0393
        ]
      },
      "properties": {
        "icao24": "4cafca",
        "callsign": "MSA61P",
        "origin_country": "Ireland",
        "time_position": 1787010795,
        "last_contact": 1787010795,
        "baro_altitude": 9448.8,
        "on_ground": false,
        "velocity": 237.89,
        "true_track": 128.68,
        "vertical_rate": 0,
        "geo_altitude": 9906,
        "squawk": null,
        "spi": false,
        "position_source": 0
      }
    },
    {
      "type": "Feature",
      "geometry": {
        "type": "Point",
        "coordinates": [
          11.5167,
          46.7983
        ]
      },
      "properties": {
        "icao24": "4cafd3",
        "callsign": "RYR123X",
        "origin_country": "Ireland",
        "time_position": 1787010795,
        "last_contact": 1787010795,
        "baro_altitude": 11277.6,
        "on_ground": false,
        "velocity": 249.82,
        "true_track": 137.67,
        "vertical_rate": 0,
        "geo_altitude": 11772.9,
        "squawk": "1165",
        "spi": false,
        "position_source": 0
      }
    },
    {
      "type": "Feature",
      "geometry": {
        "type": "Point",
        "coordinates": [
          9.7542,
          44.584
        ]
      },
      "properties": {
        "icao24": "4caff8",
        "callsign": "RYR96TN",
        "origin_country": "Ireland",
        "time_position": 1787010795,
        "last_contact": 1787010795,
        "baro_altitude": 8839.2,
        "on_ground": false,
        "velocity": 217.68,
        "true_track": 109.03,
        "vertical_rate": 0,
        "geo_altitude": 9311.64,
        "squawk": "1000",
        "spi": false,
        "position_source": 0
      }
    },
    {
      "type": "Feature",
      "geometry": {
        "type": "Point",
        "coordinates": [
          12.0513,
          46.7178
        ]
      },
      "properties": {
        "icao24": "010283",
        "callsign": "MSR986",
        "origin_country": "Egypt",
        "time_position": 1787010795,
        "last_contact": 1787010795,
        "baro_altitude": 11887.2,
        "on_ground": false,
        "velocity": 274.26,
        "true_track": 130.89,
        "vertical_rate": 0,
        "geo_altitude": 12367.26,
        "squawk": "5240",
        "spi": false,
        "position_source": 0
      }
    },
    {
      "type": "Feature",
      "geometry": {
        "type": "Point",
        "coordinates": [
          18.6686,
          42.53
        ]
      },
      "properties": {
        "icao24": "010207",
        "callsign": "MSR796",
        "origin_country": "Egypt",
        "time_position": 1787010794,
        "last_contact": 1787010795,
        "baro_altitude": 11277.6,
        "on_ground": false,
        "velocity": 244.74,
        "true_track": 139.18,
        "vertical_rate": -0.33,
        "geo_altitude": 11772.9,
        "squawk": "5222",
        "spi": false,
        "position_source": 0
      }
    },
    {
      "type": "Feature",
      "geometry": {
        "type": "Point",
        "coordinates": [
          10.3228,
          41.0088
        ]
      },
      "properties": {
        "icao24": "4d24ca",
        "callsign": "RYR7406",
        "origin_country": "Malta",
        "time_position": 1787010795,
        "last_contact": 1787010795,
        "baro_altitude": 9608.82,
        "on_ground": false,
        "velocity": 254.29,
        "true_track": 252.33,
        "vertical_rate": 5.2,
        "geo_altitude": 10126.98,
        "squawk": null,
        "spi": false,
        "position_source": 0
      }
    },
    {
      "type": "Feature",
      "geometry": {
        "type": "Point",
        "coordinates": [
          14.1789,
          41.6651
        ]
      },
      "properties": {
        "icao24": "4d24d5",
        "callsign": "WMT2507",
        "origin_country": "Malta",
        "time_position": 1787010795,
        "last_contact": 1787010795,
        "baro_altitude": 8488.68,
        "on_ground": false,
        "velocity": 208.97,
        "true_track": 277.21,
        "vertical_rate": -7.48,
        "geo_altitude": 8930.64,
        "squawk": "2071",
        "spi": false,
        "position_source": 0
      }
    },
    {
      "type": "Feature",
      "geometry": {
        "type": "Point",
        "coordinates": [
          18.7744,
          45.989
        ]
      },
      "properties": {
        "icao24": "4d24b3",
        "callsign": "WZZ505",
        "origin_country": "Malta",
        "time_position": 1787010795,
        "last_contact": 1787010795,
        "baro_altitude": 10675.62,
        "on_ground": false,
        "velocity": 239.99,
        "true_track": 137.69,
        "vertical_rate": 0,
        "geo_altitude": 11079.48,
        "squawk": "1164",
        "spi": false,
        "position_source": 0
      }
    },
    {
      "type": "Feature",
      "geometry": {
        "type": "Point",
        "coordinates": [
          13.22,
          46.0044
        ]
      },
      "properties": {
        "icao24": "0101db",
        "callsign": "MSR996",
        "origin_country": "Egypt",
        "time_position": 1787010795,
        "last_contact": 1787010795,
        "baro_altitude": 11879.58,
        "on_ground": false,
        "velocity": 282.78,
        "true_track": 131.61,
        "vertical_rate": 0,
        "geo_altitude": 12359.64,
        "squawk": "1146",
        "spi": false,
        "position_source": 0
      }
    },
    {
      "type": "Feature",
      "geometry": {
        "type": "Point",
        "coordinates": [
          12.5988,
          46.3549
        ]
      },
      "properties": {
        "icao24": "0101df",
        "callsign": "MSR988",
        "origin_country": "Egypt",
        "time_position": 1787010794,
        "last_contact": 1787010795,
        "baro_altitude": 11887.2,
        "on_ground": false,
        "velocity": 279.67,
        "true_track": 131.05,
        "vertical_rate": -0.65,
        "geo_altitude": 12374.88,
        "squawk": "5211",
        "spi": false,
        "position_source": 0
      }
    },
    {
      "type": "Feature",
      "geometry": {
        "type": "Point",
        "coordinates": [
          6.0821,
          45.055
        ]
      },
      "properties": {
        "icao24": "4caee6",
        "callsign": "RYR8HM",
        "origin_country": "Ireland",
        "time_position": 1787010795,
        "last_contact": 1787010795,
        "baro_altitude": 9799.32,
        "on_ground": false,
        "velocity": 255.1,
        "true_track": 94.97,
        "vertical_rate": -4.88,
        "geo_altitude": 10370.82,
        "squawk": "5246",
        "spi": false,
        "position_source": 0
      }
    },
    {
      "type": "Feature",
      "geometry": {
        "type": "Point",
        "coordinates": [
          9.0489,
          41.0441
        ]
      },
      "properties": {
        "icao24": "4d2533",
        "callsign": "WZZ1JS",
        "origin_country": "Malta",
        "time_position": 1787010794,
        "last_contact": 1787010795,
        "baro_altitude": 10972.8,
        "on_ground": false,
        "velocity": 211.14,
        "true_track": 51.23,
        "vertical_rate": -0.33,
        "geo_altitude": 11574.78,
        "squawk": "1000",
        "spi": false,
        "position_source": 0
      }
    },
    {
      "type": "Feature",
      "geometry": {
        "type": "Point",
        "coordinates": [
          8.7975,
          45.1353
        ]
      },
      "properties": {
        "icao24": "3004c2",
        "callsign": "NOS1460",
        "origin_country": "Italy",
        "time_position": 1787010795,
        "last_contact": 1787010795,
        "baro_altitude": 1386.84,
        "on_ground": false,
        "velocity": 120.69,
        "true_track": 79.94,
        "vertical_rate": -2.28,
        "geo_altitude": 1485.9,
        "squawk": "1000",
        "spi": false,
        "position_source": 0
      }
    },
    {
      "type": "Feature",
      "geometry": {
        "type": "Point",
        "coordinates": [
          14.1453,
          36.5591
        ]
      },
      "properties": {
        "icao24": "4caecc",
        "callsign": "RYR7269",
        "origin_country": "Ireland",
        "time_position": 1787010794,
        "last_contact": 1787010795,
        "baro_altitude": 6606.54,
        "on_ground": false,
        "velocity": 199.22,
        "true_track": 145.2,
        "vertical_rate": -10.4,
        "geo_altitude": 7010.4,
        "squawk": "5263",
        "spi": false,
        "position_source": 0
      }
    },
    {
      "type": "Feature",
      "geometry": {
        "type": "Point",
        "coordinates": [
          9.2525,
          41.0317
        ]
      },
      "properties": {
        "icao24": "347256",
        "callsign": "VOE2EF",
        "origin_country": "Spain",
        "time_position": 1787010795,
        "last_contact": 1787010795,
        "baro_altitude": 3215.64,
        "on_ground": false,
        "velocity": 172.36,
        "true_track": 73.35,
        "vertical_rate": -4.55,
        "geo_altitude": 3467.1,
        "squawk": "7032",
        "spi": false,
        "position_source": 0
      }
    },
    {
      "type": "Feature",
      "geometry": {
        "type": "Point",
        "coordinates": [
          18.2251,
          38.7042
        ]
      },
      "properties": {
        "icao24": "34860c",
        "callsign": "AEA95GJ",
        "origin_country": "Spain",
        "time_position": 1787010795,
        "last_contact": 1787010795,
        "baro_altitude": 11887.2,
        "on_ground": false,
        "velocity": 260,
        "true_track": 87.73,
        "vertical_rate": 0,
        "geo_altitude": 12435.84,
        "squawk": "0207",
        "spi": false,
        "position_source": 0
      }
    },
    {
      "type": "Feature",
      "geometry": {
        "type": "Point",
        "coordinates": [
          18.5447,
          39.7285
        ]
      },
      "properties": {
        "icao24": "4d23e1",
        "callsign": "CHZ112",
        "origin_country": "Malta",
        "time_position": 1787010787,
        "last_contact": 1787010795,
        "baro_altitude": 11285.22,
        "on_ground": false,
        "velocity": 247.87,
        "true_track": 140.73,
        "vertical_rate": 0,
        "geo_altitude": 11742.42,
        "squawk": "0267",
        "spi": false,
        "position_source": 0
      }
    },
    {
      "type": "Feature",
      "geometry": {
        "type": "Point",
        "coordinates": [
          8.2288,
          47.2318
        ]
      },
      "properties": {
        "icao24": "4d2406",
        "callsign": "EWG60W",
        "origin_country": "Malta",
        "time_position": 1787010795,
        "last_contact": 1787010795,
        "baro_altitude": 10972.8,
        "on_ground": false,
        "velocity": 219.73,
        "true_track": 25.97,
        "vertical_rate": -0.33,
        "geo_altitude": 11498.58,
        "squawk": "5555",
        "spi": false,
        "position_source": 0
      }
    },
    {
      "type": "Feature",
      "geometry": {
        "type": "Point",
        "coordinates": [
          11.906,
          41.4523
        ]
      },
      "properties": {
        "icao24": "4cadc7",
        "callsign": "ITY674",
        "origin_country": "Ireland",
        "time_position": 1787010795,
        "last_contact": 1787010795,
        "baro_altitude": 2941.32,
        "on_ground": false,
        "velocity": 158.09,
        "true_track": 220.12,
        "vertical_rate": 9.1,
        "geo_altitude": 3116.58,
        "squawk": null,
        "spi": false,
        "position_source": 0
      }
    },
    {
      "type": "Feature",
      "geometry": {
        "type": "Point",
        "coordinates": [
          13.6963,
          41.9408
        ]
      },
      "properties": {
        "icao24": "4d2424",
        "callsign": "WMT5655",
        "origin_country": "Malta",
        "time_position": 1787010795,
        "last_contact": 1787010795,
        "baro_altitude": 10058.4,
        "on_ground": false,
        "velocity": 249.5,
        "true_track": 80.27,
        "vertical_rate": 0,
        "geo_altitude": 10538.46,
        "squawk": "4315",
        "spi": false,
        "position_source": 0
      }
    },
    {
      "type": "Feature",
      "geometry": {
        "type": "Point",
        "coordinates": [
          18.2668,
          42.2643
        ]
      },
      "properties": {
        "icao24": "4d2425",
        "callsign": "WMT5DR",
        "origin_country": "Malta",
        "time_position": 1787010795,
        "last_contact": 1787010795,
        "baro_altitude": 8313.42,
        "on_ground": false,
        "velocity": 240.43,
        "true_track": 121.62,
        "vertical_rate": -6.18,
        "geo_altitude": 8732.52,
        "squawk": "6012",
        "spi": false,
        "position_source": 0
      }
    },
    {
      "type": "Feature",
      "geometry": {
        "type": "Point",
        "coordinates": [
          10.1618,
          45.0051
        ]
      },
      "properties": {
        "icao24": "346043",
        "callsign": "VOE71RQ",
        "origin_country": "Spain",
        "time_position": 1787010795,
        "last_contact": 1787010795,
        "baro_altitude": 2720.34,
        "on_ground": false,
        "velocity": 148.96,
        "true_track": 55.98,
        "vertical_rate": -7.15,
        "geo_altitude": 2895.6,
        "squawk": "6433",
        "spi": false,
        "position_source": 0
      }
    },
    {
      "type": "Feature",
      "geometry": {
        "type": "Point",
        "coordinates": [
          15.1377,
          45.948
        ]
      },
      "properties": {
        "icao24": "40756a",
        "callsign": "EZY2560",
        "origin_country": "United Kingdom",
        "time_position": 1787010795,
        "last_contact": 1787010795,
        "baro_altitude": 11582.4,
        "on_ground": false,
        "velocity": 205.92,
        "true_track": 311.46,
        "vertical_rate": -0.33,
        "geo_altitude": 12031.98,
        "squawk": "5372",
        "spi": false,
        "position_source": 0
      }
    },
    {
      "type": "Feature",
      "geometry": {
        "type": "Point",
        "coordinates": [
          7.8142,
          45.5277
        ]
      },
      "properties": {
        "icao24": "40622b",
        "callsign": "EZY31TL",
        "origin_country": "United Kingdom",
        "time_position": 1787010795,
        "last_contact": 1787010795,
        "baro_altitude": 10972.8,
        "on_ground": false,
        "velocity": 206.84,
        "true_track": 317.62,
        "vertical_rate": 0.33,
        "geo_altitude": 11544.3,
        "squawk": "5705",
        "spi": false,
        "position_source": 0
      }
    },
    {
      "type": "Feature",
      "geometry": {
        "type": "Point",
        "coordinates": [
          14.4966,
          35.8467
        ]
      },
      "properties": {
        "icao24": "4cae00",
        "callsign": "RYR1SK",
        "origin_country": "Ireland",
        "time_position": 1787010730,
        "last_contact": 1787010730,
        "baro_altitude": null,
        "on_ground": true,
        "velocity": 0,
        "true_track": 30.94,
        "vertical_rate": null,
        "geo_altitude": null,
        "squawk": "7340",
        "spi": false,
        "position_source": 0
      }
    },
    {
      "type": "Feature",
      "geometry": {
        "type": "Point",
        "coordinates": [
          7.3816,
          41.4177
        ]
      },
      "properties": {
        "icao24": "4cae98",
        "callsign": "RYR5382",
        "origin_country": "Ireland",
        "time_position": 1787010795,
        "last_contact": 1787010795,
        "baro_altitude": 11277.6,
        "on_ground": false,
        "velocity": 237.37,
        "true_track": 113.23,
        "vertical_rate": 0,
        "geo_altitude": 11894.82,
        "squawk": "3372",
        "spi": false,
        "position_source": 0
      }
    },
    {
      "type": "Feature",
      "geometry": {
        "type": "Point",
        "coordinates": [
          9.7243,
          45.6646
        ]
      },
      "properties": {
        "icao24": "4cae93",
        "callsign": "RYR90RC",
        "origin_country": "Ireland",
        "time_position": 1787010746,
        "last_contact": 1787010746,
        "baro_altitude": 251.46,
        "on_ground": false,
        "velocity": 76.98,
        "true_track": 284.31,
        "vertical_rate": -3.9,
        "geo_altitude": 304.8,
        "squawk": "2603",
        "spi": false,
        "position_source": 0
      }
    },
    {
      "type": "Feature",
      "geometry": {
        "type": "Point",
        "coordinates": [
          16.505,
          45.0546
        ]
      },
      "properties": {
        "icao24": "4d22b3",
        "callsign": "RYR2YU",
        "origin_country": "Malta",
        "time_position": 1787010794,
        "last_contact": 1787010795,
        "baro_altitude": 10668,
        "on_ground": false,
        "velocity": 222.31,
        "true_track": 353.09,
        "vertical_rate": 0,
        "geo_altitude": 11094.72,
        "squawk": "1000",
        "spi": false,
        "position_source": 0
      }
    },
    {
      "type": "Feature",
      "geometry": {
        "type": "Point",
        "coordinates": [
          8.6123,
          44.1074
        ]
      },
      "properties": {
        "icao24": "4cae4a",
        "callsign": "RYR38LU",
        "origin_country": "Ireland",
        "time_position": 1787010795,
        "last_contact": 1787010795,
        "baro_altitude": 10972.8,
        "on_ground": false,
        "velocity": 218.13,
        "true_track": 332.47,
        "vertical_rate": 0,
        "geo_altitude": 11544.3,
        "squawk": "1266",
        "spi": false,
        "position_source": 0
      }
    },
    {
      "type": "Feature",
      "geometry": {
        "type": "Point",
        "coordinates": [
          7.9788,
          47.5006
        ]
      },
      "properties": {
        "icao24": "4caca2",
        "callsign": "ABR177",
        "origin_country": "Ireland",
        "time_position": 1787010795,
        "last_contact": 1787010795,
        "baro_altitude": 6096,
        "on_ground": false,
        "velocity": 107.33,
        "true_track": 330.73,
        "vertical_rate": 0.33,
        "geo_altitude": 6393.18,
        "squawk": "1000",
        "spi": false,
        "position_source": 0
      }
    },
    {
      "type": "Feature",
      "geometry": {
        "type": "Point",
        "coordinates": [
          8.1654,
          40.8866
        ]
      },
      "properties": {
        "icao24": "4cacf1",
        "callsign": "GTR1522",
        "origin_country": "Ireland",
        "time_position": 1787010794,
        "last_contact": 1787010795,
        "baro_altitude": 11887.2,
        "on_ground": false,
        "velocity": 242.74,
        "true_track": 258.88,
        "vertical_rate": 0,
        "geo_altitude": 12489.18,
        "squawk": "2044",
        "spi": false,
        "position_source": 0
      }
    },
    {
      "type": "Feature",
      "geometry": {
        "type": "Point",
        "coordinates": [
          9.7239,
          45.6647
        ]
      },
      "properties": {
        "icao24": "4d2384",
        "callsign": "RYR5DN",
        "origin_country": "Malta",
        "time_position": 1787010598,
        "last_contact": 1787010598,
        "baro_altitude": 251.46,
        "on_ground": false,
        "velocity": 76.62,
        "true_track": 284.78,
        "vertical_rate": -3.25,
        "geo_altitude": 304.8,
        "squawk": "5167",
        "spi": false,
        "position_source": 0
      }
    },
    {
      "type": "Feature",
      "geometry": {
        "type": "Point",
        "coordinates": [
          12.8821,
          42.867
        ]
      },
      "properties": {
        "icao24": "4cad28",
        "callsign": "RYR465X",
        "origin_country": "Ireland",
        "time_position": 1787010795,
        "last_contact": 1787010795,
        "baro_altitude": 10972.8,
        "on_ground": false,
        "velocity": 211.09,
        "true_track": 313.22,
        "vertical_rate": 0,
        "geo_altitude": 11483.34,
        "squawk": "1000",
        "spi": false,
        "position_source": 0
      }
    },
    {
      "type": "Feature",
      "geometry": {
        "type": "Point",
        "coordinates": [
          7.7362,
          44.3382
        ]
      },
      "properties": {
        "icao24": "4cad4b",
        "callsign": "ABR420",
        "origin_country": "Ireland",
        "time_position": 1787010795,
        "last_contact": 1787010795,
        "baro_altitude": 9845.04,
        "on_ground": false,
        "velocity": 227.75,
        "true_track": 235.3,
        "vertical_rate": 7.15,
        "geo_altitude": 10401.3,
        "squawk": "1000",
        "spi": false,
        "position_source": 0
      }
    },
    {
      "type": "Feature",
      "geometry": {
        "type": "Point",
        "coordinates": [
          14.7483,
          36.3845
        ]
      },
      "properties": {
        "icao24": "4cad2b",
        "callsign": "RYR3T",
        "origin_country": "Ireland",
        "time_position": 1787010795,
        "last_contact": 1787010795,
        "baro_altitude": 3421.38,
        "on_ground": false,
        "velocity": 189.91,
        "true_track": 181.71,
        "vertical_rate": -11.7,
        "geo_altitude": 3665.22,
        "squawk": "1256",
        "spi": false,
        "position_source": 0
      }
    },
    {
      "type": "Feature",
      "geometry": {
        "type": "Point",
        "coordinates": [
          6.6686,
          47.0496
        ]
      },
      "properties": {
        "icao24": "4cad3e",
        "callsign": "RYR10UX",
        "origin_country": "Ireland",
        "time_position": 1787010795,
        "last_contact": 1787010795,
        "baro_altitude": 11582.4,
        "on_ground": false,
        "velocity": 222.59,
        "true_track": 347.86,
        "vertical_rate": 0,
        "geo_altitude": 12146.28,
        "squawk": "5760",
        "spi": false,
        "position_source": 0
      }
    },
    {
      "type": "Feature",
      "geometry": {
        "type": "Point",
        "coordinates": [
          13.8737,
          40.9325
        ]
      },
      "properties": {
        "icao24": "4d20ff",
        "callsign": "WMT288",
        "origin_country": "Malta",
        "time_position": 1787010795,
        "last_contact": 1787010795,
        "baro_altitude": 10683.24,
        "on_ground": false,
        "velocity": 218.45,
        "true_track": 218.79,
        "vertical_rate": 0,
        "geo_altitude": 11216.64,
        "squawk": "5541",
        "spi": false,
        "position_source": 0
      }
    },
    {
      "type": "Feature",
      "geometry": {
        "type": "Point",
        "coordinates": [
          14.591,
          38.0569
        ]
      },
      "properties": {
        "icao24": "4cabf8",
        "callsign": "MSA92C",
        "origin_country": "Ireland",
        "time_position": 1787010795,
        "last_contact": 1787010795,
        "baro_altitude": 6012.18,
        "on_ground": false,
        "velocity": 217.76,
        "true_track": 175.53,
        "vertical_rate": -17.56,
        "geo_altitude": 6362.7,
        "squawk": "4670",
        "spi": false,
        "position_source": 0
      }
    },
    {
      "type": "Feature",
      "geometry": {
        "type": "Point",
        "coordinates": [
          17.3017,
          38.8779
        ]
      },
      "properties": {
        "icao24": "4d2190",
        "callsign": "DAH3014",
        "origin_country": "Malta",
        "time_position": 1787010795,
        "last_contact": 1787010795,
        "baro_altitude": 10668,
        "on_ground": false,
        "velocity": 248.91,
        "true_track": 71.94,
        "vertical_rate": 0,
        "geo_altitude": 11163.3,
        "squawk": "1274",
        "spi": false,
        "position_source": 0
      }
    },
    {
      "type": "Feature",
      "geometry": {
        "type": "Point",
        "coordinates": [
          8.7209,
          45.6213
        ]
      },
      "properties": {
        "icao24": "4d216a",
        "callsign": "WMT3066",
        "origin_country": "Malta",
        "time_position": 1787010792,
        "last_contact": 1787010792,
        "baro_altitude": null,
        "on_ground": true,
        "velocity": 0,
        "true_track": 81.56,
        "vertical_rate": null,
        "geo_altitude": null,
        "squawk": null,
        "spi": false,
        "position_source": 0
      }
    },
    {
      "type": "Feature",
      "geometry": {
        "type": "Point",
        "coordinates": [
          17.8751,
          40.3104
        ]
      },
      "properties": {
        "icao24": "4cac36",
        "callsign": "NOS1586",
        "origin_country": "Ireland",
        "time_position": 1787010795,
        "last_contact": 1787010795,
        "baro_altitude": 10972.8,
        "on_ground": false,
        "velocity": 220.64,
        "true_track": 289.62,
        "vertical_rate": 0,
        "geo_altitude": 11483.34,
        "squawk": "2307",
        "spi": false,
        "position_source": 0
      }
    },
    {
      "type": "Feature",
      "geometry": {
        "type": "Point",
        "coordinates": [
          6.5671,
          36.687
        ]
      },
      "properties": {
        "icao24": "3483cb",
        "callsign": "AZW725",
        "origin_country": "Spain",
        "time_position": 1787010219,
        "last_contact": 1787010640,
        "baro_altitude": 10668,
        "on_ground": false,
        "velocity": 254.59,
        "true_track": 169.76,
        "vertical_rate": 0,
        "geo_altitude": 11300.46,
        "squawk": null,
        "spi": false,
        "position_source": 0
      }
    },
    {
      "type": "Feature",
      "geometry": {
        "type": "Point",
        "coordinates": [
          6.9409,
          43.3262
        ]
      },
      "properties": {
        "icao24": "4cac8c",
        "callsign": "NOS1621",
        "origin_country": "Ireland",
        "time_position": 1787010795,
        "last_contact": 1787010795,
        "baro_altitude": 10888.98,
        "on_ground": false,
        "velocity": 228.56,
        "true_track": 49.93,
        "vertical_rate": -5.85,
        "geo_altitude": 11506.2,
        "squawk": "1000",
        "spi": false,
        "position_source": 0
      }
    },
    {
      "type": "Feature",
      "geometry": {
        "type": "Point",
        "coordinates": [
          14.6998,
          46.6377
        ]
      },
      "properties": {
        "icao24": "408352",
        "callsign": "EXS55LD",
        "origin_country": "United Kingdom",
        "time_position": 1787010795,
        "last_contact": 1787010795,
        "baro_altitude": 10972.8,
        "on_ground": false,
        "velocity": 203.39,
        "true_track": 297.08,
        "vertical_rate": -0.33,
        "geo_altitude": 11376.66,
        "squawk": "3245",
        "spi": false,
        "position_source": 0
      }
    },
    {
      "type": "Feature",
      "geometry": {
        "type": "Point",
        "coordinates": [
          6.005,
          46.9387
        ]
      },
      "properties": {
        "icao24": "398492",
        "callsign": "SAMU25",
        "origin_country": "France",
        "time_position": 1787010645,
        "last_contact": 1787010645,
        "baro_altitude": 1341.12,
        "on_ground": false,
        "velocity": 72.38,
        "true_track": 174.29,
        "vertical_rate": 0.33,
        "geo_altitude": 1463.04,
        "squawk": null,
        "spi": false,
        "position_source": 0
      }
    },
    {
      "type": "Feature",
      "geometry": {
        "type": "Point",
        "coordinates": [
          11.1773,
          45.8499
        ]
      },
      "properties": {
        "icao24": "408347",
        "callsign": "EXS78PB",
        "origin_country": "United Kingdom",
        "time_position": 1787010795,
        "last_contact": 1787010795,
        "baro_altitude": 10957.56,
        "on_ground": false,
        "velocity": 204.41,
        "true_track": 305.37,
        "vertical_rate": 0,
        "geo_altitude": 11468.1,
        "squawk": "5344",
        "spi": false,
        "position_source": 0
      }
    },
    {
      "type": "Feature",
      "geometry": {
        "type": "Point",
        "coordinates": [
          16.6201,
          44.3297
        ]
      },
      "properties": {
        "icao24": "408386",
        "callsign": "EZY75PF",
        "origin_country": "United Kingdom",
        "time_position": 1787010795,
        "last_contact": 1787010795,
        "baro_altitude": 10363.2,
        "on_ground": false,
        "velocity": 217.59,
        "true_track": 311.45,
        "vertical_rate": 0,
        "geo_altitude": 10789.92,
        "squawk": "5513",
        "spi": false,
        "position_source": 0
      }
    },
    {
      "type": "Feature",
      "geometry": {
        "type": "Point",
        "coordinates": [
          11.4217,
          43.6729
        ]
      },
      "properties": {
        "icao24": "40836d",
        "callsign": "EZY59BR",
        "origin_country": "United Kingdom",
        "time_position": 1787010795,
        "last_contact": 1787010795,
        "baro_altitude": 9151.62,
        "on_ground": false,
        "velocity": 231.37,
        "true_track": 299.87,
        "vertical_rate": -0.33,
        "geo_altitude": 9631.68,
        "squawk": "7730",
        "spi": false,
        "position_source": 0
      }
    },
    {
      "type": "Feature",
      "geometry": {
        "type": "Point",
        "coordinates": [
          18.1599,
          35.3724
        ]
      },
      "properties": {
        "icao24": "710105",
        "callsign": "SVA342",
        "origin_country": "Saudi Arabia",
        "time_position": 1787010794,
        "last_contact": 1787010795,
        "baro_altitude": 10668,
        "on_ground": false,
        "velocity": 277.83,
        "true_track": 99.27,
        "vertical_rate": 0,
        "geo_altitude": 11247.12,
        "squawk": "4101",
        "spi": false,
        "position_source": 0
      }
    },
    {
      "type": "Feature",
      "geometry": {
        "type": "Point",
        "coordinates": [
          12.2552,
          41.8609
        ]
      },
      "properties": {
        "icao24": "4d213e",
        "callsign": "WMT9GW",
        "origin_country": "Malta",
        "time_position": 1787010503,
        "last_contact": 1787010507,
        "baro_altitude": 129.54,
        "on_ground": false,
        "velocity": 67.52,
        "true_track": 162.26,
        "vertical_rate": -3.25,
        "geo_altitude": 167.64,
        "squawk": "0545",
        "spi": false,
        "position_source": 0
      }
    },
    {
      "type": "Feature",
      "geometry": {
        "type": "Point",
        "coordinates": [
          18.8888,
          43.792
        ]
      },
      "properties": {
        "icao24": "408314",
        "callsign": "TOM527",
        "origin_country": "United Kingdom",
        "time_position": 1787010795,
        "last_contact": 1787010795,
        "baro_altitude": 11582.4,
        "on_ground": false,
        "velocity": 227.66,
        "true_track": 319.4,
        "vertical_rate": 0,
        "geo_altitude": 12062.46,
        "squawk": "5310",
        "spi": false,
        "position_source": 0
      }
    },
    {
      "type": "Feature",
      "geometry": {
        "type": "Point",
        "coordinates": [
          6.4625,
          37.1008
        ]
      },
      "properties": {
        "icao24": "39d2b0",
        "callsign": "AFR990",
        "origin_country": "France",
        "time_position": 1787009873,
        "last_contact": 1787010558,
        "baro_altitude": 11277.6,
        "on_ground": false,
        "velocity": 267.2,
        "true_track": 169.69,
        "vertical_rate": 0,
        "geo_altitude": 11925.3,
        "squawk": "7614",
        "spi": false,
        "position_source": 0
      }
    },
    {
      "type": "Feature",
      "geometry": {
        "type": "Point",
        "coordinates": [
          18.5328,
          39.7162
        ]
      },
      "properties": {
        "icao24": "4081a9",
        "callsign": "EXS82FT",
        "origin_country": "United Kingdom",
        "time_position": 1787010794,
        "last_contact": 1787010795,
        "baro_altitude": 10370.82,
        "on_ground": false,
        "velocity": 232.84,
        "true_track": 315.9,
        "vertical_rate": 0,
        "geo_altitude": 10866.12,
        "squawk": "6636",
        "spi": false,
        "position_source": 0
      }
    },
    {
      "type": "Feature",
      "geometry": {
        "type": "Point",
        "coordinates": [
          11.6212,
          45.4647
        ]
      },
      "properties": {
        "icao24": "4081cf",
        "callsign": "WUK8YM",
        "origin_country": "United Kingdom",
        "time_position": 1787010795,
        "last_contact": 1787010795,
        "baro_altitude": 10972.8,
        "on_ground": false,
        "velocity": 201.63,
        "true_track": 313.14,
        "vertical_rate": 0,
        "geo_altitude": 11490.96,
        "squawk": "3707",
        "spi": false,
        "position_source": 0
      }
    },
    {
      "type": "Feature",
      "geometry": {
        "type": "Point",
        "coordinates": [
          11.5422,
          38.9691
        ]
      },
      "properties": {
        "icao24": "4d2035",
        "callsign": "KMM455",
        "origin_country": "Malta",
        "time_position": 1787010795,
        "last_contact": 1787010795,
        "baro_altitude": 11292.84,
        "on_ground": false,
        "velocity": 241.03,
        "true_track": 137.42,
        "vertical_rate": 0.33,
        "geo_altitude": 11856.72,
        "squawk": "0414",
        "spi": false,
        "position_source": 0
      }
    },
    {
      "type": "Feature",
      "geometry": {
        "type": "Point",
        "coordinates": [
          7.5115,
          47.6192
        ]
      },
      "properties": {
        "icao24": "38c7ff",
        "callsign": "TECH18",
        "origin_country": "France",
        "time_position": 1787010706,
        "last_contact": 1787010707,
        "baro_altitude": null,
        "on_ground": true,
        "velocity": 3.6,
        "true_track": 340.31,
        "vertical_rate": null,
        "geo_altitude": null,
        "squawk": null,
        "spi": false,
        "position_source": 0
      }
    }
  ]
}