{
  "type": "FeatureCollection",
  "source": "opensky",
  "dataset": "aircraft_italy",
  "generated_at": "2026-08-24T23:30:29.355555+00:00",
  "opensky_time": 1787614220,
  "count": 158,
  "features": [
    {
      "type": "Feature",
      "geometry": {
        "type": "Point",
        "coordinates": [
          7.9845,
          42.0753
        ]
      },
      "properties": {
        "icao24": "511187",
        "callsign": "MBU1XN",
        "origin_country": "Estonia",
        "time_position": 1787614220,
        "last_contact": 1787614220,
        "baro_altitude": 11582.4,
        "on_ground": false,
        "velocity": 244.16,
        "true_track": 16.53,
        "vertical_rate": 0.33,
        "geo_altitude": 12153.9,
        "squawk": "5351",
        "spi": false,
        "position_source": 0
      }
    },
    {
      "type": "Feature",
      "geometry": {
        "type": "Point",
        "coordinates": [
          15.4528,
          37.5156
        ]
      },
      "properties": {
        "icao24": "801665",
        "callsign": "AIC11E",
        "origin_country": "India",
        "time_position": 1787614219,
        "last_contact": 1787614219,
        "baro_altitude": 11887.2,
        "on_ground": false,
        "velocity": 276.89,
        "true_track": 112.85,
        "vertical_rate": 0,
        "geo_altitude": 12588.24,
        "squawk": "0205",
        "spi": false,
        "position_source": 0
      }
    },
    {
      "type": "Feature",
      "geometry": {
        "type": "Point",
        "coordinates": [
          16.5908,
          44.2039
        ]
      },
      "properties": {
        "icao24": "46b832",
        "callsign": "AEE609",
        "origin_country": "Greece",
        "time_position": 1787614219,
        "last_contact": 1787614219,
        "baro_altitude": 11269.98,
        "on_ground": false,
        "velocity": 252.34,
        "true_track": 137.56,
        "vertical_rate": 0,
        "geo_altitude": 11818.62,
        "squawk": "4712",
        "spi": false,
        "position_source": 0
      }
    },
    {
      "type": "Feature",
      "geometry": {
        "type": "Point",
        "coordinates": [
          7.8087,
          46.9504
        ]
      },
      "properties": {
        "icao24": "440389",
        "callsign": "EJU17FM",
        "origin_country": "Austria",
        "time_position": 1787614219,
        "last_contact": 1787614219,
        "baro_altitude": 10607.04,
        "on_ground": false,
        "velocity": 216.02,
        "true_track": 145.97,
        "vertical_rate": -4.88,
        "geo_altitude": 11026.14,
        "squawk": "2235",
        "spi": false,
        "position_source": 0
      }
    },
    {
      "type": "Feature",
      "geometry": {
        "type": "Point",
        "coordinates": [
          9.6189,
          44.6883
        ]
      },
      "properties": {
        "icao24": "471fa9",
        "callsign": "WZZ4KU",
        "origin_country": "Hungary",
        "time_position": 1787614219,
        "last_contact": 1787614219,
        "baro_altitude": 10972.8,
        "on_ground": false,
        "velocity": 264.59,
        "true_track": 57.55,
        "vertical_rate": 0.33,
        "geo_altitude": 11483.34,
        "squawk": "1000",
        "spi": false,
        "position_source": 0
      }
    },
    {
      "type": "Feature",
      "geometry": {
        "type": "Point",
        "coordinates": [
          13.001,
          47.0785
        ]
      },
      "properties": {
        "icao24": "471fa4",
        "callsign": "WMT286",
        "origin_country": "Hungary",
        "time_position": 1787614219,
        "last_contact": 1787614220,
        "baro_altitude": 11292.84,
        "on_ground": false,
        "velocity": 255.11,
        "true_track": 129.44,
        "vertical_rate": -0.33,
        "geo_altitude": 11750.04,
        "squawk": "7715",
        "spi": false,
        "position_source": 0
      }
    },
    {
      "type": "Feature",
      "geometry": {
        "type": "Point",
        "coordinates": [
          13.0142,
          41.6857
        ]
      },
      "properties": {
        "icao24": "8015a7",
        "callsign": "AIC191",
        "origin_country": "India",
        "time_position": 1787614219,
        "last_contact": 1787614219,
        "baro_altitude": 5410.2,
        "on_ground": false,
        "velocity": 152.88,
        "true_track": 290.69,
        "vertical_rate": -6.5,
        "geo_altitude": 5798.82,
        "squawk": "5503",
        "spi": false,
        "position_source": 0
      }
    },
    {
      "type": "Feature",
      "geometry": {
        "type": "Point",
        "coordinates": [
          18.2178,
          36.2546
        ]
      },
      "properties": {
        "icao24": "8015a5",
        "callsign": "AIC44K",
        "origin_country": "India",
        "time_position": 1787614218,
        "last_contact": 1787614219,
        "baro_altitude": 10668,
        "on_ground": false,
        "velocity": 267.11,
        "true_track": 111.23,
        "vertical_rate": 0,
        "geo_altitude": 11353.8,
        "squawk": "5201",
        "spi": false,
        "position_source": 0
      }
    },
    {
      "type": "Feature",
      "geometry": {
        "type": "Point",
        "coordinates": [
          17.2059,
          43.3976
        ]
      },
      "properties": {
        "icao24": "738061",
        "callsign": "ELY290",
        "origin_country": "Israel",
        "time_position": 1787614211,
        "last_contact": 1787614217,
        "baro_altitude": 11277.6,
        "on_ground": false,
        "velocity": 251.42,
        "true_track": 122.97,
        "vertical_rate": -0.33,
        "geo_altitude": 11833.86,
        "squawk": "0220",
        "spi": false,
        "position_source": 0
      }
    },
    {
      "type": "Feature",
      "geometry": {
        "type": "Point",
        "coordinates": [
          11.6247,
          47.7616
        ]
      },
      "properties": {
        "icao24": "738076",
        "callsign": "ELY318",
        "origin_country": "Israel",
        "time_position": 1787614219,
        "last_contact": 1787614220,
        "baro_altitude": 11277.6,
        "on_ground": false,
        "velocity": 267.06,
        "true_track": 130.63,
        "vertical_rate": 0,
        "geo_altitude": 11727.18,
        "squawk": "5220",
        "spi": false,
        "position_source": 0
      }
    },
    {
      "type": "Feature",
      "geometry": {
        "type": "Point",
        "coordinates": [
          12.9553,
          44.4198
        ]
      },
      "properties": {
        "icao24": "738054",
        "callsign": "ELY388",
        "origin_country": "Israel",
        "time_position": 1787614219,
        "last_contact": 1787614220,
        "baro_altitude": 10668,
        "on_ground": false,
        "velocity": 260.77,
        "true_track": 110.44,
        "vertical_rate": 0,
        "geo_altitude": 11178.54,
        "squawk": "0464",
        "spi": false,
        "position_source": 0
      }
    },
    {
      "type": "Feature",
      "geometry": {
        "type": "Point",
        "coordinates": [
          14.8831,
          45.7766
        ]
      },
      "properties": {
        "icao24": "738057",
        "callsign": "ELY326",
        "origin_country": "Israel",
        "time_position": 1787614219,
        "last_contact": 1787614219,
        "baro_altitude": 10058.4,
        "on_ground": false,
        "velocity": 240.27,
        "true_track": 127.61,
        "vertical_rate": 0,
        "geo_altitude": 10523.22,
        "squawk": "0667",
        "spi": false,
        "position_source": 0
      }
    },
    {
      "type": "Feature",
      "geometry": {
        "type": "Point",
        "coordinates": [
          14.8587,
          37.4492
        ]
      },
      "properties": {
        "icao24": "440036",
        "callsign": "EJU379K",
        "origin_country": "Austria",
        "time_position": 1787613990,
        "last_contact": 1787613990,
        "baro_altitude": 876.3,
        "on_ground": false,
        "velocity": 99.36,
        "true_track": 83.76,
        "vertical_rate": -5.2,
        "geo_altitude": 1013.46,
        "squawk": "6305",
        "spi": false,
        "position_source": 0
      }
    },
    {
      "type": "Feature",
      "geometry": {
        "type": "Point",
        "coordinates": [
          13.4468,
          47.367
        ]
      },
      "properties": {
        "icao24": "781b5b",
        "callsign": "CCA572",
        "origin_country": "China",
        "time_position": 1787614219,
        "last_contact": 1787614219,
        "baro_altitude": 11277.6,
        "on_ground": false,
        "velocity": 260.38,
        "true_track": 39.95,
        "vertical_rate": 0,
        "geo_altitude": 11704.32,
        "squawk": "5154",
        "spi": false,
        "position_source": 0
      }
    },
    {
      "type": "Feature",
      "geometry": {
        "type": "Point",
        "coordinates": [
          16.7913,
          47.649
        ]
      },
      "properties": {
        "icao24": "471d6e",
        "callsign": "WZZ6EW",
        "origin_country": "Hungary",
        "time_position": 1787614219,
        "last_contact": 1787614219,
        "baro_altitude": 3977.64,
        "on_ground": false,
        "velocity": 201.24,
        "true_track": 58.91,
        "vertical_rate": -12.68,
        "geo_altitude": 4198.62,
        "squawk": "1000",
        "spi": false,
        "position_source": 0
      }
    },
    {
      "type": "Feature",
      "geometry": {
        "type": "Point",
        "coordinates": [
          18.7174,
          46.91
        ]
      },
      "properties": {
        "icao24": "471d69",
        "callsign": "WZZ34SY",
        "origin_country": "Hungary",
        "time_position": 1787614219,
        "last_contact": 1787614220,
        "baro_altitude": 4122.42,
        "on_ground": false,
        "velocity": 204.18,
        "true_track": 55.99,
        "vertical_rate": -11.7,
        "geo_altitude": 4351.02,
        "squawk": "1246",
        "spi": false,
        "position_source": 0
      }
    },
    {
      "type": "Feature",
      "geometry": {
        "type": "Point",
        "coordinates": [
          15.5155,
          45.7253
        ]
      },
      "properties": {
        "icao24": "406900",
        "callsign": "EXS8GN",
        "origin_country": "United Kingdom",
        "time_position": 1787614219,
        "last_contact": 1787614219,
        "baro_altitude": 10972.8,
        "on_ground": false,
        "velocity": 205.93,
        "true_track": 308.1,
        "vertical_rate": 0,
        "geo_altitude": 11460.48,
        "squawk": "1364",
        "spi": false,
        "position_source": 0
      }
    },
    {
      "type": "Feature",
      "geometry": {
        "type": "Point",
        "coordinates": [
          15.288,
          42.5484
        ]
      },
      "properties": {
        "icao24": "440198",
        "callsign": "EJU3704",
        "origin_country": "Austria",
        "time_position": 1787614217,
        "last_contact": 1787614219,
        "baro_altitude": 10972.8,
        "on_ground": false,
        "velocity": 204.99,
        "true_track": 296.69,
        "vertical_rate": 0,
        "geo_altitude": 11559.54,
        "squawk": "2034",
        "spi": false,
        "position_source": 0
      }
    },
    {
      "type": "Feature",
      "geometry": {
        "type": "Point",
        "coordinates": [
          11.0095,
          45.5552
        ]
      },
      "properties": {
        "icao24": "300a44",
        "callsign": "LSI220",
        "origin_country": "Italy",
        "time_position": 1787614219,
        "last_contact": 1787614219,
        "baro_altitude": 9410.7,
        "on_ground": false,
        "velocity": 217.29,
        "true_track": 274.62,
        "vertical_rate": -7.48,
        "geo_altitude": 9845.04,
        "squawk": "2351",
        "spi": false,
        "position_source": 0
      }
    },
    {
      "type": "Feature",
      "geometry": {
        "type": "Point",
        "coordinates": [
          10.2205,
          36.8466
        ]
      },
      "properties": {
        "icao24": "345643",
        "callsign": "VLG2692",
        "origin_country": "Spain",
        "time_position": 1787613923,
        "last_contact": 1787613923,
        "baro_altitude": null,
        "on_ground": true,
        "velocity": 2.31,
        "true_track": 244.69,
        "vertical_rate": null,
        "geo_altitude": null,
        "squawk": null,
        "spi": false,
        "position_source": 0
      }
    },
    {
      "type": "Feature",
      "geometry": {
        "type": "Point",
        "coordinates": [
          18.8478,
          41.0036
        ]
      },
      "properties": {
        "icao24": "4066b9",
        "callsign": "EXS1470",
        "origin_country": "United Kingdom",
        "time_position": 1787614219,
        "last_contact": 1787614219,
        "baro_altitude": 10972.8,
        "on_ground": false,
        "velocity": 215.41,
        "true_track": 318.58,
        "vertical_rate": 0,
        "geo_altitude": 11582.4,
        "squawk": null,
        "spi": false,
        "position_source": 0
      }
    },
    {
      "type": "Feature",
      "geometry": {
        "type": "Point",
        "coordinates": [
          10.2755,
          36.9627
        ]
      },
      "properties": {
        "icao24": "4bb214",
        "callsign": "THY658",
        "origin_country": "Turkey",
        "time_position": 1787614220,
        "last_contact": 1787614220,
        "baro_altitude": 1074.42,
        "on_ground": false,
        "velocity": 103.64,
        "true_track": 51.65,
        "vertical_rate": 5.53,
        "geo_altitude": 1234.44,
        "squawk": null,
        "spi": false,
        "position_source": 0
      }
    },
    {
      "type": "Feature",
      "geometry": {
        "type": "Point",
        "coordinates": [
          16.8028,
          43.0998
        ]
      },
      "properties": {
        "icao24": "489228",
        "callsign": "ENT766",
        "origin_country": "Poland",
        "time_position": 1787614219,
        "last_contact": 1787614219,
        "baro_altitude": 10972.8,
        "on_ground": false,
        "velocity": 206.23,
        "true_track": 299.76,
        "vertical_rate": 0.33,
        "geo_altitude": 11544.3,
        "squawk": null,
        "spi": false,
        "position_source": 0
      }
    },
    {
      "type": "Feature",
      "geometry": {
        "type": "Point",
        "coordinates": [
          17.3659,
          43.3834
        ]
      },
      "properties": {
        "icao24": "489220",
        "callsign": "ENT754",
        "origin_country": "Poland",
        "time_position": 1787614219,
        "last_contact": 1787614220,
        "baro_altitude": 10972.8,
        "on_ground": false,
        "velocity": 207.12,
        "true_track": 287.49,
        "vertical_rate": -0.33,
        "geo_altitude": 11559.54,
        "squawk": "4144",
        "spi": false,
        "position_source": 0
      }
    },
    {
      "type": "Feature",
      "geometry": {
        "type": "Point",
        "coordinates": [
          11.8932,
          36.496
        ]
      },
      "properties": {
        "icao24": "8963e5",
        "callsign": "UAE232",
        "origin_country": "United Arab Emirates",
        "time_position": 1787614219,
        "last_contact": 1787614219,
        "baro_altitude": 12496.8,
        "on_ground": false,
        "velocity": 282.41,
        "true_track": 101.99,
        "vertical_rate": 0,
        "geo_altitude": 13258.8,
        "squawk": "5202",
        "spi": false,
        "position_source": 0
      }
    },
    {
      "type": "Feature",
      "geometry": {
        "type": "Point",
        "coordinates": [
          15.9079,
          46.2166
        ]
      },
      "properties": {
        "icao24": "4067f5",
        "callsign": "TOM8YD",
        "origin_country": "United Kingdom",
        "time_position": 1787614219,
        "last_contact": 1787614219,
        "baro_altitude": 13106.4,
        "on_ground": false,
        "velocity": 234.11,
        "true_track": 317.4,
        "vertical_rate": -0.33,
        "geo_altitude": 13609.32,
        "squawk": "5337",
        "spi": false,
        "position_source": 0
      }
    },
    {
      "type": "Feature",
      "geometry": {
        "type": "Point",
        "coordinates": [
          16.0786,
          46.2601
        ]
      },
      "properties": {
        "icao24": "4bb027",
        "callsign": "TKJ9CT",
        "origin_country": "Turkey",
        "time_position": 1787614219,
        "last_contact": 1787614220,
        "baro_altitude": 11887.2,
        "on_ground": false,
        "velocity": 248.9,
        "true_track": 133.49,
        "vertical_rate": 0,
        "geo_altitude": 12367.26,
        "squawk": "5227",
        "spi": false,
        "position_source": 0
      }
    },
    {
      "type": "Feature",
      "geometry": {
        "type": "Point",
        "coordinates": [
          16.0072,
          45.2929
        ]
      },
      "properties": {
        "icao24": "4077bb",
        "callsign": "EXS14JP",
        "origin_country": "United Kingdom",
        "time_position": 1787614219,
        "last_contact": 1787614219,
        "baro_altitude": 10972.8,
        "on_ground": false,
        "velocity": 192.68,
        "true_track": 310.45,
        "vertical_rate": 0,
        "geo_altitude": 11475.72,
        "squawk": "7737",
        "spi": false,
        "position_source": 0
      }
    },
    {
      "type": "Feature",
      "geometry": {
        "type": "Point",
        "coordinates": [
          13.1803,
          46.0364
        ]
      },
      "properties": {
        "icao24": "3008c4",
        "callsign": "IDNAM",
        "origin_country": "Italy",
        "time_position": 1787614011,
        "last_contact": 1787614011,
        "baro_altitude": 99.06,
        "on_ground": false,
        "velocity": 1.46,
        "true_track": 135,
        "vertical_rate": -1.63,
        "geo_altitude": 152.4,
        "squawk": "1030",
        "spi": false,
        "position_source": 0
      }
    },
    {
      "type": "Feature",
      "geometry": {
        "type": "Point",
        "coordinates": [
          9.8501,
          36.7484
        ]
      },
      "properties": {
        "icao24": "34644e",
        "callsign": "IBS1904",
        "origin_country": "Spain",
        "time_position": 1787614218,
        "last_contact": 1787614218,
        "baro_altitude": 10363.2,
        "on_ground": false,
        "velocity": 217.04,
        "true_track": 275.44,
        "vertical_rate": 0,
        "geo_altitude": 11049,
        "squawk": "2032",
        "spi": false,
        "position_source": 0
      }
    },
    {
      "type": "Feature",
      "geometry": {
        "type": "Point",
        "coordinates": [
          7.3535,
          44.3193
        ]
      },
      "properties": {
        "icao24": "345116",
        "callsign": "VLG4TJ",
        "origin_country": "Spain",
        "time_position": 1787614219,
        "last_contact": 1787614219,
        "baro_altitude": 9448.8,
        "on_ground": false,
        "velocity": 196.34,
        "true_track": 234.06,
        "vertical_rate": 0,
        "geo_altitude": 9898.38,
        "squawk": "1000",
        "spi": false,
        "position_source": 0
      }
    },
    {
      "type": "Feature",
      "geometry": {
        "type": "Point",
        "coordinates": [
          15.4747,
          36.082
        ]
      },
      "properties": {
        "icao24": "89655d",
        "callsign": "UAE5V",
        "origin_country": "United Arab Emirates",
        "time_position": 1787614219,
        "last_contact": 1787614219,
        "baro_altitude": 11887.2,
        "on_ground": false,
        "velocity": 269.37,
        "true_track": 99.12,
        "vertical_rate": 0,
        "geo_altitude": 12641.58,
        "squawk": "5203",
        "spi": false,
        "position_source": 0
      }
    },
    {
      "type": "Feature",
      "geometry": {
        "type": "Point",
        "coordinates": [
          12.2783,
          47.15
        ]
      },
      "properties": {
        "icao24": "44cc44",
        "callsign": "BEL6LG",
        "origin_country": "Belgium",
        "time_position": 1787614218,
        "last_contact": 1787614219,
        "baro_altitude": 11582.4,
        "on_ground": false,
        "velocity": 203.95,
        "true_track": 310.6,
        "vertical_rate": 0,
        "geo_altitude": 12039.6,
        "squawk": "1000",
        "spi": false,
        "position_source": 0
      }
    },
    {
      "type": "Feature",
      "geometry": {
        "type": "Point",
        "coordinates": [
          13.0116,
          45.2938
        ]
      },
      "properties": {
        "icao24": "407838",
        "callsign": "EZY85HY",
        "origin_country": "United Kingdom",
        "time_position": 1787614219,
        "last_contact": 1787614219,
        "baro_altitude": 10378.44,
        "on_ground": false,
        "velocity": 211.33,
        "true_track": 306.79,
        "vertical_rate": 0.65,
        "geo_altitude": 10858.5,
        "squawk": "2254",
        "spi": false,
        "position_source": 0
      }
    },
    {
      "type": "Feature",
      "geometry": {
        "type": "Point",
        "coordinates": [
          8.1556,
          46.7629
        ]
      },
      "properties": {
        "icao24": "40666c",
        "callsign": "EZY34RN",
        "origin_country": "United Kingdom",
        "time_position": 1787614220,
        "last_contact": 1787614220,
        "baro_altitude": 10972.8,
        "on_ground": false,
        "velocity": 221.9,
        "true_track": 315.19,
        "vertical_rate": 0,
        "geo_altitude": 11407.14,
        "squawk": "7531",
        "spi": false,
        "position_source": 0
      }
    },
    {
      "type": "Feature",
      "geometry": {
        "type": "Point",
        "coordinates": [
          18.4303,
          43.1198
        ]
      },
      "properties": {
        "icao24": "40666d",
        "callsign": "EZY26XM",
        "origin_country": "United Kingdom",
        "time_position": 1787614218,
        "last_contact": 1787614218,
        "baro_altitude": 10363.2,
        "on_ground": false,
        "velocity": 205.85,
        "true_track": 309.22,
        "vertical_rate": 0,
        "geo_altitude": 10934.7,
        "squawk": "5357",
        "spi": false,
        "position_source": 0
      }
    },
    {
      "type": "Feature",
      "geometry": {
        "type": "Point",
        "coordinates": [
          8.8121,
          47.4652
        ]
      },
      "properties": {
        "icao24": "3cce71",
        "callsign": "FCK2FT",
        "origin_country": "Germany",
        "time_position": 1787614219,
        "last_contact": 1787614219,
        "baro_altitude": 1539.24,
        "on_ground": false,
        "velocity": 82.9,
        "true_track": 182.49,
        "vertical_rate": -0.33,
        "geo_altitude": 1615.44,
        "squawk": "1414",
        "spi": false,
        "position_source": 0
      }
    },
    {
      "type": "Feature",
      "geometry": {
        "type": "Point",
        "coordinates": [
          15.0251,
          46.7661
        ]
      },
      "properties": {
        "icao24": "40796b",
        "callsign": "TOM3CT",
        "origin_country": "United Kingdom",
        "time_position": 1787614219,
        "last_contact": 1787614219,
        "baro_altitude": 11582.4,
        "on_ground": false,
        "velocity": 203.1,
        "true_track": 305.1,
        "vertical_rate": 0.33,
        "geo_altitude": 12047.22,
        "squawk": "5370",
        "spi": false,
        "position_source": 0
      }
    },
    {
      "type": "Feature",
      "geometry": {
        "type": "Point",
        "coordinates": [
          18.1109,
          40.5042
        ]
      },
      "properties": {
        "icao24": "8965c0",
        "callsign": "FDB1TZ",
        "origin_country": "United Arab Emirates",
        "time_position": 1787614219,
        "last_contact": 1787614219,
        "baro_altitude": 11277.6,
        "on_ground": false,
        "velocity": 241.18,
        "true_track": 135.09,
        "vertical_rate": 0,
        "geo_altitude": 11917.68,
        "squawk": "0447",
        "spi": false,
        "position_source": 0
      }
    },
    {
      "type": "Feature",
      "geometry": {
        "type": "Point",
        "coordinates": [
          16.5429,
          35.8829
        ]
      },
      "properties": {
        "icao24": "04018f",
        "callsign": "ETH553",
        "origin_country": "Ethiopia",
        "time_position": 1787614219,
        "last_contact": 1787614219,
        "baro_altitude": 11887.2,
        "on_ground": false,
        "velocity": 271.9,
        "true_track": 101.46,
        "vertical_rate": 0,
        "geo_altitude": 12641.58,
        "squawk": "1140",
        "spi": false,
        "position_source": 0
      }
    },
    {
      "type": "Feature",
      "geometry": {
        "type": "Point",
        "coordinates": [
          7.2124,
          43.6611
        ]
      },
      "properties": {
        "icao24": "aa5b89",
        "callsign": "N767A",
        "origin_country": "United States",
        "time_position": 1787614035,
        "last_contact": 1787614035,
        "baro_altitude": null,
        "on_ground": true,
        "velocity": 0.06,
        "true_track": 174.38,
        "vertical_rate": null,
        "geo_altitude": null,
        "squawk": "1000",
        "spi": false,
        "position_source": 0
      }
    },
    {
      "type": "Feature",
      "geometry": {
        "type": "Point",
        "coordinates": [
          11.7105,
          36.7628
        ]
      },
      "properties": {
        "icao24": "040143",
        "callsign": "ETH741",
        "origin_country": "Ethiopia",
        "time_position": 1787614219,
        "last_contact": 1787614219,
        "baro_altitude": 10668,
        "on_ground": false,
        "velocity": 269.16,
        "true_track": 109.89,
        "vertical_rate": 0,
        "geo_altitude": 11353.8,
        "squawk": "1441",
        "spi": false,
        "position_source": 0
      }
    },
    {
      "type": "Feature",
      "geometry": {
        "type": "Point",
        "coordinates": [
          9.0547,
          40.9815
        ]
      },
      "properties": {
        "icao24": "4ca4f4",
        "callsign": "RYR19SV",
        "origin_country": "Ireland",
        "time_position": 1787614219,
        "last_contact": 1787614219,
        "baro_altitude": 11277.6,
        "on_ground": false,
        "velocity": 211.75,
        "true_track": 235.69,
        "vertical_rate": -0.33,
        "geo_altitude": 11871.96,
        "squawk": "1000",
        "spi": false,
        "position_source": 0
      }
    },
    {
      "type": "Feature",
      "geometry": {
        "type": "Point",
        "coordinates": [
          18.4884,
          40.4099
        ]
      },
      "properties": {
        "icao24": "04014d",
        "callsign": "ETH737",
        "origin_country": "Ethiopia",
        "time_position": 1787614219,
        "last_contact": 1787614219,
        "baro_altitude": 11887.2,
        "on_ground": false,
        "velocity": 265.67,
        "true_track": 146.37,
        "vertical_rate": 0,
        "geo_altitude": 12519.66,
        "squawk": "3742",
        "spi": false,
        "position_source": 0
      }
    },
    {
      "type": "Feature",
      "geometry": {
        "type": "Point",
        "coordinates": [
          17.2503,
          39.2307
        ]
      },
      "properties": {
        "icao24": "49d3bb",
        "callsign": "ISR344",
        "origin_country": "Czech Republic",
        "time_position": 1787614219,
        "last_contact": 1787614219,
        "baro_altitude": 10660.38,
        "on_ground": false,
        "velocity": 249.62,
        "true_track": 116.83,
        "vertical_rate": 0,
        "geo_altitude": 11300.46,
        "squawk": null,
        "spi": false,
        "position_source": 0
      }
    },
    {
      "type": "Feature",
      "geometry": {
        "type": "Point",
        "coordinates": [
          10.0085,
          39.9191
        ]
      },
      "properties": {
        "icao24": "040124",
        "callsign": "ETH575",
        "origin_country": "Ethiopia",
        "time_position": 1787614219,
        "last_contact": 1787614219,
        "baro_altitude": 12489.18,
        "on_ground": false,
        "velocity": 266.82,
        "true_track": 113.4,
        "vertical_rate": 0.33,
        "geo_altitude": 13136.88,
        "squawk": "1443",
        "spi": false,
        "position_source": 0
      }
    },
    {
      "type": "Feature",
      "geometry": {
        "type": "Point",
        "coordinates": [
          14.9147,
          47.2809
        ]
      },
      "properties": {
        "icao24": "49d3d4",
        "callsign": "TVQ6648",
        "origin_country": "Czech Republic",
        "time_position": 1787614219,
        "last_contact": 1787614219,
        "baro_altitude": 8587.74,
        "on_ground": false,
        "velocity": 242.42,
        "true_track": 83.3,
        "vertical_rate": -5.2,
        "geo_altitude": 8983.98,
        "squawk": "1000",
        "spi": false,
        "position_source": 0
      }
    },
    {
      "type": "Feature",
      "geometry": {
        "type": "Point",
        "coordinates": [
          7.5249,
          43.6931
        ]
      },
      "properties": {
        "icao24": "4ca4ed",
        "callsign": "RYR380A",
        "origin_country": "Ireland",
        "time_position": 1787614220,
        "last_contact": 1787614220,
        "baro_altitude": 11582.4,
        "on_ground": false,
        "velocity": 261.35,
        "true_track": 52.68,
        "vertical_rate": -0.33,
        "geo_altitude": 12085.32,
        "squawk": "0401",
        "spi": false,
        "position_source": 0
      }
    },
    {
      "type": "Feature",
      "geometry": {
        "type": "Point",
        "coordinates": [
          16.1816,
          46.5709
        ]
      },
      "properties": {
        "icao24": "49d563",
        "callsign": "TVS5FA",
        "origin_country": "Czech Republic",
        "time_position": 1787614219,
        "last_contact": 1787614220,
        "baro_altitude": 10972.8,
        "on_ground": false,
        "velocity": 213.05,
        "true_track": 333,
        "vertical_rate": 0,
        "geo_altitude": 11437.62,
        "squawk": "5150",
        "spi": false,
        "position_source": 0
      }
    },
    {
      "type": "Feature",
      "geometry": {
        "type": "Point",
        "coordinates": [
          16.6843,
          42.3707
        ]
      },
      "properties": {
        "icao24": "406fdb",
        "callsign": "EZY27RC",
        "origin_country": "United Kingdom",
        "time_position": 1787614219,
        "last_contact": 1787614219,
        "baro_altitude": 10972.8,
        "on_ground": false,
        "velocity": 213.58,
        "true_track": 316.27,
        "vertical_rate": 0,
        "geo_altitude": 11574.78,
        "squawk": null,
        "spi": false,
        "position_source": 0
      }
    },
    {
      "type": "Feature",
      "geometry": {
        "type": "Point",
        "coordinates": [
          6.5534,
          37.3842
        ]
      },
      "properties": {
        "icao24": "040087",
        "callsign": "ETH519",
        "origin_country": "Ethiopia",
        "time_position": 1787614077,
        "last_contact": 1787614077,
        "baro_altitude": 12489.18,
        "on_ground": false,
        "velocity": 276.23,
        "true_track": 96.95,
        "vertical_rate": 0.33,
        "geo_altitude": 13174.98,
        "squawk": "2204",
        "spi": false,
        "position_source": 0
      }
    },
    {
      "type": "Feature",
      "geometry": {
        "type": "Point",
        "coordinates": [
          18.2351,
          35.5921
        ]
      },
      "properties": {
        "icao24": "06a2e8",
        "callsign": "QTR152",
        "origin_country": "Qatar",
        "time_position": 1787614219,
        "last_contact": 1787614219,
        "baro_altitude": 11277.6,
        "on_ground": false,
        "velocity": 271.97,
        "true_track": 102.56,
        "vertical_rate": -0.33,
        "geo_altitude": 12009.12,
        "squawk": "4115",
        "spi": false,
        "position_source": 0
      }
    },
    {
      "type": "Feature",
      "geometry": {
        "type": "Point",
        "coordinates": [
          14.2172,
          47.7236
        ]
      },
      "properties": {
        "icao24": "49d421",
        "callsign": "TVS2721",
        "origin_country": "Czech Republic",
        "time_position": 1787614219,
        "last_contact": 1787614219,
        "baro_altitude": 11308.08,
        "on_ground": false,
        "velocity": 217.19,
        "true_track": 351.01,
        "vertical_rate": -7.48,
        "geo_altitude": 11742.42,
        "squawk": "1000",
        "spi": false,
        "position_source": 0
      }
    },
    {
      "type": "Feature",
      "geometry": {
        "type": "Point",
        "coordinates": [
          16.3575,
          41.7792
        ]
      },
      "properties": {
        "icao24": "4ca2c0",
        "callsign": "RYR3DE",
        "origin_country": "Ireland",
        "time_position": 1787614219,
        "last_contact": 1787614219,
        "baro_altitude": 4853.94,
        "on_ground": false,
        "velocity": 224.93,
        "true_track": 119.91,
        "vertical_rate": -13,
        "geo_altitude": 5204.46,
        "squawk": "7427",
        "spi": false,
        "position_source": 0
      }
    },
    {
      "type": "Feature",
      "geometry": {
        "type": "Point",
        "coordinates": [
          7.8127,
          38.1102
        ]
      },
      "properties": {
        "icao24": "4ca2ad",
        "callsign": "RYR7AL",
        "origin_country": "Ireland",
        "time_position": 1787614219,
        "last_contact": 1787614219,
        "baro_altitude": 11277.6,
        "on_ground": false,
        "velocity": 204.88,
        "true_track": 238.35,
        "vertical_rate": 0,
        "geo_altitude": 11932.92,
        "squawk": "0212",
        "spi": false,
        "position_source": 0
      }
    },
    {
      "type": "Feature",
      "geometry": {
        "type": "Point",
        "coordinates": [
          10.4397,
          39.7154
        ]
      },
      "properties": {
        "icao24": "49d328",
        "callsign": "EWG4PR",
        "origin_country": "Czech Republic",
        "time_position": 1787614218,
        "last_contact": 1787614218,
        "baro_altitude": 11277.6,
        "on_ground": false,
        "velocity": 209.4,
        "true_track": 184.09,
        "vertical_rate": 0.65,
        "geo_altitude": 11925.3,
        "squawk": "2563",
        "spi": false,
        "position_source": 0
      }
    },
    {
      "type": "Feature",
      "geometry": {
        "type": "Point",
        "coordinates": [
          8.9089,
          42.2211
        ]
      },
      "properties": {
        "icao24": "407eec",
        "callsign": "EZY87AK",
        "origin_country": "United Kingdom",
        "time_position": 1787614219,
        "last_contact": 1787614219,
        "baro_altitude": 11590.02,
        "on_ground": false,
        "velocity": 216.18,
        "true_track": 279.04,
        "vertical_rate": -0.98,
        "geo_altitude": 12184.38,
        "squawk": "4026",
        "spi": false,
        "position_source": 0
      }
    },
    {
      "type": "Feature",
      "geometry": {
        "type": "Point",
        "coordinates": [
          17.3561,
          35.7527
        ]
      },
      "properties": {
        "icao24": "040241",
        "callsign": "ETH501",
        "origin_country": "Ethiopia",
        "time_position": 1787614219,
        "last_contact": 1787614219,
        "baro_altitude": 11277.6,
        "on_ground": false,
        "velocity": 271.42,
        "true_track": 102.03,
        "vertical_rate": 0,
        "geo_altitude": 11993.88,
        "squawk": "4101",
        "spi": false,
        "position_source": 0
      }
    },
    {
      "type": "Feature",
      "geometry": {
        "type": "Point",
        "coordinates": [
          8.7305,
          45.6219
        ]
      },
      "properties": {
        "icao24": "31d7a5",
        "callsign": "ECHO9",
        "origin_country": "Italy",
        "time_position": 1787614210,
        "last_contact": 1787614210,
        "baro_altitude": null,
        "on_ground": true,
        "velocity": 10.8,
        "true_track": 157.5,
        "vertical_rate": null,
        "geo_altitude": null,
        "squawk": null,
        "spi": false,
        "position_source": 0
      }
    },
    {
      "type": "Feature",
      "geometry": {
        "type": "Point",
        "coordinates": [
          16.4528,
          45.4647
        ]
      },
      "properties": {
        "icao24": "407e7b",
        "callsign": "TOM477",
        "origin_country": "United Kingdom",
        "time_position": 1787614219,
        "last_contact": 1787614219,
        "baro_altitude": 9144,
        "on_ground": false,
        "velocity": 230.83,
        "true_track": 321.06,
        "vertical_rate": 0,
        "geo_altitude": 9608.82,
        "squawk": "2021",
        "spi": false,
        "position_source": 0
      }
    },
    {
      "type": "Feature",
      "geometry": {
        "type": "Point",
        "coordinates": [
          8.6894,
          46.6663
        ]
      },
      "properties": {
        "icao24": "3420c6",
        "callsign": "BCS136",
        "origin_country": "Spain",
        "time_position": 1787614219,
        "last_contact": 1787614219,
        "baro_altitude": 7978.14,
        "on_ground": false,
        "velocity": 201.76,
        "true_track": 193.72,
        "vertical_rate": -5.2,
        "geo_altitude": 8359.14,
        "squawk": "1000",
        "spi": false,
        "position_source": 0
      }
    },
    {
      "type": "Feature",
      "geometry": {
        "type": "Point",
        "coordinates": [
          7.8167,
          42.1305
        ]
      },
      "properties": {
        "icao24": "407e63",
        "callsign": "EZY17CB",
        "origin_country": "United Kingdom",
        "time_position": 1787614219,
        "last_contact": 1787614219,
        "baro_altitude": 10363.2,
        "on_ground": false,
        "velocity": 208.19,
        "true_track": 282.56,
        "vertical_rate": 0.65,
        "geo_altitude": 10911.84,
        "squawk": "4034",
        "spi": false,
        "position_source": 0
      }
    },
    {
      "type": "Feature",
      "geometry": {
        "type": "Point",
        "coordinates": [
          17.9882,
          40.7361
        ]
      },
      "properties": {
        "icao24": "440614",
        "callsign": "EJU3691",
        "origin_country": "Austria",
        "time_position": 1787614219,
        "last_contact": 1787614219,
        "baro_altitude": 11605.26,
        "on_ground": false,
        "velocity": 241.06,
        "true_track": 130.93,
        "vertical_rate": -4.55,
        "geo_altitude": 12527.28,
        "squawk": "3741",
        "spi": false,
        "position_source": 0
      }
    },
    {
      "type": "Feature",
      "geometry": {
        "type": "Point",
        "coordinates": [
          9.3254,
          45.4531
        ]
      },
      "properties": {
        "icao24": "440611",
        "callsign": "EJU94AD",
        "origin_country": "Austria",
        "time_position": 1787614219,
        "last_contact": 1787614219,
        "baro_altitude": 3200.4,
        "on_ground": false,
        "velocity": 143.07,
        "true_track": 257.96,
        "vertical_rate": -7.48,
        "geo_altitude": 3360.42,
        "squawk": "7033",
        "spi": false,
        "position_source": 0
      }
    },
    {
      "type": "Feature",
      "geometry": {
        "type": "Point",
        "coordinates": [
          12.3996,
          47.3768
        ]
      },
      "properties": {
        "icao24": "406c81",
        "callsign": "EXS16V",
        "origin_country": "United Kingdom",
        "time_position": 1787614219,
        "last_contact": 1787614219,
        "baro_altitude": 10972.8,
        "on_ground": false,
        "velocity": 203.82,
        "true_track": 307.1,
        "vertical_rate": 0.33,
        "geo_altitude": 11391.9,
        "squawk": "6602",
        "spi": false,
        "position_source": 0
      }
    },
    {
      "type": "Feature",
      "geometry": {
        "type": "Point",
        "coordinates": [
          17.3337,
          44.5389
        ]
      },
      "properties": {
        "icao24": "406ae8",
        "callsign": "TOM3TH",
        "origin_country": "United Kingdom",
        "time_position": 1787614219,
        "last_contact": 1787614219,
        "baro_altitude": 11582.4,
        "on_ground": false,
        "velocity": 206.46,
        "true_track": 310.76,
        "vertical_rate": 0,
        "geo_altitude": 12115.8,
        "squawk": "6631",
        "spi": false,
        "position_source": 0
      }
    },
    {
      "type": "Feature",
      "geometry": {
        "type": "Point",
        "coordinates": [
          17.6552,
          44.464
        ]
      },
      "properties": {
        "icao24": "406ac3",
        "callsign": "EXS7HG",
        "origin_country": "United Kingdom",
        "time_position": 1787614219,
        "last_contact": 1787614219,
        "baro_altitude": 10972.8,
        "on_ground": false,
        "velocity": 205.97,
        "true_track": 309.93,
        "vertical_rate": 0,
        "geo_altitude": 11529.06,
        "squawk": "5317",
        "spi": false,
        "position_source": 0
      }
    },
    {
      "type": "Feature",
      "geometry": {
        "type": "Point",
        "coordinates": [
          18.7499,
          40.4229
        ]
      },
      "properties": {
        "icao24": "48c121",
        "callsign": "RYR11LM",
        "origin_country": "Poland",
        "time_position": 1787614215,
        "last_contact": 1787614219,
        "baro_altitude": 7261.86,
        "on_ground": false,
        "velocity": 201.69,
        "true_track": 47.27,
        "vertical_rate": -9.75,
        "geo_altitude": 7741.92,
        "squawk": null,
        "spi": false,
        "position_source": 0
      }
    },
    {
      "type": "Feature",
      "geometry": {
        "type": "Point",
        "coordinates": [
          12.094,
          47.6755
        ]
      },
      "properties": {
        "icao24": "407c0b",
        "callsign": "TOM8KM",
        "origin_country": "United Kingdom",
        "time_position": 1787614219,
        "last_contact": 1787614219,
        "baro_altitude": 11582.4,
        "on_ground": false,
        "velocity": 194.79,
        "true_track": 306.08,
        "vertical_rate": -0.33,
        "geo_altitude": 12016.74,
        "squawk": "7213",
        "spi": false,
        "position_source": 0
      }
    },
    {
      "type": "Feature",
      "geometry": {
        "type": "Point",
        "coordinates": [
          9.4482,
          40.8624
        ]
      },
      "properties": {
        "icao24": "44046d",
        "callsign": "EJU47KY",
        "origin_country": "Austria",
        "time_position": 1787614168,
        "last_contact": 1787614218,
        "baro_altitude": 746.76,
        "on_ground": false,
        "velocity": 103.64,
        "true_track": 250.58,
        "vertical_rate": 13,
        "geo_altitude": 899.16,
        "squawk": null,
        "spi": false,
        "position_source": 0
      }
    },
    {
      "type": "Feature",
      "geometry": {
        "type": "Point",
        "coordinates": [
          8.3004,
          45.5842
        ]
      },
      "properties": {
        "icao24": "440409",
        "callsign": "BCS76P",
        "origin_country": "Austria",
        "time_position": 1787614219,
        "last_contact": 1787614219,
        "baro_altitude": 6111.24,
        "on_ground": false,
        "velocity": 189.2,
        "true_track": 264.38,
        "vertical_rate": 15.28,
        "geo_altitude": 6377.94,
        "squawk": "0410",
        "spi": false,
        "position_source": 0
      }
    },
    {
      "type": "Feature",
      "geometry": {
        "type": "Point",
        "coordinates": [
          13.8842,
          47.6603
        ]
      },
      "properties": {
        "icao24": "407ac1",
        "callsign": "TOM1TK",
        "origin_country": "United Kingdom",
        "time_position": 1787614219,
        "last_contact": 1787614219,
        "baro_altitude": 10972.8,
        "on_ground": false,
        "velocity": 214.63,
        "true_track": 314.61,
        "vertical_rate": 0,
        "geo_altitude": 11391.9,
        "squawk": "7734",
        "spi": false,
        "position_source": 0
      }
    },
    {
      "type": "Feature",
      "geometry": {
        "type": "Point",
        "coordinates": [
          14.0011,
          46.1061
        ]
      },
      "properties": {
        "icao24": "06a1e6",
        "callsign": "QTR8175",
        "origin_country": "Qatar",
        "time_position": 1787614219,
        "last_contact": 1787614219,
        "baro_altitude": 10058.4,
        "on_ground": false,
        "velocity": 260.83,
        "true_track": 135.4,
        "vertical_rate": 0,
        "geo_altitude": 10500.36,
        "squawk": "3172",
        "spi": false,
        "position_source": 0
      }
    },
    {
      "type": "Feature",
      "geometry": {
        "type": "Point",
        "coordinates": [
          10.4707,
          42.5039
        ]
      },
      "properties": {
        "icao24": "48c220",
        "callsign": "RYS7244",
        "origin_country": "Poland",
        "time_position": 1787614219,
        "last_contact": 1787614219,
        "baro_altitude": 10972.8,
        "on_ground": false,
        "velocity": 251.11,
        "true_track": 61.75,
        "vertical_rate": 0,
        "geo_altitude": 11536.68,
        "squawk": "1000",
        "spi": false,
        "position_source": 0
      }
    },
    {
      "type": "Feature",
      "geometry": {
        "type": "Point",
        "coordinates": [
          17.9316,
          47.3451
        ]
      },
      "properties": {
        "icao24": "440dbd",
        "callsign": "GLJ75YS",
        "origin_country": "Austria",
        "time_position": 1787614219,
        "last_contact": 1787614219,
        "baro_altitude": 12496.8,
        "on_ground": false,
        "velocity": 283.28,
        "true_track": 115.26,
        "vertical_rate": 0,
        "geo_altitude": 12923.52,
        "squawk": "0662",
        "spi": false,
        "position_source": 0
      }
    },
    {
      "type": "Feature",
      "geometry": {
        "type": "Point",
        "coordinates": [
          18.5151,
          47.1124
        ]
      },
      "properties": {
        "icao24": "48cb15",
        "callsign": "TVS2B2",
        "origin_country": "Poland",
        "time_position": 1787614219,
        "last_contact": 1787614219,
        "baro_altitude": 7749.54,
        "on_ground": false,
        "velocity": 207.12,
        "true_track": 321.25,
        "vertical_rate": -12.03,
        "geo_altitude": 8107.68,
        "squawk": "7340",
        "spi": false,
        "position_source": 0
      }
    },
    {
      "type": "Feature",
      "geometry": {
        "type": "Point",
        "coordinates": [
          9.5015,
          45.6618
        ]
      },
      "properties": {
        "icao24": "40812d",
        "callsign": "EZY2145",
        "origin_country": "United Kingdom",
        "time_position": 1787614219,
        "last_contact": 1787614219,
        "baro_altitude": 5890.26,
        "on_ground": false,
        "velocity": 182.83,
        "true_track": 97.92,
        "vertical_rate": 12.03,
        "geo_altitude": 6164.58,
        "squawk": "3747",
        "spi": false,
        "position_source": 0
      }
    },
    {
      "type": "Feature",
      "geometry": {
        "type": "Point",
        "coordinates": [
          12.6522,
          47.4051
        ]
      },
      "properties": {
        "icao24": "40805d",
        "callsign": "WUK451",
        "origin_country": "United Kingdom",
        "time_position": 1787614220,
        "last_contact": 1787614220,
        "baro_altitude": 10363.2,
        "on_ground": false,
        "velocity": 208.14,
        "true_track": 309.99,
        "vertical_rate": 0,
        "geo_altitude": 10789.92,
        "squawk": "2015",
        "spi": false,
        "position_source": 0
      }
    },
    {
      "type": "Feature",
      "geometry": {
        "type": "Point",
        "coordinates": [
          16.5541,
          45.8936
        ]
      },
      "properties": {
        "icao24": "408067",
        "callsign": "EXS47MA",
        "origin_country": "United Kingdom",
        "time_position": 1787614219,
        "last_contact": 1787614219,
        "baro_altitude": 10972.8,
        "on_ground": false,
        "velocity": 203.71,
        "true_track": 315.41,
        "vertical_rate": 0,
        "geo_altitude": 11460.48,
        "squawk": "5314",
        "spi": false,
        "position_source": 0
      }
    },
    {
      "type": "Feature",
      "geometry": {
        "type": "Point",
        "coordinates": [
          15.1763,
          44.3818
        ]
      },
      "properties": {
        "icao24": "40804d",
        "callsign": "WUK8YM",
        "origin_country": "United Kingdom",
        "time_position": 1787614219,
        "last_contact": 1787614219,
        "baro_altitude": 10972.8,
        "on_ground": false,
        "velocity": 202.93,
        "true_track": 304.78,
        "vertical_rate": 0,
        "geo_altitude": 11483.34,
        "squawk": "5660",
        "spi": false,
        "position_source": 0
      }
    },
    {
      "type": "Feature",
      "geometry": {
        "type": "Point",
        "coordinates": [
          13.9267,
          43.8825
        ]
      },
      "properties": {
        "icao24": "408053",
        "callsign": "EZY17EG",
        "origin_country": "United Kingdom",
        "time_position": 1787614219,
        "last_contact": 1787614219,
        "baro_altitude": 10988.04,
        "on_ground": false,
        "velocity": 208.87,
        "true_track": 311.31,
        "vertical_rate": -0.33,
        "geo_altitude": 11536.68,
        "squawk": "2061",
        "spi": false,
        "position_source": 0
      }
    },
    {
      "type": "Feature",
      "geometry": {
        "type": "Point",
        "coordinates": [
          10.0118,
          39.99
        ]
      },
      "properties": {
        "icao24": "40803f",
        "callsign": "TOM3WL",
        "origin_country": "United Kingdom",
        "time_position": 1787614219,
        "last_contact": 1787614219,
        "baro_altitude": 10965.18,
        "on_ground": false,
        "velocity": 227.06,
        "true_track": 357.66,
        "vertical_rate": 0,
        "geo_altitude": 11597.64,
        "squawk": "6172",
        "spi": false,
        "position_source": 0
      }
    },
    {
      "type": "Feature",
      "geometry": {
        "type": "Point",
        "coordinates": [
          10.9944,
          36.9398
        ]
      },
      "properties": {
        "icao24": "02a1a6",
        "callsign": "LBT703",
        "origin_country": "Tunisia",
        "time_position": 1787614219,
        "last_contact": 1787614219,
        "baro_altitude": 11269.98,
        "on_ground": false,
        "velocity": 214.08,
        "true_track": 187.04,
        "vertical_rate": -0.33,
        "geo_altitude": 11993.88,
        "squawk": "7637",
        "spi": false,
        "position_source": 0
      }
    },
    {
      "type": "Feature",
      "geometry": {
        "type": "Point",
        "coordinates": [
          10.4786,
          39.294
        ]
      },
      "properties": {
        "icao24": "02a1a4",
        "callsign": "LBT629",
        "origin_country": "Tunisia",
        "time_position": 1787614219,
        "last_contact": 1787614219,
        "baro_altitude": 11894.82,
        "on_ground": false,
        "velocity": 219.19,
        "true_track": 186.87,
        "vertical_rate": 0,
        "geo_altitude": 12573,
        "squawk": "3744",
        "spi": false,
        "position_source": 0
      }
    },
    {
      "type": "Feature",
      "geometry": {
        "type": "Point",
        "coordinates": [
          8.1445,
          40.6505
        ]
      },
      "properties": {
        "icao24": "02a1a9",
        "callsign": "LBT552",
        "origin_country": "Tunisia",
        "time_position": 1787614219,
        "last_contact": 1787614219,
        "baro_altitude": 11582.4,
        "on_ground": false,
        "velocity": 217.43,
        "true_track": 322.21,
        "vertical_rate": -0.33,
        "geo_altitude": 12184.38,
        "squawk": "6175",
        "spi": false,
        "position_source": 0
      }
    },
    {
      "type": "Feature",
      "geometry": {
        "type": "Point",
        "coordinates": [
          14.868,
          44.8975
        ]
      },
      "properties": {
        "icao24": "408210",
        "callsign": "EXS61JS",
        "origin_country": "United Kingdom",
        "time_position": 1787614219,
        "last_contact": 1787614219,
        "baro_altitude": 10972.8,
        "on_ground": false,
        "velocity": 216.61,
        "true_track": 328.5,
        "vertical_rate": 0,
        "geo_altitude": 11483.34,
        "squawk": "3710",
        "spi": false,
        "position_source": 0
      }
    },
    {
      "type": "Feature",
      "geometry": {
        "type": "Point",
        "coordinates": [
          10.5196,
          35.7076
        ]
      },
      "properties": {
        "icao24": "02a1ab",
        "callsign": "LBT595",
        "origin_country": "Tunisia",
        "time_position": 1787614192,
        "last_contact": 1787614192,
        "baro_altitude": 891.54,
        "on_ground": false,
        "velocity": 141.24,
        "true_track": 189.22,
        "vertical_rate": -2.93,
        "geo_altitude": 1036.32,
        "squawk": "1236",
        "spi": false,
        "position_source": 0
      }
    },
    {
      "type": "Feature",
      "geometry": {
        "type": "Point",
        "coordinates": [
          7.2171,
          43.6654
        ]
      },
      "properties": {
        "icao24": "02a1b3",
        "callsign": "LBT790",
        "origin_country": "Tunisia",
        "time_position": 1787614220,
        "last_contact": 1787614220,
        "baro_altitude": null,
        "on_ground": true,
        "velocity": 3.6,
        "true_track": 225,
        "vertical_rate": null,
        "geo_altitude": null,
        "squawk": "1000",
        "spi": false,
        "position_source": 0
      }
    },
    {
      "type": "Feature",
      "geometry": {
        "type": "Point",
        "coordinates": [
          9.9058,
          38.2162
        ]
      },
      "properties": {
        "icao24": "02a1b0",
        "callsign": "LBT573",
        "origin_country": "Tunisia",
        "time_position": 1787614219,
        "last_contact": 1787614219,
        "baro_altitude": 11277.6,
        "on_ground": false,
        "velocity": 230.16,
        "true_track": 164.44,
        "vertical_rate": 0,
        "geo_altitude": 11971.02,
        "squawk": "3745",
        "spi": false,
        "position_source": 0
      }
    },
    {
      "type": "Feature",
      "geometry": {
        "type": "Point",
        "coordinates": [
          12.4367,
          46.0187
        ]
      },
      "properties": {
        "icao24": "4080ad",
        "callsign": "EZY89WU",
        "origin_country": "United Kingdom",
        "time_position": 1787614219,
        "last_contact": 1787614219,
        "baro_altitude": 11574.78,
        "on_ground": false,
        "velocity": 213.45,
        "true_track": 317.93,
        "vertical_rate": 0,
        "geo_altitude": 12077.7,
        "squawk": "3701",
        "spi": false,
        "position_source": 0
      }
    },
    {
      "type": "Feature",
      "geometry": {
        "type": "Point",
        "coordinates": [
          17.0363,
          44.9503
        ]
      },
      "properties": {
        "icao24": "40815b",
        "callsign": "EZY38CZ",
        "origin_country": "United Kingdom",
        "time_position": 1787614219,
        "last_contact": 1787614219,
        "baro_altitude": 11574.78,
        "on_ground": false,
        "velocity": 209.29,
        "true_track": 321.19,
        "vertical_rate": 0.33,
        "geo_altitude": 12100.56,
        "squawk": "5535",
        "spi": false,
        "position_source": 0
      }
    },
    {
      "type": "Feature",
      "geometry": {
        "type": "Point",
        "coordinates": [
          15.9266,
          45.1923
        ]
      },
      "properties": {
        "icao24": "408041",
        "callsign": "WUK962",
        "origin_country": "United Kingdom",
        "time_position": 1787614219,
        "last_contact": 1787614220,
        "baro_altitude": 10363.2,
        "on_ground": false,
        "velocity": 210.62,
        "true_track": 315.1,
        "vertical_rate": 0,
        "geo_altitude": 10873.74,
        "squawk": "0502",
        "spi": false,
        "position_source": 0
      }
    },
    {
      "type": "Feature",
      "geometry": {
        "type": "Point",
        "coordinates": [
          8.5522,
          47.4601
        ]
      },
      "properties": {
        "icao24": "4b5c36",
        "callsign": "URSULA3",
        "origin_country": "Switzerland",
        "time_position": 1787614219,
        "last_contact": 1787614219,
        "baro_altitude": null,
        "on_ground": true,
        "velocity": 1.29,
        "true_track": 47.81,
        "vertical_rate": null,
        "geo_altitude": null,
        "squawk": "5132",
        "spi": true,
        "position_source": 0
      }
    },
    {
      "type": "Feature",
      "geometry": {
        "type": "Point",
        "coordinates": [
          15.2907,
          43.8914
        ]
      },
      "properties": {
        "icao24": "70c0ee",
        "callsign": "OMA144",
        "origin_country": "Oman",
        "time_position": 1787614219,
        "last_contact": 1787614219,
        "baro_altitude": 11269.98,
        "on_ground": false,
        "velocity": 278.39,
        "true_track": 117.04,
        "vertical_rate": 0,
        "geo_altitude": 11826.24,
        "squawk": "0426",
        "spi": false,
        "position_source": 0
      }
    },
    {
      "type": "Feature",
      "geometry": {
        "type": "Point",
        "coordinates": [
          16.69,
          45.1111
        ]
      },
      "properties": {
        "icao24": "4ca92b",
        "callsign": "RYR1SK",
        "origin_country": "Ireland",
        "time_position": 1787614219,
        "last_contact": 1787614219,
        "baro_altitude": 11277.6,
        "on_ground": false,
        "velocity": 225.42,
        "true_track": 190.39,
        "vertical_rate": 0,
        "geo_altitude": 11795.76,
        "squawk": "6033",
        "spi": false,
        "position_source": 0
      }
    },
    {
      "type": "Feature",
      "geometry": {
        "type": "Point",
        "coordinates": [
          11.0083,
          42.7703
        ]
      },
      "properties": {
        "icao24": "4ca84c",
        "callsign": "RYR51GK",
        "origin_country": "Ireland",
        "time_position": 1787614219,
        "last_contact": 1787614219,
        "baro_altitude": 10972.8,
        "on_ground": false,
        "velocity": 236.8,
        "true_track": 29.41,
        "vertical_rate": -0.33,
        "geo_altitude": 11529.06,
        "squawk": "3516",
        "spi": false,
        "position_source": 0
      }
    },
    {
      "type": "Feature",
      "geometry": {
        "type": "Point",
        "coordinates": [
          9.8059,
          41.3407
        ]
      },
      "properties": {
        "icao24": "4ca7b7",
        "callsign": "RYR5WD",
        "origin_country": "Ireland",
        "time_position": 1787614219,
        "last_contact": 1787614219,
        "baro_altitude": 11887.2,
        "on_ground": false,
        "velocity": 218.64,
        "true_track": 198.52,
        "vertical_rate": 0,
        "geo_altitude": 12496.8,
        "squawk": "4672",
        "spi": false,
        "position_source": 0
      }
    },
    {
      "type": "Feature",
      "geometry": {
        "type": "Point",
        "coordinates": [
          17.6085,
          47.6025
        ]
      },
      "properties": {
        "icao24": "49d5a6",
        "callsign": "TVS2683",
        "origin_country": "Czech Republic",
        "time_position": 1787614219,
        "last_contact": 1787614220,
        "baro_altitude": 9144,
        "on_ground": false,
        "velocity": 219.42,
        "true_track": 321.76,
        "vertical_rate": -0.33,
        "geo_altitude": 9540.24,
        "squawk": "5340",
        "spi": false,
        "position_source": 0
      }
    },
    {
      "type": "Feature",
      "geometry": {
        "type": "Point",
        "coordinates": [
          16.1655,
          41.0536
        ]
      },
      "properties": {
        "icao24": "4ca82b",
        "callsign": "MSA56B",
        "origin_country": "Ireland",
        "time_position": 1787614156,
        "last_contact": 1787614156,
        "baro_altitude": 3352.8,
        "on_ground": false,
        "velocity": 157.42,
        "true_track": 90,
        "vertical_rate": 0,
        "geo_altitude": 3611.88,
        "squawk": "1000",
        "spi": false,
        "position_source": 0
      }
    },
    {
      "type": "Feature",
      "geometry": {
        "type": "Point",
        "coordinates": [
          9.3012,
          40.2082
        ]
      },
      "properties": {
        "icao24": "4ca82c",
        "callsign": "MSA83E",
        "origin_country": "Ireland",
        "time_position": 1787614219,
        "last_contact": 1787614219,
        "baro_altitude": 6751.32,
        "on_ground": false,
        "velocity": 185.8,
        "true_track": 197.73,
        "vertical_rate": -12.03,
        "geo_altitude": 7223.76,
        "squawk": "6323",
        "spi": false,
        "position_source": 0
      }
    },
    {
      "type": "Feature",
      "geometry": {
        "type": "Point",
        "coordinates": [
          6.027,
          43.4089
        ]
      },
      "properties": {
        "icao24": "4ca812",
        "callsign": "RYR4595",
        "origin_country": "Ireland",
        "time_position": 1787614219,
        "last_contact": 1787614219,
        "baro_altitude": 11277.6,
        "on_ground": false,
        "velocity": 200.78,
        "true_track": 235.33,
        "vertical_rate": 0,
        "geo_altitude": 11765.28,
        "squawk": "1737",
        "spi": false,
        "position_source": 0
      }
    },
    {
      "type": "Feature",
      "geometry": {
        "type": "Point",
        "coordinates": [
          13.8929,
          38.8761
        ]
      },
      "properties": {
        "icao24": "4ca75f",
        "callsign": "RYR8VE",
        "origin_country": "Ireland",
        "time_position": 1787614219,
        "last_contact": 1787614219,
        "baro_altitude": 12184.38,
        "on_ground": false,
        "velocity": 225.21,
        "true_track": 160.24,
        "vertical_rate": -12.68,
        "geo_altitude": 12908.28,
        "squawk": "6316",
        "spi": false,
        "position_source": 0
      }
    },
    {
      "type": "Feature",
      "geometry": {
        "type": "Point",
        "coordinates": [
          9.7784,
          40.9613
        ]
      },
      "properties": {
        "icao24": "4ca762",
        "callsign": "RYR540G",
        "origin_country": "Ireland",
        "time_position": 1787614219,
        "last_contact": 1787614219,
        "baro_altitude": 10690.86,
        "on_ground": false,
        "velocity": 220.42,
        "true_track": 202.79,
        "vertical_rate": -12.35,
        "geo_altitude": 11308.08,
        "squawk": "4667",
        "spi": false,
        "position_source": 0
      }
    },
    {
      "type": "Feature",
      "geometry": {
        "type": "Point",
        "coordinates": [
          14.7325,
          47.347
        ]
      },
      "properties": {
        "icao24": "4ca740",
        "callsign": "RYR32FQ",
        "origin_country": "Ireland",
        "time_position": 1787614220,
        "last_contact": 1787614220,
        "baro_altitude": 10668,
        "on_ground": false,
        "velocity": 193.97,
        "true_track": 237.79,
        "vertical_rate": 0,
        "geo_altitude": 11102.34,
        "squawk": "2240",
        "spi": false,
        "position_source": 0
      }
    },
    {
      "type": "Feature",
      "geometry": {
        "type": "Point",
        "coordinates": [
          17.7989,
          44.8655
        ]
      },
      "properties": {
        "icao24": "4bcda5",
        "callsign": "SXS6XD",
        "origin_country": "Turkey",
        "time_position": 1787614220,
        "last_contact": 1787614220,
        "baro_altitude": 11277.6,
        "on_ground": false,
        "velocity": 255.48,
        "true_track": 131.49,
        "vertical_rate": 0,
        "geo_altitude": 11803.38,
        "squawk": "6420",
        "spi": false,
        "position_source": 0
      }
    },
    {
      "type": "Feature",
      "geometry": {
        "type": "Point",
        "coordinates": [
          16.9693,
          45.9098
        ]
      },
      "properties": {
        "icao24": "4bcdb3",
        "callsign": "SXS14E",
        "origin_country": "Turkey",
        "time_position": 1787614219,
        "last_contact": 1787614219,
        "baro_altitude": 11887.2,
        "on_ground": false,
        "velocity": 245.29,
        "true_track": 136.7,
        "vertical_rate": 0,
        "geo_altitude": 12382.5,
        "squawk": "7646",
        "spi": false,
        "position_source": 0
      }
    },
    {
      "type": "Feature",
      "geometry": {
        "type": "Point",
        "coordinates": [
          8.6727,
          47.487
        ]
      },
      "properties": {
        "icao24": "405f11",
        "callsign": "EZY18GD",
        "origin_country": "United Kingdom",
        "time_position": 1787614219,
        "last_contact": 1787614219,
        "baro_altitude": 10972.8,
        "on_ground": false,
        "velocity": 211.15,
        "true_track": 301.75,
        "vertical_rate": 0,
        "geo_altitude": 11391.9,
        "squawk": "2772",
        "spi": false,
        "position_source": 0
      }
    },
    {
      "type": "Feature",
      "geometry": {
        "type": "Point",
        "coordinates": [
          12.6832,
          47.3925
        ]
      },
      "properties": {
        "icao24": "4bccae",
        "callsign": "SXS4PG",
        "origin_country": "Turkey",
        "time_position": 1787614219,
        "last_contact": 1787614219,
        "baro_altitude": 11582.4,
        "on_ground": false,
        "velocity": 199.33,
        "true_track": 309.03,
        "vertical_rate": 0.33,
        "geo_altitude": 12016.74,
        "squawk": "5327",
        "spi": false,
        "position_source": 0
      }
    },
    {
      "type": "Feature",
      "geometry": {
        "type": "Point",
        "coordinates": [
          17.8033,
          46.525
        ]
      },
      "properties": {
        "icao24": "4bce12",
        "callsign": "SXS2BQ",
        "origin_country": "Turkey",
        "time_position": 1787614219,
        "last_contact": 1787614220,
        "baro_altitude": 11887.2,
        "on_ground": false,
        "velocity": 246.52,
        "true_track": 126.94,
        "vertical_rate": 0,
        "geo_altitude": 12359.64,
        "squawk": "4623",
        "spi": false,
        "position_source": 0
      }
    },
    {
      "type": "Feature",
      "geometry": {
        "type": "Point",
        "coordinates": [
          7.3037,
          43.6361
        ]
      },
      "properties": {
        "icao24": "407667",
        "callsign": "EZY27QE",
        "origin_country": "United Kingdom",
        "time_position": 1787614219,
        "last_contact": 1787614219,
        "baro_altitude": 1402.08,
        "on_ground": false,
        "velocity": 114.9,
        "true_track": 147.8,
        "vertical_rate": 13,
        "geo_altitude": 1493.52,
        "squawk": null,
        "spi": false,
        "position_source": 0
      }
    },
    {
      "type": "Feature",
      "geometry": {
        "type": "Point",
        "coordinates": [
          14.1938,
          38.0267
        ]
      },
      "properties": {
        "icao24": "346147",
        "callsign": "IBE0846",
        "origin_country": "Spain",
        "time_position": 1787614219,
        "last_contact": 1787614219,
        "baro_altitude": 10660.38,
        "on_ground": false,
        "velocity": 219.77,
        "true_track": 249.44,
        "vertical_rate": 0,
        "geo_altitude": 11346.18,
        "squawk": "3716",
        "spi": false,
        "position_source": 0
      }
    },
    {
      "type": "Feature",
      "geometry": {
        "type": "Point",
        "coordinates": [
          10.7696,
          36.7903
        ]
      },
      "properties": {
        "icao24": "8966fa",
        "callsign": "UAE144",
        "origin_country": "United Arab Emirates",
        "time_position": 1787614219,
        "last_contact": 1787614219,
        "baro_altitude": 11887.2,
        "on_ground": false,
        "velocity": 273.89,
        "true_track": 105.92,
        "vertical_rate": 0,
        "geo_altitude": 12588.24,
        "squawk": "1445",
        "spi": false,
        "position_source": 0
      }
    },
    {
      "type": "Feature",
      "geometry": {
        "type": "Point",
        "coordinates": [
          9.7679,
          40.8502
        ]
      },
      "properties": {
        "icao24": "4cafca",
        "callsign": "MSA61P",
        "origin_country": "Ireland",
        "time_position": 1787614081,
        "last_contact": 1787614218,
        "baro_altitude": 2110.74,
        "on_ground": false,
        "velocity": 198,
        "true_track": 133.1,
        "vertical_rate": 17.23,
        "geo_altitude": 2392.68,
        "squawk": "6325",
        "spi": false,
        "position_source": 0
      }
    },
    {
      "type": "Feature",
      "geometry": {
        "type": "Point",
        "coordinates": [
          15.5022,
          39.6522
        ]
      },
      "properties": {
        "icao24": "4cafcb",
        "callsign": "MSA95S",
        "origin_country": "Ireland",
        "time_position": 1787614219,
        "last_contact": 1787614219,
        "baro_altitude": 5250.18,
        "on_ground": false,
        "velocity": 213.27,
        "true_track": 148.11,
        "vertical_rate": -7.15,
        "geo_altitude": 5615.94,
        "squawk": "1000",
        "spi": false,
        "position_source": 0
      }
    },
    {
      "type": "Feature",
      "geometry": {
        "type": "Point",
        "coordinates": [
          6.4981,
          43.5836
        ]
      },
      "properties": {
        "icao24": "400f02",
        "callsign": "EZY48VW",
        "origin_country": "United Kingdom",
        "time_position": 1787614219,
        "last_contact": 1787614219,
        "baro_altitude": 11574.78,
        "on_ground": false,
        "velocity": 230.55,
        "true_track": 329.72,
        "vertical_rate": 0.33,
        "geo_altitude": 12062.46,
        "squawk": "4011",
        "spi": false,
        "position_source": 0
      }
    },
    {
      "type": "Feature",
      "geometry": {
        "type": "Point",
        "coordinates": [
          12.1794,
          45.6083
        ]
      },
      "properties": {
        "icao24": "4caff7",
        "callsign": "RYR7SZ",
        "origin_country": "Ireland",
        "time_position": 1787614219,
        "last_contact": 1787614219,
        "baro_altitude": 2880.36,
        "on_ground": false,
        "velocity": 132.1,
        "true_track": 274.47,
        "vertical_rate": 4.88,
        "geo_altitude": 3040.38,
        "squawk": "0254",
        "spi": false,
        "position_source": 0
      }
    },
    {
      "type": "Feature",
      "geometry": {
        "type": "Point",
        "coordinates": [
          17.7389,
          47.35
        ]
      },
      "properties": {
        "icao24": "010263",
        "callsign": "MSC2932",
        "origin_country": "Egypt",
        "time_position": 1787614219,
        "last_contact": 1787614219,
        "baro_altitude": 11597.64,
        "on_ground": false,
        "velocity": 198.37,
        "true_track": 319,
        "vertical_rate": 0,
        "geo_altitude": 12047.22,
        "squawk": "7311",
        "spi": false,
        "position_source": 0
      }
    },
    {
      "type": "Feature",
      "geometry": {
        "type": "Point",
        "coordinates": [
          14.0447,
          46.4043
        ]
      },
      "properties": {
        "icao24": "010204",
        "callsign": "MSR780",
        "origin_country": "Egypt",
        "time_position": 1787614219,
        "last_contact": 1787614219,
        "baro_altitude": 11292.84,
        "on_ground": false,
        "velocity": 244.49,
        "true_track": 136.02,
        "vertical_rate": 0,
        "geo_altitude": 11757.66,
        "squawk": "5215",
        "spi": false,
        "position_source": 0
      }
    },
    {
      "type": "Feature",
      "geometry": {
        "type": "Point",
        "coordinates": [
          17.9292,
          44.3364
        ]
      },
      "properties": {
        "icao24": "010208",
        "callsign": "MSR796",
        "origin_country": "Egypt",
        "time_position": 1787614219,
        "last_contact": 1787614220,
        "baro_altitude": 11887.2,
        "on_ground": false,
        "velocity": 243.24,
        "true_track": 142.48,
        "vertical_rate": 0,
        "geo_altitude": 12428.22,
        "squawk": "1143",
        "spi": false,
        "position_source": 0
      }
    },
    {
      "type": "Feature",
      "geometry": {
        "type": "Point",
        "coordinates": [
          7.5304,
          47.5987
        ]
      },
      "properties": {
        "icao24": "4b1a2c",
        "callsign": "EJU51UP",
        "origin_country": "Switzerland",
        "time_position": 1787614215,
        "last_contact": 1787614215,
        "baro_altitude": null,
        "on_ground": true,
        "velocity": 0,
        "true_track": 2.81,
        "vertical_rate": null,
        "geo_altitude": null,
        "squawk": "1000",
        "spi": false,
        "position_source": 0
      }
    },
    {
      "type": "Feature",
      "geometry": {
        "type": "Point",
        "coordinates": [
          10.4131,
          47.4538
        ]
      },
      "properties": {
        "icao24": "40773b",
        "callsign": "TOM285",
        "origin_country": "United Kingdom",
        "time_position": 1787614219,
        "last_contact": 1787614220,
        "baro_altitude": 11887.2,
        "on_ground": false,
        "velocity": 214.35,
        "true_track": 313.35,
        "vertical_rate": 0.33,
        "geo_altitude": 12352.02,
        "squawk": "3111",
        "spi": false,
        "position_source": 0
      }
    },
    {
      "type": "Feature",
      "geometry": {
        "type": "Point",
        "coordinates": [
          14.425,
          35.8998
        ]
      },
      "properties": {
        "icao24": "4d24de",
        "callsign": "KMM455",
        "origin_country": "Malta",
        "time_position": 1787614219,
        "last_contact": 1787614219,
        "baro_altitude": 388.62,
        "on_ground": false,
        "velocity": 72.39,
        "true_track": 134.71,
        "vertical_rate": -3.25,
        "geo_altitude": 487.68,
        "squawk": "3746",
        "spi": false,
        "position_source": 0
      }
    },
    {
      "type": "Feature",
      "geometry": {
        "type": "Point",
        "coordinates": [
          8.7748,
          43.5641
        ]
      },
      "properties": {
        "icao24": "34761a",
        "callsign": "VOE6VJ",
        "origin_country": "Spain",
        "time_position": 1787614219,
        "last_contact": 1787614219,
        "baro_altitude": 10668,
        "on_ground": false,
        "velocity": 216.01,
        "true_track": 168.88,
        "vertical_rate": -0.33,
        "geo_altitude": 11193.78,
        "squawk": "3517",
        "spi": false,
        "position_source": 0
      }
    },
    {
      "type": "Feature",
      "geometry": {
        "type": "Point",
        "coordinates": [
          12.5642,
          47.1214
        ]
      },
      "properties": {
        "icao24": "40772e",
        "callsign": "EZY13TD",
        "origin_country": "United Kingdom",
        "time_position": 1787614219,
        "last_contact": 1787614219,
        "baro_altitude": 11887.2,
        "on_ground": false,
        "velocity": 254.44,
        "true_track": 132.95,
        "vertical_rate": 0,
        "geo_altitude": 12336.78,
        "squawk": "4703",
        "spi": false,
        "position_source": 0
      }
    },
    {
      "type": "Feature",
      "geometry": {
        "type": "Point",
        "coordinates": [
          12.1808,
          42.8871
        ]
      },
      "properties": {
        "icao24": "4d24ae",
        "callsign": "WMT797",
        "origin_country": "Malta",
        "time_position": 1787614219,
        "last_contact": 1787614219,
        "baro_altitude": 5120.64,
        "on_ground": false,
        "velocity": 196.52,
        "true_track": 179.7,
        "vertical_rate": -16.91,
        "geo_altitude": 5486.4,
        "squawk": "6016",
        "spi": false,
        "position_source": 0
      }
    },
    {
      "type": "Feature",
      "geometry": {
        "type": "Point",
        "coordinates": [
          9.5745,
          44.9831
        ]
      },
      "properties": {
        "icao24": "4075df",
        "callsign": "EZY12KM",
        "origin_country": "United Kingdom",
        "time_position": 1787614219,
        "last_contact": 1787614219,
        "baro_altitude": 10972.8,
        "on_ground": false,
        "velocity": 238.7,
        "true_track": 342.7,
        "vertical_rate": -0.33,
        "geo_altitude": 11460.48,
        "squawk": "6140",
        "spi": false,
        "position_source": 0
      }
    },
    {
      "type": "Feature",
      "geometry": {
        "type": "Point",
        "coordinates": [
          12.6967,
          39.7144
        ]
      },
      "properties": {
        "icao24": "4caecc",
        "callsign": "RYR12EE",
        "origin_country": "Ireland",
        "time_position": 1787614220,
        "last_contact": 1787614220,
        "baro_altitude": 12496.8,
        "on_ground": false,
        "velocity": 235.39,
        "true_track": 163.62,
        "vertical_rate": -0.33,
        "geo_altitude": 13167.36,
        "squawk": "3754",
        "spi": false,
        "position_source": 0
      }
    },
    {
      "type": "Feature",
      "geometry": {
        "type": "Point",
        "coordinates": [
          10.623,
          47.3117
        ]
      },
      "properties": {
        "icao24": "4072c8",
        "callsign": "EZY75UQ",
        "origin_country": "United Kingdom",
        "time_position": 1787614219,
        "last_contact": 1787614219,
        "baro_altitude": 11590.02,
        "on_ground": false,
        "velocity": 207.56,
        "true_track": 312.39,
        "vertical_rate": -0.33,
        "geo_altitude": 12039.6,
        "squawk": "3573",
        "spi": false,
        "position_source": 0
      }
    },
    {
      "type": "Feature",
      "geometry": {
        "type": "Point",
        "coordinates": [
          14.7996,
          44.9769
        ]
      },
      "properties": {
        "icao24": "4d242b",
        "callsign": "WMT6420",
        "origin_country": "Malta",
        "time_position": 1787614219,
        "last_contact": 1787614219,
        "baro_altitude": 10668,
        "on_ground": false,
        "velocity": 259.28,
        "true_track": 90,
        "vertical_rate": 0,
        "geo_altitude": 11193.78,
        "squawk": "5211",
        "spi": false,
        "position_source": 0
      }
    },
    {
      "type": "Feature",
      "geometry": {
        "type": "Point",
        "coordinates": [
          8.91,
          45.3531
        ]
      },
      "properties": {
        "icao24": "4cadfc",
        "callsign": "RYR1KW",
        "origin_country": "Ireland",
        "time_position": 1787614219,
        "last_contact": 1787614219,
        "baro_altitude": 5935.98,
        "on_ground": false,
        "velocity": 183.2,
        "true_track": 222.15,
        "vertical_rate": 9.75,
        "geo_altitude": 6195.06,
        "squawk": "1000",
        "spi": false,
        "position_source": 0
      }
    },
    {
      "type": "Feature",
      "geometry": {
        "type": "Point",
        "coordinates": [
          7.8691,
          42.2193
        ]
      },
      "properties": {
        "icao24": "39c5a1",
        "callsign": "CRL636",
        "origin_country": "France",
        "time_position": 1787614218,
        "last_contact": 1787614219,
        "baro_altitude": 9006.84,
        "on_ground": false,
        "velocity": 255.95,
        "true_track": 113.58,
        "vertical_rate": 2.6,
        "geo_altitude": 9486.9,
        "squawk": "5666",
        "spi": false,
        "position_source": 0
      }
    },
    {
      "type": "Feature",
      "geometry": {
        "type": "Point",
        "coordinates": [
          6.2721,
          43.3266
        ]
      },
      "properties": {
        "icao24": "4d245b",
        "callsign": "WMT6UU",
        "origin_country": "Malta",
        "time_position": 1787614219,
        "last_contact": 1787614219,
        "baro_altitude": 10965.18,
        "on_ground": false,
        "velocity": 263.01,
        "true_track": 45.24,
        "vertical_rate": 0,
        "geo_altitude": 11460.48,
        "squawk": "1000",
        "spi": false,
        "position_source": 0
      }
    },
    {
      "type": "Feature",
      "geometry": {
        "type": "Point",
        "coordinates": [
          7.8474,
          41.67
        ]
      },
      "properties": {
        "icao24": "4d247e",
        "callsign": "EWG13M",
        "origin_country": "Malta",
        "time_position": 1787614219,
        "last_contact": 1787614219,
        "baro_altitude": 10972.8,
        "on_ground": false,
        "velocity": 246.18,
        "true_track": 30.1,
        "vertical_rate": 0.33,
        "geo_altitude": 11551.92,
        "squawk": "5545",
        "spi": false,
        "position_source": 0
      }
    },
    {
      "type": "Feature",
      "geometry": {
        "type": "Point",
        "coordinates": [
          12.092,
          44.3744
        ]
      },
      "properties": {
        "icao24": "4d22c4",
        "callsign": "RYR61YD",
        "origin_country": "Malta",
        "time_position": 1787614219,
        "last_contact": 1787614220,
        "baro_altitude": 10972.8,
        "on_ground": false,
        "velocity": 243.06,
        "true_track": 39.42,
        "vertical_rate": 0,
        "geo_altitude": 11498.58,
        "squawk": "1000",
        "spi": false,
        "position_source": 0
      }
    },
    {
      "type": "Feature",
      "geometry": {
        "type": "Point",
        "coordinates": [
          9.3769,
          46.2483
        ]
      },
      "properties": {
        "icao24": "4caca2",
        "callsign": "ABR177",
        "origin_country": "Ireland",
        "time_position": 1787614219,
        "last_contact": 1787614219,
        "baro_altitude": 6537.96,
        "on_ground": false,
        "velocity": 125.75,
        "true_track": 327.87,
        "vertical_rate": 1.3,
        "geo_altitude": 6827.52,
        "squawk": "1000",
        "spi": false,
        "position_source": 0
      }
    },
    {
      "type": "Feature",
      "geometry": {
        "type": "Point",
        "coordinates": [
          14.1007,
          45.9641
        ]
      },
      "properties": {
        "icao24": "4d230c",
        "callsign": "KFE839",
        "origin_country": "Malta",
        "time_position": 1787614219,
        "last_contact": 1787614219,
        "baro_altitude": 14325.6,
        "on_ground": false,
        "velocity": 225.19,
        "true_track": 318.33,
        "vertical_rate": 0,
        "geo_altitude": 14828.52,
        "squawk": "2013",
        "spi": false,
        "position_source": 0
      }
    },
    {
      "type": "Feature",
      "geometry": {
        "type": "Point",
        "coordinates": [
          9.8863,
          46.6308
        ]
      },
      "properties": {
        "icao24": "4d2386",
        "callsign": "RYR4621",
        "origin_country": "Malta",
        "time_position": 1787614219,
        "last_contact": 1787614219,
        "baro_altitude": 11582.4,
        "on_ground": false,
        "velocity": 207.61,
        "true_track": 308.46,
        "vertical_rate": -0.65,
        "geo_altitude": 12047.22,
        "squawk": "2742",
        "spi": false,
        "position_source": 0
      }
    },
    {
      "type": "Feature",
      "geometry": {
        "type": "Point",
        "coordinates": [
          18.882,
          43.7344
        ]
      },
      "properties": {
        "icao24": "4070ed",
        "callsign": "EXS2DR",
        "origin_country": "United Kingdom",
        "time_position": 1787614219,
        "last_contact": 1787614219,
        "baro_altitude": 10972.8,
        "on_ground": false,
        "velocity": 201.72,
        "true_track": 310.76,
        "vertical_rate": 0,
        "geo_altitude": 11521.44,
        "squawk": "2045",
        "spi": false,
        "position_source": 0
      }
    },
    {
      "type": "Feature",
      "geometry": {
        "type": "Point",
        "coordinates": [
          7.9574,
          47.3882
        ]
      },
      "properties": {
        "icao24": "4070e7",
        "callsign": "EXS82FT",
        "origin_country": "United Kingdom",
        "time_position": 1787614219,
        "last_contact": 1787614219,
        "baro_altitude": 11582.4,
        "on_ground": false,
        "velocity": 222.83,
        "true_track": 309.75,
        "vertical_rate": -0.33,
        "geo_altitude": 11993.88,
        "squawk": "7512",
        "spi": false,
        "position_source": 0
      }
    },
    {
      "type": "Feature",
      "geometry": {
        "type": "Point",
        "coordinates": [
          18.7362,
          40.2186
        ]
      },
      "properties": {
        "icao24": "4cad4f",
        "callsign": "RYR90RC",
        "origin_country": "Ireland",
        "time_position": 1787614210,
        "last_contact": 1787614218,
        "baro_altitude": 7223.76,
        "on_ground": false,
        "velocity": 214.44,
        "true_track": 282.47,
        "vertical_rate": 8.13,
        "geo_altitude": 7696.2,
        "squawk": null,
        "spi": false,
        "position_source": 0
      }
    },
    {
      "type": "Feature",
      "geometry": {
        "type": "Point",
        "coordinates": [
          10.4577,
          41.5241
        ]
      },
      "properties": {
        "icao24": "4c01f3",
        "callsign": "ASL11B",
        "origin_country": "Serbia",
        "time_position": 1787614219,
        "last_contact": 1787614219,
        "baro_altitude": 10355.58,
        "on_ground": false,
        "velocity": 250.65,
        "true_track": 65.12,
        "vertical_rate": 0.33,
        "geo_altitude": 10934.7,
        "squawk": "1241",
        "spi": false,
        "position_source": 0
      }
    },
    {
      "type": "Feature",
      "geometry": {
        "type": "Point",
        "coordinates": [
          13.6546,
          42.8787
        ]
      },
      "properties": {
        "icao24": "4c01f5",
        "callsign": "ASL75L",
        "origin_country": "Serbia",
        "time_position": 1787614219,
        "last_contact": 1787614219,
        "baro_altitude": 10972.8,
        "on_ground": false,
        "velocity": 257.02,
        "true_track": 62.46,
        "vertical_rate": 0.33,
        "geo_altitude": 11521.44,
        "squawk": "1260",
        "spi": false,
        "position_source": 0
      }
    },
    {
      "type": "Feature",
      "geometry": {
        "type": "Point",
        "coordinates": [
          14.7082,
          40.275
        ]
      },
      "properties": {
        "icao24": "4d223f",
        "callsign": "RYR465X",
        "origin_country": "Malta",
        "time_position": 1787614219,
        "last_contact": 1787614219,
        "baro_altitude": 11033.76,
        "on_ground": false,
        "velocity": 215.66,
        "true_track": 324.91,
        "vertical_rate": 3.9,
        "geo_altitude": 11666.22,
        "squawk": null,
        "spi": false,
        "position_source": 0
      }
    },
    {
      "type": "Feature",
      "geometry": {
        "type": "Point",
        "coordinates": [
          8.1475,
          42.2652
        ]
      },
      "properties": {
        "icao24": "4d224d",
        "callsign": "RYR16AZ",
        "origin_country": "Malta",
        "time_position": 1787614219,
        "last_contact": 1787614219,
        "baro_altitude": 10972.8,
        "on_ground": false,
        "velocity": 220.27,
        "true_track": 317.37,
        "vertical_rate": 0,
        "geo_altitude": 11513.82,
        "squawk": "4041",
        "spi": false,
        "position_source": 0
      }
    },
    {
      "type": "Feature",
      "geometry": {
        "type": "Point",
        "coordinates": [
          13.4916,
          40.185
        ]
      },
      "properties": {
        "icao24": "4cabf8",
        "callsign": "MSA92C",
        "origin_country": "Ireland",
        "time_position": 1787614219,
        "last_contact": 1787614219,
        "baro_altitude": 11894.82,
        "on_ground": false,
        "velocity": 237.11,
        "true_track": 163.1,
        "vertical_rate": 0,
        "geo_altitude": 12550.14,
        "squawk": "6474",
        "spi": false,
        "position_source": 0
      }
    },
    {
      "type": "Feature",
      "geometry": {
        "type": "Point",
        "coordinates": [
          12.2176,
          41.9516
        ]
      },
      "properties": {
        "icao24": "4d2186",
        "callsign": "WMT2507",
        "origin_country": "Malta",
        "time_position": 1787614219,
        "last_contact": 1787614219,
        "baro_altitude": 647.7,
        "on_ground": false,
        "velocity": 74.37,
        "true_track": 165.58,
        "vertical_rate": -3.25,
        "geo_altitude": 723.9,
        "squawk": "2003",
        "spi": false,
        "position_source": 0
      }
    },
    {
      "type": "Feature",
      "geometry": {
        "type": "Point",
        "coordinates": [
          15.6319,
          44.1012
        ]
      },
      "properties": {
        "icao24": "408356",
        "callsign": "EXS47K",
        "origin_country": "United Kingdom",
        "time_position": 1787614219,
        "last_contact": 1787614219,
        "baro_altitude": 10980.42,
        "on_ground": false,
        "velocity": 207.07,
        "true_track": 302.62,
        "vertical_rate": 0,
        "geo_altitude": 11506.2,
        "squawk": "2241",
        "spi": false,
        "position_source": 0
      }
    },
    {
      "type": "Feature",
      "geometry": {
        "type": "Point",
        "coordinates": [
          9.1234,
          47.2938
        ]
      },
      "properties": {
        "icao24": "40838a",
        "callsign": "EZY93HR",
        "origin_country": "United Kingdom",
        "time_position": 1787614218,
        "last_contact": 1787614219,
        "baro_altitude": 10363.2,
        "on_ground": false,
        "velocity": 219.54,
        "true_track": 301.98,
        "vertical_rate": 0,
        "geo_altitude": 10782.3,
        "squawk": "7533",
        "spi": false,
        "position_source": 0
      }
    },
    {
      "type": "Feature",
      "geometry": {
        "type": "Point",
        "coordinates": [
          11.3227,
          46.1699
        ]
      },
      "properties": {
        "icao24": "408387",
        "callsign": "EZY73HP",
        "origin_country": "United Kingdom",
        "time_position": 1787614219,
        "last_contact": 1787614219,
        "baro_altitude": 10378.44,
        "on_ground": false,
        "velocity": 211.96,
        "true_track": 312.25,
        "vertical_rate": 0,
        "geo_altitude": 10835.64,
        "squawk": "5331",
        "spi": false,
        "position_source": 0
      }
    },
    {
      "type": "Feature",
      "geometry": {
        "type": "Point",
        "coordinates": [
          14.1326,
          44.4464
        ]
      },
      "properties": {
        "icao24": "408388",
        "callsign": "EZY75PF",
        "origin_country": "United Kingdom",
        "time_position": 1787614219,
        "last_contact": 1787614219,
        "baro_altitude": 10980.42,
        "on_ground": false,
        "velocity": 211.24,
        "true_track": 306.28,
        "vertical_rate": 0,
        "geo_altitude": 11498.58,
        "squawk": "7742",
        "spi": false,
        "position_source": 0
      }
    },
    {
      "type": "Feature",
      "geometry": {
        "type": "Point",
        "coordinates": [
          14.4216,
          44.1753
        ]
      },
      "properties": {
        "icao24": "30019c",
        "callsign": "NOS1382",
        "origin_country": "Italy",
        "time_position": 1787614219,
        "last_contact": 1787614219,
        "baro_altitude": 10058.4,
        "on_ground": false,
        "velocity": 251.06,
        "true_track": 125.16,
        "vertical_rate": -0.33,
        "geo_altitude": 10584.18,
        "squawk": "3743",
        "spi": false,
        "position_source": 0
      }
    },
    {
      "type": "Feature",
      "geometry": {
        "type": "Point",
        "coordinates": [
          17.0908,
          45.8346
        ]
      },
      "properties": {
        "icao24": "4d213e",
        "callsign": "WMT7M",
        "origin_country": "Malta",
        "time_position": 1787614219,
        "last_contact": 1787614220,
        "baro_altitude": 10675.62,
        "on_ground": false,
        "velocity": 266.42,
        "true_track": 63.88,
        "vertical_rate": -0.33,
        "geo_altitude": 11178.54,
        "squawk": "4043",
        "spi": false,
        "position_source": 0
      }
    },
    {
      "type": "Feature",
      "geometry": {
        "type": "Point",
        "coordinates": [
          14.3806,
          47.5052
        ]
      },
      "properties": {
        "icao24": "39d2b7",
        "callsign": "AFR188",
        "origin_country": "France",
        "time_position": 1787614219,
        "last_contact": 1787614220,
        "baro_altitude": 11277.6,
        "on_ground": false,
        "velocity": 277.9,
        "true_track": 104.91,
        "vertical_rate": -0.33,
        "geo_altitude": 11689.08,
        "squawk": "0653",
        "spi": false,
        "position_source": 0
      }
    },
    {
      "type": "Feature",
      "geometry": {
        "type": "Point",
        "coordinates": [
          14.2281,
          44.1524
        ]
      },
      "properties": {
        "icao24": "4081a9",
        "callsign": "EXS75EV",
        "origin_country": "United Kingdom",
        "time_position": 1787614219,
        "last_contact": 1787614219,
        "baro_altitude": 10972.8,
        "on_ground": false,
        "velocity": 208.21,
        "true_track": 309.79,
        "vertical_rate": 0,
        "geo_altitude": 11513.82,
        "squawk": "2022",
        "spi": false,
        "position_source": 0
      }
    },
    {
      "type": "Feature",
      "geometry": {
        "type": "Point",
        "coordinates": [
          16.6402,
          43.6127
        ]
      },
      "properties": {
        "icao24": "40717a",
        "callsign": "EXS12TY",
        "origin_country": "United Kingdom",
        "time_position": 1787614219,
        "last_contact": 1787614219,
        "baro_altitude": 10972.8,
        "on_ground": false,
        "velocity": 207.17,
        "true_track": 303.45,
        "vertical_rate": 0,
        "geo_altitude": 11521.44,
        "squawk": "5341",
        "spi": false,
        "position_source": 0
      }
    },
    {
      "type": "Feature",
      "geometry": {
        "type": "Point",
        "coordinates": [
          10.0441,
          36.2215
        ]
      },
      "properties": {
        "icao24": "7100bf",
        "callsign": "SVA342",
        "origin_country": "Saudi Arabia",
        "time_position": 1787614219,
        "last_contact": 1787614219,
        "baro_altitude": 10668,
        "on_ground": false,
        "velocity": 264.6,
        "true_track": 98.27,
        "vertical_rate": 0,
        "geo_altitude": 11376.66,
        "squawk": null,
        "spi": false,
        "position_source": 0
      }
    },
    {
      "type": "Feature",
      "geometry": {
        "type": "Point",
        "coordinates": [
          13.7826,
          39.6201
        ]
      },
      "properties": {
        "icao24": "4082ab",
        "callsign": "EZY8284",
        "origin_country": "United Kingdom",
        "time_position": 1787614219,
        "last_contact": 1787614219,
        "baro_altitude": 10972.8,
        "on_ground": false,
        "velocity": 223.87,
        "true_track": 318.91,
        "vertical_rate": 0,
        "geo_altitude": 11643.36,
        "squawk": null,
        "spi": false,
        "position_source": 0
      }
    },
    {
      "type": "Feature",
      "geometry": {
        "type": "Point",
        "coordinates": [
          8.5611,
          47.442
        ]
      },
      "properties": {
        "icao24": "4b17fb",
        "callsign": "SWR5PC",
        "origin_country": "Switzerland",
        "time_position": 1787614210,
        "last_contact": 1787614216,
        "baro_altitude": null,
        "on_ground": true,
        "velocity": 0,
        "true_track": 244.69,
        "vertical_rate": null,
        "geo_altitude": null,
        "squawk": "7325",
        "spi": false,
        "position_source": 0
      }
    }
  ]
}