{
  "type": "FeatureCollection",
  "source": "opensky",
  "dataset": "aircraft_italy",
  "generated_at": "2026-08-24T23:52:33.491620+00:00",
  "opensky_time": 1787615552,
  "count": 135,
  "features": [
    {
      "type": "Feature",
      "geometry": {
        "type": "Point",
        "coordinates": [
          9.58,
          44.8394
        ]
      },
      "properties": {
        "icao24": "511187",
        "callsign": "MBU1XN",
        "origin_country": "Estonia",
        "time_position": 1787615552,
        "last_contact": 1787615552,
        "baro_altitude": 11597.64,
        "on_ground": false,
        "velocity": 262.45,
        "true_track": 29.73,
        "vertical_rate": -0.33,
        "geo_altitude": 12085.32,
        "squawk": "0451",
        "spi": false,
        "position_source": 0
      }
    },
    {
      "type": "Feature",
      "geometry": {
        "type": "Point",
        "coordinates": [
          17.6021,
          47.2055
        ]
      },
      "properties": {
        "icao24": "4bc8d6",
        "callsign": "PGT69QK",
        "origin_country": "Turkey",
        "time_position": 1787615551,
        "last_contact": 1787615551,
        "baro_altitude": 10363.2,
        "on_ground": false,
        "velocity": 195.43,
        "true_track": 294.74,
        "vertical_rate": 0,
        "geo_altitude": 10805.16,
        "squawk": "5366",
        "spi": false,
        "position_source": 0
      }
    },
    {
      "type": "Feature",
      "geometry": {
        "type": "Point",
        "coordinates": [
          12.9587,
          38.9762
        ]
      },
      "properties": {
        "icao24": "44023f",
        "callsign": "EJU62EL",
        "origin_country": "Austria",
        "time_position": 1787615549,
        "last_contact": 1787615550,
        "baro_altitude": 6431.28,
        "on_ground": false,
        "velocity": 193.26,
        "true_track": 333.09,
        "vertical_rate": 7.48,
        "geo_altitude": 6926.58,
        "squawk": null,
        "spi": false,
        "position_source": 0
      }
    },
    {
      "type": "Feature",
      "geometry": {
        "type": "Point",
        "coordinates": [
          17.2718,
          47.6178
        ]
      },
      "properties": {
        "icao24": "4bc8cf",
        "callsign": "PGT7294",
        "origin_country": "Turkey",
        "time_position": 1787615551,
        "last_contact": 1787615551,
        "baro_altitude": 11887.2,
        "on_ground": false,
        "velocity": 258.41,
        "true_track": 123.06,
        "vertical_rate": 0,
        "geo_altitude": 12321.54,
        "squawk": "2242",
        "spi": false,
        "position_source": 0
      }
    },
    {
      "type": "Feature",
      "geometry": {
        "type": "Point",
        "coordinates": [
          9.0458,
          45.5423
        ]
      },
      "properties": {
        "icao24": "440389",
        "callsign": "EJU17FM",
        "origin_country": "Austria",
        "time_position": 1787615551,
        "last_contact": 1787615552,
        "baro_altitude": 1965.96,
        "on_ground": false,
        "velocity": 131.72,
        "true_track": 226.27,
        "vertical_rate": -4.23,
        "geo_altitude": 2072.64,
        "squawk": "2235",
        "spi": false,
        "position_source": 0
      }
    },
    {
      "type": "Feature",
      "geometry": {
        "type": "Point",
        "coordinates": [
          13.9234,
          45.6692
        ]
      },
      "properties": {
        "icao24": "471fa9",
        "callsign": "WZZ4KU",
        "origin_country": "Hungary",
        "time_position": 1787615552,
        "last_contact": 1787615552,
        "baro_altitude": 10675.62,
        "on_ground": false,
        "velocity": 271.71,
        "true_track": 73.73,
        "vertical_rate": 0,
        "geo_altitude": 11170.92,
        "squawk": "1000",
        "spi": false,
        "position_source": 0
      }
    },
    {
      "type": "Feature",
      "geometry": {
        "type": "Point",
        "coordinates": [
          7.0377,
          43.5308
        ]
      },
      "properties": {
        "icao24": "440352",
        "callsign": "EJU1738",
        "origin_country": "Austria",
        "time_position": 1787615551,
        "last_contact": 1787615552,
        "baro_altitude": 1021.08,
        "on_ground": false,
        "velocity": 108.77,
        "true_track": 45.19,
        "vertical_rate": -5.53,
        "geo_altitude": 1127.76,
        "squawk": "1000",
        "spi": false,
        "position_source": 0
      }
    },
    {
      "type": "Feature",
      "geometry": {
        "type": "Point",
        "coordinates": [
          16.1277,
          45.0704
        ]
      },
      "properties": {
        "icao24": "471fa4",
        "callsign": "WMT286",
        "origin_country": "Hungary",
        "time_position": 1787615551,
        "last_contact": 1787615552,
        "baro_altitude": 11277.6,
        "on_ground": false,
        "velocity": 252.86,
        "true_track": 133.93,
        "vertical_rate": -0.33,
        "geo_altitude": 11795.76,
        "squawk": "7715",
        "spi": false,
        "position_source": 0
      }
    },
    {
      "type": "Feature",
      "geometry": {
        "type": "Point",
        "coordinates": [
          12.2582,
          41.8538
        ]
      },
      "properties": {
        "icao24": "8015a7",
        "callsign": "AIC191",
        "origin_country": "India",
        "time_position": 1787615268,
        "last_contact": 1787615268,
        "baro_altitude": 68.58,
        "on_ground": false,
        "velocity": 75.5,
        "true_track": 162.55,
        "vertical_rate": -3.58,
        "geo_altitude": 137.16,
        "squawk": "5503",
        "spi": false,
        "position_source": 0
      }
    },
    {
      "type": "Feature",
      "geometry": {
        "type": "Point",
        "coordinates": [
          14.893,
          46.0222
        ]
      },
      "properties": {
        "icao24": "73806e",
        "callsign": "ELY314",
        "origin_country": "Israel",
        "time_position": 1787615552,
        "last_contact": 1787615552,
        "baro_altitude": 10668,
        "on_ground": false,
        "velocity": 241.8,
        "true_track": 127.48,
        "vertical_rate": -0.33,
        "geo_altitude": 11117.58,
        "squawk": "2265",
        "spi": false,
        "position_source": 0
      }
    },
    {
      "type": "Feature",
      "geometry": {
        "type": "Point",
        "coordinates": [
          15.2492,
          45.7645
        ]
      },
      "properties": {
        "icao24": "738076",
        "callsign": "ELY318",
        "origin_country": "Israel",
        "time_position": 1787615551,
        "last_contact": 1787615552,
        "baro_altitude": 11277.6,
        "on_ground": false,
        "velocity": 264.53,
        "true_track": 129.63,
        "vertical_rate": 0,
        "geo_altitude": 11772.9,
        "squawk": "5220",
        "spi": false,
        "position_source": 0
      }
    },
    {
      "type": "Feature",
      "geometry": {
        "type": "Point",
        "coordinates": [
          16.5601,
          42.9233
        ]
      },
      "properties": {
        "icao24": "738054",
        "callsign": "ELY388",
        "origin_country": "Israel",
        "time_position": 1787615517,
        "last_contact": 1787615518,
        "baro_altitude": 10668,
        "on_ground": false,
        "velocity": 261.8,
        "true_track": 121.91,
        "vertical_rate": -0.33,
        "geo_altitude": 11231.88,
        "squawk": "0464",
        "spi": false,
        "position_source": 0
      }
    },
    {
      "type": "Feature",
      "geometry": {
        "type": "Point",
        "coordinates": [
          18.1502,
          43.9141
        ]
      },
      "properties": {
        "icao24": "738057",
        "callsign": "ELY326",
        "origin_country": "Israel",
        "time_position": 1787615551,
        "last_contact": 1787615551,
        "baro_altitude": 10668,
        "on_ground": false,
        "velocity": 252.01,
        "true_track": 129.87,
        "vertical_rate": 0,
        "geo_altitude": 11201.4,
        "squawk": "0667",
        "spi": false,
        "position_source": 0
      }
    },
    {
      "type": "Feature",
      "geometry": {
        "type": "Point",
        "coordinates": [
          6.5869,
          40.4186
        ]
      },
      "properties": {
        "icao24": "738059",
        "callsign": "ELY374",
        "origin_country": "Israel",
        "time_position": 1787615552,
        "last_contact": 1787615552,
        "baro_altitude": 10972.8,
        "on_ground": false,
        "velocity": 258.77,
        "true_track": 89.66,
        "vertical_rate": 0,
        "geo_altitude": 11559.54,
        "squawk": "1411",
        "spi": false,
        "position_source": 0
      }
    },
    {
      "type": "Feature",
      "geometry": {
        "type": "Point",
        "coordinates": [
          7.2638,
          40.5199
        ]
      },
      "properties": {
        "icao24": "80189d",
        "callsign": "AIC188",
        "origin_country": "India",
        "time_position": 1787615551,
        "last_contact": 1787615551,
        "baro_altitude": 10972.8,
        "on_ground": false,
        "velocity": 276.06,
        "true_track": 80.99,
        "vertical_rate": 0,
        "geo_altitude": 11582.4,
        "squawk": "1416",
        "spi": false,
        "position_source": 0
      }
    },
    {
      "type": "Feature",
      "geometry": {
        "type": "Point",
        "coordinates": [
          8.7255,
          45.641
        ]
      },
      "properties": {
        "icao24": "44001f",
        "callsign": "EJU48WL",
        "origin_country": "Austria",
        "time_position": 1787615551,
        "last_contact": 1787615551,
        "baro_altitude": null,
        "on_ground": true,
        "velocity": 2.06,
        "true_track": 261.56,
        "vertical_rate": null,
        "geo_altitude": null,
        "squawk": null,
        "spi": false,
        "position_source": 0
      }
    },
    {
      "type": "Feature",
      "geometry": {
        "type": "Point",
        "coordinates": [
          12.667,
          47.2506
        ]
      },
      "properties": {
        "icao24": "406900",
        "callsign": "EXS8GN",
        "origin_country": "United Kingdom",
        "time_position": 1787615551,
        "last_contact": 1787615551,
        "baro_altitude": 10972.8,
        "on_ground": false,
        "velocity": 203.63,
        "true_track": 307.51,
        "vertical_rate": 0,
        "geo_altitude": 11414.76,
        "squawk": "1364",
        "spi": false,
        "position_source": 0
      }
    },
    {
      "type": "Feature",
      "geometry": {
        "type": "Point",
        "coordinates": [
          13.0253,
          46.478
        ]
      },
      "properties": {
        "icao24": "45213e",
        "callsign": "AMQ168",
        "origin_country": "Bulgaria",
        "time_position": 1787615551,
        "last_contact": 1787615551,
        "baro_altitude": 10363.2,
        "on_ground": false,
        "velocity": 212.5,
        "true_track": 228.63,
        "vertical_rate": 0,
        "geo_altitude": 10820.4,
        "squawk": "6520",
        "spi": false,
        "position_source": 0
      }
    },
    {
      "type": "Feature",
      "geometry": {
        "type": "Point",
        "coordinates": [
          8.2794,
          44.2472
        ]
      },
      "properties": {
        "icao24": "452186",
        "callsign": "AMQ1125",
        "origin_country": "Bulgaria",
        "time_position": 1787615551,
        "last_contact": 1787615551,
        "baro_altitude": 10988.04,
        "on_ground": false,
        "velocity": 253.61,
        "true_track": 49.52,
        "vertical_rate": 0,
        "geo_altitude": 11490.96,
        "squawk": "1000",
        "spi": false,
        "position_source": 0
      }
    },
    {
      "type": "Feature",
      "geometry": {
        "type": "Point",
        "coordinates": [
          12.5015,
          43.977
        ]
      },
      "properties": {
        "icao24": "440198",
        "callsign": "EJU3704",
        "origin_country": "Austria",
        "time_position": 1787615552,
        "last_contact": 1787615552,
        "baro_altitude": 10980.42,
        "on_ground": false,
        "velocity": 212.32,
        "true_track": 310.68,
        "vertical_rate": -0.33,
        "geo_altitude": 11513.82,
        "squawk": "2034",
        "spi": false,
        "position_source": 0
      }
    },
    {
      "type": "Feature",
      "geometry": {
        "type": "Point",
        "coordinates": [
          8.4165,
          40.6976
        ]
      },
      "properties": {
        "icao24": "471da8",
        "callsign": "WZZ299",
        "origin_country": "Hungary",
        "time_position": 1787615551,
        "last_contact": 1787615551,
        "baro_altitude": 10972.8,
        "on_ground": false,
        "velocity": 261.91,
        "true_track": 61.87,
        "vertical_rate": 0,
        "geo_altitude": 11567.16,
        "squawk": "1455",
        "spi": false,
        "position_source": 0
      }
    },
    {
      "type": "Feature",
      "geometry": {
        "type": "Point",
        "coordinates": [
          8.7227,
          45.6311
        ]
      },
      "properties": {
        "icao24": "300a44",
        "callsign": "LSI220",
        "origin_country": "Italy",
        "time_position": 1787615551,
        "last_contact": 1787615551,
        "baro_altitude": null,
        "on_ground": true,
        "velocity": 12.86,
        "true_track": 348.75,
        "vertical_rate": null,
        "geo_altitude": null,
        "squawk": "2351",
        "spi": false,
        "position_source": 0
      }
    },
    {
      "type": "Feature",
      "geometry": {
        "type": "Point",
        "coordinates": [
          16.4804,
          42.8379
        ]
      },
      "properties": {
        "icao24": "4066b9",
        "callsign": "EXS1470",
        "origin_country": "United Kingdom",
        "time_position": 1787615548,
        "last_contact": 1787615550,
        "baro_altitude": 10972.8,
        "on_ground": false,
        "velocity": 212.08,
        "true_track": 314.51,
        "vertical_rate": 0,
        "geo_altitude": 11536.68,
        "squawk": null,
        "spi": false,
        "position_source": 0
      }
    },
    {
      "type": "Feature",
      "geometry": {
        "type": "Point",
        "coordinates": [
          16.5601,
          41.9651
        ]
      },
      "properties": {
        "icao24": "4079a9",
        "callsign": "TOM7CV",
        "origin_country": "United Kingdom",
        "time_position": 1787615551,
        "last_contact": 1787615551,
        "baro_altitude": 10972.8,
        "on_ground": false,
        "velocity": 212.97,
        "true_track": 312.75,
        "vertical_rate": 0,
        "geo_altitude": 11559.54,
        "squawk": "7353",
        "spi": false,
        "position_source": 0
      }
    },
    {
      "type": "Feature",
      "geometry": {
        "type": "Point",
        "coordinates": [
          14.7644,
          46.164
        ]
      },
      "properties": {
        "icao24": "8005eb",
        "callsign": "AIC132",
        "origin_country": "India",
        "time_position": 1787615551,
        "last_contact": 1787615551,
        "baro_altitude": 11277.6,
        "on_ground": false,
        "velocity": 274.41,
        "true_track": 129.6,
        "vertical_rate": 0,
        "geo_altitude": 11765.28,
        "squawk": "2233",
        "spi": false,
        "position_source": 0
      }
    },
    {
      "type": "Feature",
      "geometry": {
        "type": "Point",
        "coordinates": [
          13.182,
          37.7429
        ]
      },
      "properties": {
        "icao24": "4bb214",
        "callsign": "THY658",
        "origin_country": "Turkey",
        "time_position": 1787615552,
        "last_contact": 1787615552,
        "baro_altitude": 9875.52,
        "on_ground": false,
        "velocity": 247.29,
        "true_track": 69.42,
        "vertical_rate": 2.6,
        "geo_altitude": 10546.08,
        "squawk": "6132",
        "spi": false,
        "position_source": 0
      }
    },
    {
      "type": "Feature",
      "geometry": {
        "type": "Point",
        "coordinates": [
          13.8526,
          44.184
        ]
      },
      "properties": {
        "icao24": "489228",
        "callsign": "ENT766",
        "origin_country": "Poland",
        "time_position": 1787615551,
        "last_contact": 1787615552,
        "baro_altitude": 10972.8,
        "on_ground": false,
        "velocity": 201.57,
        "true_track": 263.11,
        "vertical_rate": -0.33,
        "geo_altitude": 11490.96,
        "squawk": "4156",
        "spi": false,
        "position_source": 0
      }
    },
    {
      "type": "Feature",
      "geometry": {
        "type": "Point",
        "coordinates": [
          14.1495,
          44.0625
        ]
      },
      "properties": {
        "icao24": "489220",
        "callsign": "ENT754",
        "origin_country": "Poland",
        "time_position": 1787615551,
        "last_contact": 1787615552,
        "baro_altitude": 10972.8,
        "on_ground": false,
        "velocity": 202.95,
        "true_track": 285.59,
        "vertical_rate": 0,
        "geo_altitude": 11521.44,
        "squawk": "4144",
        "spi": false,
        "position_source": 0
      }
    },
    {
      "type": "Feature",
      "geometry": {
        "type": "Point",
        "coordinates": [
          15.86,
          36.0309
        ]
      },
      "properties": {
        "icao24": "8963e5",
        "callsign": "UAE232",
        "origin_country": "United Arab Emirates",
        "time_position": 1787615551,
        "last_contact": 1787615551,
        "baro_altitude": 12496.8,
        "on_ground": false,
        "velocity": 272.16,
        "true_track": 99.36,
        "vertical_rate": 0,
        "geo_altitude": 13266.42,
        "squawk": "5202",
        "spi": false,
        "position_source": 0
      }
    },
    {
      "type": "Feature",
      "geometry": {
        "type": "Point",
        "coordinates": [
          13.3553,
          46.8157
        ]
      },
      "properties": {
        "icao24": "4077bb",
        "callsign": "EXS14JP",
        "origin_country": "United Kingdom",
        "time_position": 1787615551,
        "last_contact": 1787615552,
        "baro_altitude": 10972.8,
        "on_ground": false,
        "velocity": 200.3,
        "true_track": 308.43,
        "vertical_rate": 0,
        "geo_altitude": 11430,
        "squawk": "7737",
        "spi": false,
        "position_source": 0
      }
    },
    {
      "type": "Feature",
      "geometry": {
        "type": "Point",
        "coordinates": [
          18.6165,
          46.9167
        ]
      },
      "properties": {
        "icao24": "896621",
        "callsign": "UAE78P",
        "origin_country": "United Arab Emirates",
        "time_position": 1787615552,
        "last_contact": 1787615552,
        "baro_altitude": 11887.2,
        "on_ground": false,
        "velocity": 278.97,
        "true_track": 120.96,
        "vertical_rate": 0,
        "geo_altitude": 12321.54,
        "squawk": "2275",
        "spi": false,
        "position_source": 0
      }
    },
    {
      "type": "Feature",
      "geometry": {
        "type": "Point",
        "coordinates": [
          15.1185,
          47.5047
        ]
      },
      "properties": {
        "icao24": "4b9910",
        "callsign": "FHY1362",
        "origin_country": "Turkey",
        "time_position": 1787615551,
        "last_contact": 1787615551,
        "baro_altitude": 10675.62,
        "on_ground": false,
        "velocity": 252.7,
        "true_track": 127.06,
        "vertical_rate": 0.65,
        "geo_altitude": 11109.96,
        "squawk": "7705",
        "spi": false,
        "position_source": 0
      }
    },
    {
      "type": "Feature",
      "geometry": {
        "type": "Point",
        "coordinates": [
          10.0868,
          46.7458
        ]
      },
      "properties": {
        "icao24": "407838",
        "callsign": "EZY85HY",
        "origin_country": "United Kingdom",
        "time_position": 1787615551,
        "last_contact": 1787615551,
        "baro_altitude": 9761.22,
        "on_ground": false,
        "velocity": 219.88,
        "true_track": 304.32,
        "vertical_rate": -0.98,
        "geo_altitude": 10187.94,
        "squawk": "2254",
        "spi": false,
        "position_source": 0
      }
    },
    {
      "type": "Feature",
      "geometry": {
        "type": "Point",
        "coordinates": [
          15.7409,
          44.6587
        ]
      },
      "properties": {
        "icao24": "40666d",
        "callsign": "EZY26XM",
        "origin_country": "United Kingdom",
        "time_position": 1787615551,
        "last_contact": 1787615551,
        "baro_altitude": 10355.58,
        "on_ground": false,
        "velocity": 205.48,
        "true_track": 307.47,
        "vertical_rate": 0.33,
        "geo_altitude": 10866.12,
        "squawk": "5357",
        "spi": false,
        "position_source": 0
      }
    },
    {
      "type": "Feature",
      "geometry": {
        "type": "Point",
        "coordinates": [
          11.1572,
          37.6912
        ]
      },
      "properties": {
        "icao24": "471a7e",
        "callsign": "FRF141",
        "origin_country": "Hungary",
        "time_position": 1787615462,
        "last_contact": 1787615462,
        "baro_altitude": 5410.2,
        "on_ground": false,
        "velocity": 131.93,
        "true_track": 48.48,
        "vertical_rate": 2.28,
        "geo_altitude": 5806.44,
        "squawk": "6131",
        "spi": false,
        "position_source": 0
      }
    },
    {
      "type": "Feature",
      "geometry": {
        "type": "Point",
        "coordinates": [
          8.5727,
          47.4543
        ]
      },
      "properties": {
        "icao24": "3cce71",
        "callsign": "FCK2FT",
        "origin_country": "Germany",
        "time_position": 1787615541,
        "last_contact": 1787615550,
        "baro_altitude": 449.58,
        "on_ground": true,
        "velocity": 0.06,
        "true_track": 5.62,
        "vertical_rate": null,
        "geo_altitude": null,
        "squawk": "1414",
        "spi": false,
        "position_source": 0
      }
    },
    {
      "type": "Feature",
      "geometry": {
        "type": "Point",
        "coordinates": [
          16.5978,
          45.8302
        ]
      },
      "properties": {
        "icao24": "4bcd84",
        "callsign": "SXS2NB",
        "origin_country": "Turkey",
        "time_position": 1787615551,
        "last_contact": 1787615552,
        "baro_altitude": 11887.2,
        "on_ground": false,
        "velocity": 244.96,
        "true_track": 133.04,
        "vertical_rate": 0,
        "geo_altitude": 12382.5,
        "squawk": "6431",
        "spi": false,
        "position_source": 0
      }
    },
    {
      "type": "Feature",
      "geometry": {
        "type": "Point",
        "coordinates": [
          15.6167,
          36.0958
        ]
      },
      "properties": {
        "icao24": "040143",
        "callsign": "ETH741",
        "origin_country": "Ethiopia",
        "time_position": 1787615551,
        "last_contact": 1787615551,
        "baro_altitude": 11269.98,
        "on_ground": false,
        "velocity": 269.89,
        "true_track": 101.55,
        "vertical_rate": 0,
        "geo_altitude": 11986.26,
        "squawk": "4116",
        "spi": false,
        "position_source": 0
      }
    },
    {
      "type": "Feature",
      "geometry": {
        "type": "Point",
        "coordinates": [
          6.0207,
          40.1679
        ]
      },
      "properties": {
        "icao24": "4ca4f4",
        "callsign": "RYR19SV",
        "origin_country": "Ireland",
        "time_position": 1787615551,
        "last_contact": 1787615552,
        "baro_altitude": 11285.22,
        "on_ground": false,
        "velocity": 212.78,
        "true_track": 258.99,
        "vertical_rate": 0,
        "geo_altitude": 11879.58,
        "squawk": "1000",
        "spi": false,
        "position_source": 0
      }
    },
    {
      "type": "Feature",
      "geometry": {
        "type": "Point",
        "coordinates": [
          13.8086,
          38.566
        ]
      },
      "properties": {
        "icao24": "040124",
        "callsign": "ETH575",
        "origin_country": "Ethiopia",
        "time_position": 1787615551,
        "last_contact": 1787615551,
        "baro_altitude": 12496.8,
        "on_ground": false,
        "velocity": 276.1,
        "true_track": 115.85,
        "vertical_rate": 0,
        "geo_altitude": 13213.08,
        "squawk": "1443",
        "spi": false,
        "position_source": 0
      }
    },
    {
      "type": "Feature",
      "geometry": {
        "type": "Point",
        "coordinates": [
          16.9576,
          44.8959
        ]
      },
      "properties": {
        "icao24": "406f86",
        "callsign": "EXS37G",
        "origin_country": "United Kingdom",
        "time_position": 1787615551,
        "last_contact": 1787615551,
        "baro_altitude": 10972.8,
        "on_ground": false,
        "velocity": 201.43,
        "true_track": 309.3,
        "vertical_rate": 0,
        "geo_altitude": 11475.72,
        "squawk": "2040",
        "spi": false,
        "position_source": 0
      }
    },
    {
      "type": "Feature",
      "geometry": {
        "type": "Point",
        "coordinates": [
          9.0131,
          46.602
        ]
      },
      "properties": {
        "icao24": "4ca4ed",
        "callsign": "RYR380A",
        "origin_country": "Ireland",
        "time_position": 1787615552,
        "last_contact": 1787615552,
        "baro_altitude": 11582.4,
        "on_ground": false,
        "velocity": 264.39,
        "true_track": 7.94,
        "vertical_rate": 0,
        "geo_altitude": 12009.12,
        "squawk": "2765",
        "spi": false,
        "position_source": 0
      }
    },
    {
      "type": "Feature",
      "geometry": {
        "type": "Point",
        "coordinates": [
          9.5154,
          40.9005
        ]
      },
      "properties": {
        "icao24": "4409c0",
        "callsign": "EJU3602",
        "origin_country": "Austria",
        "time_position": 1787615531,
        "last_contact": 1787615531,
        "baro_altitude": null,
        "on_ground": true,
        "velocity": 2.31,
        "true_track": 233.44,
        "vertical_rate": null,
        "geo_altitude": null,
        "squawk": null,
        "spi": false,
        "position_source": 0
      }
    },
    {
      "type": "Feature",
      "geometry": {
        "type": "Point",
        "coordinates": [
          12.6598,
          47.1603
        ]
      },
      "properties": {
        "icao24": "06a36d",
        "callsign": "QQE968",
        "origin_country": "Qatar",
        "time_position": 1787615551,
        "last_contact": 1787615551,
        "baro_altitude": 14325.6,
        "on_ground": false,
        "velocity": 241.2,
        "true_track": 216.06,
        "vertical_rate": -0.33,
        "geo_altitude": 14775.18,
        "squawk": "1000",
        "spi": false,
        "position_source": 0
      }
    },
    {
      "type": "Feature",
      "geometry": {
        "type": "Point",
        "coordinates": [
          14.2852,
          44.1546
        ]
      },
      "properties": {
        "icao24": "406fdb",
        "callsign": "EZY27RC",
        "origin_country": "United Kingdom",
        "time_position": 1787615551,
        "last_contact": 1787615551,
        "baro_altitude": 11269.98,
        "on_ground": false,
        "velocity": 205.89,
        "true_track": 314.8,
        "vertical_rate": 0,
        "geo_altitude": 11803.38,
        "squawk": "3722",
        "spi": false,
        "position_source": 0
      }
    },
    {
      "type": "Feature",
      "geometry": {
        "type": "Point",
        "coordinates": [
          10.9964,
          36.663
        ]
      },
      "properties": {
        "icao24": "040087",
        "callsign": "ETH519",
        "origin_country": "Ethiopia",
        "time_position": 1787615552,
        "last_contact": 1787615552,
        "baro_altitude": 12496.8,
        "on_ground": false,
        "velocity": 283.44,
        "true_track": 95.94,
        "vertical_rate": 0,
        "geo_altitude": 13228.32,
        "squawk": "2204",
        "spi": false,
        "position_source": 0
      }
    },
    {
      "type": "Feature",
      "geometry": {
        "type": "Point",
        "coordinates": [
          10.7155,
          37.5428
        ]
      },
      "properties": {
        "icao24": "49d328",
        "callsign": "EWG4PR",
        "origin_country": "Czech Republic",
        "time_position": 1787615505,
        "last_contact": 1787615506,
        "baro_altitude": 5996.94,
        "on_ground": false,
        "velocity": 184.2,
        "true_track": 146.62,
        "vertical_rate": -5.2,
        "geo_altitude": 6469.38,
        "squawk": null,
        "spi": false,
        "position_source": 0
      }
    },
    {
      "type": "Feature",
      "geometry": {
        "type": "Point",
        "coordinates": [
          6.629,
          44.038
        ]
      },
      "properties": {
        "icao24": "407eec",
        "callsign": "EZY87AK",
        "origin_country": "United Kingdom",
        "time_position": 1787615552,
        "last_contact": 1787615552,
        "baro_altitude": 11567.16,
        "on_ground": false,
        "velocity": 235.62,
        "true_track": 332.43,
        "vertical_rate": 0,
        "geo_altitude": 12062.46,
        "squawk": "4026",
        "spi": false,
        "position_source": 0
      }
    },
    {
      "type": "Feature",
      "geometry": {
        "type": "Point",
        "coordinates": [
          16.7558,
          44.9374
        ]
      },
      "properties": {
        "icao24": "407eeb",
        "callsign": "EXS85BE",
        "origin_country": "United Kingdom",
        "time_position": 1787615551,
        "last_contact": 1787615551,
        "baro_altitude": 10972.8,
        "on_ground": false,
        "velocity": 201.56,
        "true_track": 310.03,
        "vertical_rate": 0,
        "geo_altitude": 11490.96,
        "squawk": "1172",
        "spi": false,
        "position_source": 0
      }
    },
    {
      "type": "Feature",
      "geometry": {
        "type": "Point",
        "coordinates": [
          17.6706,
          47.03
        ]
      },
      "properties": {
        "icao24": "503e61",
        "callsign": "CAI2E",
        "origin_country": "Lithuania",
        "time_position": 1787615552,
        "last_contact": 1787615552,
        "baro_altitude": 10972.8,
        "on_ground": false,
        "velocity": 190.67,
        "true_track": 300.3,
        "vertical_rate": 0,
        "geo_altitude": 11422.38,
        "squawk": "5367",
        "spi": false,
        "position_source": 0
      }
    },
    {
      "type": "Feature",
      "geometry": {
        "type": "Point",
        "coordinates": [
          8.7333,
          45.6142
        ]
      },
      "properties": {
        "icao24": "31d7a2",
        "callsign": "ECHO6",
        "origin_country": "Italy",
        "time_position": 1787615494,
        "last_contact": 1787615494,
        "baro_altitude": null,
        "on_ground": true,
        "velocity": 13.38,
        "true_track": 258.75,
        "vertical_rate": null,
        "geo_altitude": null,
        "squawk": null,
        "spi": false,
        "position_source": 0
      }
    },
    {
      "type": "Feature",
      "geometry": {
        "type": "Point",
        "coordinates": [
          13.7372,
          47.3507
        ]
      },
      "properties": {
        "icao24": "407e7b",
        "callsign": "TOM477",
        "origin_country": "United Kingdom",
        "time_position": 1787615551,
        "last_contact": 1787615551,
        "baro_altitude": 9144,
        "on_ground": false,
        "velocity": 221.74,
        "true_track": 304.32,
        "vertical_rate": 0,
        "geo_altitude": 9540.24,
        "squawk": "2021",
        "spi": false,
        "position_source": 0
      }
    },
    {
      "type": "Feature",
      "geometry": {
        "type": "Point",
        "coordinates": [
          8.7789,
          45.4264
        ]
      },
      "properties": {
        "icao24": "3420c6",
        "callsign": "BCS136",
        "origin_country": "Spain",
        "time_position": 1787615551,
        "last_contact": 1787615551,
        "baro_altitude": 1226.82,
        "on_ground": false,
        "velocity": 113.3,
        "true_track": 348.74,
        "vertical_rate": -0.33,
        "geo_altitude": 1310.64,
        "squawk": "1000",
        "spi": false,
        "position_source": 0
      }
    },
    {
      "type": "Feature",
      "geometry": {
        "type": "Point",
        "coordinates": [
          6.7205,
          44.5494
        ]
      },
      "properties": {
        "icao24": "407e63",
        "callsign": "EZY17CB",
        "origin_country": "United Kingdom",
        "time_position": 1787615551,
        "last_contact": 1787615551,
        "baro_altitude": 10363.2,
        "on_ground": false,
        "velocity": 234.1,
        "true_track": 350.64,
        "vertical_rate": -0.33,
        "geo_altitude": 10828.02,
        "squawk": "4034",
        "spi": false,
        "position_source": 0
      }
    },
    {
      "type": "Feature",
      "geometry": {
        "type": "Point",
        "coordinates": [
          14.6783,
          46.1062
        ]
      },
      "properties": {
        "icao24": "406ae8",
        "callsign": "TOM3TH",
        "origin_country": "United Kingdom",
        "time_position": 1787615551,
        "last_contact": 1787615551,
        "baro_altitude": 11582.4,
        "on_ground": false,
        "velocity": 204.95,
        "true_track": 308.68,
        "vertical_rate": 0.33,
        "geo_altitude": 12062.46,
        "squawk": "6631",
        "spi": false,
        "position_source": 0
      }
    },
    {
      "type": "Feature",
      "geometry": {
        "type": "Point",
        "coordinates": [
          14.9847,
          45.9951
        ]
      },
      "properties": {
        "icao24": "406ac3",
        "callsign": "EXS7HG",
        "origin_country": "United Kingdom",
        "time_position": 1787615551,
        "last_contact": 1787615551,
        "baro_altitude": 10972.8,
        "on_ground": false,
        "velocity": 207.78,
        "true_track": 308.06,
        "vertical_rate": 0,
        "geo_altitude": 11468.1,
        "squawk": "5317",
        "spi": false,
        "position_source": 0
      }
    },
    {
      "type": "Feature",
      "geometry": {
        "type": "Point",
        "coordinates": [
          7.8345,
          42.7906
        ]
      },
      "properties": {
        "icao24": "44046d",
        "callsign": "EJU47KY",
        "origin_country": "Austria",
        "time_position": 1787615551,
        "last_contact": 1787615551,
        "baro_altitude": 9761.22,
        "on_ground": false,
        "velocity": 211.65,
        "true_track": 319.53,
        "vertical_rate": 0,
        "geo_altitude": 10248.9,
        "squawk": "0201",
        "spi": false,
        "position_source": 0
      }
    },
    {
      "type": "Feature",
      "geometry": {
        "type": "Point",
        "coordinates": [
          17.0694,
          43.8045
        ]
      },
      "properties": {
        "icao24": "06a1e6",
        "callsign": "QTR8175",
        "origin_country": "Qatar",
        "time_position": 1787615550,
        "last_contact": 1787615551,
        "baro_altitude": 10058.4,
        "on_ground": false,
        "velocity": 270.92,
        "true_track": 137.62,
        "vertical_rate": 0,
        "geo_altitude": 10584.18,
        "squawk": "3172",
        "spi": false,
        "position_source": 0
      }
    },
    {
      "type": "Feature",
      "geometry": {
        "type": "Point",
        "coordinates": [
          12.7572,
          44.8471
        ]
      },
      "properties": {
        "icao24": "48c220",
        "callsign": "RYS7244",
        "origin_country": "Poland",
        "time_position": 1787615552,
        "last_contact": 1787615552,
        "baro_altitude": 10972.8,
        "on_ground": false,
        "velocity": 245.86,
        "true_track": 29.73,
        "vertical_rate": 0.33,
        "geo_altitude": 11475.72,
        "squawk": "1000",
        "spi": false,
        "position_source": 0
      }
    },
    {
      "type": "Feature",
      "geometry": {
        "type": "Point",
        "coordinates": [
          13.6461,
          45.0688
        ]
      },
      "properties": {
        "icao24": "40812d",
        "callsign": "EZY2145",
        "origin_country": "United Kingdom",
        "time_position": 1787615551,
        "last_contact": 1787615551,
        "baro_altitude": 10683.24,
        "on_ground": false,
        "velocity": 267.04,
        "true_track": 114.59,
        "vertical_rate": 0,
        "geo_altitude": 11186.16,
        "squawk": "5601",
        "spi": false,
        "position_source": 0
      }
    },
    {
      "type": "Feature",
      "geometry": {
        "type": "Point",
        "coordinates": [
          13.9676,
          47.6322
        ]
      },
      "properties": {
        "icao24": "408067",
        "callsign": "EXS47MA",
        "origin_country": "United Kingdom",
        "time_position": 1787615551,
        "last_contact": 1787615551,
        "baro_altitude": 11582.4,
        "on_ground": false,
        "velocity": 212.87,
        "true_track": 313.53,
        "vertical_rate": 0,
        "geo_altitude": 12016.74,
        "squawk": "5314",
        "spi": false,
        "position_source": 0
      }
    },
    {
      "type": "Feature",
      "geometry": {
        "type": "Point",
        "coordinates": [
          12.293,
          45.7582
        ]
      },
      "properties": {
        "icao24": "40804d",
        "callsign": "WUK8YM",
        "origin_country": "United Kingdom",
        "time_position": 1787615552,
        "last_contact": 1787615552,
        "baro_altitude": 10972.8,
        "on_ground": false,
        "velocity": 201.91,
        "true_track": 303.04,
        "vertical_rate": -0.33,
        "geo_altitude": 11445.24,
        "squawk": "0221",
        "spi": false,
        "position_source": 0
      }
    },
    {
      "type": "Feature",
      "geometry": {
        "type": "Point",
        "coordinates": [
          11.3141,
          45.4766
        ]
      },
      "properties": {
        "icao24": "408053",
        "callsign": "EZY17EG",
        "origin_country": "United Kingdom",
        "time_position": 1787615551,
        "last_contact": 1787615551,
        "baro_altitude": 10980.42,
        "on_ground": false,
        "velocity": 206.43,
        "true_track": 309.64,
        "vertical_rate": 0.33,
        "geo_altitude": 11475.72,
        "squawk": "2061",
        "spi": false,
        "position_source": 0
      }
    },
    {
      "type": "Feature",
      "geometry": {
        "type": "Point",
        "coordinates": [
          8.7341,
          42.4285
        ]
      },
      "properties": {
        "icao24": "40803f",
        "callsign": "TOM3WL",
        "origin_country": "United Kingdom",
        "time_position": 1787615551,
        "last_contact": 1787615551,
        "baro_altitude": 10972.8,
        "on_ground": false,
        "velocity": 228.1,
        "true_track": 327.99,
        "vertical_rate": 0,
        "geo_altitude": 11521.44,
        "squawk": "4027",
        "spi": false,
        "position_source": 0
      }
    },
    {
      "type": "Feature",
      "geometry": {
        "type": "Point",
        "coordinates": [
          10.4424,
          37.1229
        ]
      },
      "properties": {
        "icao24": "02a1a4",
        "callsign": "LBT629",
        "origin_country": "Tunisia",
        "time_position": 1787615550,
        "last_contact": 1787615550,
        "baro_altitude": 2720.34,
        "on_ground": false,
        "velocity": 150.89,
        "true_track": 211.9,
        "vertical_rate": -3.9,
        "geo_altitude": 3025.14,
        "squawk": "3744",
        "spi": false,
        "position_source": 0
      }
    },
    {
      "type": "Feature",
      "geometry": {
        "type": "Point",
        "coordinates": [
          12.6236,
          46.9016
        ]
      },
      "properties": {
        "icao24": "408210",
        "callsign": "EXS61JS",
        "origin_country": "United Kingdom",
        "time_position": 1787615551,
        "last_contact": 1787615551,
        "baro_altitude": 10972.8,
        "on_ground": false,
        "velocity": 209,
        "true_track": 309.61,
        "vertical_rate": 0,
        "geo_altitude": 11437.62,
        "squawk": "3710",
        "spi": false,
        "position_source": 0
      }
    },
    {
      "type": "Feature",
      "geometry": {
        "type": "Point",
        "coordinates": [
          10.4278,
          35.9219
        ]
      },
      "properties": {
        "icao24": "02a1b0",
        "callsign": "LBT573",
        "origin_country": "Tunisia",
        "time_position": 1787615526,
        "last_contact": 1787615528,
        "baro_altitude": 1775.46,
        "on_ground": false,
        "velocity": 144.13,
        "true_track": 167.01,
        "vertical_rate": -8.13,
        "geo_altitude": 2004.06,
        "squawk": "3745",
        "spi": false,
        "position_source": 0
      }
    },
    {
      "type": "Feature",
      "geometry": {
        "type": "Point",
        "coordinates": [
          18.5871,
          41.8519
        ]
      },
      "properties": {
        "icao24": "4080df",
        "callsign": "EXS2VM",
        "origin_country": "United Kingdom",
        "time_position": 1787615548,
        "last_contact": 1787615548,
        "baro_altitude": 10972.8,
        "on_ground": false,
        "velocity": 209.85,
        "true_track": 311.82,
        "vertical_rate": 0,
        "geo_altitude": 11574.78,
        "squawk": null,
        "spi": false,
        "position_source": 0
      }
    },
    {
      "type": "Feature",
      "geometry": {
        "type": "Point",
        "coordinates": [
          14.7548,
          46.8867
        ]
      },
      "properties": {
        "icao24": "40815b",
        "callsign": "EZY38CZ",
        "origin_country": "United Kingdom",
        "time_position": 1787615551,
        "last_contact": 1787615551,
        "baro_altitude": 11582.4,
        "on_ground": false,
        "velocity": 213.74,
        "true_track": 320.37,
        "vertical_rate": 0,
        "geo_altitude": 12039.6,
        "squawk": "5535",
        "spi": false,
        "position_source": 0
      }
    },
    {
      "type": "Feature",
      "geometry": {
        "type": "Point",
        "coordinates": [
          8.5537,
          47.4461
        ]
      },
      "properties": {
        "icao24": "4b5d2e",
        "callsign": "FLORIAN7",
        "origin_country": "Switzerland",
        "time_position": 1787615551,
        "last_contact": 1787615552,
        "baro_altitude": null,
        "on_ground": true,
        "velocity": 0.06,
        "true_track": 205.31,
        "vertical_rate": null,
        "geo_altitude": null,
        "squawk": null,
        "spi": false,
        "position_source": 0
      }
    },
    {
      "type": "Feature",
      "geometry": {
        "type": "Point",
        "coordinates": [
          8.5588,
          47.4548
        ]
      },
      "properties": {
        "icao24": "4b5d30",
        "callsign": "GALA1",
        "origin_country": "Switzerland",
        "time_position": 1787615551,
        "last_contact": 1787615551,
        "baro_altitude": null,
        "on_ground": true,
        "velocity": 13.89,
        "true_track": 275.62,
        "vertical_rate": null,
        "geo_altitude": null,
        "squawk": null,
        "spi": false,
        "position_source": 0
      }
    },
    {
      "type": "Feature",
      "geometry": {
        "type": "Point",
        "coordinates": [
          8.5611,
          47.4547
        ]
      },
      "properties": {
        "icao24": "4b5d55",
        "callsign": "GALA7",
        "origin_country": "Switzerland",
        "time_position": 1787615550,
        "last_contact": 1787615550,
        "baro_altitude": null,
        "on_ground": true,
        "velocity": 6.69,
        "true_track": 272.81,
        "vertical_rate": null,
        "geo_altitude": null,
        "squawk": null,
        "spi": false,
        "position_source": 0
      }
    },
    {
      "type": "Feature",
      "geometry": {
        "type": "Point",
        "coordinates": [
          7.5632,
          46.856
        ]
      },
      "properties": {
        "icao24": "4951d7",
        "callsign": "TAP828",
        "origin_country": "Portugal",
        "time_position": 1787615551,
        "last_contact": 1787615552,
        "baro_altitude": 11102.34,
        "on_ground": false,
        "velocity": 211.49,
        "true_track": 138.95,
        "vertical_rate": -4.88,
        "geo_altitude": 11536.68,
        "squawk": "1000",
        "spi": false,
        "position_source": 0
      }
    },
    {
      "type": "Feature",
      "geometry": {
        "type": "Point",
        "coordinates": [
          13.2445,
          46.9247
        ]
      },
      "properties": {
        "icao24": "408041",
        "callsign": "WUK962",
        "origin_country": "United Kingdom",
        "time_position": 1787615552,
        "last_contact": 1787615552,
        "baro_altitude": 10370.82,
        "on_ground": false,
        "velocity": 208.59,
        "true_track": 307.89,
        "vertical_rate": -0.33,
        "geo_altitude": 10828.02,
        "squawk": "0502",
        "spi": false,
        "position_source": 0
      }
    },
    {
      "type": "Feature",
      "geometry": {
        "type": "Point",
        "coordinates": [
          8.5591,
          47.4592
        ]
      },
      "properties": {
        "icao24": "4b5c36",
        "callsign": "URSULA3",
        "origin_country": "Switzerland",
        "time_position": 1787615551,
        "last_contact": 1787615551,
        "baro_altitude": null,
        "on_ground": true,
        "velocity": 2.06,
        "true_track": 222.19,
        "vertical_rate": null,
        "geo_altitude": null,
        "squawk": "5132",
        "spi": true,
        "position_source": 0
      }
    },
    {
      "type": "Feature",
      "geometry": {
        "type": "Point",
        "coordinates": [
          8.5727,
          47.4545
        ]
      },
      "properties": {
        "icao24": "4b5c1a",
        "callsign": "GUSTI2",
        "origin_country": "Switzerland",
        "time_position": 1787615532,
        "last_contact": 1787615532,
        "baro_altitude": null,
        "on_ground": true,
        "velocity": 0.06,
        "true_track": 0,
        "vertical_rate": null,
        "geo_altitude": null,
        "squawk": null,
        "spi": false,
        "position_source": 0
      }
    },
    {
      "type": "Feature",
      "geometry": {
        "type": "Point",
        "coordinates": [
          8.553,
          47.4459
        ]
      },
      "properties": {
        "icao24": "4b5c4b",
        "callsign": "FLORIAN2",
        "origin_country": "Switzerland",
        "time_position": 1787615551,
        "last_contact": 1787615551,
        "baro_altitude": null,
        "on_ground": true,
        "velocity": 0.45,
        "true_track": 227.81,
        "vertical_rate": null,
        "geo_altitude": null,
        "squawk": null,
        "spi": false,
        "position_source": 0
      }
    },
    {
      "type": "Feature",
      "geometry": {
        "type": "Point",
        "coordinates": [
          8.2995,
          40.6442
        ]
      },
      "properties": {
        "icao24": "4ca9cc",
        "callsign": "RYR1XG",
        "origin_country": "Ireland",
        "time_position": 1787615525,
        "last_contact": 1787615545,
        "baro_altitude": null,
        "on_ground": true,
        "velocity": 0,
        "true_track": 306.56,
        "vertical_rate": null,
        "geo_altitude": null,
        "squawk": null,
        "spi": false,
        "position_source": 0
      }
    },
    {
      "type": "Feature",
      "geometry": {
        "type": "Point",
        "coordinates": [
          8.7925,
          44.8373
        ]
      },
      "properties": {
        "icao24": "4ca961",
        "callsign": "NOS1702",
        "origin_country": "Ireland",
        "time_position": 1787615551,
        "last_contact": 1787615551,
        "baro_altitude": 6355.08,
        "on_ground": false,
        "velocity": 206.19,
        "true_track": 120.6,
        "vertical_rate": 6.83,
        "geo_altitude": 6652.26,
        "squawk": "0424",
        "spi": false,
        "position_source": 0
      }
    },
    {
      "type": "Feature",
      "geometry": {
        "type": "Point",
        "coordinates": [
          15.9902,
          42.4144
        ]
      },
      "properties": {
        "icao24": "4ca92b",
        "callsign": "RYR1SK",
        "origin_country": "Ireland",
        "time_position": 1787615551,
        "last_contact": 1787615551,
        "baro_altitude": 11277.6,
        "on_ground": false,
        "velocity": 230.21,
        "true_track": 193.57,
        "vertical_rate": -0.33,
        "geo_altitude": 11871.96,
        "squawk": "6033",
        "spi": false,
        "position_source": 0
      }
    },
    {
      "type": "Feature",
      "geometry": {
        "type": "Point",
        "coordinates": [
          11.006,
          44.7429
        ]
      },
      "properties": {
        "icao24": "4ca84c",
        "callsign": "RYR51GK",
        "origin_country": "Ireland",
        "time_position": 1787615551,
        "last_contact": 1787615551,
        "baro_altitude": 1440.18,
        "on_ground": false,
        "velocity": 126.79,
        "true_track": 292.92,
        "vertical_rate": -1.63,
        "geo_altitude": 1546.86,
        "squawk": "3516",
        "spi": false,
        "position_source": 0
      }
    },
    {
      "type": "Feature",
      "geometry": {
        "type": "Point",
        "coordinates": [
          9.0189,
          39.5515
        ]
      },
      "properties": {
        "icao24": "4ca7b7",
        "callsign": "RYR5WD",
        "origin_country": "Ireland",
        "time_position": 1787615381,
        "last_contact": 1787615381,
        "baro_altitude": 1661.16,
        "on_ground": false,
        "velocity": 125.85,
        "true_track": 203.11,
        "vertical_rate": -7.48,
        "geo_altitude": 2186.94,
        "squawk": "4672",
        "spi": false,
        "position_source": 0
      }
    },
    {
      "type": "Feature",
      "geometry": {
        "type": "Point",
        "coordinates": [
          18.4207,
          46.2106
        ]
      },
      "properties": {
        "icao24": "4bcdf2",
        "callsign": "SXS2GA",
        "origin_country": "Turkey",
        "time_position": 1787615552,
        "last_contact": 1787615552,
        "baro_altitude": 11277.6,
        "on_ground": false,
        "velocity": 263.86,
        "true_track": 128.03,
        "vertical_rate": 0,
        "geo_altitude": 11765.28,
        "squawk": "7706",
        "spi": false,
        "position_source": 0
      }
    },
    {
      "type": "Feature",
      "geometry": {
        "type": "Point",
        "coordinates": [
          9.0211,
          39.2804
        ]
      },
      "properties": {
        "icao24": "4ca762",
        "callsign": "RYR540G",
        "origin_country": "Ireland",
        "time_position": 1787615544,
        "last_contact": 1787615545,
        "baro_altitude": 167.64,
        "on_ground": false,
        "velocity": 72.88,
        "true_track": 138.43,
        "vertical_rate": -3.58,
        "geo_altitude": 228.6,
        "squawk": "4667",
        "spi": false,
        "position_source": 0
      }
    },
    {
      "type": "Feature",
      "geometry": {
        "type": "Point",
        "coordinates": [
          11.7467,
          45.9932
        ]
      },
      "properties": {
        "icao24": "4ca740",
        "callsign": "RYR32FQ",
        "origin_country": "Ireland",
        "time_position": 1787615552,
        "last_contact": 1787615552,
        "baro_altitude": 10668,
        "on_ground": false,
        "velocity": 200.91,
        "true_track": 235.54,
        "vertical_rate": 0.33,
        "geo_altitude": 11140.44,
        "squawk": "2240",
        "spi": false,
        "position_source": 0
      }
    },
    {
      "type": "Feature",
      "geometry": {
        "type": "Point",
        "coordinates": [
          6.3994,
          44.3738
        ]
      },
      "properties": {
        "icao24": "407666",
        "callsign": "EZY82NK",
        "origin_country": "United Kingdom",
        "time_position": 1787615551,
        "last_contact": 1787615552,
        "baro_altitude": 9441.18,
        "on_ground": false,
        "velocity": 217.85,
        "true_track": 329.8,
        "vertical_rate": 7.8,
        "geo_altitude": 9852.66,
        "squawk": "6771",
        "spi": false,
        "position_source": 0
      }
    },
    {
      "type": "Feature",
      "geometry": {
        "type": "Point",
        "coordinates": [
          18.5539,
          44.2415
        ]
      },
      "properties": {
        "icao24": "347488",
        "callsign": "CND22BT",
        "origin_country": "Spain",
        "time_position": 1787615551,
        "last_contact": 1787615551,
        "baro_altitude": 12192,
        "on_ground": false,
        "velocity": 233,
        "true_track": 317.33,
        "vertical_rate": 0,
        "geo_altitude": 12717.78,
        "squawk": "7732",
        "spi": false,
        "position_source": 0
      }
    },
    {
      "type": "Feature",
      "geometry": {
        "type": "Point",
        "coordinates": [
          11.1127,
          37.2059
        ]
      },
      "properties": {
        "icao24": "346147",
        "callsign": "IBE0846",
        "origin_country": "Spain",
        "time_position": 1787615551,
        "last_contact": 1787615551,
        "baro_altitude": 10972.8,
        "on_ground": false,
        "velocity": 217.28,
        "true_track": 260.05,
        "vertical_rate": 0,
        "geo_altitude": 11681.46,
        "squawk": "3716",
        "spi": false,
        "position_source": 0
      }
    },
    {
      "type": "Feature",
      "geometry": {
        "type": "Point",
        "coordinates": [
          7.5334,
          47.597
        ]
      },
      "properties": {
        "icao24": "389dff",
        "callsign": "COBRA02",
        "origin_country": "France",
        "time_position": 1787615381,
        "last_contact": 1787615381,
        "baro_altitude": null,
        "on_ground": true,
        "velocity": 3.86,
        "true_track": 154.69,
        "vertical_rate": null,
        "geo_altitude": null,
        "squawk": null,
        "spi": false,
        "position_source": 0
      }
    },
    {
      "type": "Feature",
      "geometry": {
        "type": "Point",
        "coordinates": [
          14.7895,
          36.1117
        ]
      },
      "properties": {
        "icao24": "8966fa",
        "callsign": "UAE144",
        "origin_country": "United Arab Emirates",
        "time_position": 1787615551,
        "last_contact": 1787615551,
        "baro_altitude": 11887.2,
        "on_ground": false,
        "velocity": 274.38,
        "true_track": 100.15,
        "vertical_rate": 0,
        "geo_altitude": 12611.1,
        "squawk": "4112",
        "spi": false,
        "position_source": 0
      }
    },
    {
      "type": "Feature",
      "geometry": {
        "type": "Point",
        "coordinates": [
          6.0022,
          39.18
        ]
      },
      "properties": {
        "icao24": "06e010",
        "callsign": "RWD711",
        "origin_country": "Rwanda",
        "time_position": 1787615551,
        "last_contact": 1787615552,
        "baro_altitude": 11887.2,
        "on_ground": false,
        "velocity": 236.51,
        "true_track": 159.63,
        "vertical_rate": 0.33,
        "geo_altitude": 12534.9,
        "squawk": "6322",
        "spi": false,
        "position_source": 0
      }
    },
    {
      "type": "Feature",
      "geometry": {
        "type": "Point",
        "coordinates": [
          12.7754,
          38.7879
        ]
      },
      "properties": {
        "icao24": "4cafca",
        "callsign": "MSA61P",
        "origin_country": "Ireland",
        "time_position": 1787615541,
        "last_contact": 1787615548,
        "baro_altitude": 4632.96,
        "on_ground": false,
        "velocity": 208.87,
        "true_track": 131.31,
        "vertical_rate": -10.73,
        "geo_altitude": 4983.48,
        "squawk": "6325",
        "spi": false,
        "position_source": 0
      }
    },
    {
      "type": "Feature",
      "geometry": {
        "type": "Point",
        "coordinates": [
          9.8006,
          46.9783
        ]
      },
      "properties": {
        "icao24": "04c3ad",
        "callsign": "KQA101",
        "origin_country": "Kenya",
        "time_position": 1787615551,
        "last_contact": 1787615551,
        "baro_altitude": 10058.4,
        "on_ground": false,
        "velocity": 260,
        "true_track": 126.55,
        "vertical_rate": -0.65,
        "geo_altitude": 10477.5,
        "squawk": "5270",
        "spi": false,
        "position_source": 0
      }
    },
    {
      "type": "Feature",
      "geometry": {
        "type": "Point",
        "coordinates": [
          10.1562,
          47.5747
        ]
      },
      "properties": {
        "icao24": "4caff7",
        "callsign": "RYR7SZ",
        "origin_country": "Ireland",
        "time_position": 1787615551,
        "last_contact": 1787615551,
        "baro_altitude": 10363.2,
        "on_ground": false,
        "velocity": 219.72,
        "true_track": 318.32,
        "vertical_rate": 0,
        "geo_altitude": 10774.68,
        "squawk": "7547",
        "spi": false,
        "position_source": 0
      }
    },
    {
      "type": "Feature",
      "geometry": {
        "type": "Point",
        "coordinates": [
          16.8304,
          44.1271
        ]
      },
      "properties": {
        "icao24": "010204",
        "callsign": "MSR780",
        "origin_country": "Egypt",
        "time_position": 1787615551,
        "last_contact": 1787615551,
        "baro_altitude": 11292.84,
        "on_ground": false,
        "velocity": 252.2,
        "true_track": 141.38,
        "vertical_rate": 0,
        "geo_altitude": 11833.86,
        "squawk": "5215",
        "spi": false,
        "position_source": 0
      }
    },
    {
      "type": "Feature",
      "geometry": {
        "type": "Point",
        "coordinates": [
          9.6089,
          41.4725
        ]
      },
      "properties": {
        "icao24": "34761a",
        "callsign": "VOE6VJ",
        "origin_country": "Spain",
        "time_position": 1787615361,
        "last_contact": 1787615361,
        "baro_altitude": 3596.64,
        "on_ground": false,
        "velocity": 156.66,
        "true_track": 164.18,
        "vertical_rate": -7.48,
        "geo_altitude": 4297.68,
        "squawk": "3517",
        "spi": false,
        "position_source": 0
      }
    },
    {
      "type": "Feature",
      "geometry": {
        "type": "Point",
        "coordinates": [
          16.4857,
          43.9992
        ]
      },
      "properties": {
        "icao24": "010287",
        "callsign": "NMA740",
        "origin_country": "Egypt",
        "time_position": 1787615551,
        "last_contact": 1787615551,
        "baro_altitude": 10363.2,
        "on_ground": false,
        "velocity": 215.58,
        "true_track": 322.17,
        "vertical_rate": 0,
        "geo_altitude": 10888.98,
        "squawk": "5505",
        "spi": false,
        "position_source": 0
      }
    },
    {
      "type": "Feature",
      "geometry": {
        "type": "Point",
        "coordinates": [
          16.1102,
          45.3897
        ]
      },
      "properties": {
        "icao24": "40772e",
        "callsign": "EZY13TD",
        "origin_country": "United Kingdom",
        "time_position": 1787615551,
        "last_contact": 1787615551,
        "baro_altitude": 11871.96,
        "on_ground": false,
        "velocity": 251.31,
        "true_track": 124.83,
        "vertical_rate": -0.33,
        "geo_altitude": 12382.5,
        "squawk": "4703",
        "spi": false,
        "position_source": 0
      }
    },
    {
      "type": "Feature",
      "geometry": {
        "type": "Point",
        "coordinates": [
          17.696,
          47.4275
        ]
      },
      "properties": {
        "icao24": "4d24b4",
        "callsign": "WMT543",
        "origin_country": "Malta",
        "time_position": 1787615551,
        "last_contact": 1787615552,
        "baro_altitude": 11285.22,
        "on_ground": false,
        "velocity": 267.04,
        "true_track": 118.54,
        "vertical_rate": 0,
        "geo_altitude": 11711.94,
        "squawk": "0511",
        "spi": false,
        "position_source": 0
      }
    },
    {
      "type": "Feature",
      "geometry": {
        "type": "Point",
        "coordinates": [
          7.2273,
          47.1649
        ]
      },
      "properties": {
        "icao24": "4075df",
        "callsign": "EZY12KM",
        "origin_country": "United Kingdom",
        "time_position": 1787615551,
        "last_contact": 1787615552,
        "baro_altitude": 10972.8,
        "on_ground": false,
        "velocity": 236.15,
        "true_track": 310.32,
        "vertical_rate": 0,
        "geo_altitude": 11391.9,
        "squawk": "2773",
        "spi": false,
        "position_source": 0
      }
    },
    {
      "type": "Feature",
      "geometry": {
        "type": "Point",
        "coordinates": [
          13.7339,
          37.0793
        ]
      },
      "properties": {
        "icao24": "4caecc",
        "callsign": "RYR12EE",
        "origin_country": "Ireland",
        "time_position": 1787615551,
        "last_contact": 1787615552,
        "baro_altitude": 7162.8,
        "on_ground": false,
        "velocity": 209.53,
        "true_track": 161.39,
        "vertical_rate": -10.4,
        "geo_altitude": 7711.44,
        "squawk": "3754",
        "spi": false,
        "position_source": 0
      }
    },
    {
      "type": "Feature",
      "geometry": {
        "type": "Point",
        "coordinates": [
          15.3152,
          38.3284
        ]
      },
      "properties": {
        "icao24": "300664",
        "callsign": "IBBFI",
        "origin_country": "Italy",
        "time_position": 1787615549,
        "last_contact": 1787615551,
        "baro_altitude": 434.34,
        "on_ground": false,
        "velocity": 74.94,
        "true_track": 98.69,
        "vertical_rate": 0,
        "geo_altitude": 533.4,
        "squawk": null,
        "spi": false,
        "position_source": 0
      }
    },
    {
      "type": "Feature",
      "geometry": {
        "type": "Point",
        "coordinates": [
          14.3145,
          36.1324
        ]
      },
      "properties": {
        "icao24": "4cadc0",
        "callsign": "RYR3T",
        "origin_country": "Ireland",
        "time_position": 1787615551,
        "last_contact": 1787615551,
        "baro_altitude": 1539.24,
        "on_ground": false,
        "velocity": 147.65,
        "true_track": 192.68,
        "vertical_rate": -6.83,
        "geo_altitude": 1722.12,
        "squawk": "1226",
        "spi": false,
        "position_source": 0
      }
    },
    {
      "type": "Feature",
      "geometry": {
        "type": "Point",
        "coordinates": [
          6.4271,
          43.7124
        ]
      },
      "properties": {
        "icao24": "4cadfc",
        "callsign": "RYR1KW",
        "origin_country": "Ireland",
        "time_position": 1787615551,
        "last_contact": 1787615551,
        "baro_altitude": 11277.6,
        "on_ground": false,
        "velocity": 207.86,
        "true_track": 239.18,
        "vertical_rate": 0.33,
        "geo_altitude": 11757.66,
        "squawk": "1000",
        "spi": false,
        "position_source": 0
      }
    },
    {
      "type": "Feature",
      "geometry": {
        "type": "Point",
        "coordinates": [
          11.8672,
          41.2206
        ]
      },
      "properties": {
        "icao24": "39c5a1",
        "callsign": "CRL636",
        "origin_country": "France",
        "time_position": 1787615552,
        "last_contact": 1787615552,
        "baro_altitude": 10668,
        "on_ground": false,
        "velocity": 272.25,
        "true_track": 107.03,
        "vertical_rate": 0,
        "geo_altitude": 11262.36,
        "squawk": "5666",
        "spi": false,
        "position_source": 0
      }
    },
    {
      "type": "Feature",
      "geometry": {
        "type": "Point",
        "coordinates": [
          9.8393,
          44.9186
        ]
      },
      "properties": {
        "icao24": "4d245b",
        "callsign": "WMT6UU",
        "origin_country": "Malta",
        "time_position": 1787615551,
        "last_contact": 1787615551,
        "baro_altitude": 10980.42,
        "on_ground": false,
        "velocity": 263.1,
        "true_track": 52.55,
        "vertical_rate": 0,
        "geo_altitude": 11475.72,
        "squawk": "1000",
        "spi": false,
        "position_source": 0
      }
    },
    {
      "type": "Feature",
      "geometry": {
        "type": "Point",
        "coordinates": [
          8.7343,
          44.5584
        ]
      },
      "properties": {
        "icao24": "4d247e",
        "callsign": "EWG13M",
        "origin_country": "Malta",
        "time_position": 1787615552,
        "last_contact": 1787615552,
        "baro_altitude": 10972.8,
        "on_ground": false,
        "velocity": 257.48,
        "true_track": 7.69,
        "vertical_rate": 0.33,
        "geo_altitude": 11475.72,
        "squawk": "3756",
        "spi": false,
        "position_source": 0
      }
    },
    {
      "type": "Feature",
      "geometry": {
        "type": "Point",
        "coordinates": [
          6.1872,
          37.8293
        ]
      },
      "properties": {
        "icao24": "4cae51",
        "callsign": "RYR5382",
        "origin_country": "Ireland",
        "time_position": 1787615551,
        "last_contact": 1787615551,
        "baro_altitude": 11277.6,
        "on_ground": false,
        "velocity": 254.65,
        "true_track": 90.35,
        "vertical_rate": 0.33,
        "geo_altitude": 11948.16,
        "squawk": "1442",
        "spi": false,
        "position_source": 0
      }
    },
    {
      "type": "Feature",
      "geometry": {
        "type": "Point",
        "coordinates": [
          15.2803,
          46.4225
        ]
      },
      "properties": {
        "icao24": "4d22c4",
        "callsign": "RYR61YD",
        "origin_country": "Malta",
        "time_position": 1787615552,
        "last_contact": 1787615552,
        "baro_altitude": 9646.92,
        "on_ground": false,
        "velocity": 257.22,
        "true_track": 53.13,
        "vertical_rate": -5.53,
        "geo_altitude": 10111.74,
        "squawk": "1000",
        "spi": false,
        "position_source": 0
      }
    },
    {
      "type": "Feature",
      "geometry": {
        "type": "Point",
        "coordinates": [
          8.0897,
          47.6161
        ]
      },
      "properties": {
        "icao24": "4caca2",
        "callsign": "ABR177",
        "origin_country": "Ireland",
        "time_position": 1787615551,
        "last_contact": 1787615551,
        "baro_altitude": 6705.6,
        "on_ground": false,
        "velocity": 137.12,
        "true_track": 326.79,
        "vertical_rate": 0,
        "geo_altitude": 6979.92,
        "squawk": "1000",
        "spi": false,
        "position_source": 0
      }
    },
    {
      "type": "Feature",
      "geometry": {
        "type": "Point",
        "coordinates": [
          11.066,
          47.7921
        ]
      },
      "properties": {
        "icao24": "4d230c",
        "callsign": "KFE839",
        "origin_country": "Malta",
        "time_position": 1787615551,
        "last_contact": 1787615552,
        "baro_altitude": 14333.22,
        "on_ground": false,
        "velocity": 229.31,
        "true_track": 301.51,
        "vertical_rate": 0,
        "geo_altitude": 14790.42,
        "squawk": "1000",
        "spi": false,
        "position_source": 0
      }
    },
    {
      "type": "Feature",
      "geometry": {
        "type": "Point",
        "coordinates": [
          16.6399,
          45.0896
        ]
      },
      "properties": {
        "icao24": "4070ec",
        "callsign": "EXS67E",
        "origin_country": "United Kingdom",
        "time_position": 1787615551,
        "last_contact": 1787615552,
        "baro_altitude": 11445.24,
        "on_ground": false,
        "velocity": 201.18,
        "true_track": 308.98,
        "vertical_rate": 1.95,
        "geo_altitude": 11948.16,
        "squawk": "5342",
        "spi": false,
        "position_source": 0
      }
    },
    {
      "type": "Feature",
      "geometry": {
        "type": "Point",
        "coordinates": [
          16.2721,
          45.2892
        ]
      },
      "properties": {
        "icao24": "4070ed",
        "callsign": "EXS2DR",
        "origin_country": "United Kingdom",
        "time_position": 1787615551,
        "last_contact": 1787615551,
        "baro_altitude": 10972.8,
        "on_ground": false,
        "velocity": 200.13,
        "true_track": 308.84,
        "vertical_rate": -0.33,
        "geo_altitude": 11468.1,
        "squawk": "2045",
        "spi": false,
        "position_source": 0
      }
    },
    {
      "type": "Feature",
      "geometry": {
        "type": "Point",
        "coordinates": [
          16.0444,
          41.7835
        ]
      },
      "properties": {
        "icao24": "4cad4f",
        "callsign": "RYR90RC",
        "origin_country": "Ireland",
        "time_position": 1787615551,
        "last_contact": 1787615552,
        "baro_altitude": 11582.4,
        "on_ground": false,
        "velocity": 209.66,
        "true_track": 309.82,
        "vertical_rate": 0,
        "geo_altitude": 12199.62,
        "squawk": null,
        "spi": false,
        "position_source": 0
      }
    },
    {
      "type": "Feature",
      "geometry": {
        "type": "Point",
        "coordinates": [
          14.1269,
          42.7316
        ]
      },
      "properties": {
        "icao24": "4c01f3",
        "callsign": "ASL11B",
        "origin_country": "Serbia",
        "time_position": 1787615551,
        "last_contact": 1787615551,
        "baro_altitude": 10370.82,
        "on_ground": false,
        "velocity": 255.09,
        "true_track": 67.47,
        "vertical_rate": -0.33,
        "geo_altitude": 10927.08,
        "squawk": "1241",
        "spi": false,
        "position_source": 0
      }
    },
    {
      "type": "Feature",
      "geometry": {
        "type": "Point",
        "coordinates": [
          17.4645,
          44.1302
        ]
      },
      "properties": {
        "icao24": "4c01f5",
        "callsign": "ASL75L",
        "origin_country": "Serbia",
        "time_position": 1787615551,
        "last_contact": 1787615551,
        "baro_altitude": 10058.4,
        "on_ground": false,
        "velocity": 249.91,
        "true_track": 67.87,
        "vertical_rate": 0,
        "geo_altitude": 10591.8,
        "squawk": "1260",
        "spi": false,
        "position_source": 0
      }
    },
    {
      "type": "Feature",
      "geometry": {
        "type": "Point",
        "coordinates": [
          12.7288,
          42.3558
        ]
      },
      "properties": {
        "icao24": "4d223f",
        "callsign": "RYR465X",
        "origin_country": "Malta",
        "time_position": 1787615551,
        "last_contact": 1787615552,
        "baro_altitude": 11582.4,
        "on_ground": false,
        "velocity": 206.64,
        "true_track": 325.24,
        "vertical_rate": 0,
        "geo_altitude": 12161.52,
        "squawk": "1000",
        "spi": false,
        "position_source": 0
      }
    },
    {
      "type": "Feature",
      "geometry": {
        "type": "Point",
        "coordinates": [
          6.2079,
          44.6029
        ]
      },
      "properties": {
        "icao24": "4d224d",
        "callsign": "RYR16AZ",
        "origin_country": "Malta",
        "time_position": 1787615551,
        "last_contact": 1787615552,
        "baro_altitude": 10972.8,
        "on_ground": false,
        "velocity": 230.57,
        "true_track": 332.35,
        "vertical_rate": 0,
        "geo_altitude": 11407.14,
        "squawk": "4041",
        "spi": false,
        "position_source": 0
      }
    },
    {
      "type": "Feature",
      "geometry": {
        "type": "Point",
        "coordinates": [
          14.5621,
          37.6233
        ]
      },
      "properties": {
        "icao24": "4cabf8",
        "callsign": "MSA92C",
        "origin_country": "Ireland",
        "time_position": 1787615551,
        "last_contact": 1787615551,
        "baro_altitude": 2484.12,
        "on_ground": false,
        "velocity": 149.02,
        "true_track": 156.18,
        "vertical_rate": -3.9,
        "geo_altitude": 2727.96,
        "squawk": "6474",
        "spi": false,
        "position_source": 0
      }
    },
    {
      "type": "Feature",
      "geometry": {
        "type": "Point",
        "coordinates": [
          18.4333,
          40.7147
        ]
      },
      "properties": {
        "icao24": "4cac36",
        "callsign": "NOS1586",
        "origin_country": "Ireland",
        "time_position": 1787615552,
        "last_contact": 1787615552,
        "baro_altitude": 10972.8,
        "on_ground": false,
        "velocity": 222.02,
        "true_track": 280.01,
        "vertical_rate": 0,
        "geo_altitude": 11590.02,
        "squawk": "5362",
        "spi": false,
        "position_source": 0
      }
    },
    {
      "type": "Feature",
      "geometry": {
        "type": "Point",
        "coordinates": [
          17.203,
          45.361
        ]
      },
      "properties": {
        "icao24": "407031",
        "callsign": "EXS406",
        "origin_country": "United Kingdom",
        "time_position": 1787615551,
        "last_contact": 1787615552,
        "baro_altitude": 10972.8,
        "on_ground": false,
        "velocity": 203.03,
        "true_track": 316.23,
        "vertical_rate": 0,
        "geo_altitude": 11490.96,
        "squawk": "5653",
        "spi": false,
        "position_source": 0
      }
    },
    {
      "type": "Feature",
      "geometry": {
        "type": "Point",
        "coordinates": [
          12.6734,
          45.4076
        ]
      },
      "properties": {
        "icao24": "408356",
        "callsign": "EXS47K",
        "origin_country": "United Kingdom",
        "time_position": 1787615552,
        "last_contact": 1787615552,
        "baro_altitude": 10972.8,
        "on_ground": false,
        "velocity": 201.95,
        "true_track": 301.14,
        "vertical_rate": -0.33,
        "geo_altitude": 11460.48,
        "squawk": "2241",
        "spi": false,
        "position_source": 0
      }
    },
    {
      "type": "Feature",
      "geometry": {
        "type": "Point",
        "coordinates": [
          16.5185,
          45.1116
        ]
      },
      "properties": {
        "icao24": "408352",
        "callsign": "EXS94VU",
        "origin_country": "United Kingdom",
        "time_position": 1787615551,
        "last_contact": 1787615551,
        "baro_altitude": 10363.2,
        "on_ground": false,
        "velocity": 212.69,
        "true_track": 309.5,
        "vertical_rate": 0,
        "geo_altitude": 10866.12,
        "squawk": "5360",
        "spi": false,
        "position_source": 0
      }
    },
    {
      "type": "Feature",
      "geometry": {
        "type": "Point",
        "coordinates": [
          17.9092,
          41.3178
        ]
      },
      "properties": {
        "icao24": "40832b",
        "callsign": "TOM843",
        "origin_country": "United Kingdom",
        "time_position": 1787615548,
        "last_contact": 1787615549,
        "baro_altitude": 10972.8,
        "on_ground": false,
        "velocity": 221.59,
        "true_track": 320.84,
        "vertical_rate": 0,
        "geo_altitude": 11582.4,
        "squawk": "2033",
        "spi": false,
        "position_source": 0
      }
    },
    {
      "type": "Feature",
      "geometry": {
        "type": "Point",
        "coordinates": [
          8.1993,
          47.6522
        ]
      },
      "properties": {
        "icao24": "408387",
        "callsign": "EZY73HP",
        "origin_country": "United Kingdom",
        "time_position": 1787615551,
        "last_contact": 1787615551,
        "baro_altitude": 9753.6,
        "on_ground": false,
        "velocity": 229.68,
        "true_track": 301.91,
        "vertical_rate": 0,
        "geo_altitude": 10142.22,
        "squawk": "2757",
        "spi": false,
        "position_source": 0
      }
    },
    {
      "type": "Feature",
      "geometry": {
        "type": "Point",
        "coordinates": [
          11.2832,
          45.8631
        ]
      },
      "properties": {
        "icao24": "408388",
        "callsign": "EZY75PF",
        "origin_country": "United Kingdom",
        "time_position": 1787615551,
        "last_contact": 1787615551,
        "baro_altitude": 10980.42,
        "on_ground": false,
        "velocity": 205.61,
        "true_track": 304.09,
        "vertical_rate": -0.33,
        "geo_altitude": 11460.48,
        "squawk": "7742",
        "spi": false,
        "position_source": 0
      }
    },
    {
      "type": "Feature",
      "geometry": {
        "type": "Point",
        "coordinates": [
          17.7309,
          42.4052
        ]
      },
      "properties": {
        "icao24": "30019c",
        "callsign": "NOS1382",
        "origin_country": "Italy",
        "time_position": 1787615549,
        "last_contact": 1787615551,
        "baro_altitude": 10058.4,
        "on_ground": false,
        "velocity": 253.94,
        "true_track": 127.43,
        "vertical_rate": 0,
        "geo_altitude": 10637.52,
        "squawk": "3743",
        "spi": false,
        "position_source": 0
      }
    },
    {
      "type": "Feature",
      "geometry": {
        "type": "Point",
        "coordinates": [
          9.0415,
          46.089
        ]
      },
      "properties": {
        "icao24": "4d2101",
        "callsign": "WMT9GW",
        "origin_country": "Malta",
        "time_position": 1787615552,
        "last_contact": 1787615552,
        "baro_altitude": 10668,
        "on_ground": false,
        "velocity": 219.95,
        "true_track": 153.02,
        "vertical_rate": 0,
        "geo_altitude": 11117.58,
        "squawk": "5250",
        "spi": false,
        "position_source": 0
      }
    },
    {
      "type": "Feature",
      "geometry": {
        "type": "Point",
        "coordinates": [
          18.862,
          43.7421
        ]
      },
      "properties": {
        "icao24": "408329",
        "callsign": "TOM1AB",
        "origin_country": "United Kingdom",
        "time_position": 1787615551,
        "last_contact": 1787615551,
        "baro_altitude": 10363.2,
        "on_ground": false,
        "velocity": 213.49,
        "true_track": 310.41,
        "vertical_rate": 0,
        "geo_altitude": 10919.46,
        "squawk": "5650",
        "spi": false,
        "position_source": 0
      }
    },
    {
      "type": "Feature",
      "geometry": {
        "type": "Point",
        "coordinates": [
          11.5716,
          45.8258
        ]
      },
      "properties": {
        "icao24": "4081a9",
        "callsign": "EXS75EV",
        "origin_country": "United Kingdom",
        "time_position": 1787615551,
        "last_contact": 1787615551,
        "baro_altitude": 10363.2,
        "on_ground": false,
        "velocity": 212.43,
        "true_track": 319.71,
        "vertical_rate": 0.33,
        "geo_altitude": 10843.26,
        "squawk": "2022",
        "spi": false,
        "position_source": 0
      }
    },
    {
      "type": "Feature",
      "geometry": {
        "type": "Point",
        "coordinates": [
          13.7861,
          44.9165
        ]
      },
      "properties": {
        "icao24": "40717a",
        "callsign": "EXS12TY",
        "origin_country": "United Kingdom",
        "time_position": 1787615552,
        "last_contact": 1787615552,
        "baro_altitude": 10972.8,
        "on_ground": false,
        "velocity": 206.42,
        "true_track": 299.57,
        "vertical_rate": -0.33,
        "geo_altitude": 11468.1,
        "squawk": "5341",
        "spi": false,
        "position_source": 0
      }
    },
    {
      "type": "Feature",
      "geometry": {
        "type": "Point",
        "coordinates": [
          17.0544,
          47.7791
        ]
      },
      "properties": {
        "icao24": "407183",
        "callsign": "EXS4FC",
        "origin_country": "United Kingdom",
        "time_position": 1787615551,
        "last_contact": 1787615552,
        "baro_altitude": 10972.8,
        "on_ground": false,
        "velocity": 219.59,
        "true_track": 326.76,
        "vertical_rate": 0,
        "geo_altitude": 11384.28,
        "squawk": "6014",
        "spi": false,
        "position_source": 0
      }
    },
    {
      "type": "Feature",
      "geometry": {
        "type": "Point",
        "coordinates": [
          13.9848,
          35.8314
        ]
      },
      "properties": {
        "icao24": "7100bf",
        "callsign": "SVA342",
        "origin_country": "Saudi Arabia",
        "time_position": 1787615551,
        "last_contact": 1787615551,
        "baro_altitude": 10668,
        "on_ground": false,
        "velocity": 275.03,
        "true_track": 96.66,
        "vertical_rate": 0,
        "geo_altitude": 11376.66,
        "squawk": "4113",
        "spi": false,
        "position_source": 0
      }
    },
    {
      "type": "Feature",
      "geometry": {
        "type": "Point",
        "coordinates": [
          11.0761,
          40.7602
        ]
      },
      "properties": {
        "icao24": "4082ab",
        "callsign": "EZY8284",
        "origin_country": "United Kingdom",
        "time_position": 1787615551,
        "last_contact": 1787615551,
        "baro_altitude": 10972.8,
        "on_ground": false,
        "velocity": 207.14,
        "true_track": 266.73,
        "vertical_rate": 0.33,
        "geo_altitude": 11597.64,
        "squawk": null,
        "spi": false,
        "position_source": 0
      }
    },
    {
      "type": "Feature",
      "geometry": {
        "type": "Point",
        "coordinates": [
          8.5611,
          47.442
        ]
      },
      "properties": {
        "icao24": "4b17fb",
        "callsign": "SWR5PC",
        "origin_country": "Switzerland",
        "time_position": 1787615531,
        "last_contact": 1787615552,
        "baro_altitude": null,
        "on_ground": true,
        "velocity": 0,
        "true_track": 244.69,
        "vertical_rate": null,
        "geo_altitude": null,
        "squawk": "7325",
        "spi": false,
        "position_source": 0
      }
    }
  ]
}