{
  "type": "FeatureCollection",
  "source": "opensky",
  "dataset": "aircraft_italy",
  "generated_at": "2026-08-20T02:06:39.238558+00:00",
  "opensky_time": 1787191594,
  "count": 91,
  "features": [
    {
      "type": "Feature",
      "geometry": {
        "type": "Point",
        "coordinates": [
          12.2584,
          41.8534
        ]
      },
      "properties": {
        "icao24": "801665",
        "callsign": "AIC101",
        "origin_country": "India",
        "time_position": 1787191457,
        "last_contact": 1787191457,
        "baro_altitude": 60.96,
        "on_ground": false,
        "velocity": 71.11,
        "true_track": 162.74,
        "vertical_rate": -3.58,
        "geo_altitude": 121.92,
        "squawk": "6011",
        "spi": false,
        "position_source": 0
      }
    },
    {
      "type": "Feature",
      "geometry": {
        "type": "Point",
        "coordinates": [
          12.5685,
          39.4249
        ]
      },
      "properties": {
        "icao24": "46b82c",
        "callsign": "AEE9PM",
        "origin_country": "Greece",
        "time_position": 1787191591,
        "last_contact": 1787191591,
        "baro_altitude": 10668,
        "on_ground": false,
        "velocity": 239.98,
        "true_track": 95.91,
        "vertical_rate": -0.33,
        "geo_altitude": 11300.46,
        "squawk": "1451",
        "spi": false,
        "position_source": 0
      }
    },
    {
      "type": "Feature",
      "geometry": {
        "type": "Point",
        "coordinates": [
          17.6787,
          39.4112
        ]
      },
      "properties": {
        "icao24": "46b821",
        "callsign": "AEE713",
        "origin_country": "Greece",
        "time_position": 1787191590,
        "last_contact": 1787191590,
        "baro_altitude": 10683.24,
        "on_ground": false,
        "velocity": 238.82,
        "true_track": 108.2,
        "vertical_rate": 0,
        "geo_altitude": 11369.04,
        "squawk": "1424",
        "spi": false,
        "position_source": 0
      }
    },
    {
      "type": "Feature",
      "geometry": {
        "type": "Point",
        "coordinates": [
          17.2009,
          45.9295
        ]
      },
      "properties": {
        "icao24": "4520fb",
        "callsign": "GPX3JX",
        "origin_country": "Bulgaria",
        "time_position": 1787191594,
        "last_contact": 1787191594,
        "baro_altitude": 10363.2,
        "on_ground": false,
        "velocity": 224.8,
        "true_track": 332.61,
        "vertical_rate": 0,
        "geo_altitude": 10911.84,
        "squawk": "0513",
        "spi": false,
        "position_source": 0
      }
    },
    {
      "type": "Feature",
      "geometry": {
        "type": "Point",
        "coordinates": [
          8.8703,
          42.3763
        ]
      },
      "properties": {
        "icao24": "3c4b27",
        "callsign": "DLH573",
        "origin_country": "Germany",
        "time_position": 1787191591,
        "last_contact": 1787191592,
        "baro_altitude": 11582.4,
        "on_ground": false,
        "velocity": 256.84,
        "true_track": 1.84,
        "vertical_rate": -0.33,
        "geo_altitude": 12176.76,
        "squawk": "1000",
        "spi": false,
        "position_source": 0
      }
    },
    {
      "type": "Feature",
      "geometry": {
        "type": "Point",
        "coordinates": [
          11.495,
          41.9963
        ]
      },
      "properties": {
        "icao24": "8015a8",
        "callsign": "AIC191",
        "origin_country": "India",
        "time_position": 1787191591,
        "last_contact": 1787191591,
        "baro_altitude": 4312.92,
        "on_ground": false,
        "velocity": 200.74,
        "true_track": 306.66,
        "vertical_rate": 10.08,
        "geo_altitude": 4587.24,
        "squawk": null,
        "spi": false,
        "position_source": 0
      }
    },
    {
      "type": "Feature",
      "geometry": {
        "type": "Point",
        "coordinates": [
          17.2649,
          45.0708
        ]
      },
      "properties": {
        "icao24": "738075",
        "callsign": "ELY025",
        "origin_country": "Israel",
        "time_position": 1787191591,
        "last_contact": 1787191592,
        "baro_altitude": 9753.6,
        "on_ground": false,
        "velocity": 244.45,
        "true_track": 314.83,
        "vertical_rate": 0,
        "geo_altitude": 10332.72,
        "squawk": "6001",
        "spi": false,
        "position_source": 0
      }
    },
    {
      "type": "Feature",
      "geometry": {
        "type": "Point",
        "coordinates": [
          15.1917,
          44.35
        ]
      },
      "properties": {
        "icao24": "4891b4",
        "callsign": "ENT4803",
        "origin_country": "Poland",
        "time_position": 1787191593,
        "last_contact": 1787191593,
        "baro_altitude": 11887.2,
        "on_ground": false,
        "velocity": 198.57,
        "true_track": 195.48,
        "vertical_rate": 0,
        "geo_altitude": 12473.94,
        "squawk": "6031",
        "spi": false,
        "position_source": 0
      }
    },
    {
      "type": "Feature",
      "geometry": {
        "type": "Point",
        "coordinates": [
          16.0466,
          43.7095
        ]
      },
      "properties": {
        "icao24": "89618a",
        "callsign": "UAE242",
        "origin_country": "United Arab Emirates",
        "time_position": 1787191593,
        "last_contact": 1787191593,
        "baro_altitude": 11887.2,
        "on_ground": false,
        "velocity": 259.84,
        "true_track": 106.21,
        "vertical_rate": 0,
        "geo_altitude": 12496.8,
        "squawk": "0457",
        "spi": false,
        "position_source": 0
      }
    },
    {
      "type": "Feature",
      "geometry": {
        "type": "Point",
        "coordinates": [
          16.4151,
          40.8635
        ]
      },
      "properties": {
        "icao24": "452179",
        "callsign": "LBT7263",
        "origin_country": "Bulgaria",
        "time_position": 1787191593,
        "last_contact": 1787191593,
        "baro_altitude": 10668,
        "on_ground": false,
        "velocity": 218.01,
        "true_track": 210.8,
        "vertical_rate": 0,
        "geo_altitude": 11323.32,
        "squawk": "0506",
        "spi": false,
        "position_source": 0
      }
    },
    {
      "type": "Feature",
      "geometry": {
        "type": "Point",
        "coordinates": [
          17.1261,
          38.9886
        ]
      },
      "properties": {
        "icao24": "452134",
        "callsign": "DAH3015",
        "origin_country": "Bulgaria",
        "time_position": 1787191590,
        "last_contact": 1787191590,
        "baro_altitude": 10972.8,
        "on_ground": false,
        "velocity": 230.83,
        "true_track": 256.34,
        "vertical_rate": 0.33,
        "geo_altitude": 11673.84,
        "squawk": "2330",
        "spi": false,
        "position_source": 0
      }
    },
    {
      "type": "Feature",
      "geometry": {
        "type": "Point",
        "coordinates": [
          8.4974,
          40.6498
        ]
      },
      "properties": {
        "icao24": "4bd8ac",
        "callsign": "THY6416",
        "origin_country": "Turkey",
        "time_position": 1787191594,
        "last_contact": 1787191594,
        "baro_altitude": 9753.6,
        "on_ground": false,
        "velocity": 246.3,
        "true_track": 86.77,
        "vertical_rate": 0,
        "geo_altitude": 10279.38,
        "squawk": "1444",
        "spi": false,
        "position_source": 0
      }
    },
    {
      "type": "Feature",
      "geometry": {
        "type": "Point",
        "coordinates": [
          7.3005,
          39.6652
        ]
      },
      "properties": {
        "icao24": "0200ae",
        "callsign": "RAM272C",
        "origin_country": "Morocco",
        "time_position": 1787191591,
        "last_contact": 1787191591,
        "baro_altitude": 10972.8,
        "on_ground": false,
        "velocity": 254.67,
        "true_track": 86.29,
        "vertical_rate": 0.33,
        "geo_altitude": 11582.4,
        "squawk": "1423",
        "spi": false,
        "position_source": 0
      }
    },
    {
      "type": "Feature",
      "geometry": {
        "type": "Point",
        "coordinates": [
          13.652,
          40.3327
        ]
      },
      "properties": {
        "icao24": "489229",
        "callsign": "ENT1211",
        "origin_country": "Poland",
        "time_position": 1787191594,
        "last_contact": 1787191594,
        "baro_altitude": 11887.2,
        "on_ground": false,
        "velocity": 207.19,
        "true_track": 195.55,
        "vertical_rate": 0,
        "geo_altitude": 12550.14,
        "squawk": "6017",
        "spi": false,
        "position_source": 0
      }
    },
    {
      "type": "Feature",
      "geometry": {
        "type": "Point",
        "coordinates": [
          12.1162,
          39.0372
        ]
      },
      "properties": {
        "icao24": "489223",
        "callsign": "ENT1357",
        "origin_country": "Poland",
        "time_position": 1787191587,
        "last_contact": 1787191587,
        "baro_altitude": 11887.2,
        "on_ground": false,
        "velocity": 214.37,
        "true_track": 204.23,
        "vertical_rate": 0,
        "geo_altitude": 12565.38,
        "squawk": "6006",
        "spi": false,
        "position_source": 0
      }
    },
    {
      "type": "Feature",
      "geometry": {
        "type": "Point",
        "coordinates": [
          10.816,
          43.6575
        ]
      },
      "properties": {
        "icao24": "3a2e24",
        "callsign": "REU985",
        "origin_country": "France",
        "time_position": 1787191594,
        "last_contact": 1787191594,
        "baro_altitude": 10972.8,
        "on_ground": false,
        "velocity": 230.58,
        "true_track": 312.02,
        "vertical_rate": 0,
        "geo_altitude": 11529.06,
        "squawk": "2053",
        "spi": false,
        "position_source": 0
      }
    },
    {
      "type": "Feature",
      "geometry": {
        "type": "Point",
        "coordinates": [
          12.8972,
          42.8574
        ]
      },
      "properties": {
        "icao24": "3a2e21",
        "callsign": "REU973",
        "origin_country": "France",
        "time_position": 1787191594,
        "last_contact": 1787191594,
        "baro_altitude": 12184.38,
        "on_ground": false,
        "velocity": 242.48,
        "true_track": 308.28,
        "vertical_rate": 0,
        "geo_altitude": 12793.98,
        "squawk": "7740",
        "spi": false,
        "position_source": 0
      }
    },
    {
      "type": "Feature",
      "geometry": {
        "type": "Point",
        "coordinates": [
          8.7429,
          41.8285
        ]
      },
      "properties": {
        "icao24": "396669",
        "callsign": "FPO775",
        "origin_country": "France",
        "time_position": 1787191594,
        "last_contact": 1787191594,
        "baro_altitude": 541.02,
        "on_ground": false,
        "velocity": 86.99,
        "true_track": 25.2,
        "vertical_rate": -3.58,
        "geo_altitude": 617.22,
        "squawk": "1000",
        "spi": false,
        "position_source": 0
      }
    },
    {
      "type": "Feature",
      "geometry": {
        "type": "Point",
        "coordinates": [
          11.548,
          47.2717
        ]
      },
      "properties": {
        "icao24": "8964bb",
        "callsign": "ETD6HZ",
        "origin_country": "United Arab Emirates",
        "time_position": 1787191593,
        "last_contact": 1787191594,
        "baro_altitude": 11277.6,
        "on_ground": false,
        "velocity": 269.51,
        "true_track": 103.69,
        "vertical_rate": 0,
        "geo_altitude": 11742.42,
        "squawk": "1151",
        "spi": false,
        "position_source": 0
      }
    },
    {
      "type": "Feature",
      "geometry": {
        "type": "Point",
        "coordinates": [
          11.7427,
          47.0891
        ]
      },
      "properties": {
        "icao24": "8965f5",
        "callsign": "ETD76T",
        "origin_country": "United Arab Emirates",
        "time_position": 1787191593,
        "last_contact": 1787191594,
        "baro_altitude": 11277.6,
        "on_ground": false,
        "velocity": 271.63,
        "true_track": 105.83,
        "vertical_rate": -0.33,
        "geo_altitude": 11734.8,
        "squawk": "2371",
        "spi": false,
        "position_source": 0
      }
    },
    {
      "type": "Feature",
      "geometry": {
        "type": "Point",
        "coordinates": [
          6.7009,
          42.9806
        ]
      },
      "properties": {
        "icao24": "44ccc8",
        "callsign": "BEL39G",
        "origin_country": "Belgium",
        "time_position": 1787191593,
        "last_contact": 1787191593,
        "baro_altitude": 11582.4,
        "on_ground": false,
        "velocity": 251.34,
        "true_track": 354.13,
        "vertical_rate": 0,
        "geo_altitude": 12138.66,
        "squawk": "1000",
        "spi": false,
        "position_source": 0
      }
    },
    {
      "type": "Feature",
      "geometry": {
        "type": "Point",
        "coordinates": [
          13.0993,
          41.4704
        ]
      },
      "properties": {
        "icao24": "040187",
        "callsign": "ETH552",
        "origin_country": "Ethiopia",
        "time_position": 1787191594,
        "last_contact": 1787191594,
        "baro_altitude": 5273.04,
        "on_ground": false,
        "velocity": 198.13,
        "true_track": 297.7,
        "vertical_rate": -10.08,
        "geo_altitude": 5654.04,
        "squawk": "2001",
        "spi": false,
        "position_source": 0
      }
    },
    {
      "type": "Feature",
      "geometry": {
        "type": "Point",
        "coordinates": [
          7.411,
          40.5507
        ]
      },
      "properties": {
        "icao24": "a7da1e",
        "callsign": "N605DA",
        "origin_country": "United States",
        "time_position": 1787191592,
        "last_contact": 1787191592,
        "baro_altitude": 11582.4,
        "on_ground": false,
        "velocity": 241.33,
        "true_track": 11.31,
        "vertical_rate": 0,
        "geo_altitude": 12184.38,
        "squawk": "1000",
        "spi": false,
        "position_source": 0
      }
    },
    {
      "type": "Feature",
      "geometry": {
        "type": "Point",
        "coordinates": [
          18.0745,
          39.0497
        ]
      },
      "properties": {
        "icao24": "040125",
        "callsign": "ETH712",
        "origin_country": "Ethiopia",
        "time_position": 1787191590,
        "last_contact": 1787191590,
        "baro_altitude": 12192,
        "on_ground": false,
        "velocity": 250.23,
        "true_track": 306.89,
        "vertical_rate": 0,
        "geo_altitude": 12893.04,
        "squawk": "7742",
        "spi": false,
        "position_source": 0
      }
    },
    {
      "type": "Feature",
      "geometry": {
        "type": "Point",
        "coordinates": [
          18.617,
          41.9369
        ]
      },
      "properties": {
        "icao24": "406f75",
        "callsign": "BAW16",
        "origin_country": "United Kingdom",
        "time_position": 1787191449,
        "last_contact": 1787191449,
        "baro_altitude": 12192,
        "on_ground": false,
        "velocity": 246.86,
        "true_track": 318.97,
        "vertical_rate": -0.33,
        "geo_altitude": 12870.18,
        "squawk": null,
        "spi": false,
        "position_source": 0
      }
    },
    {
      "type": "Feature",
      "geometry": {
        "type": "Point",
        "coordinates": [
          12.2324,
          42.0421
        ]
      },
      "properties": {
        "icao24": "040203",
        "callsign": "ETH500",
        "origin_country": "Ethiopia",
        "time_position": 1787191591,
        "last_contact": 1787191592,
        "baro_altitude": 1127.76,
        "on_ground": false,
        "velocity": 105.5,
        "true_track": 253.86,
        "vertical_rate": -3.9,
        "geo_altitude": 1242.06,
        "squawk": "5527",
        "spi": false,
        "position_source": 0
      }
    },
    {
      "type": "Feature",
      "geometry": {
        "type": "Point",
        "coordinates": [
          6.0057,
          42.4836
        ]
      },
      "properties": {
        "icao24": "49d421",
        "callsign": "TVS2003",
        "origin_country": "Czech Republic",
        "time_position": 1787191594,
        "last_contact": 1787191594,
        "baro_altitude": 11582.4,
        "on_ground": false,
        "velocity": 248.22,
        "true_track": 43.15,
        "vertical_rate": 0.33,
        "geo_altitude": 12138.66,
        "squawk": "1000",
        "spi": false,
        "position_source": 0
      }
    },
    {
      "type": "Feature",
      "geometry": {
        "type": "Point",
        "coordinates": [
          9.4601,
          44.4272
        ]
      },
      "properties": {
        "icao24": "49d1c6",
        "callsign": "EWG8LZ",
        "origin_country": "Czech Republic",
        "time_position": 1787191591,
        "last_contact": 1787191593,
        "baro_altitude": 10972.8,
        "on_ground": false,
        "velocity": 229.53,
        "true_track": 350.45,
        "vertical_rate": 0,
        "geo_altitude": 11498.58,
        "squawk": "6177",
        "spi": false,
        "position_source": 0
      }
    },
    {
      "type": "Feature",
      "geometry": {
        "type": "Point",
        "coordinates": [
          7.5171,
          47.6111
        ]
      },
      "properties": {
        "icao24": "384dff",
        "callsign": "M04",
        "origin_country": "France",
        "time_position": 1787191592,
        "last_contact": 1787191592,
        "baro_altitude": null,
        "on_ground": true,
        "velocity": 9.77,
        "true_track": 182.81,
        "vertical_rate": null,
        "geo_altitude": null,
        "squawk": null,
        "spi": false,
        "position_source": 0
      }
    },
    {
      "type": "Feature",
      "geometry": {
        "type": "Point",
        "coordinates": [
          13.908,
          44.7689
        ]
      },
      "properties": {
        "icao24": "406d7b",
        "callsign": "BAW34",
        "origin_country": "United Kingdom",
        "time_position": 1787191593,
        "last_contact": 1787191593,
        "baro_altitude": 12192,
        "on_ground": false,
        "velocity": 240.17,
        "true_track": 307.78,
        "vertical_rate": 0,
        "geo_altitude": 12771.12,
        "squawk": "5511",
        "spi": false,
        "position_source": 0
      }
    },
    {
      "type": "Feature",
      "geometry": {
        "type": "Point",
        "coordinates": [
          6.7185,
          46.4861
        ]
      },
      "properties": {
        "icao24": "4b3301",
        "callsign": "RGA04",
        "origin_country": "Switzerland",
        "time_position": 1787191593,
        "last_contact": 1787191593,
        "baro_altitude": 998.22,
        "on_ground": false,
        "velocity": 61.32,
        "true_track": 120.22,
        "vertical_rate": 1.95,
        "geo_altitude": 1059.18,
        "squawk": "5534",
        "spi": false,
        "position_source": 0
      }
    },
    {
      "type": "Feature",
      "geometry": {
        "type": "Point",
        "coordinates": [
          17.6957,
          44.4985
        ]
      },
      "properties": {
        "icao24": "744843",
        "callsign": "RJA272",
        "origin_country": "Jordan",
        "time_position": 1787191591,
        "last_contact": 1787191593,
        "baro_altitude": 11887.2,
        "on_ground": false,
        "velocity": 252.46,
        "true_track": 134.67,
        "vertical_rate": 0.33,
        "geo_altitude": 12496.8,
        "squawk": "1144",
        "spi": false,
        "position_source": 0
      }
    },
    {
      "type": "Feature",
      "geometry": {
        "type": "Point",
        "coordinates": [
          8.7218,
          45.6264
        ]
      },
      "properties": {
        "icao24": "31d7ad",
        "callsign": "MIKE9",
        "origin_country": "Italy",
        "time_position": 1787191594,
        "last_contact": 1787191594,
        "baro_altitude": null,
        "on_ground": true,
        "velocity": 2.57,
        "true_track": 348.75,
        "vertical_rate": null,
        "geo_altitude": null,
        "squawk": null,
        "spi": false,
        "position_source": 0
      }
    },
    {
      "type": "Feature",
      "geometry": {
        "type": "Point",
        "coordinates": [
          13.6513,
          46.6766
        ]
      },
      "properties": {
        "icao24": "407fea",
        "callsign": "WUK26NJ",
        "origin_country": "United Kingdom",
        "time_position": 1787191593,
        "last_contact": 1787191594,
        "baro_altitude": 10980.42,
        "on_ground": false,
        "velocity": 224.44,
        "true_track": 315.09,
        "vertical_rate": -0.33,
        "geo_altitude": 11536.68,
        "squawk": "0503",
        "spi": false,
        "position_source": 0
      }
    },
    {
      "type": "Feature",
      "geometry": {
        "type": "Point",
        "coordinates": [
          9.9662,
          44.5708
        ]
      },
      "properties": {
        "icao24": "48e97c",
        "callsign": "LOT6212",
        "origin_country": "Poland",
        "time_position": 1787191593,
        "last_contact": 1787191594,
        "baro_altitude": 11582.4,
        "on_ground": false,
        "velocity": 243.97,
        "true_track": 39.87,
        "vertical_rate": -0.33,
        "geo_altitude": 12115.8,
        "squawk": "1000",
        "spi": false,
        "position_source": 0
      }
    },
    {
      "type": "Feature",
      "geometry": {
        "type": "Point",
        "coordinates": [
          17.5954,
          44.2441
        ]
      },
      "properties": {
        "icao24": "49d006",
        "callsign": "TVS3264",
        "origin_country": "Czech Republic",
        "time_position": 1787191583,
        "last_contact": 1787191588,
        "baro_altitude": 10668,
        "on_ground": false,
        "velocity": 229.16,
        "true_track": 152.74,
        "vertical_rate": 0,
        "geo_altitude": 11285.22,
        "squawk": "4512",
        "spi": false,
        "position_source": 0
      }
    },
    {
      "type": "Feature",
      "geometry": {
        "type": "Point",
        "coordinates": [
          17.4977,
          46.7802
        ]
      },
      "properties": {
        "icao24": "4bb853",
        "callsign": "PGT5056",
        "origin_country": "Turkey",
        "time_position": 1787191592,
        "last_contact": 1787191592,
        "baro_altitude": 10668,
        "on_ground": false,
        "velocity": 243.52,
        "true_track": 130.12,
        "vertical_rate": 0,
        "geo_altitude": 11201.4,
        "squawk": "7706",
        "spi": false,
        "position_source": 0
      }
    },
    {
      "type": "Feature",
      "geometry": {
        "type": "Point",
        "coordinates": [
          16.462,
          41.3532
        ]
      },
      "properties": {
        "icao24": "504e88",
        "callsign": "SQY5024",
        "origin_country": "Republic of Moldova",
        "time_position": 1787191556,
        "last_contact": 1787191556,
        "baro_altitude": 11582.4,
        "on_ground": false,
        "velocity": 244.46,
        "true_track": 45.51,
        "vertical_rate": 0,
        "geo_altitude": 12268.2,
        "squawk": "6157",
        "spi": false,
        "position_source": 0
      }
    },
    {
      "type": "Feature",
      "geometry": {
        "type": "Point",
        "coordinates": [
          18.0536,
          38.7752
        ]
      },
      "properties": {
        "icao24": "46b8af",
        "callsign": "AEE7VH",
        "origin_country": "Greece",
        "time_position": 1787191590,
        "last_contact": 1787191590,
        "baro_altitude": 11894.82,
        "on_ground": false,
        "velocity": 230.64,
        "true_track": 101.71,
        "vertical_rate": 0,
        "geo_altitude": 12595.86,
        "squawk": "1250",
        "spi": false,
        "position_source": 0
      }
    },
    {
      "type": "Feature",
      "geometry": {
        "type": "Point",
        "coordinates": [
          12.2792,
          39.3554
        ]
      },
      "properties": {
        "icao24": "48e899",
        "callsign": "ENT4501",
        "origin_country": "Poland",
        "time_position": 1787191593,
        "last_contact": 1787191593,
        "baro_altitude": 11277.6,
        "on_ground": false,
        "velocity": 206.79,
        "true_track": 204.08,
        "vertical_rate": 0,
        "geo_altitude": 11940.54,
        "squawk": "6021",
        "spi": false,
        "position_source": 0
      }
    },
    {
      "type": "Feature",
      "geometry": {
        "type": "Point",
        "coordinates": [
          9.2069,
          40.9639
        ]
      },
      "properties": {
        "icao24": "500525",
        "callsign": "T71212",
        "origin_country": "San Marino",
        "time_position": 1787191255,
        "last_contact": 1787191339,
        "baro_altitude": 3169.92,
        "on_ground": false,
        "velocity": 152.85,
        "true_track": 65.33,
        "vertical_rate": -6.83,
        "geo_altitude": 3398.52,
        "squawk": "1445",
        "spi": false,
        "position_source": 0
      }
    },
    {
      "type": "Feature",
      "geometry": {
        "type": "Point",
        "coordinates": [
          8.5645,
          47.4423
        ]
      },
      "properties": {
        "icao24": "4b1804",
        "callsign": "SWR",
        "origin_country": "Switzerland",
        "time_position": 1787191591,
        "last_contact": 1787191591,
        "baro_altitude": null,
        "on_ground": true,
        "velocity": 0.06,
        "true_track": 146.25,
        "vertical_rate": null,
        "geo_altitude": null,
        "squawk": null,
        "spi": false,
        "position_source": 0
      }
    },
    {
      "type": "Feature",
      "geometry": {
        "type": "Point",
        "coordinates": [
          9.3375,
          44.9855
        ]
      },
      "properties": {
        "icao24": "3c666c",
        "callsign": "DLH1327",
        "origin_country": "Germany",
        "time_position": 1787191591,
        "last_contact": 1787191593,
        "baro_altitude": 10347.96,
        "on_ground": false,
        "velocity": 224.53,
        "true_track": 339.2,
        "vertical_rate": 0,
        "geo_altitude": 10828.02,
        "squawk": "6133",
        "spi": false,
        "position_source": 0
      }
    },
    {
      "type": "Feature",
      "geometry": {
        "type": "Point",
        "coordinates": [
          17.255,
          45.0391
        ]
      },
      "properties": {
        "icao24": "3c65cf",
        "callsign": "DLH2647",
        "origin_country": "Germany",
        "time_position": 1787191591,
        "last_contact": 1787191593,
        "baro_altitude": 10965.18,
        "on_ground": false,
        "velocity": 210.64,
        "true_track": 314.31,
        "vertical_rate": 0,
        "geo_altitude": 11574.78,
        "squawk": "3230",
        "spi": false,
        "position_source": 0
      }
    },
    {
      "type": "Feature",
      "geometry": {
        "type": "Point",
        "coordinates": [
          18.6246,
          44.9251
        ]
      },
      "properties": {
        "icao24": "3c65cb",
        "callsign": "DLH1743",
        "origin_country": "Germany",
        "time_position": 1787191593,
        "last_contact": 1787191594,
        "baro_altitude": 11071.86,
        "on_ground": false,
        "velocity": 212.61,
        "true_track": 290.54,
        "vertical_rate": 0,
        "geo_altitude": 11689.08,
        "squawk": "3240",
        "spi": false,
        "position_source": 0
      }
    },
    {
      "type": "Feature",
      "geometry": {
        "type": "Point",
        "coordinates": [
          8.1935,
          46.6416
        ]
      },
      "properties": {
        "icao24": "3c5434",
        "callsign": "BCS6GA",
        "origin_country": "Germany",
        "time_position": 1787191593,
        "last_contact": 1787191594,
        "baro_altitude": 9441.18,
        "on_ground": false,
        "velocity": 242.33,
        "true_track": 152.02,
        "vertical_rate": 0,
        "geo_altitude": 9852.66,
        "squawk": "1000",
        "spi": false,
        "position_source": 0
      }
    },
    {
      "type": "Feature",
      "geometry": {
        "type": "Point",
        "coordinates": [
          14.0095,
          40.5388
        ]
      },
      "properties": {
        "icao24": "02a1a6",
        "callsign": "LBT7692",
        "origin_country": "Tunisia",
        "time_position": 1787191592,
        "last_contact": 1787191592,
        "baro_altitude": 10972.8,
        "on_ground": false,
        "velocity": 254.94,
        "true_track": 19.2,
        "vertical_rate": 0,
        "geo_altitude": 11635.74,
        "squawk": "6176",
        "spi": false,
        "position_source": 0
      }
    },
    {
      "type": "Feature",
      "geometry": {
        "type": "Point",
        "coordinates": [
          14.9402,
          45.1819
        ]
      },
      "properties": {
        "icao24": "02a1a3",
        "callsign": "LBT7472",
        "origin_country": "Tunisia",
        "time_position": 1787191593,
        "last_contact": 1787191594,
        "baro_altitude": 10965.18,
        "on_ground": false,
        "velocity": 255.09,
        "true_track": 18.95,
        "vertical_rate": 0,
        "geo_altitude": 11513.82,
        "squawk": "6132",
        "spi": false,
        "position_source": 0
      }
    },
    {
      "type": "Feature",
      "geometry": {
        "type": "Point",
        "coordinates": [
          11.2369,
          39.0969
        ]
      },
      "properties": {
        "icao24": "02a1a4",
        "callsign": "LBT254",
        "origin_country": "Tunisia",
        "time_position": 1787191582,
        "last_contact": 1787191582,
        "baro_altitude": 10066.02,
        "on_ground": false,
        "velocity": 251.52,
        "true_track": 9.65,
        "vertical_rate": 4.88,
        "geo_altitude": 10675.62,
        "squawk": "6172",
        "spi": false,
        "position_source": 0
      }
    },
    {
      "type": "Feature",
      "geometry": {
        "type": "Point",
        "coordinates": [
          15.6475,
          46.7028
        ]
      },
      "properties": {
        "icao24": "02a1a2",
        "callsign": "LBT7480",
        "origin_country": "Tunisia",
        "time_position": 1787191593,
        "last_contact": 1787191593,
        "baro_altitude": 10972.8,
        "on_ground": false,
        "velocity": 253.74,
        "true_track": 20.16,
        "vertical_rate": 0,
        "geo_altitude": 11483.34,
        "squawk": "6173",
        "spi": false,
        "position_source": 0
      }
    },
    {
      "type": "Feature",
      "geometry": {
        "type": "Point",
        "coordinates": [
          8.5588,
          47.4479
        ]
      },
      "properties": {
        "icao24": "4b5da6",
        "callsign": "TE25",
        "origin_country": "Switzerland",
        "time_position": 1787191587,
        "last_contact": 1787191587,
        "baro_altitude": null,
        "on_ground": true,
        "velocity": 0.39,
        "true_track": 239.06,
        "vertical_rate": null,
        "geo_altitude": null,
        "squawk": null,
        "spi": false,
        "position_source": 0
      }
    },
    {
      "type": "Feature",
      "geometry": {
        "type": "Point",
        "coordinates": [
          7.2014,
          39.4903
        ]
      },
      "properties": {
        "icao24": "3c656c",
        "callsign": "DLH595",
        "origin_country": "Germany",
        "time_position": 1787191594,
        "last_contact": 1787191594,
        "baro_altitude": 12207.24,
        "on_ground": false,
        "velocity": 242.04,
        "true_track": 10.9,
        "vertical_rate": 0,
        "geo_altitude": 12839.7,
        "squawk": null,
        "spi": false,
        "position_source": 0
      }
    },
    {
      "type": "Feature",
      "geometry": {
        "type": "Point",
        "coordinates": [
          7.0981,
          45.1997
        ]
      },
      "properties": {
        "icao24": "3c64a6",
        "callsign": "DLH1319",
        "origin_country": "Germany",
        "time_position": 1787191593,
        "last_contact": 1787191594,
        "baro_altitude": 10363.2,
        "on_ground": false,
        "velocity": 243.98,
        "true_track": 21.91,
        "vertical_rate": 0,
        "geo_altitude": 10858.5,
        "squawk": "5560",
        "spi": false,
        "position_source": 0
      }
    },
    {
      "type": "Feature",
      "geometry": {
        "type": "Point",
        "coordinates": [
          12.4657,
          37.4947
        ]
      },
      "properties": {
        "icao24": "0a0079",
        "callsign": "DAH3021",
        "origin_country": "Algeria",
        "time_position": 1787191587,
        "last_contact": 1787191587,
        "baro_altitude": 10972.8,
        "on_ground": false,
        "velocity": 227.56,
        "true_track": 248.66,
        "vertical_rate": 0,
        "geo_altitude": 11643.36,
        "squawk": "2317",
        "spi": false,
        "position_source": 0
      }
    },
    {
      "type": "Feature",
      "geometry": {
        "type": "Point",
        "coordinates": [
          12.1597,
          37.5611
        ]
      },
      "properties": {
        "icao24": "02a1b3",
        "callsign": "LBT7630",
        "origin_country": "Tunisia",
        "time_position": 1787191587,
        "last_contact": 1787191587,
        "baro_altitude": 10972.8,
        "on_ground": false,
        "velocity": 246.28,
        "true_track": 11.57,
        "vertical_rate": 0,
        "geo_altitude": 11635.74,
        "squawk": "6145",
        "spi": false,
        "position_source": 0
      }
    },
    {
      "type": "Feature",
      "geometry": {
        "type": "Point",
        "coordinates": [
          8.5981,
          43.2989
        ]
      },
      "properties": {
        "icao24": "408183",
        "callsign": "EZY63MD",
        "origin_country": "United Kingdom",
        "time_position": 1787191592,
        "last_contact": 1787191592,
        "baro_altitude": 10972.8,
        "on_ground": false,
        "velocity": 221.77,
        "true_track": 304.8,
        "vertical_rate": 0,
        "geo_altitude": 11521.44,
        "squawk": "4002",
        "spi": false,
        "position_source": 0
      }
    },
    {
      "type": "Feature",
      "geometry": {
        "type": "Point",
        "coordinates": [
          8.5511,
          47.4621
        ]
      },
      "properties": {
        "icao24": "4b5d6f",
        "callsign": "VIKTOR33",
        "origin_country": "Switzerland",
        "time_position": 1787191593,
        "last_contact": 1787191593,
        "baro_altitude": null,
        "on_ground": true,
        "velocity": 3.6,
        "true_track": 157.5,
        "vertical_rate": null,
        "geo_altitude": null,
        "squawk": null,
        "spi": false,
        "position_source": 0
      }
    },
    {
      "type": "Feature",
      "geometry": {
        "type": "Point",
        "coordinates": [
          11.6116,
          40.2921
        ]
      },
      "properties": {
        "icao24": "48a5f0",
        "callsign": "SRN145",
        "origin_country": "Poland",
        "time_position": 1787191592,
        "last_contact": 1787191592,
        "baro_altitude": 7315.2,
        "on_ground": false,
        "velocity": 111.93,
        "true_track": 197.94,
        "vertical_rate": 0,
        "geo_altitude": 7787.64,
        "squawk": "6023",
        "spi": false,
        "position_source": 0
      }
    },
    {
      "type": "Feature",
      "geometry": {
        "type": "Point",
        "coordinates": [
          8.552,
          47.454
        ]
      },
      "properties": {
        "icao24": "4b5c19",
        "callsign": "GUSTI1",
        "origin_country": "Switzerland",
        "time_position": 1787191592,
        "last_contact": 1787191592,
        "baro_altitude": null,
        "on_ground": true,
        "velocity": 13.89,
        "true_track": 106.88,
        "vertical_rate": null,
        "geo_altitude": null,
        "squawk": null,
        "spi": false,
        "position_source": 0
      }
    },
    {
      "type": "Feature",
      "geometry": {
        "type": "Point",
        "coordinates": [
          8.8691,
          45.6267
        ]
      },
      "properties": {
        "icao24": "440bcf",
        "callsign": "BCS409",
        "origin_country": "Austria",
        "time_position": 1787191592,
        "last_contact": 1787191593,
        "baro_altitude": 3192.78,
        "on_ground": false,
        "velocity": 155.57,
        "true_track": 151.99,
        "vertical_rate": -3.9,
        "geo_altitude": 3383.28,
        "squawk": "2564",
        "spi": false,
        "position_source": 0
      }
    },
    {
      "type": "Feature",
      "geometry": {
        "type": "Point",
        "coordinates": [
          8.5497,
          47.4563
        ]
      },
      "properties": {
        "icao24": "4b5c68",
        "callsign": "URSULA4",
        "origin_country": "Switzerland",
        "time_position": 1787191592,
        "last_contact": 1787191592,
        "baro_altitude": null,
        "on_ground": true,
        "velocity": 12.86,
        "true_track": 334.69,
        "vertical_rate": null,
        "geo_altitude": null,
        "squawk": null,
        "spi": false,
        "position_source": 0
      }
    },
    {
      "type": "Feature",
      "geometry": {
        "type": "Point",
        "coordinates": [
          17.9259,
          35.6163
        ]
      },
      "properties": {
        "icao24": "02a263",
        "callsign": "TAR914",
        "origin_country": "Tunisia",
        "time_position": 1787191588,
        "last_contact": 1787191588,
        "baro_altitude": 10363.2,
        "on_ground": false,
        "velocity": 252.84,
        "true_track": 281.86,
        "vertical_rate": 0,
        "geo_altitude": 11033.76,
        "squawk": null,
        "spi": false,
        "position_source": 0
      }
    },
    {
      "type": "Feature",
      "geometry": {
        "type": "Point",
        "coordinates": [
          14.4846,
          46.2099
        ]
      },
      "properties": {
        "icao24": "501c1c",
        "callsign": "TDR9258",
        "origin_country": "Croatia",
        "time_position": 1787191284,
        "last_contact": 1787191284,
        "baro_altitude": 434.34,
        "on_ground": false,
        "velocity": 64,
        "true_track": 306.5,
        "vertical_rate": -2.93,
        "geo_altitude": 480.06,
        "squawk": "1000",
        "spi": false,
        "position_source": 0
      }
    },
    {
      "type": "Feature",
      "geometry": {
        "type": "Point",
        "coordinates": [
          18.9731,
          47.1219
        ]
      },
      "properties": {
        "icao24": "501c2f",
        "callsign": "CFG4338",
        "origin_country": "Croatia",
        "time_position": 1787191592,
        "last_contact": 1787191592,
        "baro_altitude": 10965.18,
        "on_ground": false,
        "velocity": 207.73,
        "true_track": 293.96,
        "vertical_rate": 0,
        "geo_altitude": 11521.44,
        "squawk": "3215",
        "spi": false,
        "position_source": 0
      }
    },
    {
      "type": "Feature",
      "geometry": {
        "type": "Point",
        "coordinates": [
          17.8043,
          44.275
        ]
      },
      "properties": {
        "icao24": "4bcda9",
        "callsign": "SXS3FP",
        "origin_country": "Turkey",
        "time_position": 1787191583,
        "last_contact": 1787191592,
        "baro_altitude": 11887.2,
        "on_ground": false,
        "velocity": 235.56,
        "true_track": 132.61,
        "vertical_rate": 0,
        "geo_altitude": 12519.66,
        "squawk": "7663",
        "spi": false,
        "position_source": 0
      }
    },
    {
      "type": "Feature",
      "geometry": {
        "type": "Point",
        "coordinates": [
          16.2911,
          47.3306
        ]
      },
      "properties": {
        "icao24": "4bcda5",
        "callsign": "SXS1PJ",
        "origin_country": "Turkey",
        "time_position": 1787191594,
        "last_contact": 1787191594,
        "baro_altitude": 11887.2,
        "on_ground": false,
        "velocity": 237.88,
        "true_track": 126.65,
        "vertical_rate": 0,
        "geo_altitude": 12397.74,
        "squawk": "7662",
        "spi": false,
        "position_source": 0
      }
    },
    {
      "type": "Feature",
      "geometry": {
        "type": "Point",
        "coordinates": [
          16.1091,
          45.7445
        ]
      },
      "properties": {
        "icao24": "4bcdae",
        "callsign": "SXS1BQ",
        "origin_country": "Turkey",
        "time_position": 1787191594,
        "last_contact": 1787191594,
        "baro_altitude": 11887.2,
        "on_ground": false,
        "velocity": 228.89,
        "true_track": 133.45,
        "vertical_rate": 0,
        "geo_altitude": 12458.7,
        "squawk": "2207",
        "spi": false,
        "position_source": 0
      }
    },
    {
      "type": "Feature",
      "geometry": {
        "type": "Point",
        "coordinates": [
          15.6903,
          47.6257
        ]
      },
      "properties": {
        "icao24": "4bcda1",
        "callsign": "SXS6CH",
        "origin_country": "Turkey",
        "time_position": 1787191593,
        "last_contact": 1787191593,
        "baro_altitude": 11277.6,
        "on_ground": false,
        "velocity": 241.37,
        "true_track": 125.28,
        "vertical_rate": 0,
        "geo_altitude": 11757.66,
        "squawk": "7662",
        "spi": false,
        "position_source": 0
      }
    },
    {
      "type": "Feature",
      "geometry": {
        "type": "Point",
        "coordinates": [
          8.7212,
          45.606
        ]
      },
      "properties": {
        "icao24": "8940ba",
        "callsign": "DHX755",
        "origin_country": "Bahrain",
        "time_position": 1787191289,
        "last_contact": 1787191290,
        "baro_altitude": null,
        "on_ground": true,
        "velocity": 0,
        "true_track": 258.75,
        "vertical_rate": null,
        "geo_altitude": null,
        "squawk": "1000",
        "spi": false,
        "position_source": 0
      }
    },
    {
      "type": "Feature",
      "geometry": {
        "type": "Point",
        "coordinates": [
          15.3655,
          43.6262
        ]
      },
      "properties": {
        "icao24": "424cbf",
        "callsign": "MACOR",
        "origin_country": "United Kingdom",
        "time_position": 1787191592,
        "last_contact": 1787191592,
        "baro_altitude": 13106.4,
        "on_ground": false,
        "velocity": 244.33,
        "true_track": 116.24,
        "vertical_rate": -0.33,
        "geo_altitude": 13708.38,
        "squawk": "0431",
        "spi": false,
        "position_source": 0
      }
    },
    {
      "type": "Feature",
      "geometry": {
        "type": "Point",
        "coordinates": [
          14.6881,
          44.334
        ]
      },
      "properties": {
        "icao24": "8966f2",
        "callsign": "UAE9393",
        "origin_country": "United Arab Emirates",
        "time_position": 1787191593,
        "last_contact": 1787191593,
        "baro_altitude": 10363.2,
        "on_ground": false,
        "velocity": 251.32,
        "true_track": 308.18,
        "vertical_rate": 0,
        "geo_altitude": 10904.22,
        "squawk": "7736",
        "spi": false,
        "position_source": 0
      }
    },
    {
      "type": "Feature",
      "geometry": {
        "type": "Point",
        "coordinates": [
          7.5409,
          47.5924
        ]
      },
      "properties": {
        "icao24": "389dff",
        "callsign": "COBRA02",
        "origin_country": "France",
        "time_position": 1787191592,
        "last_contact": 1787191592,
        "baro_altitude": null,
        "on_ground": true,
        "velocity": 11.32,
        "true_track": 115.31,
        "vertical_rate": null,
        "geo_altitude": null,
        "squawk": null,
        "spi": false,
        "position_source": 0
      }
    },
    {
      "type": "Feature",
      "geometry": {
        "type": "Point",
        "coordinates": [
          9.641,
          47.5731
        ]
      },
      "properties": {
        "icao24": "8966d4",
        "callsign": "ETD2",
        "origin_country": "United Arab Emirates",
        "time_position": 1787191594,
        "last_contact": 1787191594,
        "baro_altitude": 11277.6,
        "on_ground": false,
        "velocity": 271.23,
        "true_track": 107.44,
        "vertical_rate": 0.65,
        "geo_altitude": 11719.56,
        "squawk": "2246",
        "spi": false,
        "position_source": 0
      }
    },
    {
      "type": "Feature",
      "geometry": {
        "type": "Point",
        "coordinates": [
          17.3495,
          35.4757
        ]
      },
      "properties": {
        "icao24": "01023a",
        "callsign": "MSC3122",
        "origin_country": "Egypt",
        "time_position": 1787191588,
        "last_contact": 1787191590,
        "baro_altitude": 11269.98,
        "on_ground": false,
        "velocity": 226.42,
        "true_track": 98.76,
        "vertical_rate": 0,
        "geo_altitude": 11978.64,
        "squawk": "1143",
        "spi": false,
        "position_source": 0
      }
    },
    {
      "type": "Feature",
      "geometry": {
        "type": "Point",
        "coordinates": [
          11.2697,
          36.0681
        ]
      },
      "properties": {
        "icao24": "717c97",
        "callsign": "KNE672",
        "origin_country": "Saudi Arabia",
        "time_position": 1787191587,
        "last_contact": 1787191587,
        "baro_altitude": 11277.6,
        "on_ground": false,
        "velocity": 249.55,
        "true_track": 98.3,
        "vertical_rate": -0.33,
        "geo_altitude": 11971.02,
        "squawk": "7746",
        "spi": false,
        "position_source": 0
      }
    },
    {
      "type": "Feature",
      "geometry": {
        "type": "Point",
        "coordinates": [
          18.1197,
          36.2588
        ]
      },
      "properties": {
        "icao24": "010204",
        "callsign": "MSR3951",
        "origin_country": "Egypt",
        "time_position": 1787191587,
        "last_contact": 1787191590,
        "baro_altitude": 11292.84,
        "on_ground": false,
        "velocity": 229.59,
        "true_track": 110.87,
        "vertical_rate": 0,
        "geo_altitude": 11971.02,
        "squawk": "4311",
        "spi": false,
        "position_source": 0
      }
    },
    {
      "type": "Feature",
      "geometry": {
        "type": "Point",
        "coordinates": [
          12.5682,
          36.0212
        ]
      },
      "properties": {
        "icao24": "0101bb",
        "callsign": "MSR862",
        "origin_country": "Egypt",
        "time_position": 1787191588,
        "last_contact": 1787191588,
        "baro_altitude": 10668,
        "on_ground": false,
        "velocity": 234.67,
        "true_track": 91.51,
        "vertical_rate": 0,
        "geo_altitude": 11346.18,
        "squawk": "4117",
        "spi": false,
        "position_source": 0
      }
    },
    {
      "type": "Feature",
      "geometry": {
        "type": "Point",
        "coordinates": [
          12.0184,
          36.884
        ]
      },
      "properties": {
        "icao24": "4d23bb",
        "callsign": "LBT7666",
        "origin_country": "Malta",
        "time_position": 1787191587,
        "last_contact": 1787191587,
        "baro_altitude": 10363.2,
        "on_ground": false,
        "velocity": 242.6,
        "true_track": 17.4,
        "vertical_rate": 0,
        "geo_altitude": 10988.04,
        "squawk": "6150",
        "spi": false,
        "position_source": 0
      }
    },
    {
      "type": "Feature",
      "geometry": {
        "type": "Point",
        "coordinates": [
          15.3808,
          44.9529
        ]
      },
      "properties": {
        "icao24": "4d23e1",
        "callsign": "CHZ212",
        "origin_country": "Malta",
        "time_position": 1787191593,
        "last_contact": 1787191593,
        "baro_altitude": 11277.6,
        "on_ground": false,
        "velocity": 230.88,
        "true_track": 145.53,
        "vertical_rate": 0,
        "geo_altitude": 11788.14,
        "squawk": "2272",
        "spi": false,
        "position_source": 0
      }
    },
    {
      "type": "Feature",
      "geometry": {
        "type": "Point",
        "coordinates": [
          13.3592,
          45.212
        ]
      },
      "properties": {
        "icao24": "39b22e",
        "callsign": "CMA731",
        "origin_country": "France",
        "time_position": 1787191593,
        "last_contact": 1787191594,
        "baro_altitude": 11582.4,
        "on_ground": false,
        "velocity": 227.86,
        "true_track": 284.91,
        "vertical_rate": 0,
        "geo_altitude": 12146.28,
        "squawk": "3246",
        "spi": false,
        "position_source": 0
      }
    },
    {
      "type": "Feature",
      "geometry": {
        "type": "Point",
        "coordinates": [
          18.4986,
          46.9313
        ]
      },
      "properties": {
        "icao24": "3c7a42",
        "callsign": "CFG2367",
        "origin_country": "Germany",
        "time_position": 1787191591,
        "last_contact": 1787191593,
        "baro_altitude": 12192,
        "on_ground": false,
        "velocity": 213.53,
        "true_track": 295.7,
        "vertical_rate": 3.25,
        "geo_altitude": 12763.5,
        "squawk": "3205",
        "spi": false,
        "position_source": 0
      }
    },
    {
      "type": "Feature",
      "geometry": {
        "type": "Point",
        "coordinates": [
          7.7151,
          41.5808
        ]
      },
      "properties": {
        "icao24": "3c7a43",
        "callsign": "CFG289",
        "origin_country": "Germany",
        "time_position": 1787191594,
        "last_contact": 1787191594,
        "baro_altitude": 12192,
        "on_ground": false,
        "velocity": 247.69,
        "true_track": 11.38,
        "vertical_rate": 0,
        "geo_altitude": 12801.6,
        "squawk": "1000",
        "spi": false,
        "position_source": 0
      }
    },
    {
      "type": "Feature",
      "geometry": {
        "type": "Point",
        "coordinates": [
          18.2673,
          36.389
        ]
      },
      "properties": {
        "icao24": "4cacf1",
        "callsign": "GTR1604",
        "origin_country": "Ireland",
        "time_position": 1787191590,
        "last_contact": 1787191590,
        "baro_altitude": 11887.2,
        "on_ground": false,
        "velocity": 229.33,
        "true_track": 113.11,
        "vertical_rate": 0,
        "geo_altitude": 12573,
        "squawk": "1263",
        "spi": false,
        "position_source": 0
      }
    },
    {
      "type": "Feature",
      "geometry": {
        "type": "Point",
        "coordinates": [
          16.0843,
          46.4416
        ]
      },
      "properties": {
        "icao24": "4d239a",
        "callsign": "CXI3SY",
        "origin_country": "Malta",
        "time_position": 1787191593,
        "last_contact": 1787191594,
        "baro_altitude": 11269.98,
        "on_ground": false,
        "velocity": 234.73,
        "true_track": 144.18,
        "vertical_rate": 0,
        "geo_altitude": 11795.76,
        "squawk": "2657",
        "spi": false,
        "position_source": 0
      }
    },
    {
      "type": "Feature",
      "geometry": {
        "type": "Point",
        "coordinates": [
          17.7368,
          45.6935
        ]
      },
      "properties": {
        "icao24": "4d239c",
        "callsign": "CXI6FL",
        "origin_country": "Malta",
        "time_position": 1787191594,
        "last_contact": 1787191594,
        "baro_altitude": 11277.6,
        "on_ground": false,
        "velocity": 240.45,
        "true_track": 135.26,
        "vertical_rate": 0,
        "geo_altitude": 11864.34,
        "squawk": "2656",
        "spi": false,
        "position_source": 0
      }
    },
    {
      "type": "Feature",
      "geometry": {
        "type": "Point",
        "coordinates": [
          14.5285,
          46.3382
        ]
      },
      "properties": {
        "icao24": "4b19fd",
        "callsign": "CFG4104",
        "origin_country": "Switzerland",
        "time_position": 1787191594,
        "last_contact": 1787191594,
        "baro_altitude": 10363.2,
        "on_ground": false,
        "velocity": 232.68,
        "true_track": 331.91,
        "vertical_rate": 0,
        "geo_altitude": 10866.12,
        "squawk": "6622",
        "spi": false,
        "position_source": 0
      }
    },
    {
      "type": "Feature",
      "geometry": {
        "type": "Point",
        "coordinates": [
          17.795,
          44.3743
        ]
      },
      "properties": {
        "icao24": "4691c4",
        "callsign": "AEE525",
        "origin_country": "Greece",
        "time_position": 1787191586,
        "last_contact": 1787191592,
        "baro_altitude": 11277.6,
        "on_ground": false,
        "velocity": 236.86,
        "true_track": 133.86,
        "vertical_rate": 0,
        "geo_altitude": 11887.2,
        "squawk": "7665",
        "spi": false,
        "position_source": 0
      }
    },
    {
      "type": "Feature",
      "geometry": {
        "type": "Point",
        "coordinates": [
          6.3233,
          37.8021
        ]
      },
      "properties": {
        "icao24": "39d2a8",
        "callsign": "AFR995",
        "origin_country": "France",
        "time_position": 1787191583,
        "last_contact": 1787191585,
        "baro_altitude": 12192,
        "on_ground": false,
        "velocity": 249.34,
        "true_track": 351.22,
        "vertical_rate": 0,
        "geo_altitude": 12854.94,
        "squawk": null,
        "spi": false,
        "position_source": 0
      }
    },
    {
      "type": "Feature",
      "geometry": {
        "type": "Point",
        "coordinates": [
          14.4791,
          42.2117
        ]
      },
      "properties": {
        "icao24": "7100b4",
        "callsign": "SVA131",
        "origin_country": "Saudi Arabia",
        "time_position": 1787191593,
        "last_contact": 1787191594,
        "baro_altitude": 11574.78,
        "on_ground": false,
        "velocity": 250.04,
        "true_track": 309.32,
        "vertical_rate": -0.33,
        "geo_altitude": 12222.48,
        "squawk": "5526",
        "spi": false,
        "position_source": 0
      }
    },
    {
      "type": "Feature",
      "geometry": {
        "type": "Point",
        "coordinates": [
          8.5652,
          47.4425
        ]
      },
      "properties": {
        "icao24": "4b17fc",
        "callsign": "SWR919F",
        "origin_country": "Switzerland",
        "time_position": 1787191521,
        "last_contact": 1787191521,
        "baro_altitude": null,
        "on_ground": true,
        "velocity": 0,
        "true_track": 143.44,
        "vertical_rate": null,
        "geo_altitude": null,
        "squawk": null,
        "spi": false,
        "position_source": 0
      }
    },
    {
      "type": "Feature",
      "geometry": {
        "type": "Point",
        "coordinates": [
          12.0684,
          44.141
        ]
      },
      "properties": {
        "icao24": "3481c9",
        "callsign": "BCS8UM",
        "origin_country": "Spain",
        "time_position": 1787191593,
        "last_contact": 1787191594,
        "baro_altitude": 10668,
        "on_ground": false,
        "velocity": 229.73,
        "true_track": 123.12,
        "vertical_rate": 0.33,
        "geo_altitude": 11224.26,
        "squawk": "0425",
        "spi": false,
        "position_source": 0
      }
    }
  ]
}