{
  "type": "FeatureCollection",
  "source": "opensky",
  "dataset": "aircraft_italy",
  "generated_at": "2026-08-20T03:08:30.781066+00:00",
  "opensky_time": 1787195293,
  "count": 121,
  "features": [
    {
      "type": "Feature",
      "geometry": {
        "type": "Point",
        "coordinates": [
          13.8342,
          42.8016
        ]
      },
      "properties": {
        "icao24": "39cc8a",
        "callsign": "CRL773",
        "origin_country": "France",
        "time_position": 1787195292,
        "last_contact": 1787195292,
        "baro_altitude": 11582.4,
        "on_ground": false,
        "velocity": 242.01,
        "true_track": 310.26,
        "vertical_rate": 0,
        "geo_altitude": 12192,
        "squawk": "2054",
        "spi": false,
        "position_source": 0
      }
    },
    {
      "type": "Feature",
      "geometry": {
        "type": "Point",
        "coordinates": [
          18.0609,
          47.2266
        ]
      },
      "properties": {
        "icao24": "3c4ad7",
        "callsign": "DLH781",
        "origin_country": "Germany",
        "time_position": 1787195291,
        "last_contact": 1787195292,
        "baro_altitude": 11582.4,
        "on_ground": false,
        "velocity": 224.98,
        "true_track": 291.46,
        "vertical_rate": 0,
        "geo_altitude": 12085.32,
        "squawk": "3252",
        "spi": false,
        "position_source": 0
      }
    },
    {
      "type": "Feature",
      "geometry": {
        "type": "Point",
        "coordinates": [
          15.9752,
          47.1569
        ]
      },
      "properties": {
        "icao24": "4401e2",
        "callsign": "FDX4648",
        "origin_country": "Austria",
        "time_position": 1787195292,
        "last_contact": 1787195293,
        "baro_altitude": 12496.8,
        "on_ground": false,
        "velocity": 237.63,
        "true_track": 120.01,
        "vertical_rate": 0,
        "geo_altitude": 13014.96,
        "squawk": "7104",
        "spi": false,
        "position_source": 0
      }
    },
    {
      "type": "Feature",
      "geometry": {
        "type": "Point",
        "coordinates": [
          15.9075,
          44.4539
        ]
      },
      "properties": {
        "icao24": "4bc84c",
        "callsign": "PGT1753",
        "origin_country": "Turkey",
        "time_position": 1787195292,
        "last_contact": 1787195292,
        "baro_altitude": 10355.58,
        "on_ground": false,
        "velocity": 220.47,
        "true_track": 295.13,
        "vertical_rate": -0.33,
        "geo_altitude": 10927.08,
        "squawk": "3221",
        "spi": false,
        "position_source": 0
      }
    },
    {
      "type": "Feature",
      "geometry": {
        "type": "Point",
        "coordinates": [
          13.5689,
          47.6298
        ]
      },
      "properties": {
        "icao24": "3c4a03",
        "callsign": "DLH591",
        "origin_country": "Germany",
        "time_position": 1787195292,
        "last_contact": 1787195292,
        "baro_altitude": 11582.4,
        "on_ground": false,
        "velocity": 239.53,
        "true_track": 301.03,
        "vertical_rate": -0.33,
        "geo_altitude": 12062.46,
        "squawk": "0522",
        "spi": false,
        "position_source": 0
      }
    },
    {
      "type": "Feature",
      "geometry": {
        "type": "Point",
        "coordinates": [
          17.3061,
          47.5589
        ]
      },
      "properties": {
        "icao24": "3c4a09",
        "callsign": "DLH797",
        "origin_country": "Germany",
        "time_position": 1787195292,
        "last_contact": 1787195292,
        "baro_altitude": 11582.4,
        "on_ground": false,
        "velocity": 226.62,
        "true_track": 296.57,
        "vertical_rate": 0,
        "geo_altitude": 12108.18,
        "squawk": "3253",
        "spi": false,
        "position_source": 0
      }
    },
    {
      "type": "Feature",
      "geometry": {
        "type": "Point",
        "coordinates": [
          11.5621,
          38.069
        ]
      },
      "properties": {
        "icao24": "4891b4",
        "callsign": "ENT4803",
        "origin_country": "Poland",
        "time_position": 1787195292,
        "last_contact": 1787195292,
        "baro_altitude": 11887.2,
        "on_ground": false,
        "velocity": 221.99,
        "true_track": 204.07,
        "vertical_rate": 0,
        "geo_altitude": 12550.14,
        "squawk": "6031",
        "spi": false,
        "position_source": 0
      }
    },
    {
      "type": "Feature",
      "geometry": {
        "type": "Point",
        "coordinates": [
          14.4124,
          42.2081
        ]
      },
      "properties": {
        "icao24": "4891ad",
        "callsign": "ENT7397",
        "origin_country": "Poland",
        "time_position": 1787195292,
        "last_contact": 1787195292,
        "baro_altitude": 11277.6,
        "on_ground": false,
        "velocity": 207.69,
        "true_track": 196.55,
        "vertical_rate": 0,
        "geo_altitude": 11910.06,
        "squawk": "6033",
        "spi": false,
        "position_source": 0
      }
    },
    {
      "type": "Feature",
      "geometry": {
        "type": "Point",
        "coordinates": [
          6.875,
          46.3327
        ]
      },
      "properties": {
        "icao24": "300a5c",
        "callsign": "LSI364",
        "origin_country": "Italy",
        "time_position": 1787195292,
        "last_contact": 1787195293,
        "baro_altitude": 9753.6,
        "on_ground": false,
        "velocity": 234.25,
        "true_track": 330.68,
        "vertical_rate": 0,
        "geo_altitude": 10187.94,
        "squawk": "1000",
        "spi": false,
        "position_source": 0
      }
    },
    {
      "type": "Feature",
      "geometry": {
        "type": "Point",
        "coordinates": [
          18.7735,
          40.609
        ]
      },
      "properties": {
        "icao24": "4bd8ac",
        "callsign": "THY6416",
        "origin_country": "Turkey",
        "time_position": 1787195116,
        "last_contact": 1787195134,
        "baro_altitude": 10058.4,
        "on_ground": false,
        "velocity": 242.31,
        "true_track": 93.77,
        "vertical_rate": 0,
        "geo_altitude": 10660.38,
        "squawk": "1444",
        "spi": false,
        "position_source": 0
      }
    },
    {
      "type": "Feature",
      "geometry": {
        "type": "Point",
        "coordinates": [
          12.0571,
          45.0851
        ]
      },
      "properties": {
        "icao24": "39dd03",
        "callsign": "TVF51EN",
        "origin_country": "France",
        "time_position": 1787195293,
        "last_contact": 1787195293,
        "baro_altitude": 11597.64,
        "on_ground": false,
        "velocity": 212.19,
        "true_track": 287.2,
        "vertical_rate": 0,
        "geo_altitude": 12131.04,
        "squawk": "5332",
        "spi": false,
        "position_source": 0
      }
    },
    {
      "type": "Feature",
      "geometry": {
        "type": "Point",
        "coordinates": [
          18.8881,
          45.955
        ]
      },
      "properties": {
        "icao24": "896326",
        "callsign": "ETD72W",
        "origin_country": "United Arab Emirates",
        "time_position": 1787195292,
        "last_contact": 1787195292,
        "baro_altitude": 10363.2,
        "on_ground": false,
        "velocity": 237.27,
        "true_track": 306.45,
        "vertical_rate": 0,
        "geo_altitude": 10919.46,
        "squawk": "5325",
        "spi": false,
        "position_source": 0
      }
    },
    {
      "type": "Feature",
      "geometry": {
        "type": "Point",
        "coordinates": [
          16.5593,
          36.6205
        ]
      },
      "properties": {
        "icao24": "0200ae",
        "callsign": "RAM272C",
        "origin_country": "Morocco",
        "time_position": 1787195292,
        "last_contact": 1787195292,
        "baro_altitude": 10668,
        "on_ground": false,
        "velocity": 232.83,
        "true_track": 116.51,
        "vertical_rate": 0,
        "geo_altitude": 11330.94,
        "squawk": "4317",
        "spi": false,
        "position_source": 0
      }
    },
    {
      "type": "Feature",
      "geometry": {
        "type": "Point",
        "coordinates": [
          17.8173,
          35.8598
        ]
      },
      "properties": {
        "icao24": "0200cb",
        "callsign": "RAM217",
        "origin_country": "Morocco",
        "time_position": 1787195293,
        "last_contact": 1787195293,
        "baro_altitude": 12192,
        "on_ground": false,
        "velocity": 259.04,
        "true_track": 284.73,
        "vertical_rate": 0,
        "geo_altitude": 12900.66,
        "squawk": "2177",
        "spi": false,
        "position_source": 0
      }
    },
    {
      "type": "Feature",
      "geometry": {
        "type": "Point",
        "coordinates": [
          14.0338,
          35.825
        ]
      },
      "properties": {
        "icao24": "89644b",
        "callsign": "UAE213",
        "origin_country": "United Arab Emirates",
        "time_position": 1787195292,
        "last_contact": 1787195293,
        "baro_altitude": 9753.6,
        "on_ground": false,
        "velocity": 254.86,
        "true_track": 276.72,
        "vertical_rate": 0,
        "geo_altitude": 10401.3,
        "squawk": "2026",
        "spi": false,
        "position_source": 0
      }
    },
    {
      "type": "Feature",
      "geometry": {
        "type": "Point",
        "coordinates": [
          17.4607,
          35.6933
        ]
      },
      "properties": {
        "icao24": "896465",
        "callsign": "ETD7LG",
        "origin_country": "United Arab Emirates",
        "time_position": 1787195292,
        "last_contact": 1787195292,
        "baro_altitude": 10965.18,
        "on_ground": false,
        "velocity": 262.12,
        "true_track": 281.66,
        "vertical_rate": 0,
        "geo_altitude": 11650.98,
        "squawk": null,
        "spi": false,
        "position_source": 0
      }
    },
    {
      "type": "Feature",
      "geometry": {
        "type": "Point",
        "coordinates": [
          7.024,
          38.8869
        ]
      },
      "properties": {
        "icao24": "44ccc7",
        "callsign": "BEL4BE",
        "origin_country": "Belgium",
        "time_position": 1787195293,
        "last_contact": 1787195293,
        "baro_altitude": 11582.4,
        "on_ground": false,
        "velocity": 245.73,
        "true_track": 3,
        "vertical_rate": 0.33,
        "geo_altitude": 12230.1,
        "squawk": null,
        "spi": false,
        "position_source": 0
      }
    },
    {
      "type": "Feature",
      "geometry": {
        "type": "Point",
        "coordinates": [
          6.9099,
          41.6826
        ]
      },
      "properties": {
        "icao24": "44ccc3",
        "callsign": "BEL38K",
        "origin_country": "Belgium",
        "time_position": 1787195292,
        "last_contact": 1787195292,
        "baro_altitude": 11574.78,
        "on_ground": false,
        "velocity": 237.29,
        "true_track": 355.77,
        "vertical_rate": 0,
        "geo_altitude": 12161.52,
        "squawk": "1000",
        "spi": false,
        "position_source": 0
      }
    },
    {
      "type": "Feature",
      "geometry": {
        "type": "Point",
        "coordinates": [
          6.1842,
          43.7946
        ]
      },
      "properties": {
        "icao24": "44ccd8",
        "callsign": "BEL28A",
        "origin_country": "Belgium",
        "time_position": 1787195293,
        "last_contact": 1787195293,
        "baro_altitude": 11582.4,
        "on_ground": false,
        "velocity": 238.8,
        "true_track": 358.4,
        "vertical_rate": 0,
        "geo_altitude": 12047.22,
        "squawk": "1000",
        "spi": false,
        "position_source": 0
      }
    },
    {
      "type": "Feature",
      "geometry": {
        "type": "Point",
        "coordinates": [
          7.467,
          47.6789
        ]
      },
      "properties": {
        "icao24": "471a81",
        "callsign": "FRF6262",
        "origin_country": "Hungary",
        "time_position": 1787195293,
        "last_contact": 1787195293,
        "baro_altitude": 685.8,
        "on_ground": false,
        "velocity": 68.79,
        "true_track": 153.82,
        "vertical_rate": -3.58,
        "geo_altitude": 731.52,
        "squawk": "4113",
        "spi": false,
        "position_source": 0
      }
    },
    {
      "type": "Feature",
      "geometry": {
        "type": "Point",
        "coordinates": [
          14.1896,
          44.6131
        ]
      },
      "properties": {
        "icao24": "407995",
        "callsign": "BAW12",
        "origin_country": "United Kingdom",
        "time_position": 1787195292,
        "last_contact": 1787195292,
        "baro_altitude": 10972.8,
        "on_ground": false,
        "velocity": 241.62,
        "true_track": 307.82,
        "vertical_rate": 0,
        "geo_altitude": 11536.68,
        "squawk": "5504",
        "spi": false,
        "position_source": 0
      }
    },
    {
      "type": "Feature",
      "geometry": {
        "type": "Point",
        "coordinates": [
          13.3678,
          35.8887
        ]
      },
      "properties": {
        "icao24": "894097",
        "callsign": "GFA143",
        "origin_country": "Bahrain",
        "time_position": 1787195292,
        "last_contact": 1787195292,
        "baro_altitude": 11574.78,
        "on_ground": false,
        "velocity": 245.37,
        "true_track": 276.38,
        "vertical_rate": -0.33,
        "geo_altitude": 12291.06,
        "squawk": "2017",
        "spi": false,
        "position_source": 0
      }
    },
    {
      "type": "Feature",
      "geometry": {
        "type": "Point",
        "coordinates": [
          17.7944,
          44.2649
        ]
      },
      "properties": {
        "icao24": "040188",
        "callsign": "ETH730",
        "origin_country": "Ethiopia",
        "time_position": 1787195292,
        "last_contact": 1787195293,
        "baro_altitude": 11574.78,
        "on_ground": false,
        "velocity": 250.77,
        "true_track": 333.7,
        "vertical_rate": -0.33,
        "geo_altitude": 12199.62,
        "squawk": "6637",
        "spi": false,
        "position_source": 0
      }
    },
    {
      "type": "Feature",
      "geometry": {
        "type": "Point",
        "coordinates": [
          12.7696,
          42.1042
        ]
      },
      "properties": {
        "icao24": "040171",
        "callsign": "ETH736",
        "origin_country": "Ethiopia",
        "time_position": 1787195292,
        "last_contact": 1787195292,
        "baro_altitude": 12192,
        "on_ground": false,
        "velocity": 250,
        "true_track": 316.58,
        "vertical_rate": 0,
        "geo_altitude": 12801.6,
        "squawk": "5517",
        "spi": false,
        "position_source": 0
      }
    },
    {
      "type": "Feature",
      "geometry": {
        "type": "Point",
        "coordinates": [
          14.5382,
          41.4205
        ]
      },
      "properties": {
        "icao24": "040170",
        "callsign": "ETH738",
        "origin_country": "Ethiopia",
        "time_position": 1787195292,
        "last_contact": 1787195292,
        "baro_altitude": 12192,
        "on_ground": false,
        "velocity": 250.92,
        "true_track": 312.26,
        "vertical_rate": 0,
        "geo_altitude": 12748.26,
        "squawk": "2014",
        "spi": false,
        "position_source": 0
      }
    },
    {
      "type": "Feature",
      "geometry": {
        "type": "Point",
        "coordinates": [
          18.2922,
          46.1756
        ]
      },
      "properties": {
        "icao24": "4bcd81",
        "callsign": "SXS6AT",
        "origin_country": "Turkey",
        "time_position": 1787195292,
        "last_contact": 1787195292,
        "baro_altitude": 11582.4,
        "on_ground": false,
        "velocity": 207.86,
        "true_track": 300.82,
        "vertical_rate": 0,
        "geo_altitude": 12161.52,
        "squawk": "3251",
        "spi": false,
        "position_source": 0
      }
    },
    {
      "type": "Feature",
      "geometry": {
        "type": "Point",
        "coordinates": [
          14.1171,
          47.4861
        ]
      },
      "properties": {
        "icao24": "04014d",
        "callsign": "ETH706",
        "origin_country": "Ethiopia",
        "time_position": 1787195292,
        "last_contact": 1787195293,
        "baro_altitude": 12192,
        "on_ground": false,
        "velocity": 241.91,
        "true_track": 315.43,
        "vertical_rate": -0.33,
        "geo_altitude": 12664.44,
        "squawk": "6003",
        "spi": false,
        "position_source": 0
      }
    },
    {
      "type": "Feature",
      "geometry": {
        "type": "Point",
        "coordinates": [
          15.3295,
          43.2988
        ]
      },
      "properties": {
        "icao24": "040127",
        "callsign": "ETH718",
        "origin_country": "Ethiopia",
        "time_position": 1787195292,
        "last_contact": 1787195292,
        "baro_altitude": 12184.38,
        "on_ground": false,
        "velocity": 245.64,
        "true_track": 313.39,
        "vertical_rate": 0,
        "geo_altitude": 12786.36,
        "squawk": "2052",
        "spi": false,
        "position_source": 0
      }
    },
    {
      "type": "Feature",
      "geometry": {
        "type": "Point",
        "coordinates": [
          18.9544,
          45.9037
        ]
      },
      "properties": {
        "icao24": "49d3d4",
        "callsign": "TVS1NQ",
        "origin_country": "Czech Republic",
        "time_position": 1787195293,
        "last_contact": 1787195293,
        "baro_altitude": 11277.6,
        "on_ground": false,
        "velocity": 237.05,
        "true_track": 147.59,
        "vertical_rate": 0,
        "geo_altitude": 11856.72,
        "squawk": "4440",
        "spi": false,
        "position_source": 0
      }
    },
    {
      "type": "Feature",
      "geometry": {
        "type": "Point",
        "coordinates": [
          9.5196,
          40.4604
        ]
      },
      "properties": {
        "icao24": "04012b",
        "callsign": "ETH726",
        "origin_country": "Ethiopia",
        "time_position": 1787195292,
        "last_contact": 1787195293,
        "baro_altitude": 12192,
        "on_ground": false,
        "velocity": 236.6,
        "true_track": 289.7,
        "vertical_rate": 0,
        "geo_altitude": 12793.98,
        "squawk": "2062",
        "spi": false,
        "position_source": 0
      }
    },
    {
      "type": "Feature",
      "geometry": {
        "type": "Point",
        "coordinates": [
          8.7686,
          47.4982
        ]
      },
      "properties": {
        "icao24": "406f75",
        "callsign": "BAW16",
        "origin_country": "United Kingdom",
        "time_position": 1787195292,
        "last_contact": 1787195292,
        "baro_altitude": 12184.38,
        "on_ground": false,
        "velocity": 226.8,
        "true_track": 292.26,
        "vertical_rate": -0.33,
        "geo_altitude": 12641.58,
        "squawk": "7525",
        "spi": false,
        "position_source": 0
      }
    },
    {
      "type": "Feature",
      "geometry": {
        "type": "Point",
        "coordinates": [
          17.7954,
          41.4164
        ]
      },
      "properties": {
        "icao24": "040219",
        "callsign": "ETH750",
        "origin_country": "Ethiopia",
        "time_position": 1787195223,
        "last_contact": 1787195253,
        "baro_altitude": 12192,
        "on_ground": false,
        "velocity": 251.72,
        "true_track": 321.14,
        "vertical_rate": 0.33,
        "geo_altitude": 12854.94,
        "squawk": "2037",
        "spi": false,
        "position_source": 0
      }
    },
    {
      "type": "Feature",
      "geometry": {
        "type": "Point",
        "coordinates": [
          6.0432,
          45.5027
        ]
      },
      "properties": {
        "icao24": "3c70b4",
        "callsign": "BCS3LR",
        "origin_country": "Germany",
        "time_position": 1787195292,
        "last_contact": 1787195292,
        "baro_altitude": 11277.6,
        "on_ground": false,
        "velocity": 210.98,
        "true_track": 207.13,
        "vertical_rate": 0,
        "geo_altitude": 11765.28,
        "squawk": "1000",
        "spi": false,
        "position_source": 0
      }
    },
    {
      "type": "Feature",
      "geometry": {
        "type": "Point",
        "coordinates": [
          6.8528,
          43.6394
        ]
      },
      "properties": {
        "icao24": "4ba9f6",
        "callsign": "THY6180",
        "origin_country": "Turkey",
        "time_position": 1787195292,
        "last_contact": 1787195292,
        "baro_altitude": 12192,
        "on_ground": false,
        "velocity": 244.54,
        "true_track": 357.83,
        "vertical_rate": 0.33,
        "geo_altitude": 12748.26,
        "squawk": "1000",
        "spi": false,
        "position_source": 0
      }
    },
    {
      "type": "Feature",
      "geometry": {
        "type": "Point",
        "coordinates": [
          17.8003,
          44.8904
        ]
      },
      "properties": {
        "icao24": "49d2b7",
        "callsign": "EWG2GR",
        "origin_country": "Czech Republic",
        "time_position": 1787195291,
        "last_contact": 1787195292,
        "baro_altitude": 11277.6,
        "on_ground": false,
        "velocity": 237.19,
        "true_track": 131.75,
        "vertical_rate": 0.33,
        "geo_altitude": 11871.96,
        "squawk": "7644",
        "spi": false,
        "position_source": 0
      }
    },
    {
      "type": "Feature",
      "geometry": {
        "type": "Point",
        "coordinates": [
          18.0588,
          44.2337
        ]
      },
      "properties": {
        "icao24": "06a2b2",
        "callsign": "QTR74G",
        "origin_country": "Qatar",
        "time_position": 1787195292,
        "last_contact": 1787195292,
        "baro_altitude": 10972.8,
        "on_ground": false,
        "velocity": 239.3,
        "true_track": 309.68,
        "vertical_rate": 0,
        "geo_altitude": 11590.02,
        "squawk": "5314",
        "spi": false,
        "position_source": 0
      }
    },
    {
      "type": "Feature",
      "geometry": {
        "type": "Point",
        "coordinates": [
          9.6025,
          44.0314
        ]
      },
      "properties": {
        "icao24": "a07dc8",
        "callsign": "UAL124",
        "origin_country": "United States",
        "time_position": 1787195293,
        "last_contact": 1787195293,
        "baro_altitude": 11879.58,
        "on_ground": false,
        "velocity": 263.34,
        "true_track": 118.47,
        "vertical_rate": 0.65,
        "geo_altitude": 12428.22,
        "squawk": "2276",
        "spi": false,
        "position_source": 0
      }
    },
    {
      "type": "Feature",
      "geometry": {
        "type": "Point",
        "coordinates": [
          12.8633,
          42.9581
        ]
      },
      "properties": {
        "icao24": "040243",
        "callsign": "ETH734",
        "origin_country": "Ethiopia",
        "time_position": 1787195292,
        "last_contact": 1787195293,
        "baro_altitude": 12192,
        "on_ground": false,
        "velocity": 245.3,
        "true_track": 310.24,
        "vertical_rate": 0.33,
        "geo_altitude": 12786.36,
        "squawk": "7741",
        "spi": false,
        "position_source": 0
      }
    },
    {
      "type": "Feature",
      "geometry": {
        "type": "Point",
        "coordinates": [
          8.7304,
          45.6114
        ]
      },
      "properties": {
        "icao24": "31d7ac",
        "callsign": "MIKE3",
        "origin_country": "Italy",
        "time_position": 1787195292,
        "last_contact": 1787195292,
        "baro_altitude": null,
        "on_ground": true,
        "velocity": 3.86,
        "true_track": 53.44,
        "vertical_rate": null,
        "geo_altitude": null,
        "squawk": null,
        "spi": false,
        "position_source": 0
      }
    },
    {
      "type": "Feature",
      "geometry": {
        "type": "Point",
        "coordinates": [
          16.8631,
          45.5029
        ]
      },
      "properties": {
        "icao24": "49d283",
        "callsign": "TVS3QS",
        "origin_country": "Czech Republic",
        "time_position": 1787195293,
        "last_contact": 1787195293,
        "baro_altitude": 11277.6,
        "on_ground": false,
        "velocity": 221.37,
        "true_track": 157.31,
        "vertical_rate": -0.33,
        "geo_altitude": 11833.86,
        "squawk": "4530",
        "spi": false,
        "position_source": 0
      }
    },
    {
      "type": "Feature",
      "geometry": {
        "type": "Point",
        "coordinates": [
          11.9443,
          43.1327
        ]
      },
      "properties": {
        "icao24": "a4972c",
        "callsign": "UPS266",
        "origin_country": "United States",
        "time_position": 1787195292,
        "last_contact": 1787195292,
        "baro_altitude": 6233.16,
        "on_ground": false,
        "velocity": 208.95,
        "true_track": 169.22,
        "vertical_rate": -13.33,
        "geo_altitude": 6621.78,
        "squawk": "2531",
        "spi": false,
        "position_source": 0
      }
    },
    {
      "type": "Feature",
      "geometry": {
        "type": "Point",
        "coordinates": [
          10.8659,
          45.1955
        ]
      },
      "properties": {
        "icao24": "39ceb9",
        "callsign": "TVF61ZZ",
        "origin_country": "France",
        "time_position": 1787195292,
        "last_contact": 1787195292,
        "baro_altitude": 11582.4,
        "on_ground": false,
        "velocity": 208.92,
        "true_track": 274.24,
        "vertical_rate": 0,
        "geo_altitude": 12092.94,
        "squawk": "3254",
        "spi": false,
        "position_source": 0
      }
    },
    {
      "type": "Feature",
      "geometry": {
        "type": "Point",
        "coordinates": [
          13.29,
          42.5747
        ]
      },
      "properties": {
        "icao24": "a519b8",
        "callsign": "DAL202",
        "origin_country": "United States",
        "time_position": 1787195292,
        "last_contact": 1787195292,
        "baro_altitude": 11887.2,
        "on_ground": false,
        "velocity": 245.89,
        "true_track": 120.7,
        "vertical_rate": 0.33,
        "geo_altitude": 12512.04,
        "squawk": "1166",
        "spi": false,
        "position_source": 0
      }
    },
    {
      "type": "Feature",
      "geometry": {
        "type": "Point",
        "coordinates": [
          10.9496,
          45.5563
        ]
      },
      "properties": {
        "icao24": "3949ee",
        "callsign": "AFR283",
        "origin_country": "France",
        "time_position": 1787195292,
        "last_contact": 1787195292,
        "baro_altitude": 11582.4,
        "on_ground": false,
        "velocity": 225.85,
        "true_track": 275.49,
        "vertical_rate": 0,
        "geo_altitude": 12100.56,
        "squawk": "3234",
        "spi": false,
        "position_source": 0
      }
    },
    {
      "type": "Feature",
      "geometry": {
        "type": "Point",
        "coordinates": [
          12.9335,
          42.7519
        ]
      },
      "properties": {
        "icao24": "3949e6",
        "callsign": "AFR829",
        "origin_country": "France",
        "time_position": 1787195293,
        "last_contact": 1787195293,
        "baro_altitude": 11582.4,
        "on_ground": false,
        "velocity": 238.79,
        "true_track": 309.14,
        "vertical_rate": 0,
        "geo_altitude": 12184.38,
        "squawk": "2043",
        "spi": false,
        "position_source": 0
      }
    },
    {
      "type": "Feature",
      "geometry": {
        "type": "Point",
        "coordinates": [
          9.7238,
          45.6647
        ]
      },
      "properties": {
        "icao24": "45ce46",
        "callsign": "SRR6498",
        "origin_country": "Denmark",
        "time_position": 1787195219,
        "last_contact": 1787195219,
        "baro_altitude": 259.08,
        "on_ground": false,
        "velocity": 68.63,
        "true_track": 284.77,
        "vertical_rate": -3.58,
        "geo_altitude": 304.8,
        "squawk": "2536",
        "spi": false,
        "position_source": 0
      }
    },
    {
      "type": "Feature",
      "geometry": {
        "type": "Point",
        "coordinates": [
          17.7936,
          42.4953
        ]
      },
      "properties": {
        "icao24": "06a0a5",
        "callsign": "QTR195",
        "origin_country": "Qatar",
        "time_position": 1787195293,
        "last_contact": 1787195293,
        "baro_altitude": 11582.4,
        "on_ground": false,
        "velocity": 246.66,
        "true_track": 314.15,
        "vertical_rate": 0,
        "geo_altitude": 12268.2,
        "squawk": "6624",
        "spi": false,
        "position_source": 0
      }
    },
    {
      "type": "Feature",
      "geometry": {
        "type": "Point",
        "coordinates": [
          15.5437,
          46.2403
        ]
      },
      "properties": {
        "icao24": "06a0c2",
        "callsign": "QTR88Y",
        "origin_country": "Qatar",
        "time_position": 1787195292,
        "last_contact": 1787195293,
        "baro_altitude": 12184.38,
        "on_ground": false,
        "velocity": 245.42,
        "true_track": 320.1,
        "vertical_rate": -0.33,
        "geo_altitude": 12717.78,
        "squawk": "5401",
        "spi": false,
        "position_source": 0
      }
    },
    {
      "type": "Feature",
      "geometry": {
        "type": "Point",
        "coordinates": [
          18.8377,
          35.4555
        ]
      },
      "properties": {
        "icao24": "06a0e8",
        "callsign": "QTR24V",
        "origin_country": "Qatar",
        "time_position": 1787195291,
        "last_contact": 1787195291,
        "baro_altitude": 10972.8,
        "on_ground": false,
        "velocity": 266.5,
        "true_track": 282.37,
        "vertical_rate": 0,
        "geo_altitude": 11620.5,
        "squawk": null,
        "spi": false,
        "position_source": 0
      }
    },
    {
      "type": "Feature",
      "geometry": {
        "type": "Point",
        "coordinates": [
          13.2337,
          39.9251
        ]
      },
      "properties": {
        "icao24": "4952c2",
        "callsign": "TAP901",
        "origin_country": "Portugal",
        "time_position": 1787195293,
        "last_contact": 1787195293,
        "baro_altitude": 11582.4,
        "on_ground": false,
        "velocity": 222.36,
        "true_track": 284.74,
        "vertical_rate": 0,
        "geo_altitude": 12237.72,
        "squawk": "2003",
        "spi": false,
        "position_source": 0
      }
    },
    {
      "type": "Feature",
      "geometry": {
        "type": "Point",
        "coordinates": [
          17.5846,
          46.7441
        ]
      },
      "properties": {
        "icao24": "4b187a",
        "callsign": "SWR147",
        "origin_country": "Switzerland",
        "time_position": 1787195292,
        "last_contact": 1787195292,
        "baro_altitude": 12192,
        "on_ground": false,
        "velocity": 209.45,
        "true_track": 285.67,
        "vertical_rate": 0,
        "geo_altitude": 12733.02,
        "squawk": "3220",
        "spi": false,
        "position_source": 0
      }
    },
    {
      "type": "Feature",
      "geometry": {
        "type": "Point",
        "coordinates": [
          15.2199,
          44.274
        ]
      },
      "properties": {
        "icao24": "4b1883",
        "callsign": "SWR155",
        "origin_country": "Switzerland",
        "time_position": 1787195291,
        "last_contact": 1787195292,
        "baro_altitude": 11582.4,
        "on_ground": false,
        "velocity": 226.56,
        "true_track": 312.05,
        "vertical_rate": 0,
        "geo_altitude": 12176.76,
        "squawk": "6625",
        "spi": false,
        "position_source": 0
      }
    },
    {
      "type": "Feature",
      "geometry": {
        "type": "Point",
        "coordinates": [
          6.6469,
          47.0725
        ]
      },
      "properties": {
        "icao24": "3c5421",
        "callsign": "BCS10K",
        "origin_country": "Germany",
        "time_position": 1787195292,
        "last_contact": 1787195292,
        "baro_altitude": 9441.18,
        "on_ground": false,
        "velocity": 210.92,
        "true_track": 219.36,
        "vertical_rate": -0.33,
        "geo_altitude": 9845.04,
        "squawk": "1000",
        "spi": false,
        "position_source": 0
      }
    },
    {
      "type": "Feature",
      "geometry": {
        "type": "Point",
        "coordinates": [
          18.6597,
          46.6462
        ]
      },
      "properties": {
        "icao24": "3c671a",
        "callsign": "DLH727",
        "origin_country": "Germany",
        "time_position": 1787195293,
        "last_contact": 1787195293,
        "baro_altitude": 12192,
        "on_ground": false,
        "velocity": 221.41,
        "true_track": 288.14,
        "vertical_rate": 0,
        "geo_altitude": 12733.02,
        "squawk": "3272",
        "spi": false,
        "position_source": 0
      }
    },
    {
      "type": "Feature",
      "geometry": {
        "type": "Point",
        "coordinates": [
          13.5003,
          47.2744
        ]
      },
      "properties": {
        "icao24": "02a1a4",
        "callsign": "LBT254",
        "origin_country": "Tunisia",
        "time_position": 1787195292,
        "last_contact": 1787195293,
        "baro_altitude": 10965.18,
        "on_ground": false,
        "velocity": 243.62,
        "true_track": 12.69,
        "vertical_rate": 0,
        "geo_altitude": 11437.62,
        "squawk": "6172",
        "spi": false,
        "position_source": 0
      }
    },
    {
      "type": "Feature",
      "geometry": {
        "type": "Point",
        "coordinates": [
          13.616,
          41.0888
        ]
      },
      "properties": {
        "icao24": "02a1a1",
        "callsign": "LBT7404",
        "origin_country": "Tunisia",
        "time_position": 1787195292,
        "last_contact": 1787195292,
        "baro_altitude": 10972.8,
        "on_ground": false,
        "velocity": 259.95,
        "true_track": 21.23,
        "vertical_rate": 0,
        "geo_altitude": 11605.26,
        "squawk": "6130",
        "spi": false,
        "position_source": 0
      }
    },
    {
      "type": "Feature",
      "geometry": {
        "type": "Point",
        "coordinates": [
          13.4131,
          40.6503
        ]
      },
      "properties": {
        "icao24": "02a1a7",
        "callsign": "LBT7444",
        "origin_country": "Tunisia",
        "time_position": 1787195292,
        "last_contact": 1787195292,
        "baro_altitude": 10972.8,
        "on_ground": false,
        "velocity": 255.3,
        "true_track": 20.77,
        "vertical_rate": 0,
        "geo_altitude": 11620.5,
        "squawk": "6142",
        "spi": false,
        "position_source": 0
      }
    },
    {
      "type": "Feature",
      "geometry": {
        "type": "Point",
        "coordinates": [
          8.552,
          47.4607
        ]
      },
      "properties": {
        "icao24": "4b5da5",
        "callsign": "TE24",
        "origin_country": "Switzerland",
        "time_position": 1787195291,
        "last_contact": 1787195293,
        "baro_altitude": null,
        "on_ground": true,
        "velocity": 0.06,
        "true_track": 194.06,
        "vertical_rate": null,
        "geo_altitude": null,
        "squawk": null,
        "spi": false,
        "position_source": 0
      }
    },
    {
      "type": "Feature",
      "geometry": {
        "type": "Point",
        "coordinates": [
          8.5639,
          47.4428
        ]
      },
      "properties": {
        "icao24": "4b5da8",
        "callsign": "ATL778",
        "origin_country": "Switzerland",
        "time_position": 1787195214,
        "last_contact": 1787195214,
        "baro_altitude": null,
        "on_ground": true,
        "velocity": 8.23,
        "true_track": 104.06,
        "vertical_rate": null,
        "geo_altitude": null,
        "squawk": null,
        "spi": false,
        "position_source": 0
      }
    },
    {
      "type": "Feature",
      "geometry": {
        "type": "Point",
        "coordinates": [
          6.8559,
          36.9883
        ]
      },
      "properties": {
        "icao24": "3c6569",
        "callsign": "OCN133",
        "origin_country": "Germany",
        "time_position": 1787195107,
        "last_contact": 1787195107,
        "baro_altitude": 12192,
        "on_ground": false,
        "velocity": 239.78,
        "true_track": 3.94,
        "vertical_rate": 0,
        "geo_altitude": 12893.04,
        "squawk": null,
        "spi": false,
        "position_source": 0
      }
    },
    {
      "type": "Feature",
      "geometry": {
        "type": "Point",
        "coordinates": [
          8.9052,
          47.5481
        ]
      },
      "properties": {
        "icao24": "3c656c",
        "callsign": "DLH595",
        "origin_country": "Germany",
        "time_position": 1787195293,
        "last_contact": 1787195293,
        "baro_altitude": 11597.64,
        "on_ground": false,
        "velocity": 241.58,
        "true_track": 7.09,
        "vertical_rate": 0,
        "geo_altitude": 12031.98,
        "squawk": "1000",
        "spi": false,
        "position_source": 0
      }
    },
    {
      "type": "Feature",
      "geometry": {
        "type": "Point",
        "coordinates": [
          13.6699,
          47.3937
        ]
      },
      "properties": {
        "icao24": "3c64b1",
        "callsign": "DLH691",
        "origin_country": "Germany",
        "time_position": 1787195292,
        "last_contact": 1787195293,
        "baro_altitude": 10469.88,
        "on_ground": false,
        "velocity": 219.17,
        "true_track": 304.29,
        "vertical_rate": -3.25,
        "geo_altitude": 10949.94,
        "squawk": "0516",
        "spi": false,
        "position_source": 0
      }
    },
    {
      "type": "Feature",
      "geometry": {
        "type": "Point",
        "coordinates": [
          11.5116,
          36.5734
        ]
      },
      "properties": {
        "icao24": "02a1ac",
        "callsign": "LBT4337",
        "origin_country": "Tunisia",
        "time_position": 1787195291,
        "last_contact": 1787195291,
        "baro_altitude": 5494.02,
        "on_ground": false,
        "velocity": 211.24,
        "true_track": 283.66,
        "vertical_rate": -13,
        "geo_altitude": 5897.88,
        "squawk": "2326",
        "spi": false,
        "position_source": 0
      }
    },
    {
      "type": "Feature",
      "geometry": {
        "type": "Point",
        "coordinates": [
          15.5814,
          45.5094
        ]
      },
      "properties": {
        "icao24": "02a1b3",
        "callsign": "LBT7630",
        "origin_country": "Tunisia",
        "time_position": 1787195292,
        "last_contact": 1787195292,
        "baro_altitude": 10965.18,
        "on_ground": false,
        "velocity": 252.16,
        "true_track": 18.8,
        "vertical_rate": 0,
        "geo_altitude": 11506.2,
        "squawk": "1000",
        "spi": false,
        "position_source": 0
      }
    },
    {
      "type": "Feature",
      "geometry": {
        "type": "Point",
        "coordinates": [
          12.9909,
          45.291
        ]
      },
      "properties": {
        "icao24": "4080bf",
        "callsign": "BAW64",
        "origin_country": "United Kingdom",
        "time_position": 1787195291,
        "last_contact": 1787195292,
        "baro_altitude": 11582.4,
        "on_ground": false,
        "velocity": 230.47,
        "true_track": 306.74,
        "vertical_rate": -0.33,
        "geo_altitude": 12131.04,
        "squawk": "7743",
        "spi": false,
        "position_source": 0
      }
    },
    {
      "type": "Feature",
      "geometry": {
        "type": "Point",
        "coordinates": [
          8.5634,
          47.4427
        ]
      },
      "properties": {
        "icao24": "4b5d9f",
        "callsign": "ALT777",
        "origin_country": "Switzerland",
        "time_position": 1787195027,
        "last_contact": 1787195038,
        "baro_altitude": null,
        "on_ground": true,
        "velocity": 8.23,
        "true_track": 118.12,
        "vertical_rate": null,
        "geo_altitude": null,
        "squawk": null,
        "spi": false,
        "position_source": 0
      }
    },
    {
      "type": "Feature",
      "geometry": {
        "type": "Point",
        "coordinates": [
          8.5632,
          47.4429
        ]
      },
      "properties": {
        "icao24": "4b5d9b",
        "callsign": "ATL781",
        "origin_country": "Switzerland",
        "time_position": 1787195071,
        "last_contact": 1787195071,
        "baro_altitude": null,
        "on_ground": true,
        "velocity": 7.72,
        "true_track": 143.44,
        "vertical_rate": null,
        "geo_altitude": null,
        "squawk": null,
        "spi": false,
        "position_source": 0
      }
    },
    {
      "type": "Feature",
      "geometry": {
        "type": "Point",
        "coordinates": [
          7.5238,
          47.5977
        ]
      },
      "properties": {
        "icao24": "440c1b",
        "callsign": "TAY8SL",
        "origin_country": "Austria",
        "time_position": 1787195292,
        "last_contact": 1787195292,
        "baro_altitude": null,
        "on_ground": true,
        "velocity": 32.41,
        "true_track": 154.69,
        "vertical_rate": null,
        "geo_altitude": null,
        "squawk": "1000",
        "spi": false,
        "position_source": 0
      }
    },
    {
      "type": "Feature",
      "geometry": {
        "type": "Point",
        "coordinates": [
          16.4175,
          44.7098
        ]
      },
      "properties": {
        "icao24": "3991e4",
        "callsign": "AFR1391",
        "origin_country": "France",
        "time_position": 1787195293,
        "last_contact": 1787195293,
        "baro_altitude": 10378.44,
        "on_ground": false,
        "velocity": 211.61,
        "true_track": 284.07,
        "vertical_rate": -0.33,
        "geo_altitude": 10949.94,
        "squawk": "5310",
        "spi": false,
        "position_source": 0
      }
    },
    {
      "type": "Feature",
      "geometry": {
        "type": "Point",
        "coordinates": [
          10.9944,
          40.0742
        ]
      },
      "properties": {
        "icao24": "3c7865",
        "callsign": "VJH713",
        "origin_country": "Germany",
        "time_position": 1787195291,
        "last_contact": 1787195291,
        "baro_altitude": 11285.22,
        "on_ground": false,
        "velocity": 242.04,
        "true_track": 101.52,
        "vertical_rate": 0,
        "geo_altitude": 11894.82,
        "squawk": "0213",
        "spi": false,
        "position_source": 0
      }
    },
    {
      "type": "Feature",
      "geometry": {
        "type": "Point",
        "coordinates": [
          8.5576,
          47.4547
        ]
      },
      "properties": {
        "icao24": "4b5d6f",
        "callsign": "VIKTOR33",
        "origin_country": "Switzerland",
        "time_position": 1787195293,
        "last_contact": 1787195293,
        "baro_altitude": null,
        "on_ground": true,
        "velocity": 3.09,
        "true_track": 250.31,
        "vertical_rate": null,
        "geo_altitude": null,
        "squawk": null,
        "spi": false,
        "position_source": 0
      }
    },
    {
      "type": "Feature",
      "geometry": {
        "type": "Point",
        "coordinates": [
          8.5634,
          47.4409
        ]
      },
      "properties": {
        "icao24": "4b5d98",
        "callsign": "ATL779",
        "origin_country": "Switzerland",
        "time_position": 1787195255,
        "last_contact": 1787195255,
        "baro_altitude": null,
        "on_ground": true,
        "velocity": 5.14,
        "true_track": 120.94,
        "vertical_rate": null,
        "geo_altitude": null,
        "squawk": null,
        "spi": false,
        "position_source": 0
      }
    },
    {
      "type": "Feature",
      "geometry": {
        "type": "Point",
        "coordinates": [
          15.7581,
          46.206
        ]
      },
      "properties": {
        "icao24": "a08a8f",
        "callsign": "FDX6239",
        "origin_country": "United States",
        "time_position": 1787195292,
        "last_contact": 1787195292,
        "baro_altitude": 11887.2,
        "on_ground": false,
        "velocity": 253.14,
        "true_track": 115.26,
        "vertical_rate": -0.33,
        "geo_altitude": 12428.22,
        "squawk": "0657",
        "spi": false,
        "position_source": 0
      }
    },
    {
      "type": "Feature",
      "geometry": {
        "type": "Point",
        "coordinates": [
          7.9969,
          44.5418
        ]
      },
      "properties": {
        "icao24": "440d91",
        "callsign": "TAY7FO",
        "origin_country": "Austria",
        "time_position": 1787195292,
        "last_contact": 1787195293,
        "baro_altitude": 11887.2,
        "on_ground": false,
        "velocity": 224.45,
        "true_track": 135.28,
        "vertical_rate": 0,
        "geo_altitude": 12412.98,
        "squawk": "1000",
        "spi": false,
        "position_source": 0
      }
    },
    {
      "type": "Feature",
      "geometry": {
        "type": "Point",
        "coordinates": [
          9.5575,
          45.0446
        ]
      },
      "properties": {
        "icao24": "440d92",
        "callsign": "TAY9VX",
        "origin_country": "Austria",
        "time_position": 1787195292,
        "last_contact": 1787195293,
        "baro_altitude": 12496.8,
        "on_ground": false,
        "velocity": 227.1,
        "true_track": 150.71,
        "vertical_rate": 0.33,
        "geo_altitude": 13007.34,
        "squawk": "1000",
        "spi": false,
        "position_source": 0
      }
    },
    {
      "type": "Feature",
      "geometry": {
        "type": "Point",
        "coordinates": [
          13.2142,
          45.1793
        ]
      },
      "properties": {
        "icao24": "4007ed",
        "callsign": "BAW2064",
        "origin_country": "United Kingdom",
        "time_position": 1787195292,
        "last_contact": 1787195292,
        "baro_altitude": 11582.4,
        "on_ground": false,
        "velocity": 230.08,
        "true_track": 309.92,
        "vertical_rate": 0,
        "geo_altitude": 12123.42,
        "squawk": "2005",
        "spi": false,
        "position_source": 0
      }
    },
    {
      "type": "Feature",
      "geometry": {
        "type": "Point",
        "coordinates": [
          8.5423,
          47.4663
        ]
      },
      "properties": {
        "icao24": "4b5c19",
        "callsign": "GUSTI1",
        "origin_country": "Switzerland",
        "time_position": 1787195292,
        "last_contact": 1787195292,
        "baro_altitude": null,
        "on_ground": true,
        "velocity": 14.92,
        "true_track": 154.69,
        "vertical_rate": null,
        "geo_altitude": null,
        "squawk": null,
        "spi": false,
        "position_source": 0
      }
    },
    {
      "type": "Feature",
      "geometry": {
        "type": "Point",
        "coordinates": [
          6.1904,
          47.6593
        ]
      },
      "properties": {
        "icao24": "440bcb",
        "callsign": "BCS1956",
        "origin_country": "Austria",
        "time_position": 1787195293,
        "last_contact": 1787195293,
        "baro_altitude": 11887.2,
        "on_ground": false,
        "velocity": 213.06,
        "true_track": 184.29,
        "vertical_rate": 0,
        "geo_altitude": 12291.06,
        "squawk": "1000",
        "spi": false,
        "position_source": 0
      }
    },
    {
      "type": "Feature",
      "geometry": {
        "type": "Point",
        "coordinates": [
          8.5623,
          47.4556
        ]
      },
      "properties": {
        "icao24": "4b5c68",
        "callsign": "URSULA4",
        "origin_country": "Switzerland",
        "time_position": 1787195209,
        "last_contact": 1787195209,
        "baro_altitude": null,
        "on_ground": true,
        "velocity": 9.26,
        "true_track": 168.75,
        "vertical_rate": null,
        "geo_altitude": null,
        "squawk": null,
        "spi": false,
        "position_source": 0
      }
    },
    {
      "type": "Feature",
      "geometry": {
        "type": "Point",
        "coordinates": [
          8.7298,
          45.6245
        ]
      },
      "properties": {
        "icao24": "440bc0",
        "callsign": "BCS2219",
        "origin_country": "Austria",
        "time_position": 1787195292,
        "last_contact": 1787195292,
        "baro_altitude": null,
        "on_ground": true,
        "velocity": 13.38,
        "true_track": 168.75,
        "vertical_rate": null,
        "geo_altitude": null,
        "squawk": "0511",
        "spi": false,
        "position_source": 0
      }
    },
    {
      "type": "Feature",
      "geometry": {
        "type": "Point",
        "coordinates": [
          17.6516,
          47.4991
        ]
      },
      "properties": {
        "icao24": "888168",
        "callsign": "HVN19",
        "origin_country": "Viet Nam",
        "time_position": 1787195292,
        "last_contact": 1787195292,
        "baro_altitude": 12192,
        "on_ground": false,
        "velocity": 228.73,
        "true_track": 292.76,
        "vertical_rate": 0,
        "geo_altitude": 12702.54,
        "squawk": "3264",
        "spi": false,
        "position_source": 0
      }
    },
    {
      "type": "Feature",
      "geometry": {
        "type": "Point",
        "coordinates": [
          15.7812,
          36.6003
        ]
      },
      "properties": {
        "icao24": "02a198",
        "callsign": "TAR217",
        "origin_country": "Tunisia",
        "time_position": 1787195293,
        "last_contact": 1787195293,
        "baro_altitude": 11574.78,
        "on_ground": false,
        "velocity": 232.94,
        "true_track": 233.08,
        "vertical_rate": 0,
        "geo_altitude": 12283.44,
        "squawk": "2347",
        "spi": false,
        "position_source": 0
      }
    },
    {
      "type": "Feature",
      "geometry": {
        "type": "Point",
        "coordinates": [
          17.4746,
          44.9327
        ]
      },
      "properties": {
        "icao24": "4bcdba",
        "callsign": "SXS4KG",
        "origin_country": "Turkey",
        "time_position": 1787195292,
        "last_contact": 1787195293,
        "baro_altitude": 10972.8,
        "on_ground": false,
        "velocity": 228.46,
        "true_track": 314.27,
        "vertical_rate": 0,
        "geo_altitude": 11567.16,
        "squawk": "5312",
        "spi": false,
        "position_source": 0
      }
    },
    {
      "type": "Feature",
      "geometry": {
        "type": "Point",
        "coordinates": [
          17.8807,
          46.498
        ]
      },
      "properties": {
        "icao24": "4bcdd2",
        "callsign": "SXS3BV",
        "origin_country": "Turkey",
        "time_position": 1787195292,
        "last_contact": 1787195293,
        "baro_altitude": 11887.2,
        "on_ground": false,
        "velocity": 236.97,
        "true_track": 127.59,
        "vertical_rate": 0,
        "geo_altitude": 12443.46,
        "squawk": "7711",
        "spi": false,
        "position_source": 0
      }
    },
    {
      "type": "Feature",
      "geometry": {
        "type": "Point",
        "coordinates": [
          16.8325,
          47.0883
        ]
      },
      "properties": {
        "icao24": "4bcde3",
        "callsign": "SXS3YD",
        "origin_country": "Turkey",
        "time_position": 1787195292,
        "last_contact": 1787195293,
        "baro_altitude": 10972.8,
        "on_ground": false,
        "velocity": 211.06,
        "true_track": 308.97,
        "vertical_rate": 0,
        "geo_altitude": 11475.72,
        "squawk": "3217",
        "spi": false,
        "position_source": 0
      }
    },
    {
      "type": "Feature",
      "geometry": {
        "type": "Point",
        "coordinates": [
          14.989,
          41.8176
        ]
      },
      "properties": {
        "icao24": "a5237f",
        "callsign": "DAL240",
        "origin_country": "United States",
        "time_position": 1787195293,
        "last_contact": 1787195293,
        "baro_altitude": 11887.2,
        "on_ground": false,
        "velocity": 244.24,
        "true_track": 121.92,
        "vertical_rate": 0,
        "geo_altitude": 12534.9,
        "squawk": "2266",
        "spi": false,
        "position_source": 0
      }
    },
    {
      "type": "Feature",
      "geometry": {
        "type": "Point",
        "coordinates": [
          17.0938,
          45.3889
        ]
      },
      "properties": {
        "icao24": "4bce43",
        "callsign": "SXS5TM",
        "origin_country": "Turkey",
        "time_position": 1787195292,
        "last_contact": 1787195292,
        "baro_altitude": 11277.6,
        "on_ground": false,
        "velocity": 238.95,
        "true_track": 132.03,
        "vertical_rate": 0.33,
        "geo_altitude": 11856.72,
        "squawk": "6425",
        "spi": false,
        "position_source": 0
      }
    },
    {
      "type": "Feature",
      "geometry": {
        "type": "Point",
        "coordinates": [
          17.5075,
          47.6766
        ]
      },
      "properties": {
        "icao24": "4bce46",
        "callsign": "SXS2DX",
        "origin_country": "Turkey",
        "time_position": 1787195292,
        "last_contact": 1787195292,
        "baro_altitude": 11582.4,
        "on_ground": false,
        "velocity": 210.52,
        "true_track": 300.39,
        "vertical_rate": 0.33,
        "geo_altitude": 12077.7,
        "squawk": "3242",
        "spi": false,
        "position_source": 0
      }
    },
    {
      "type": "Feature",
      "geometry": {
        "type": "Point",
        "coordinates": [
          13.5582,
          42.9183
        ]
      },
      "properties": {
        "icao24": "a895eb",
        "callsign": "UAL380",
        "origin_country": "United States",
        "time_position": 1787195292,
        "last_contact": 1787195292,
        "baro_altitude": 11887.2,
        "on_ground": false,
        "velocity": 236.3,
        "true_track": 117.35,
        "vertical_rate": 0,
        "geo_altitude": 12473.94,
        "squawk": "2204",
        "spi": false,
        "position_source": 0
      }
    },
    {
      "type": "Feature",
      "geometry": {
        "type": "Point",
        "coordinates": [
          16.6034,
          45.5236
        ]
      },
      "properties": {
        "icao24": "4bcdac",
        "callsign": "SXS4YR",
        "origin_country": "Turkey",
        "time_position": 1787195293,
        "last_contact": 1787195293,
        "baro_altitude": 11582.4,
        "on_ground": false,
        "velocity": 225.93,
        "true_track": 313.99,
        "vertical_rate": 0,
        "geo_altitude": 12161.52,
        "squawk": "6632",
        "spi": false,
        "position_source": 0
      }
    },
    {
      "type": "Feature",
      "geometry": {
        "type": "Point",
        "coordinates": [
          18.7993,
          47.0027
        ]
      },
      "properties": {
        "icao24": "47340e",
        "callsign": "TVL5160",
        "origin_country": "Hungary",
        "time_position": 1787195293,
        "last_contact": 1787195293,
        "baro_altitude": 5341.62,
        "on_ground": false,
        "velocity": 188.98,
        "true_track": 230.63,
        "vertical_rate": 10.4,
        "geo_altitude": 5615.94,
        "squawk": "1000",
        "spi": false,
        "position_source": 0
      }
    },
    {
      "type": "Feature",
      "geometry": {
        "type": "Point",
        "coordinates": [
          17.0216,
          47.3071
        ]
      },
      "properties": {
        "icao24": "8880e1",
        "callsign": "HVN31",
        "origin_country": "Viet Nam",
        "time_position": 1787195292,
        "last_contact": 1787195293,
        "baro_altitude": 11574.78,
        "on_ground": false,
        "velocity": 227.98,
        "true_track": 292.98,
        "vertical_rate": 0,
        "geo_altitude": 12100.56,
        "squawk": "3232",
        "spi": false,
        "position_source": 0
      }
    },
    {
      "type": "Feature",
      "geometry": {
        "type": "Point",
        "coordinates": [
          13.8972,
          36.267
        ]
      },
      "properties": {
        "icao24": "02a181",
        "callsign": "TAR714",
        "origin_country": "Tunisia",
        "time_position": 1787195292,
        "last_contact": 1787195292,
        "baro_altitude": 10980.42,
        "on_ground": false,
        "velocity": 237.99,
        "true_track": 279.71,
        "vertical_rate": 0,
        "geo_altitude": 11673.84,
        "squawk": "2057",
        "spi": false,
        "position_source": 0
      }
    },
    {
      "type": "Feature",
      "geometry": {
        "type": "Point",
        "coordinates": [
          18.642,
          44.0981
        ]
      },
      "properties": {
        "icao24": "4bce0f",
        "callsign": "SXS4SB",
        "origin_country": "Turkey",
        "time_position": 1787195293,
        "last_contact": 1787195293,
        "baro_altitude": 11582.4,
        "on_ground": false,
        "velocity": 221.17,
        "true_track": 315.19,
        "vertical_rate": 0,
        "geo_altitude": 12199.62,
        "squawk": "5335",
        "spi": false,
        "position_source": 0
      }
    },
    {
      "type": "Feature",
      "geometry": {
        "type": "Point",
        "coordinates": [
          16.8743,
          45.3386
        ]
      },
      "properties": {
        "icao24": "4bce02",
        "callsign": "SXS7KP",
        "origin_country": "Turkey",
        "time_position": 1787195292,
        "last_contact": 1787195292,
        "baro_altitude": 10972.8,
        "on_ground": false,
        "velocity": 218.29,
        "true_track": 314.05,
        "vertical_rate": 0,
        "geo_altitude": 11559.54,
        "squawk": "5324",
        "spi": false,
        "position_source": 0
      }
    },
    {
      "type": "Feature",
      "geometry": {
        "type": "Point",
        "coordinates": [
          18.0381,
          39.9232
        ]
      },
      "properties": {
        "icao24": "8940c3",
        "callsign": "GFA025",
        "origin_country": "Bahrain",
        "time_position": 1787195292,
        "last_contact": 1787195292,
        "baro_altitude": 10363.2,
        "on_ground": false,
        "velocity": 235,
        "true_track": 308.6,
        "vertical_rate": 0,
        "geo_altitude": 11026.14,
        "squawk": "2016",
        "spi": false,
        "position_source": 0
      }
    },
    {
      "type": "Feature",
      "geometry": {
        "type": "Point",
        "coordinates": [
          18.339,
          46.4723
        ]
      },
      "properties": {
        "icao24": "76cda6",
        "callsign": "SIA356",
        "origin_country": "Singapore",
        "time_position": 1787195293,
        "last_contact": 1787195293,
        "baro_altitude": 12192,
        "on_ground": false,
        "velocity": 220.83,
        "true_track": 279.79,
        "vertical_rate": 0,
        "geo_altitude": 12717.78,
        "squawk": "2325",
        "spi": false,
        "position_source": 0
      }
    },
    {
      "type": "Feature",
      "geometry": {
        "type": "Point",
        "coordinates": [
          17.237,
          40.7103
        ]
      },
      "properties": {
        "icao24": "76cdad",
        "callsign": "SIA388",
        "origin_country": "Singapore",
        "time_position": 1787195292,
        "last_contact": 1787195292,
        "baro_altitude": 12496.8,
        "on_ground": false,
        "velocity": 240.37,
        "true_track": 274.17,
        "vertical_rate": 0,
        "geo_altitude": 13159.74,
        "squawk": "2331",
        "spi": false,
        "position_source": 0
      }
    },
    {
      "type": "Feature",
      "geometry": {
        "type": "Point",
        "coordinates": [
          18.3816,
          45.1616
        ]
      },
      "properties": {
        "icao24": "8966c5",
        "callsign": "ETD16",
        "origin_country": "United Arab Emirates",
        "time_position": 1787195291,
        "last_contact": 1787195292,
        "baro_altitude": 11887.2,
        "on_ground": false,
        "velocity": 268.53,
        "true_track": 115.53,
        "vertical_rate": 0,
        "geo_altitude": 12496.8,
        "squawk": "2270",
        "spi": false,
        "position_source": 0
      }
    },
    {
      "type": "Feature",
      "geometry": {
        "type": "Point",
        "coordinates": [
          14.8325,
          44.4604
        ]
      },
      "properties": {
        "icao24": "010261",
        "callsign": "RMX5301",
        "origin_country": "Egypt",
        "time_position": 1787195292,
        "last_contact": 1787195292,
        "baro_altitude": 12192,
        "on_ground": false,
        "velocity": 224.51,
        "true_track": 313.61,
        "vertical_rate": 0,
        "geo_altitude": 12763.5,
        "squawk": "2063",
        "spi": false,
        "position_source": 0
      }
    },
    {
      "type": "Feature",
      "geometry": {
        "type": "Point",
        "coordinates": [
          18.4328,
          42.8943
        ]
      },
      "properties": {
        "icao24": "01023b",
        "callsign": "MSC2917",
        "origin_country": "Egypt",
        "time_position": 1787195291,
        "last_contact": 1787195291,
        "baro_altitude": 10668,
        "on_ground": false,
        "velocity": 236.69,
        "true_track": 141.09,
        "vertical_rate": 0,
        "geo_altitude": 11315.7,
        "squawk": "2566",
        "spi": false,
        "position_source": 0
      }
    },
    {
      "type": "Feature",
      "geometry": {
        "type": "Point",
        "coordinates": [
          9.7076,
          45.1009
        ]
      },
      "properties": {
        "icao24": "39a208",
        "callsign": "FPO6LQ",
        "origin_country": "France",
        "time_position": 1787195291,
        "last_contact": 1787195292,
        "baro_altitude": 7444.74,
        "on_ground": false,
        "velocity": 212.35,
        "true_track": 147.46,
        "vertical_rate": -11.05,
        "geo_altitude": 7863.84,
        "squawk": "1000",
        "spi": false,
        "position_source": 0
      }
    },
    {
      "type": "Feature",
      "geometry": {
        "type": "Point",
        "coordinates": [
          11.4791,
          45.9031
        ]
      },
      "properties": {
        "icao24": "39a202",
        "callsign": "FPO3JU",
        "origin_country": "France",
        "time_position": 1787195293,
        "last_contact": 1787195293,
        "baro_altitude": 5486.4,
        "on_ground": false,
        "velocity": 199.04,
        "true_track": 146.6,
        "vertical_rate": -11.05,
        "geo_altitude": 5775.96,
        "squawk": "1000",
        "spi": false,
        "position_source": 0
      }
    },
    {
      "type": "Feature",
      "geometry": {
        "type": "Point",
        "coordinates": [
          8.9101,
          45.4959
        ]
      },
      "properties": {
        "icao24": "a071ec",
        "callsign": "FDX5168",
        "origin_country": "United States",
        "time_position": 1787195292,
        "last_contact": 1787195292,
        "baro_altitude": 1508.76,
        "on_ground": false,
        "velocity": 129.25,
        "true_track": 169.45,
        "vertical_rate": -11.05,
        "geo_altitude": 1607.82,
        "squawk": "1000",
        "spi": false,
        "position_source": 0
      }
    },
    {
      "type": "Feature",
      "geometry": {
        "type": "Point",
        "coordinates": [
          18.6623,
          43.4919
        ]
      },
      "properties": {
        "icao24": "485b45",
        "callsign": "KLM569",
        "origin_country": "Kingdom of the Netherlands",
        "time_position": 1787195292,
        "last_contact": 1787195292,
        "baro_altitude": 11582.4,
        "on_ground": false,
        "velocity": 247.17,
        "true_track": 322.27,
        "vertical_rate": 0,
        "geo_altitude": 12245.34,
        "squawk": "1337",
        "spi": false,
        "position_source": 0
      }
    },
    {
      "type": "Feature",
      "geometry": {
        "type": "Point",
        "coordinates": [
          15.7844,
          44.6883
        ]
      },
      "properties": {
        "icao24": "4d23bb",
        "callsign": "LBT7666",
        "origin_country": "Malta",
        "time_position": 1787195293,
        "last_contact": 1787195293,
        "baro_altitude": 10355.58,
        "on_ground": false,
        "velocity": 256.11,
        "true_track": 27.65,
        "vertical_rate": -0.33,
        "geo_altitude": 10866.12,
        "squawk": "1000",
        "spi": false,
        "position_source": 0
      }
    },
    {
      "type": "Feature",
      "geometry": {
        "type": "Point",
        "coordinates": [
          15.8891,
          45.2262
        ]
      },
      "properties": {
        "icao24": "88104f",
        "callsign": "NOK3000",
        "origin_country": "Thailand",
        "time_position": 1787195293,
        "last_contact": 1787195293,
        "baro_altitude": 11582.4,
        "on_ground": false,
        "velocity": 227.39,
        "true_track": 313.99,
        "vertical_rate": 0,
        "geo_altitude": 12100.56,
        "squawk": "5537",
        "spi": false,
        "position_source": 0
      }
    },
    {
      "type": "Feature",
      "geometry": {
        "type": "Point",
        "coordinates": [
          11.7319,
          47.57
        ]
      },
      "properties": {
        "icao24": "4d2418",
        "callsign": "EWG31G",
        "origin_country": "Malta",
        "time_position": 1787195293,
        "last_contact": 1787195293,
        "baro_altitude": 11277.6,
        "on_ground": false,
        "velocity": 219.94,
        "true_track": 191.47,
        "vertical_rate": 0,
        "geo_altitude": 11742.42,
        "squawk": "6675",
        "spi": false,
        "position_source": 0
      }
    },
    {
      "type": "Feature",
      "geometry": {
        "type": "Point",
        "coordinates": [
          14.1431,
          40.1723
        ]
      },
      "properties": {
        "icao24": "3002a2",
        "callsign": "SLJ118",
        "origin_country": "Italy",
        "time_position": 1787195291,
        "last_contact": 1787195291,
        "baro_altitude": 5829.3,
        "on_ground": false,
        "velocity": 171.33,
        "true_track": 199.47,
        "vertical_rate": 4.23,
        "geo_altitude": 6240.78,
        "squawk": null,
        "spi": false,
        "position_source": 0
      }
    },
    {
      "type": "Feature",
      "geometry": {
        "type": "Point",
        "coordinates": [
          6.2811,
          44.5771
        ]
      },
      "properties": {
        "icao24": "4d2336",
        "callsign": "EWG2797",
        "origin_country": "Malta",
        "time_position": 1787195293,
        "last_contact": 1787195293,
        "baro_altitude": 10363.2,
        "on_ground": false,
        "velocity": 242.31,
        "true_track": 23.79,
        "vertical_rate": 0,
        "geo_altitude": 10873.74,
        "squawk": "5565",
        "spi": false,
        "position_source": 0
      }
    },
    {
      "type": "Feature",
      "geometry": {
        "type": "Point",
        "coordinates": [
          17.1002,
          47.515
        ]
      },
      "properties": {
        "icao24": "4d21d4",
        "callsign": "CXI3K",
        "origin_country": "Malta",
        "time_position": 1787195291,
        "last_contact": 1787195292,
        "baro_altitude": 11285.22,
        "on_ground": false,
        "velocity": 238.79,
        "true_track": 140.86,
        "vertical_rate": 0.33,
        "geo_altitude": 11788.14,
        "squawk": "7625",
        "spi": false,
        "position_source": 0
      }
    },
    {
      "type": "Feature",
      "geometry": {
        "type": "Point",
        "coordinates": [
          6.0432,
          39.2265
        ]
      },
      "properties": {
        "icao24": "407371",
        "callsign": "VIR450",
        "origin_country": "United Kingdom",
        "time_position": 1787195292,
        "last_contact": 1787195292,
        "baro_altitude": 11765.28,
        "on_ground": false,
        "velocity": 247.82,
        "true_track": 351.16,
        "vertical_rate": 3.25,
        "geo_altitude": 12412.98,
        "squawk": null,
        "spi": false,
        "position_source": 0
      }
    },
    {
      "type": "Feature",
      "geometry": {
        "type": "Point",
        "coordinates": [
          18.7799,
          43.1302
        ]
      },
      "properties": {
        "icao24": "4d2198",
        "callsign": "HAT6040",
        "origin_country": "Malta",
        "time_position": 1787195292,
        "last_contact": 1787195292,
        "baro_altitude": 10690.86,
        "on_ground": false,
        "velocity": 211.57,
        "true_track": 171.75,
        "vertical_rate": 0.33,
        "geo_altitude": 11300.46,
        "squawk": "6012",
        "spi": false,
        "position_source": 0
      }
    },
    {
      "type": "Feature",
      "geometry": {
        "type": "Point",
        "coordinates": [
          14.494,
          35.8491
        ]
      },
      "properties": {
        "icao24": "4cac86",
        "callsign": "RYR8QP",
        "origin_country": "Ireland",
        "time_position": 1787195284,
        "last_contact": 1787195289,
        "baro_altitude": null,
        "on_ground": true,
        "velocity": 0,
        "true_track": 0,
        "vertical_rate": null,
        "geo_altitude": null,
        "squawk": null,
        "spi": false,
        "position_source": 0
      }
    },
    {
      "type": "Feature",
      "geometry": {
        "type": "Point",
        "coordinates": [
          15.2115,
          42.7289
        ]
      },
      "properties": {
        "icao24": "39c420",
        "callsign": "AFR551",
        "origin_country": "France",
        "time_position": 1787195292,
        "last_contact": 1787195292,
        "baro_altitude": 11574.78,
        "on_ground": false,
        "velocity": 243.85,
        "true_track": 303.12,
        "vertical_rate": -0.33,
        "geo_altitude": 12214.86,
        "squawk": "5534",
        "spi": false,
        "position_source": 0
      }
    },
    {
      "type": "Feature",
      "geometry": {
        "type": "Point",
        "coordinates": [
          16.2379,
          42.5874
        ]
      },
      "properties": {
        "icao24": "710121",
        "callsign": "SVA143",
        "origin_country": "Saudi Arabia",
        "time_position": 1787195291,
        "last_contact": 1787195292,
        "baro_altitude": 10972.8,
        "on_ground": false,
        "velocity": 249.43,
        "true_track": 310.99,
        "vertical_rate": 0,
        "geo_altitude": 11612.88,
        "squawk": "2056",
        "spi": false,
        "position_source": 0
      }
    },
    {
      "type": "Feature",
      "geometry": {
        "type": "Point",
        "coordinates": [
          10.298,
          45.3887
        ]
      },
      "properties": {
        "icao24": "39d2ad",
        "callsign": "AFR185",
        "origin_country": "France",
        "time_position": 1787195292,
        "last_contact": 1787195292,
        "baro_altitude": 12192,
        "on_ground": false,
        "velocity": 229.06,
        "true_track": 271.93,
        "vertical_rate": 0.33,
        "geo_altitude": 12694.92,
        "squawk": "5321",
        "spi": false,
        "position_source": 0
      }
    },
    {
      "type": "Feature",
      "geometry": {
        "type": "Point",
        "coordinates": [
          7.6251,
          40.332
        ]
      },
      "properties": {
        "icao24": "4b18fd",
        "callsign": "SWR283",
        "origin_country": "Switzerland",
        "time_position": 1787195292,
        "last_contact": 1787195292,
        "baro_altitude": 11582.4,
        "on_ground": false,
        "velocity": 245.02,
        "true_track": 17.6,
        "vertical_rate": 0,
        "geo_altitude": 12192,
        "squawk": null,
        "spi": false,
        "position_source": 0
      }
    },
    {
      "type": "Feature",
      "geometry": {
        "type": "Point",
        "coordinates": [
          16.0128,
          46.0868
        ]
      },
      "properties": {
        "icao24": "4b191e",
        "callsign": "SWR139",
        "origin_country": "Switzerland",
        "time_position": 1787195292,
        "last_contact": 1787195292,
        "baro_altitude": 10972.8,
        "on_ground": false,
        "velocity": 225.17,
        "true_track": 287.69,
        "vertical_rate": 0,
        "geo_altitude": 11506.2,
        "squawk": "3262",
        "spi": false,
        "position_source": 0
      }
    },
    {
      "type": "Feature",
      "geometry": {
        "type": "Point",
        "coordinates": [
          16.6583,
          43.2683
        ]
      },
      "properties": {
        "icao24": "4b191f",
        "callsign": "SWR177",
        "origin_country": "Switzerland",
        "time_position": 1787195291,
        "last_contact": 1787195291,
        "baro_altitude": 10972.8,
        "on_ground": false,
        "velocity": 243.77,
        "true_track": 311.66,
        "vertical_rate": 0,
        "geo_altitude": 11590.02,
        "squawk": "5501",
        "spi": false,
        "position_source": 0
      }
    },
    {
      "type": "Feature",
      "geometry": {
        "type": "Point",
        "coordinates": [
          15.849,
          44.8953
        ]
      },
      "properties": {
        "icao24": "40717f",
        "callsign": "EXS72RD",
        "origin_country": "United Kingdom",
        "time_position": 1787195292,
        "last_contact": 1787195293,
        "baro_altitude": 10972.8,
        "on_ground": false,
        "velocity": 228.3,
        "true_track": 309.79,
        "vertical_rate": 0,
        "geo_altitude": 11536.68,
        "squawk": "5322",
        "spi": false,
        "position_source": 0
      }
    }
  ]
}