{
  "type": "FeatureCollection",
  "source": "opensky",
  "dataset": "aircraft_italy",
  "generated_at": "2026-09-26T00:48:56.859920+00:00",
  "opensky_time": 1790383727,
  "count": 62,
  "features": [
    {
      "type": "Feature",
      "geometry": {
        "type": "Point",
        "coordinates": [
          15.7974,
          42.3772
        ]
      },
      "properties": {
        "icao24": "801666",
        "callsign": "AIC105",
        "origin_country": "India",
        "time_position": 1790383723,
        "last_contact": 1790383723,
        "baro_altitude": 12192,
        "on_ground": false,
        "velocity": 263.91,
        "true_track": 255.21,
        "vertical_rate": 0,
        "geo_altitude": 12580.62,
        "squawk": "0546",
        "spi": false,
        "position_source": 0
      }
    },
    {
      "type": "Feature",
      "geometry": {
        "type": "Point",
        "coordinates": [
          8.7319,
          40.6646
        ]
      },
      "properties": {
        "icao24": "46b83a",
        "callsign": "AEE3LP",
        "origin_country": "Greece",
        "time_position": 1790383726,
        "last_contact": 1790383726,
        "baro_altitude": 10972.8,
        "on_ground": false,
        "velocity": 232.56,
        "true_track": 89.11,
        "vertical_rate": 0,
        "geo_altitude": 11506.2,
        "squawk": "2252",
        "spi": false,
        "position_source": 0
      }
    },
    {
      "type": "Feature",
      "geometry": {
        "type": "Point",
        "coordinates": [
          7.1671,
          39.6699
        ]
      },
      "properties": {
        "icao24": "452181",
        "callsign": "ADZ4620",
        "origin_country": "Bulgaria",
        "time_position": 1790383726,
        "last_contact": 1790383726,
        "baro_altitude": 12207.24,
        "on_ground": false,
        "velocity": 235.4,
        "true_track": 87.12,
        "vertical_rate": 0,
        "geo_altitude": 12717.78,
        "squawk": "1426",
        "spi": false,
        "position_source": 0
      }
    },
    {
      "type": "Feature",
      "geometry": {
        "type": "Point",
        "coordinates": [
          16.8234,
          44.3056
        ]
      },
      "properties": {
        "icao24": "452169",
        "callsign": "MSC2967",
        "origin_country": "Bulgaria",
        "time_position": 1790383726,
        "last_contact": 1790383726,
        "baro_altitude": 10066.02,
        "on_ground": false,
        "velocity": 258.14,
        "true_track": 139.93,
        "vertical_rate": -0.33,
        "geo_altitude": 10439.4,
        "squawk": "1163",
        "spi": false,
        "position_source": 0
      }
    },
    {
      "type": "Feature",
      "geometry": {
        "type": "Point",
        "coordinates": [
          6.627,
          46.3934
        ]
      },
      "properties": {
        "icao24": "020104",
        "callsign": "RAM240S",
        "origin_country": "Morocco",
        "time_position": 1790383726,
        "last_contact": 1790383726,
        "baro_altitude": 10972.8,
        "on_ground": false,
        "velocity": 246.72,
        "true_track": 43.48,
        "vertical_rate": 0,
        "geo_altitude": 11483.34,
        "squawk": "2307",
        "spi": false,
        "position_source": 0
      }
    },
    {
      "type": "Feature",
      "geometry": {
        "type": "Point",
        "coordinates": [
          14.7779,
          44.6941
        ]
      },
      "properties": {
        "icao24": "4bb159",
        "callsign": "THY6428",
        "origin_country": "Turkey",
        "time_position": 1790383726,
        "last_contact": 1790383726,
        "baro_altitude": 10668,
        "on_ground": false,
        "velocity": 247.3,
        "true_track": 103.72,
        "vertical_rate": 0.33,
        "geo_altitude": 11094.72,
        "squawk": "0440",
        "spi": false,
        "position_source": 0
      }
    },
    {
      "type": "Feature",
      "geometry": {
        "type": "Point",
        "coordinates": [
          16.9107,
          47.7085
        ]
      },
      "properties": {
        "icao24": "505a88",
        "callsign": "TVS3222",
        "origin_country": "Slovakia",
        "time_position": 1790383726,
        "last_contact": 1790383726,
        "baro_altitude": 10058.4,
        "on_ground": false,
        "velocity": 260.95,
        "true_track": 141.32,
        "vertical_rate": 0,
        "geo_altitude": 10408.92,
        "squawk": "4460",
        "spi": false,
        "position_source": 0
      }
    },
    {
      "type": "Feature",
      "geometry": {
        "type": "Point",
        "coordinates": [
          13.968,
          40.4866
        ]
      },
      "properties": {
        "icao24": "8964e8",
        "callsign": "MAC438",
        "origin_country": "United Arab Emirates",
        "time_position": 1790383726,
        "last_contact": 1790383726,
        "baro_altitude": 11285.22,
        "on_ground": false,
        "velocity": 246.64,
        "true_track": 262.21,
        "vertical_rate": -0.33,
        "geo_altitude": 11742.42,
        "squawk": "2315",
        "spi": false,
        "position_source": 0
      }
    },
    {
      "type": "Feature",
      "geometry": {
        "type": "Point",
        "coordinates": [
          6.0102,
          39.5428
        ]
      },
      "properties": {
        "icao24": "4bb073",
        "callsign": "THY597",
        "origin_country": "Turkey",
        "time_position": 1790383726,
        "last_contact": 1790383726,
        "baro_altitude": 10972.8,
        "on_ground": false,
        "velocity": 226.73,
        "true_track": 83.62,
        "vertical_rate": -0.33,
        "geo_altitude": 11544.3,
        "squawk": "1425",
        "spi": false,
        "position_source": 0
      }
    },
    {
      "type": "Feature",
      "geometry": {
        "type": "Point",
        "coordinates": [
          17.467,
          37.1501
        ]
      },
      "properties": {
        "icao24": "4bb06a",
        "callsign": "THY3KA",
        "origin_country": "Turkey",
        "time_position": 1790383726,
        "last_contact": 1790383726,
        "baro_altitude": 11277.6,
        "on_ground": false,
        "velocity": 223.1,
        "true_track": 41.26,
        "vertical_rate": 0,
        "geo_altitude": 11605.26,
        "squawk": "3123",
        "spi": false,
        "position_source": 0
      }
    },
    {
      "type": "Feature",
      "geometry": {
        "type": "Point",
        "coordinates": [
          10.5575,
          45.825
        ]
      },
      "properties": {
        "icao24": "78021b",
        "callsign": "CPA038",
        "origin_country": "China",
        "time_position": 1790383727,
        "last_contact": 1790383727,
        "baro_altitude": 7071.36,
        "on_ground": false,
        "velocity": 239.55,
        "true_track": 77.72,
        "vertical_rate": 10.4,
        "geo_altitude": 7406.64,
        "squawk": "0422",
        "spi": false,
        "position_source": 0
      }
    },
    {
      "type": "Feature",
      "geometry": {
        "type": "Point",
        "coordinates": [
          14.2704,
          40.6452
        ]
      },
      "properties": {
        "icao24": "4ba9ef",
        "callsign": "THY6418",
        "origin_country": "Turkey",
        "time_position": 1790383726,
        "last_contact": 1790383726,
        "baro_altitude": 11887.2,
        "on_ground": false,
        "velocity": 226.52,
        "true_track": 92.21,
        "vertical_rate": 0,
        "geo_altitude": 12329.16,
        "squawk": "1242",
        "spi": false,
        "position_source": 0
      }
    },
    {
      "type": "Feature",
      "geometry": {
        "type": "Point",
        "coordinates": [
          14.2586,
          38.6725
        ]
      },
      "properties": {
        "icao24": "4ba9d0",
        "callsign": "THY5YP",
        "origin_country": "Turkey",
        "time_position": 1790383726,
        "last_contact": 1790383726,
        "baro_altitude": 11887.2,
        "on_ground": false,
        "velocity": 213.04,
        "true_track": 56.92,
        "vertical_rate": 0.33,
        "geo_altitude": 12313.92,
        "squawk": "1222",
        "spi": false,
        "position_source": 0
      }
    },
    {
      "type": "Feature",
      "geometry": {
        "type": "Point",
        "coordinates": [
          12.5572,
          47.2704
        ]
      },
      "properties": {
        "icao24": "407fae",
        "callsign": "TOM811",
        "origin_country": "United Kingdom",
        "time_position": 1790383726,
        "last_contact": 1790383726,
        "baro_altitude": 11582.4,
        "on_ground": false,
        "velocity": 214.23,
        "true_track": 307.59,
        "vertical_rate": 0,
        "geo_altitude": 12062.46,
        "squawk": "5314",
        "spi": false,
        "position_source": 0
      }
    },
    {
      "type": "Feature",
      "geometry": {
        "type": "Point",
        "coordinates": [
          10.7525,
          46.4269
        ]
      },
      "properties": {
        "icao24": "406d6f",
        "callsign": "TOM94Y",
        "origin_country": "United Kingdom",
        "time_position": 1790383726,
        "last_contact": 1790383726,
        "baro_altitude": 13106.4,
        "on_ground": false,
        "velocity": 237.72,
        "true_track": 305.75,
        "vertical_rate": -0.33,
        "geo_altitude": 13586.46,
        "squawk": "2042",
        "spi": false,
        "position_source": 0
      }
    },
    {
      "type": "Feature",
      "geometry": {
        "type": "Point",
        "coordinates": [
          13.5456,
          47.2689
        ]
      },
      "properties": {
        "icao24": "48e9f2",
        "callsign": "RYR4TE",
        "origin_country": "Poland",
        "time_position": 1790383727,
        "last_contact": 1790383727,
        "baro_altitude": 10972.8,
        "on_ground": false,
        "velocity": 226.71,
        "true_track": 46.56,
        "vertical_rate": 0,
        "geo_altitude": 11414.76,
        "squawk": "1000",
        "spi": false,
        "position_source": 0
      }
    },
    {
      "type": "Feature",
      "geometry": {
        "type": "Point",
        "coordinates": [
          13.0579,
          46.7334
        ]
      },
      "properties": {
        "icao24": "407eeb",
        "callsign": "EXS4SL",
        "origin_country": "United Kingdom",
        "time_position": 1790383725,
        "last_contact": 1790383726,
        "baro_altitude": 11559.54,
        "on_ground": false,
        "velocity": 213.97,
        "true_track": 297.18,
        "vertical_rate": 1.95,
        "geo_altitude": 12031.98,
        "squawk": "3260",
        "spi": false,
        "position_source": 0
      }
    },
    {
      "type": "Feature",
      "geometry": {
        "type": "Point",
        "coordinates": [
          13.373,
          46.7737
        ]
      },
      "properties": {
        "icao24": "744843",
        "callsign": "RJA272",
        "origin_country": "Jordan",
        "time_position": 1790383726,
        "last_contact": 1790383726,
        "baro_altitude": 11887.2,
        "on_ground": false,
        "velocity": 262.06,
        "true_track": 125.25,
        "vertical_rate": 0,
        "geo_altitude": 12359.64,
        "squawk": "1145",
        "spi": false,
        "position_source": 0
      }
    },
    {
      "type": "Feature",
      "geometry": {
        "type": "Point",
        "coordinates": [
          16.5161,
          40.2459
        ]
      },
      "properties": {
        "icao24": "744822",
        "callsign": "RJA517",
        "origin_country": "Jordan",
        "time_position": 1790383726,
        "last_contact": 1790383726,
        "baro_altitude": 10972.8,
        "on_ground": false,
        "velocity": 241.47,
        "true_track": 274.4,
        "vertical_rate": 0,
        "geo_altitude": 11308.08,
        "squawk": "5602",
        "spi": false,
        "position_source": 0
      }
    },
    {
      "type": "Feature",
      "geometry": {
        "type": "Point",
        "coordinates": [
          11.3346,
          35.024
        ]
      },
      "properties": {
        "icao24": "4ba893",
        "callsign": "THY6413",
        "origin_country": "Turkey",
        "time_position": 1790383726,
        "last_contact": 1790383726,
        "baro_altitude": 10972.8,
        "on_ground": false,
        "velocity": 249.28,
        "true_track": 249.21,
        "vertical_rate": 0,
        "geo_altitude": 11483.34,
        "squawk": "2336",
        "spi": false,
        "position_source": 0
      }
    },
    {
      "type": "Feature",
      "geometry": {
        "type": "Point",
        "coordinates": [
          14.5399,
          38.8051
        ]
      },
      "properties": {
        "icao24": "7448a4",
        "callsign": "RJA553",
        "origin_country": "Jordan",
        "time_position": 1790383726,
        "last_contact": 1790383726,
        "baro_altitude": 10972.8,
        "on_ground": false,
        "velocity": 252.57,
        "true_track": 237.05,
        "vertical_rate": -0.33,
        "geo_altitude": 11369.04,
        "squawk": "3726",
        "spi": false,
        "position_source": 0
      }
    },
    {
      "type": "Feature",
      "geometry": {
        "type": "Point",
        "coordinates": [
          14.1794,
          45.8423
        ]
      },
      "properties": {
        "icao24": "48c123",
        "callsign": "RYR2137",
        "origin_country": "Poland",
        "time_position": 1790383725,
        "last_contact": 1790383726,
        "baro_altitude": 12496.8,
        "on_ground": false,
        "velocity": 241.89,
        "true_track": 139.4,
        "vertical_rate": 0,
        "geo_altitude": 12931.14,
        "squawk": "0671",
        "spi": false,
        "position_source": 0
      }
    },
    {
      "type": "Feature",
      "geometry": {
        "type": "Point",
        "coordinates": [
          16.6215,
          42.9685
        ]
      },
      "properties": {
        "icao24": "407c0b",
        "callsign": "TOM7PV",
        "origin_country": "United Kingdom",
        "time_position": 1790383718,
        "last_contact": 1790383719,
        "baro_altitude": 11582.4,
        "on_ground": false,
        "velocity": 218.02,
        "true_track": 303.35,
        "vertical_rate": 0,
        "geo_altitude": 11955.78,
        "squawk": null,
        "spi": false,
        "position_source": 0
      }
    },
    {
      "type": "Feature",
      "geometry": {
        "type": "Point",
        "coordinates": [
          18.5408,
          40.357
        ]
      },
      "properties": {
        "icao24": "06a1e8",
        "callsign": "QTR8214",
        "origin_country": "Qatar",
        "time_position": 1790383724,
        "last_contact": 1790383724,
        "baro_altitude": 10058.4,
        "on_ground": false,
        "velocity": 274.52,
        "true_track": 146.7,
        "vertical_rate": 0,
        "geo_altitude": 10271.76,
        "squawk": null,
        "spi": false,
        "position_source": 0
      }
    },
    {
      "type": "Feature",
      "geometry": {
        "type": "Point",
        "coordinates": [
          17.2424,
          40.757
        ]
      },
      "properties": {
        "icao24": "4bb873",
        "callsign": "PGT1562",
        "origin_country": "Turkey",
        "time_position": 1790383726,
        "last_contact": 1790383726,
        "baro_altitude": 11269.98,
        "on_ground": false,
        "velocity": 228.21,
        "true_track": 96.21,
        "vertical_rate": 0,
        "geo_altitude": 11590.02,
        "squawk": "1226",
        "spi": false,
        "position_source": 0
      }
    },
    {
      "type": "Feature",
      "geometry": {
        "type": "Point",
        "coordinates": [
          15.8479,
          45.6664
        ]
      },
      "properties": {
        "icao24": "504e93",
        "callsign": "FIA5812",
        "origin_country": "Republic of Moldova",
        "time_position": 1790383726,
        "last_contact": 1790383726,
        "baro_altitude": 10675.62,
        "on_ground": false,
        "velocity": 218.97,
        "true_track": 71.65,
        "vertical_rate": 0,
        "geo_altitude": 11079.48,
        "squawk": "1147",
        "spi": false,
        "position_source": 0
      }
    },
    {
      "type": "Feature",
      "geometry": {
        "type": "Point",
        "coordinates": [
          9.8234,
          47.7832
        ]
      },
      "properties": {
        "icao24": "46b8b4",
        "callsign": "AEE631",
        "origin_country": "Greece",
        "time_position": 1790383726,
        "last_contact": 1790383726,
        "baro_altitude": 11277.6,
        "on_ground": false,
        "velocity": 242.54,
        "true_track": 115.37,
        "vertical_rate": 0,
        "geo_altitude": 11757.66,
        "squawk": "2227",
        "spi": false,
        "position_source": 0
      }
    },
    {
      "type": "Feature",
      "geometry": {
        "type": "Point",
        "coordinates": [
          12.1089,
          39.871
        ]
      },
      "properties": {
        "icao24": "468d07",
        "callsign": "SEH923",
        "origin_country": "Greece",
        "time_position": 1790383726,
        "last_contact": 1790383726,
        "baro_altitude": 11582.4,
        "on_ground": false,
        "velocity": 227.73,
        "true_track": 102,
        "vertical_rate": 0,
        "geo_altitude": 12077.7,
        "squawk": "1141",
        "spi": false,
        "position_source": 0
      }
    },
    {
      "type": "Feature",
      "geometry": {
        "type": "Point",
        "coordinates": [
          18.5546,
          47.2715
        ]
      },
      "properties": {
        "icao24": "48c230",
        "callsign": "RYS3093",
        "origin_country": "Poland",
        "time_position": 1790383726,
        "last_contact": 1790383726,
        "baro_altitude": 10668,
        "on_ground": false,
        "velocity": 261.94,
        "true_track": 160.85,
        "vertical_rate": 0,
        "geo_altitude": 11003.28,
        "squawk": "6022",
        "spi": false,
        "position_source": 0
      }
    },
    {
      "type": "Feature",
      "geometry": {
        "type": "Point",
        "coordinates": [
          13.0668,
          41.8095
        ]
      },
      "properties": {
        "icao24": "80159e",
        "callsign": "AIC119",
        "origin_country": "India",
        "time_position": 1790383726,
        "last_contact": 1790383726,
        "baro_altitude": 4526.28,
        "on_ground": false,
        "velocity": 186.81,
        "true_track": 252.86,
        "vertical_rate": -3.58,
        "geo_altitude": 4754.88,
        "squawk": "6031",
        "spi": false,
        "position_source": 0
      }
    },
    {
      "type": "Feature",
      "geometry": {
        "type": "Point",
        "coordinates": [
          8.5532,
          47.4634
        ]
      },
      "properties": {
        "icao24": "4b1808",
        "callsign": "SWR80K",
        "origin_country": "Switzerland",
        "time_position": 1790383726,
        "last_contact": 1790383726,
        "baro_altitude": null,
        "on_ground": true,
        "velocity": 0,
        "true_track": 8.44,
        "vertical_rate": null,
        "geo_altitude": null,
        "squawk": "2000",
        "spi": false,
        "position_source": 0
      }
    },
    {
      "type": "Feature",
      "geometry": {
        "type": "Point",
        "coordinates": [
          14.6424,
          45.9246
        ]
      },
      "properties": {
        "icao24": "408086",
        "callsign": "TOM649",
        "origin_country": "United Kingdom",
        "time_position": 1790383725,
        "last_contact": 1790383726,
        "baro_altitude": 11582.4,
        "on_ground": false,
        "velocity": 214.1,
        "true_track": 305.22,
        "vertical_rate": 0,
        "geo_altitude": 12039.6,
        "squawk": "5533",
        "spi": false,
        "position_source": 0
      }
    },
    {
      "type": "Feature",
      "geometry": {
        "type": "Point",
        "coordinates": [
          12.9046,
          35.966
        ]
      },
      "properties": {
        "icao24": "0a0046",
        "callsign": "DAH370",
        "origin_country": "Algeria",
        "time_position": 1790383726,
        "last_contact": 1790383726,
        "baro_altitude": 12496.8,
        "on_ground": false,
        "velocity": 230.82,
        "true_track": 96.27,
        "vertical_rate": 0,
        "geo_altitude": 12954,
        "squawk": "4103",
        "spi": false,
        "position_source": 0
      }
    },
    {
      "type": "Feature",
      "geometry": {
        "type": "Point",
        "coordinates": [
          6.1479,
          36.3055
        ]
      },
      "properties": {
        "icao24": "0a0022",
        "callsign": "DAH6169",
        "origin_country": "Algeria",
        "time_position": 1790383704,
        "last_contact": 1790383704,
        "baro_altitude": 4937.76,
        "on_ground": false,
        "velocity": 202.77,
        "true_track": 271.6,
        "vertical_rate": 13.66,
        "geo_altitude": 5242.56,
        "squawk": null,
        "spi": false,
        "position_source": 0
      }
    },
    {
      "type": "Feature",
      "geometry": {
        "type": "Point",
        "coordinates": [
          15.1608,
          45.6691
        ]
      },
      "properties": {
        "icao24": "408027",
        "callsign": "TOM9VE",
        "origin_country": "United Kingdom",
        "time_position": 1790383726,
        "last_contact": 1790383726,
        "baro_altitude": 11582.4,
        "on_ground": false,
        "velocity": 216.85,
        "true_track": 305.54,
        "vertical_rate": 0,
        "geo_altitude": 12016.74,
        "squawk": "5617",
        "spi": false,
        "position_source": 0
      }
    },
    {
      "type": "Feature",
      "geometry": {
        "type": "Point",
        "coordinates": [
          7.7239,
          45.6581
        ]
      },
      "properties": {
        "icao24": "440bc9",
        "callsign": "BCS19U",
        "origin_country": "Austria",
        "time_position": 1790383726,
        "last_contact": 1790383726,
        "baro_altitude": 6926.58,
        "on_ground": false,
        "velocity": 216.2,
        "true_track": 313.07,
        "vertical_rate": 7.8,
        "geo_altitude": 7322.82,
        "squawk": "5725",
        "spi": false,
        "position_source": 0
      }
    },
    {
      "type": "Feature",
      "geometry": {
        "type": "Point",
        "coordinates": [
          18.6896,
          40.514
        ]
      },
      "properties": {
        "icao24": "4baa70",
        "callsign": "THY5LY",
        "origin_country": "Turkey",
        "time_position": 1790383725,
        "last_contact": 1790383726,
        "baro_altitude": 10652.76,
        "on_ground": false,
        "velocity": 230.48,
        "true_track": 90.51,
        "vertical_rate": 0.98,
        "geo_altitude": 10888.98,
        "squawk": null,
        "spi": false,
        "position_source": 0
      }
    },
    {
      "type": "Feature",
      "geometry": {
        "type": "Point",
        "coordinates": [
          14.8594,
          47.1531
        ]
      },
      "properties": {
        "icao24": "4bcde6",
        "callsign": "SXS9WA",
        "origin_country": "Turkey",
        "time_position": 1790383726,
        "last_contact": 1790383726,
        "baro_altitude": 11277.6,
        "on_ground": false,
        "velocity": 249.48,
        "true_track": 130.82,
        "vertical_rate": 0,
        "geo_altitude": 11711.94,
        "squawk": "5436",
        "spi": false,
        "position_source": 0
      }
    },
    {
      "type": "Feature",
      "geometry": {
        "type": "Point",
        "coordinates": [
          16.3669,
          46.2273
        ]
      },
      "properties": {
        "icao24": "4bcdd4",
        "callsign": "SXS363",
        "origin_country": "Turkey",
        "time_position": 1790383726,
        "last_contact": 1790383726,
        "baro_altitude": 11277.6,
        "on_ground": false,
        "velocity": 248.45,
        "true_track": 135.08,
        "vertical_rate": 0,
        "geo_altitude": 11666.22,
        "squawk": "7650",
        "spi": false,
        "position_source": 0
      }
    },
    {
      "type": "Feature",
      "geometry": {
        "type": "Point",
        "coordinates": [
          18.4577,
          47.4715
        ]
      },
      "properties": {
        "icao24": "4bcdce",
        "callsign": "SXS75K",
        "origin_country": "Turkey",
        "time_position": 1790383726,
        "last_contact": 1790383726,
        "baro_altitude": 11277.6,
        "on_ground": false,
        "velocity": 256.02,
        "true_track": 144.07,
        "vertical_rate": 0,
        "geo_altitude": 11628.12,
        "squawk": "7620",
        "spi": false,
        "position_source": 0
      }
    },
    {
      "type": "Feature",
      "geometry": {
        "type": "Point",
        "coordinates": [
          8.7216,
          45.607
        ]
      },
      "properties": {
        "icao24": "3c1bb1",
        "callsign": null,
        "origin_country": "Germany",
        "time_position": 1790383535,
        "last_contact": 1790383537,
        "baro_altitude": null,
        "on_ground": true,
        "velocity": 1.54,
        "true_track": 264.38,
        "vertical_rate": null,
        "geo_altitude": null,
        "squawk": null,
        "spi": false,
        "position_source": 0
      }
    },
    {
      "type": "Feature",
      "geometry": {
        "type": "Point",
        "coordinates": [
          10.7705,
          45.4278
        ]
      },
      "properties": {
        "icao24": "5083c0",
        "callsign": "VKA191",
        "origin_country": "Ukraine",
        "time_position": 1790383726,
        "last_contact": 1790383726,
        "baro_altitude": 2514.6,
        "on_ground": false,
        "velocity": 87.14,
        "true_track": 67.07,
        "vertical_rate": 4.88,
        "geo_altitude": 2659.38,
        "squawk": "1000",
        "spi": false,
        "position_source": 0
      }
    },
    {
      "type": "Feature",
      "geometry": {
        "type": "Point",
        "coordinates": [
          14.2753,
          46.5086
        ]
      },
      "properties": {
        "icao24": "4bccba",
        "callsign": "SXS3FP",
        "origin_country": "Turkey",
        "time_position": 1790383726,
        "last_contact": 1790383726,
        "baro_altitude": 11277.6,
        "on_ground": false,
        "velocity": 248.92,
        "true_track": 130.31,
        "vertical_rate": 0,
        "geo_altitude": 11734.8,
        "squawk": "1175",
        "spi": false,
        "position_source": 0
      }
    },
    {
      "type": "Feature",
      "geometry": {
        "type": "Point",
        "coordinates": [
          17.4659,
          45.6683
        ]
      },
      "properties": {
        "icao24": "8966fd",
        "callsign": "UAE70",
        "origin_country": "United Arab Emirates",
        "time_position": 1790383726,
        "last_contact": 1790383726,
        "baro_altitude": 12496.8,
        "on_ground": false,
        "velocity": 259.69,
        "true_track": 123.28,
        "vertical_rate": 0,
        "geo_altitude": 12839.7,
        "squawk": "2257",
        "spi": false,
        "position_source": 0
      }
    },
    {
      "type": "Feature",
      "geometry": {
        "type": "Point",
        "coordinates": [
          12.1651,
          43.041
        ]
      },
      "properties": {
        "icao24": "4cafcb",
        "callsign": "MSA9725",
        "origin_country": "Ireland",
        "time_position": 1790383725,
        "last_contact": 1790383726,
        "baro_altitude": 10972.8,
        "on_ground": false,
        "velocity": 207.43,
        "true_track": 323.47,
        "vertical_rate": 0,
        "geo_altitude": 11422.38,
        "squawk": null,
        "spi": false,
        "position_source": 0
      }
    },
    {
      "type": "Feature",
      "geometry": {
        "type": "Point",
        "coordinates": [
          13.8296,
          35.846
        ]
      },
      "properties": {
        "icao24": "717c74",
        "callsign": "KNE661",
        "origin_country": "Saudi Arabia",
        "time_position": 1790383725,
        "last_contact": 1790383726,
        "baro_altitude": 10355.58,
        "on_ground": false,
        "velocity": 230.94,
        "true_track": 276.52,
        "vertical_rate": 0,
        "geo_altitude": 10797.54,
        "squawk": "2034",
        "spi": false,
        "position_source": 0
      }
    },
    {
      "type": "Feature",
      "geometry": {
        "type": "Point",
        "coordinates": [
          17.1462,
          38.9896
        ]
      },
      "properties": {
        "icao24": "4d24d2",
        "callsign": "DAH3015",
        "origin_country": "Malta",
        "time_position": 1790383726,
        "last_contact": 1790383726,
        "baro_altitude": 10988.04,
        "on_ground": false,
        "velocity": 242.44,
        "true_track": 256.38,
        "vertical_rate": 0,
        "geo_altitude": 11285.22,
        "squawk": "2321",
        "spi": false,
        "position_source": 0
      }
    },
    {
      "type": "Feature",
      "geometry": {
        "type": "Point",
        "coordinates": [
          16.3079,
          40.7761
        ]
      },
      "properties": {
        "icao24": "010289",
        "callsign": "MSR986",
        "origin_country": "Egypt",
        "time_position": 1790383726,
        "last_contact": 1790383726,
        "baro_altitude": 12496.8,
        "on_ground": false,
        "velocity": 261.01,
        "true_track": 124.72,
        "vertical_rate": 0,
        "geo_altitude": 12824.46,
        "squawk": "0424",
        "spi": false,
        "position_source": 0
      }
    },
    {
      "type": "Feature",
      "geometry": {
        "type": "Point",
        "coordinates": [
          15.2417,
          45.905
        ]
      },
      "properties": {
        "icao24": "4075f4",
        "callsign": "TOM2KB",
        "origin_country": "United Kingdom",
        "time_position": 1790383726,
        "last_contact": 1790383726,
        "baro_altitude": 11582.4,
        "on_ground": false,
        "velocity": 218.34,
        "true_track": 307.44,
        "vertical_rate": 0,
        "geo_altitude": 12016.74,
        "squawk": "2053",
        "spi": false,
        "position_source": 0
      }
    },
    {
      "type": "Feature",
      "geometry": {
        "type": "Point",
        "coordinates": [
          18.5,
          42.6287
        ]
      },
      "properties": {
        "icao24": "4cae05",
        "callsign": "NOS5500",
        "origin_country": "Ireland",
        "time_position": 1790383726,
        "last_contact": 1790383726,
        "baro_altitude": 10972.8,
        "on_ground": false,
        "velocity": 227.9,
        "true_track": 302.65,
        "vertical_rate": -0.33,
        "geo_altitude": 11269.98,
        "squawk": "5536",
        "spi": false,
        "position_source": 0
      }
    },
    {
      "type": "Feature",
      "geometry": {
        "type": "Point",
        "coordinates": [
          14.5913,
          46.5266
        ]
      },
      "properties": {
        "icao24": "3c5827",
        "callsign": "IFA4072",
        "origin_country": "Germany",
        "time_position": 1790383726,
        "last_contact": 1790383726,
        "baro_altitude": 10668,
        "on_ground": false,
        "velocity": 254.32,
        "true_track": 140.42,
        "vertical_rate": 1.63,
        "geo_altitude": 11117.58,
        "squawk": "2235",
        "spi": false,
        "position_source": 0
      }
    },
    {
      "type": "Feature",
      "geometry": {
        "type": "Point",
        "coordinates": [
          8.6069,
          45.4308
        ]
      },
      "properties": {
        "icao24": "300401",
        "callsign": "INOST",
        "origin_country": "Italy",
        "time_position": 1790383488,
        "last_contact": 1790383490,
        "baro_altitude": 114.3,
        "on_ground": false,
        "velocity": 4.4,
        "true_track": 339.44,
        "vertical_rate": -3.25,
        "geo_altitude": 236.22,
        "squawk": "1444",
        "spi": false,
        "position_source": 0
      }
    },
    {
      "type": "Feature",
      "geometry": {
        "type": "Point",
        "coordinates": [
          7.0123,
          40.9302
        ]
      },
      "properties": {
        "icao24": "4d2287",
        "callsign": "RYR9MZ",
        "origin_country": "Malta",
        "time_position": 1790383726,
        "last_contact": 1790383726,
        "baro_altitude": 10972.8,
        "on_ground": false,
        "velocity": 231.21,
        "true_track": 274.59,
        "vertical_rate": 0.33,
        "geo_altitude": 11513.82,
        "squawk": "1000",
        "spi": false,
        "position_source": 0
      }
    },
    {
      "type": "Feature",
      "geometry": {
        "type": "Point",
        "coordinates": [
          10.67,
          44.6391
        ]
      },
      "properties": {
        "icao24": "4cabf8",
        "callsign": "MSA976P",
        "origin_country": "Ireland",
        "time_position": 1790383725,
        "last_contact": 1790383726,
        "baro_altitude": 4808.22,
        "on_ground": false,
        "velocity": 168.47,
        "true_track": 350.51,
        "vertical_rate": -11.05,
        "geo_altitude": 5082.54,
        "squawk": "1000",
        "spi": false,
        "position_source": 0
      }
    },
    {
      "type": "Feature",
      "geometry": {
        "type": "Point",
        "coordinates": [
          17.1984,
          44.7169
        ]
      },
      "properties": {
        "icao24": "40832b",
        "callsign": "TOM62L",
        "origin_country": "United Kingdom",
        "time_position": 1790383726,
        "last_contact": 1790383726,
        "baro_altitude": 11582.4,
        "on_ground": false,
        "velocity": 214.83,
        "true_track": 310.82,
        "vertical_rate": 0,
        "geo_altitude": 11963.4,
        "squawk": "5621",
        "spi": false,
        "position_source": 0
      }
    },
    {
      "type": "Feature",
      "geometry": {
        "type": "Point",
        "coordinates": [
          7.5313,
          47.5955
        ]
      },
      "properties": {
        "icao24": "38fbff",
        "callsign": "UBER1",
        "origin_country": "France",
        "time_position": 1790383702,
        "last_contact": 1790383702,
        "baro_altitude": null,
        "on_ground": true,
        "velocity": 8.75,
        "true_track": 64.69,
        "vertical_rate": null,
        "geo_altitude": null,
        "squawk": null,
        "spi": false,
        "position_source": 0
      }
    },
    {
      "type": "Feature",
      "geometry": {
        "type": "Point",
        "coordinates": [
          12.0901,
          40.3939
        ]
      },
      "properties": {
        "icao24": "4692d8",
        "callsign": "AEE715",
        "origin_country": "Greece",
        "time_position": 1790383726,
        "last_contact": 1790383726,
        "baro_altitude": 10972.8,
        "on_ground": false,
        "velocity": 224.86,
        "true_track": 94.07,
        "vertical_rate": 0,
        "geo_altitude": 11452.86,
        "squawk": "4317",
        "spi": false,
        "position_source": 0
      }
    },
    {
      "type": "Feature",
      "geometry": {
        "type": "Point",
        "coordinates": [
          15.3259,
          47.1198
        ]
      },
      "properties": {
        "icao24": "4692d7",
        "callsign": "AEE507",
        "origin_country": "Greece",
        "time_position": 1790383726,
        "last_contact": 1790383726,
        "baro_altitude": 11887.2,
        "on_ground": false,
        "velocity": 247.34,
        "true_track": 143.2,
        "vertical_rate": 0,
        "geo_altitude": 12329.16,
        "squawk": "6410",
        "spi": false,
        "position_source": 0
      }
    },
    {
      "type": "Feature",
      "geometry": {
        "type": "Point",
        "coordinates": [
          9.1722,
          45.542
        ]
      },
      "properties": {
        "icao24": "4d201e",
        "callsign": "WMT9GW",
        "origin_country": "Malta",
        "time_position": 1790383726,
        "last_contact": 1790383726,
        "baro_altitude": 10683.24,
        "on_ground": false,
        "velocity": 239.97,
        "true_track": 153.93,
        "vertical_rate": -0.33,
        "geo_altitude": 11201.4,
        "squawk": "5204",
        "spi": false,
        "position_source": 0
      }
    },
    {
      "type": "Feature",
      "geometry": {
        "type": "Point",
        "coordinates": [
          12.5257,
          46.8214
        ]
      },
      "properties": {
        "icao24": "4082e6",
        "callsign": "TOM345",
        "origin_country": "United Kingdom",
        "time_position": 1790383726,
        "last_contact": 1790383726,
        "baro_altitude": 11582.4,
        "on_ground": false,
        "velocity": 212.68,
        "true_track": 298.3,
        "vertical_rate": 0,
        "geo_altitude": 12054.84,
        "squawk": "2052",
        "spi": false,
        "position_source": 0
      }
    },
    {
      "type": "Feature",
      "geometry": {
        "type": "Point",
        "coordinates": [
          15.041,
          47.2347
        ]
      },
      "properties": {
        "icao24": "4082cc",
        "callsign": "TOM267",
        "origin_country": "United Kingdom",
        "time_position": 1790383726,
        "last_contact": 1790383726,
        "baro_altitude": 11582.4,
        "on_ground": false,
        "velocity": 210.78,
        "true_track": 309.75,
        "vertical_rate": 0,
        "geo_altitude": 12024.36,
        "squawk": "2653",
        "spi": false,
        "position_source": 0
      }
    },
    {
      "type": "Feature",
      "geometry": {
        "type": "Point",
        "coordinates": [
          8.5607,
          47.4455
        ]
      },
      "properties": {
        "icao24": "4b17fe",
        "callsign": "SWR",
        "origin_country": "Switzerland",
        "time_position": 1790383716,
        "last_contact": 1790383726,
        "baro_altitude": null,
        "on_ground": true,
        "velocity": 0,
        "true_track": 244.69,
        "vertical_rate": null,
        "geo_altitude": null,
        "squawk": "2000",
        "spi": false,
        "position_source": 0
      }
    }
  ]
}