{
  "type": "FeatureCollection",
  "source": "opensky",
  "dataset": "aircraft_italy",
  "generated_at": "2026-09-07T23:01:03.936494+00:00",
  "opensky_time": 1788822059,
  "count": 153,
  "features": [
    {
      "type": "Feature",
      "geometry": {
        "type": "Point",
        "coordinates": [
          16.81,
          40.1539
        ]
      },
      "properties": {
        "icao24": "801659",
        "callsign": "AIC106",
        "origin_country": "India",
        "time_position": 1788822058,
        "last_contact": 1788822058,
        "baro_altitude": 11887.2,
        "on_ground": false,
        "velocity": 260.44,
        "true_track": 116.26,
        "vertical_rate": 0,
        "geo_altitude": 12504.42,
        "squawk": "0202",
        "spi": false,
        "position_source": 0
      }
    },
    {
      "type": "Feature",
      "geometry": {
        "type": "Point",
        "coordinates": [
          11.2805,
          42.0847
        ]
      },
      "properties": {
        "icao24": "801665",
        "callsign": "AIC11E",
        "origin_country": "India",
        "time_position": 1788822059,
        "last_contact": 1788822059,
        "baro_altitude": 11887.2,
        "on_ground": false,
        "velocity": 256.83,
        "true_track": 112.87,
        "vertical_rate": 0,
        "geo_altitude": 12489.18,
        "squawk": "0216",
        "spi": false,
        "position_source": 0
      }
    },
    {
      "type": "Feature",
      "geometry": {
        "type": "Point",
        "coordinates": [
          13.9572,
          46.1688
        ]
      },
      "properties": {
        "icao24": "46b826",
        "callsign": "AEE609",
        "origin_country": "Greece",
        "time_position": 1788822058,
        "last_contact": 1788822058,
        "baro_altitude": 11269.98,
        "on_ground": false,
        "velocity": 246.37,
        "true_track": 133.39,
        "vertical_rate": 0,
        "geo_altitude": 11841.48,
        "squawk": "0560",
        "spi": false,
        "position_source": 0
      }
    },
    {
      "type": "Feature",
      "geometry": {
        "type": "Point",
        "coordinates": [
          14.8159,
          45.9163
        ]
      },
      "properties": {
        "icao24": "407b8b",
        "callsign": "WUK962",
        "origin_country": "United Kingdom",
        "time_position": 1788822058,
        "last_contact": 1788822058,
        "baro_altitude": 10972.8,
        "on_ground": false,
        "velocity": 221.17,
        "true_track": 315.19,
        "vertical_rate": 0.33,
        "geo_altitude": 11544.3,
        "squawk": "5613",
        "spi": false,
        "position_source": 0
      }
    },
    {
      "type": "Feature",
      "geometry": {
        "type": "Point",
        "coordinates": [
          16.8906,
          47.0449
        ]
      },
      "properties": {
        "icao24": "471fa9",
        "callsign": "WZZ1JS",
        "origin_country": "Hungary",
        "time_position": 1788822058,
        "last_contact": 1788822059,
        "baro_altitude": 10066.02,
        "on_ground": false,
        "velocity": 247.65,
        "true_track": 83.2,
        "vertical_rate": 0,
        "geo_altitude": 10584.18,
        "squawk": "1000",
        "spi": false,
        "position_source": 0
      }
    },
    {
      "type": "Feature",
      "geometry": {
        "type": "Point",
        "coordinates": [
          16.2429,
          44.1975
        ]
      },
      "properties": {
        "icao24": "471fa3",
        "callsign": "WZZ1714",
        "origin_country": "Hungary",
        "time_position": 1788822058,
        "last_contact": 1788822058,
        "baro_altitude": 11277.6,
        "on_ground": false,
        "velocity": 229.21,
        "true_track": 13.63,
        "vertical_rate": 0,
        "geo_altitude": 11871.96,
        "squawk": "1263",
        "spi": false,
        "position_source": 0
      }
    },
    {
      "type": "Feature",
      "geometry": {
        "type": "Point",
        "coordinates": [
          11.9773,
          45.6649
        ]
      },
      "properties": {
        "icao24": "471fad",
        "callsign": "WZZ6579",
        "origin_country": "Hungary",
        "time_position": 1788822058,
        "last_contact": 1788822058,
        "baro_altitude": 9616.44,
        "on_ground": false,
        "velocity": 241.79,
        "true_track": 89.88,
        "vertical_rate": 4.88,
        "geo_altitude": 10149.84,
        "squawk": "3742",
        "spi": false,
        "position_source": 0
      }
    },
    {
      "type": "Feature",
      "geometry": {
        "type": "Point",
        "coordinates": [
          12.13,
          47.1765
        ]
      },
      "properties": {
        "icao24": "738075",
        "callsign": "ELY318",
        "origin_country": "Israel",
        "time_position": 1788822058,
        "last_contact": 1788822058,
        "baro_altitude": 11277.6,
        "on_ground": false,
        "velocity": 255.48,
        "true_track": 125.16,
        "vertical_rate": 0,
        "geo_altitude": 11818.62,
        "squawk": "7537",
        "spi": false,
        "position_source": 0
      }
    },
    {
      "type": "Feature",
      "geometry": {
        "type": "Point",
        "coordinates": [
          8.7091,
          40.5599
        ]
      },
      "properties": {
        "icao24": "738050",
        "callsign": "ELY398",
        "origin_country": "Israel",
        "time_position": 1788822058,
        "last_contact": 1788822058,
        "baro_altitude": 10599.42,
        "on_ground": false,
        "velocity": 236.8,
        "true_track": 100.89,
        "vertical_rate": 4.23,
        "geo_altitude": 11201.4,
        "squawk": "1201",
        "spi": false,
        "position_source": 0
      }
    },
    {
      "type": "Feature",
      "geometry": {
        "type": "Point",
        "coordinates": [
          17.1057,
          42.6875
        ]
      },
      "properties": {
        "icao24": "738052",
        "callsign": "ELY388",
        "origin_country": "Israel",
        "time_position": 1788822054,
        "last_contact": 1788822056,
        "baro_altitude": 10668,
        "on_ground": false,
        "velocity": 240.73,
        "true_track": 122.88,
        "vertical_rate": 0,
        "geo_altitude": 11254.74,
        "squawk": "3752",
        "spi": false,
        "position_source": 0
      }
    },
    {
      "type": "Feature",
      "geometry": {
        "type": "Point",
        "coordinates": [
          11.5618,
          39.9865
        ]
      },
      "properties": {
        "icao24": "738059",
        "callsign": "ELY392",
        "origin_country": "Israel",
        "time_position": 1788822058,
        "last_contact": 1788822059,
        "baro_altitude": 11277.6,
        "on_ground": false,
        "velocity": 231.36,
        "true_track": 101.93,
        "vertical_rate": 0,
        "geo_altitude": 11894.82,
        "squawk": "0212",
        "spi": false,
        "position_source": 0
      }
    },
    {
      "type": "Feature",
      "geometry": {
        "type": "Point",
        "coordinates": [
          18.759,
          45.0444
        ]
      },
      "properties": {
        "icao24": "896114",
        "callsign": "UAE232",
        "origin_country": "United Arab Emirates",
        "time_position": 1788822058,
        "last_contact": 1788822058,
        "baro_altitude": 11277.6,
        "on_ground": false,
        "velocity": 263.66,
        "true_track": 116.42,
        "vertical_rate": 0,
        "geo_altitude": 11841.48,
        "squawk": "2373",
        "spi": false,
        "position_source": 0
      }
    },
    {
      "type": "Feature",
      "geometry": {
        "type": "Point",
        "coordinates": [
          16.0253,
          45.2223
        ]
      },
      "properties": {
        "icao24": "471d60",
        "callsign": "WZZ9198",
        "origin_country": "Hungary",
        "time_position": 1788822059,
        "last_contact": 1788822059,
        "baro_altitude": 11277.6,
        "on_ground": false,
        "velocity": 243.1,
        "true_track": 84.05,
        "vertical_rate": 0,
        "geo_altitude": 11864.34,
        "squawk": "0417",
        "spi": false,
        "position_source": 0
      }
    },
    {
      "type": "Feature",
      "geometry": {
        "type": "Point",
        "coordinates": [
          15.6951,
          45.2806
        ]
      },
      "properties": {
        "icao24": "406900",
        "callsign": "EXS8GN",
        "origin_country": "United Kingdom",
        "time_position": 1788822058,
        "last_contact": 1788822058,
        "baro_altitude": 10972.8,
        "on_ground": false,
        "velocity": 222.45,
        "true_track": 312.66,
        "vertical_rate": 0,
        "geo_altitude": 11544.3,
        "squawk": "1342",
        "spi": false,
        "position_source": 0
      }
    },
    {
      "type": "Feature",
      "geometry": {
        "type": "Point",
        "coordinates": [
          8.6359,
          45.2129
        ]
      },
      "properties": {
        "icao24": "440191",
        "callsign": "EJU72TV",
        "origin_country": "Austria",
        "time_position": 1788822058,
        "last_contact": 1788822058,
        "baro_altitude": 2164.08,
        "on_ground": false,
        "velocity": 150.59,
        "true_track": 24.2,
        "vertical_rate": -9.43,
        "geo_altitude": 2407.92,
        "squawk": "1000",
        "spi": false,
        "position_source": 0
      }
    },
    {
      "type": "Feature",
      "geometry": {
        "type": "Point",
        "coordinates": [
          18.7612,
          46.7636
        ]
      },
      "properties": {
        "icao24": "471dbb",
        "callsign": "WZZ456",
        "origin_country": "Hungary",
        "time_position": 1788822059,
        "last_contact": 1788822059,
        "baro_altitude": 9753.6,
        "on_ground": false,
        "velocity": 215.66,
        "true_track": 324.91,
        "vertical_rate": 0,
        "geo_altitude": 10264.14,
        "squawk": "4137",
        "spi": false,
        "position_source": 0
      }
    },
    {
      "type": "Feature",
      "geometry": {
        "type": "Point",
        "coordinates": [
          18.2949,
          47.1443
        ]
      },
      "properties": {
        "icao24": "471dbc",
        "callsign": "WZZ34SY",
        "origin_country": "Hungary",
        "time_position": 1788822058,
        "last_contact": 1788822058,
        "baro_altitude": 5166.36,
        "on_ground": false,
        "velocity": 182.25,
        "true_track": 83.52,
        "vertical_rate": -8.45,
        "geo_altitude": 5494.02,
        "squawk": "1000",
        "spi": false,
        "position_source": 0
      }
    },
    {
      "type": "Feature",
      "geometry": {
        "type": "Point",
        "coordinates": [
          12.2627,
          41.8025
        ]
      },
      "properties": {
        "icao24": "300a3b",
        "callsign": "ITY1320",
        "origin_country": "Italy",
        "time_position": 1788822016,
        "last_contact": 1788822016,
        "baro_altitude": null,
        "on_ground": true,
        "velocity": 0,
        "true_track": 205.31,
        "vertical_rate": null,
        "geo_altitude": null,
        "squawk": null,
        "spi": false,
        "position_source": 0
      }
    },
    {
      "type": "Feature",
      "geometry": {
        "type": "Point",
        "coordinates": [
          6.7662,
          43.254
        ]
      },
      "properties": {
        "icao24": "020124",
        "callsign": "MAC455",
        "origin_country": "Morocco",
        "time_position": 1788822059,
        "last_contact": 1788822059,
        "baro_altitude": 10972.8,
        "on_ground": false,
        "velocity": 236.13,
        "true_track": 51.46,
        "vertical_rate": 0,
        "geo_altitude": 11590.02,
        "squawk": "1000",
        "spi": false,
        "position_source": 0
      }
    },
    {
      "type": "Feature",
      "geometry": {
        "type": "Point",
        "coordinates": [
          18.6279,
          47.3871
        ]
      },
      "properties": {
        "icao24": "780a89",
        "callsign": "CPA254",
        "origin_country": "China",
        "time_position": 1788822058,
        "last_contact": 1788822058,
        "baro_altitude": 10058.4,
        "on_ground": false,
        "velocity": 274.7,
        "true_track": 114.21,
        "vertical_rate": 0,
        "geo_altitude": 10553.7,
        "squawk": "4617",
        "spi": false,
        "position_source": 0
      }
    },
    {
      "type": "Feature",
      "geometry": {
        "type": "Point",
        "coordinates": [
          15.1587,
          45.7193
        ]
      },
      "properties": {
        "icao24": "80073c",
        "callsign": "AIC132",
        "origin_country": "India",
        "time_position": 1788822058,
        "last_contact": 1788822058,
        "baro_altitude": 11277.6,
        "on_ground": false,
        "velocity": 262.03,
        "true_track": 133.25,
        "vertical_rate": -0.33,
        "geo_altitude": 11849.1,
        "squawk": "7570",
        "spi": false,
        "position_source": 0
      }
    },
    {
      "type": "Feature",
      "geometry": {
        "type": "Point",
        "coordinates": [
          12.8507,
          36.4285
        ]
      },
      "properties": {
        "icao24": "8963d0",
        "callsign": "UAE194",
        "origin_country": "United Arab Emirates",
        "time_position": 1788822058,
        "last_contact": 1788822058,
        "baro_altitude": 10668,
        "on_ground": false,
        "velocity": 262.45,
        "true_track": 95.29,
        "vertical_rate": 0,
        "geo_altitude": 11300.46,
        "squawk": "2251",
        "spi": false,
        "position_source": 0
      }
    },
    {
      "type": "Feature",
      "geometry": {
        "type": "Point",
        "coordinates": [
          12.3459,
          45.5073
        ]
      },
      "properties": {
        "icao24": "3465d8",
        "callsign": "VOE1491",
        "origin_country": "Spain",
        "time_position": 1788822012,
        "last_contact": 1788822013,
        "baro_altitude": -45.72,
        "on_ground": true,
        "velocity": 7.72,
        "true_track": 312.19,
        "vertical_rate": null,
        "geo_altitude": null,
        "squawk": "2071",
        "spi": false,
        "position_source": 0
      }
    },
    {
      "type": "Feature",
      "geometry": {
        "type": "Point",
        "coordinates": [
          13.7518,
          46.6854
        ]
      },
      "properties": {
        "icao24": "4bb154",
        "callsign": "THY6627",
        "origin_country": "Turkey",
        "time_position": 1788822059,
        "last_contact": 1788822059,
        "baro_altitude": 11277.6,
        "on_ground": false,
        "velocity": 263.52,
        "true_track": 104.01,
        "vertical_rate": 0,
        "geo_altitude": 11826.24,
        "squawk": "2376",
        "spi": false,
        "position_source": 0
      }
    },
    {
      "type": "Feature",
      "geometry": {
        "type": "Point",
        "coordinates": [
          6.8078,
          44.2212
        ]
      },
      "properties": {
        "icao24": "4067f2",
        "callsign": "TOM3WL",
        "origin_country": "United Kingdom",
        "time_position": 1788822058,
        "last_contact": 1788822058,
        "baro_altitude": 11582.4,
        "on_ground": false,
        "velocity": 219.54,
        "true_track": 328.02,
        "vertical_rate": 0.33,
        "geo_altitude": 12192,
        "squawk": "4050",
        "spi": false,
        "position_source": 0
      }
    },
    {
      "type": "Feature",
      "geometry": {
        "type": "Point",
        "coordinates": [
          15.801,
          44.5663
        ]
      },
      "properties": {
        "icao24": "4067f0",
        "callsign": "TOM285",
        "origin_country": "United Kingdom",
        "time_position": 1788822057,
        "last_contact": 1788822058,
        "baro_altitude": 10972.8,
        "on_ground": false,
        "velocity": 230.21,
        "true_track": 320.44,
        "vertical_rate": 0,
        "geo_altitude": 11544.3,
        "squawk": "2015",
        "spi": false,
        "position_source": 0
      }
    },
    {
      "type": "Feature",
      "geometry": {
        "type": "Point",
        "coordinates": [
          17.8115,
          42.384
        ]
      },
      "properties": {
        "icao24": "89647f",
        "callsign": "UAE5V",
        "origin_country": "United Arab Emirates",
        "time_position": 1788822056,
        "last_contact": 1788822056,
        "baro_altitude": 11887.2,
        "on_ground": false,
        "velocity": 253.62,
        "true_track": 118.07,
        "vertical_rate": 0,
        "geo_altitude": 12481.56,
        "squawk": "0415",
        "spi": false,
        "position_source": 0
      }
    },
    {
      "type": "Feature",
      "geometry": {
        "type": "Point",
        "coordinates": [
          15.9688,
          46.6969
        ]
      },
      "properties": {
        "icao24": "3965a4",
        "callsign": "AFR256",
        "origin_country": "France",
        "time_position": 1788822058,
        "last_contact": 1788822059,
        "baro_altitude": 9448.8,
        "on_ground": false,
        "velocity": 267.81,
        "true_track": 98.39,
        "vertical_rate": 0,
        "geo_altitude": 9951.72,
        "squawk": "0672",
        "spi": false,
        "position_source": 0
      }
    },
    {
      "type": "Feature",
      "geometry": {
        "type": "Point",
        "coordinates": [
          13.5256,
          47.3621
        ]
      },
      "properties": {
        "icao24": "4bb027",
        "callsign": "TKJ9CT",
        "origin_country": "Turkey",
        "time_position": 1788822058,
        "last_contact": 1788822058,
        "baro_altitude": 11887.2,
        "on_ground": false,
        "velocity": 243.35,
        "true_track": 131.92,
        "vertical_rate": 0,
        "geo_altitude": 12420.6,
        "squawk": "2245",
        "spi": false,
        "position_source": 0
      }
    },
    {
      "type": "Feature",
      "geometry": {
        "type": "Point",
        "coordinates": [
          14.87,
          45.5712
        ]
      },
      "properties": {
        "icao24": "4077bb",
        "callsign": "EXS1470",
        "origin_country": "United Kingdom",
        "time_position": 1788822059,
        "last_contact": 1788822059,
        "baro_altitude": 11582.4,
        "on_ground": false,
        "velocity": 220.15,
        "true_track": 316.42,
        "vertical_rate": 0,
        "geo_altitude": 12153.9,
        "squawk": "2007",
        "spi": false,
        "position_source": 0
      }
    },
    {
      "type": "Feature",
      "geometry": {
        "type": "Point",
        "coordinates": [
          7.7979,
          44.108
        ]
      },
      "properties": {
        "icao24": "346390",
        "callsign": "EVE846",
        "origin_country": "Spain",
        "time_position": 1788822058,
        "last_contact": 1788822059,
        "baro_altitude": 12192,
        "on_ground": false,
        "velocity": 233.19,
        "true_track": 239.36,
        "vertical_rate": 0,
        "geo_altitude": 12733.02,
        "squawk": "4033",
        "spi": false,
        "position_source": 0
      }
    },
    {
      "type": "Feature",
      "geometry": {
        "type": "Point",
        "coordinates": [
          9.0807,
          47.3266
        ]
      },
      "properties": {
        "icao24": "407837",
        "callsign": "EZY95YX",
        "origin_country": "United Kingdom",
        "time_position": 1788822058,
        "last_contact": 1788822058,
        "baro_altitude": 10363.2,
        "on_ground": false,
        "velocity": 231.92,
        "true_track": 302.32,
        "vertical_rate": 0,
        "geo_altitude": 10896.6,
        "squawk": "2751",
        "spi": false,
        "position_source": 0
      }
    },
    {
      "type": "Feature",
      "geometry": {
        "type": "Point",
        "coordinates": [
          18.701,
          44.0563
        ]
      },
      "properties": {
        "icao24": "4078fd",
        "callsign": "EXS5TV",
        "origin_country": "United Kingdom",
        "time_position": 1788822058,
        "last_contact": 1788822058,
        "baro_altitude": 10972.8,
        "on_ground": false,
        "velocity": 218.99,
        "true_track": 315.19,
        "vertical_rate": 0,
        "geo_altitude": 11559.54,
        "squawk": "5652",
        "spi": false,
        "position_source": 0
      }
    },
    {
      "type": "Feature",
      "geometry": {
        "type": "Point",
        "coordinates": [
          10.4871,
          46.6998
        ]
      },
      "properties": {
        "icao24": "4078f0",
        "callsign": "EZY69TN",
        "origin_country": "United Kingdom",
        "time_position": 1788822058,
        "last_contact": 1788822058,
        "baro_altitude": 10370.82,
        "on_ground": false,
        "velocity": 225.01,
        "true_track": 303.44,
        "vertical_rate": 0,
        "geo_altitude": 10896.6,
        "squawk": "2772",
        "spi": false,
        "position_source": 0
      }
    },
    {
      "type": "Feature",
      "geometry": {
        "type": "Point",
        "coordinates": [
          10.9786,
          47.5107
        ]
      },
      "properties": {
        "icao24": "40665f",
        "callsign": "TOM771",
        "origin_country": "United Kingdom",
        "time_position": 1788822059,
        "last_contact": 1788822059,
        "baro_altitude": 10972.8,
        "on_ground": false,
        "velocity": 230.04,
        "true_track": 294.16,
        "vertical_rate": 0.33,
        "geo_altitude": 11498.58,
        "squawk": "3127",
        "spi": false,
        "position_source": 0
      }
    },
    {
      "type": "Feature",
      "geometry": {
        "type": "Point",
        "coordinates": [
          14.3251,
          39.6485
        ]
      },
      "properties": {
        "icao24": "346499",
        "callsign": "IBE08SP",
        "origin_country": "Spain",
        "time_position": 1788822058,
        "last_contact": 1788822058,
        "baro_altitude": 10668,
        "on_ground": false,
        "velocity": 238.99,
        "true_track": 102.81,
        "vertical_rate": 0,
        "geo_altitude": 11277.6,
        "squawk": "1443",
        "spi": false,
        "position_source": 0
      }
    },
    {
      "type": "Feature",
      "geometry": {
        "type": "Point",
        "coordinates": [
          18.1715,
          45.5056
        ]
      },
      "properties": {
        "icao24": "40796c",
        "callsign": "TOM7KY",
        "origin_country": "United Kingdom",
        "time_position": 1788822058,
        "last_contact": 1788822058,
        "baro_altitude": 10972.8,
        "on_ground": false,
        "velocity": 219.74,
        "true_track": 295.67,
        "vertical_rate": 0,
        "geo_altitude": 11536.68,
        "squawk": "7210",
        "spi": false,
        "position_source": 0
      }
    },
    {
      "type": "Feature",
      "geometry": {
        "type": "Point",
        "coordinates": [
          15.5757,
          35.9955
        ]
      },
      "properties": {
        "icao24": "896680",
        "callsign": "UAE144",
        "origin_country": "United Arab Emirates",
        "time_position": 1788822058,
        "last_contact": 1788822058,
        "baro_altitude": 11887.2,
        "on_ground": false,
        "velocity": 267.99,
        "true_track": 100.62,
        "vertical_rate": 0,
        "geo_altitude": 12573,
        "squawk": "4105",
        "spi": false,
        "position_source": 0
      }
    },
    {
      "type": "Feature",
      "geometry": {
        "type": "Point",
        "coordinates": [
          18.56,
          45.0891
        ]
      },
      "properties": {
        "icao24": "894097",
        "callsign": "GFA006",
        "origin_country": "Bahrain",
        "time_position": 1788822058,
        "last_contact": 1788822058,
        "baro_altitude": 11887.2,
        "on_ground": false,
        "velocity": 260.12,
        "true_track": 123.22,
        "vertical_rate": 0,
        "geo_altitude": 12458.7,
        "squawk": "7503",
        "spi": false,
        "position_source": 0
      }
    },
    {
      "type": "Feature",
      "geometry": {
        "type": "Point",
        "coordinates": [
          12.4765,
          40.8866
        ]
      },
      "properties": {
        "icao24": "040199",
        "callsign": "ETH553",
        "origin_country": "Ethiopia",
        "time_position": 1788822058,
        "last_contact": 1788822058,
        "baro_altitude": 11277.6,
        "on_ground": false,
        "velocity": 254.52,
        "true_track": 125.46,
        "vertical_rate": -0.33,
        "geo_altitude": 11894.82,
        "squawk": "2240",
        "spi": false,
        "position_source": 0
      }
    },
    {
      "type": "Feature",
      "geometry": {
        "type": "Point",
        "coordinates": [
          6.9464,
          37.2688
        ]
      },
      "properties": {
        "icao24": "040125",
        "callsign": "ETH741",
        "origin_country": "Ethiopia",
        "time_position": 1788821891,
        "last_contact": 1788821891,
        "baro_altitude": 11879.58,
        "on_ground": false,
        "velocity": 252.54,
        "true_track": 107.18,
        "vertical_rate": 0,
        "geo_altitude": 12527.28,
        "squawk": "1444",
        "spi": false,
        "position_source": 0
      }
    },
    {
      "type": "Feature",
      "geometry": {
        "type": "Point",
        "coordinates": [
          14.8189,
          40.2062
        ]
      },
      "properties": {
        "icao24": "49d3bb",
        "callsign": "ISR344",
        "origin_country": "Czech Republic",
        "time_position": 1788822059,
        "last_contact": 1788822059,
        "baro_altitude": 10058.4,
        "on_ground": false,
        "velocity": 234.44,
        "true_track": 116.17,
        "vertical_rate": 0,
        "geo_altitude": 10652.76,
        "squawk": null,
        "spi": false,
        "position_source": 0
      }
    },
    {
      "type": "Feature",
      "geometry": {
        "type": "Point",
        "coordinates": [
          16.7995,
          47.4989
        ]
      },
      "properties": {
        "icao24": "406f78",
        "callsign": "BAW15",
        "origin_country": "United Kingdom",
        "time_position": 1788822059,
        "last_contact": 1788822059,
        "baro_altitude": 10668,
        "on_ground": false,
        "velocity": 271.26,
        "true_track": 117.2,
        "vertical_rate": 0,
        "geo_altitude": 11178.54,
        "squawk": "5226",
        "spi": false,
        "position_source": 0
      }
    },
    {
      "type": "Feature",
      "geometry": {
        "type": "Point",
        "coordinates": [
          15.0285,
          46.377
        ]
      },
      "properties": {
        "icao24": "394a03",
        "callsign": "AFR116",
        "origin_country": "France",
        "time_position": 1788822058,
        "last_contact": 1788822058,
        "baro_altitude": 9448.8,
        "on_ground": false,
        "velocity": 266.9,
        "true_track": 105.88,
        "vertical_rate": 0.33,
        "geo_altitude": 9966.96,
        "squawk": "0676",
        "spi": false,
        "position_source": 0
      }
    },
    {
      "type": "Feature",
      "geometry": {
        "type": "Point",
        "coordinates": [
          13.5244,
          40.4083
        ]
      },
      "properties": {
        "icao24": "04021d",
        "callsign": "ETH501",
        "origin_country": "Ethiopia",
        "time_position": 1788822058,
        "last_contact": 1788822058,
        "baro_altitude": 11277.6,
        "on_ground": false,
        "velocity": 253.83,
        "true_track": 127.01,
        "vertical_rate": 0,
        "geo_altitude": 11871.96,
        "squawk": "0207",
        "spi": false,
        "position_source": 0
      }
    },
    {
      "type": "Feature",
      "geometry": {
        "type": "Point",
        "coordinates": [
          14.0182,
          43.566
        ]
      },
      "properties": {
        "icao24": "394a0e",
        "callsign": "AFR672",
        "origin_country": "France",
        "time_position": 1788822058,
        "last_contact": 1788822059,
        "baro_altitude": 9448.8,
        "on_ground": false,
        "velocity": 260.28,
        "true_track": 137.16,
        "vertical_rate": 0,
        "geo_altitude": 10020.3,
        "squawk": "0674",
        "spi": false,
        "position_source": 0
      }
    },
    {
      "type": "Feature",
      "geometry": {
        "type": "Point",
        "coordinates": [
          15.5851,
          38.231
        ]
      },
      "properties": {
        "icao24": "06a2eb",
        "callsign": "QTR48K",
        "origin_country": "Qatar",
        "time_position": 1788822058,
        "last_contact": 1788822059,
        "baro_altitude": 11277.6,
        "on_ground": false,
        "velocity": 268.8,
        "true_track": 113.82,
        "vertical_rate": -0.33,
        "geo_altitude": 11932.92,
        "squawk": "1421",
        "spi": false,
        "position_source": 0
      }
    },
    {
      "type": "Feature",
      "geometry": {
        "type": "Point",
        "coordinates": [
          14.38,
          36.1698
        ]
      },
      "properties": {
        "icao24": "06a2ea",
        "callsign": "QTR152",
        "origin_country": "Qatar",
        "time_position": 1788822058,
        "last_contact": 1788822058,
        "baro_altitude": 11277.6,
        "on_ground": false,
        "velocity": 275.63,
        "true_track": 99.78,
        "vertical_rate": 0,
        "geo_altitude": 11963.4,
        "squawk": "4116",
        "spi": false,
        "position_source": 0
      }
    },
    {
      "type": "Feature",
      "geometry": {
        "type": "Point",
        "coordinates": [
          17.6894,
          47.0252
        ]
      },
      "properties": {
        "icao24": "49d423",
        "callsign": "TVS2526",
        "origin_country": "Czech Republic",
        "time_position": 1788822058,
        "last_contact": 1788822058,
        "baro_altitude": 10668,
        "on_ground": false,
        "velocity": 251.55,
        "true_track": 141.56,
        "vertical_rate": 0,
        "geo_altitude": 11170.92,
        "squawk": "4530",
        "spi": false,
        "position_source": 0
      }
    },
    {
      "type": "Feature",
      "geometry": {
        "type": "Point",
        "coordinates": [
          16.563,
          43.502
        ]
      },
      "properties": {
        "icao24": "407fc2",
        "callsign": "WUK7402",
        "origin_country": "United Kingdom",
        "time_position": 1788822057,
        "last_contact": 1788822057,
        "baro_altitude": 10668,
        "on_ground": false,
        "velocity": 225.55,
        "true_track": 134.26,
        "vertical_rate": -0.33,
        "geo_altitude": 11262.36,
        "squawk": "0547",
        "spi": false,
        "position_source": 0
      }
    },
    {
      "type": "Feature",
      "geometry": {
        "type": "Point",
        "coordinates": [
          11.1274,
          45.9948
        ]
      },
      "properties": {
        "icao24": "405a47",
        "callsign": "EFW6RQ",
        "origin_country": "United Kingdom",
        "time_position": 1788822058,
        "last_contact": 1788822058,
        "baro_altitude": 10988.04,
        "on_ground": false,
        "velocity": 215.17,
        "true_track": 303.2,
        "vertical_rate": 0,
        "geo_altitude": 11536.68,
        "squawk": "5526",
        "spi": false,
        "position_source": 0
      }
    },
    {
      "type": "Feature",
      "geometry": {
        "type": "Point",
        "coordinates": [
          10.0904,
          45.0507
        ]
      },
      "properties": {
        "icao24": "49d38c",
        "callsign": "TVS53B",
        "origin_country": "Czech Republic",
        "time_position": 1788822058,
        "last_contact": 1788822058,
        "baro_altitude": 10972.8,
        "on_ground": false,
        "velocity": 247.61,
        "true_track": 25.34,
        "vertical_rate": 0,
        "geo_altitude": 11529.06,
        "squawk": "1000",
        "spi": false,
        "position_source": 0
      }
    },
    {
      "type": "Feature",
      "geometry": {
        "type": "Point",
        "coordinates": [
          8.7235,
          45.6409
        ]
      },
      "properties": {
        "icao24": "31d7a4",
        "callsign": "ECHO8",
        "origin_country": "Italy",
        "time_position": 1788821904,
        "last_contact": 1788821904,
        "baro_altitude": null,
        "on_ground": true,
        "velocity": 3.6,
        "true_track": 309.38,
        "vertical_rate": null,
        "geo_altitude": null,
        "squawk": null,
        "spi": false,
        "position_source": 0
      }
    },
    {
      "type": "Feature",
      "geometry": {
        "type": "Point",
        "coordinates": [
          18.9899,
          43.6706
        ]
      },
      "properties": {
        "icao24": "407e7d",
        "callsign": "EXS94VU",
        "origin_country": "United Kingdom",
        "time_position": 1788822058,
        "last_contact": 1788822058,
        "baro_altitude": 10972.8,
        "on_ground": false,
        "velocity": 216.78,
        "true_track": 310.38,
        "vertical_rate": 0,
        "geo_altitude": 11544.3,
        "squawk": "5335",
        "spi": false,
        "position_source": 0
      }
    },
    {
      "type": "Feature",
      "geometry": {
        "type": "Point",
        "coordinates": [
          12.9131,
          36.013
        ]
      },
      "properties": {
        "icao24": "06a052",
        "callsign": "QTR1436",
        "origin_country": "Qatar",
        "time_position": 1788822058,
        "last_contact": 1788822058,
        "baro_altitude": 10668,
        "on_ground": false,
        "velocity": 273.82,
        "true_track": 91.83,
        "vertical_rate": 0,
        "geo_altitude": 11300.46,
        "squawk": "4102",
        "spi": false,
        "position_source": 0
      }
    },
    {
      "type": "Feature",
      "geometry": {
        "type": "Point",
        "coordinates": [
          17.2963,
          44.6263
        ]
      },
      "properties": {
        "icao24": "407e68",
        "callsign": "EXS12TY",
        "origin_country": "United Kingdom",
        "time_position": 1788822058,
        "last_contact": 1788822058,
        "baro_altitude": 10972.8,
        "on_ground": false,
        "velocity": 217.98,
        "true_track": 308.2,
        "vertical_rate": 0,
        "geo_altitude": 11536.68,
        "squawk": "5227",
        "spi": false,
        "position_source": 0
      }
    },
    {
      "type": "Feature",
      "geometry": {
        "type": "Point",
        "coordinates": [
          14.0653,
          46.4948
        ]
      },
      "properties": {
        "icao24": "407e4e",
        "callsign": "EXS55LD",
        "origin_country": "United Kingdom",
        "time_position": 1788822058,
        "last_contact": 1788822058,
        "baro_altitude": 11582.4,
        "on_ground": false,
        "velocity": 213.7,
        "true_track": 307.17,
        "vertical_rate": 0,
        "geo_altitude": 12115.8,
        "squawk": "5377",
        "spi": false,
        "position_source": 0
      }
    },
    {
      "type": "Feature",
      "geometry": {
        "type": "Point",
        "coordinates": [
          13.4873,
          45.9666
        ]
      },
      "properties": {
        "icao24": "407e46",
        "callsign": "EXS5R",
        "origin_country": "United Kingdom",
        "time_position": 1788822059,
        "last_contact": 1788822059,
        "baro_altitude": 11582.4,
        "on_ground": false,
        "velocity": 211.34,
        "true_track": 290.82,
        "vertical_rate": 0,
        "geo_altitude": 12131.04,
        "squawk": "0253",
        "spi": false,
        "position_source": 0
      }
    },
    {
      "type": "Feature",
      "geometry": {
        "type": "Point",
        "coordinates": [
          12.2814,
          39.3841
        ]
      },
      "properties": {
        "icao24": "44061c",
        "callsign": "EJU52FH",
        "origin_country": "Austria",
        "time_position": 1788822059,
        "last_contact": 1788822059,
        "baro_altitude": 9547.86,
        "on_ground": false,
        "velocity": 232.6,
        "true_track": 335.99,
        "vertical_rate": 6.18,
        "geo_altitude": 10104.12,
        "squawk": null,
        "spi": false,
        "position_source": 0
      }
    },
    {
      "type": "Feature",
      "geometry": {
        "type": "Point",
        "coordinates": [
          11.0365,
          35.7666
        ]
      },
      "properties": {
        "icao24": "06a077",
        "callsign": "QTR1396",
        "origin_country": "Qatar",
        "time_position": 1788822059,
        "last_contact": 1788822059,
        "baro_altitude": 10668,
        "on_ground": false,
        "velocity": 259.2,
        "true_track": 106.13,
        "vertical_rate": 0,
        "geo_altitude": 11277.6,
        "squawk": "6444",
        "spi": false,
        "position_source": 0
      }
    },
    {
      "type": "Feature",
      "geometry": {
        "type": "Point",
        "coordinates": [
          15.8428,
          43.5365
        ]
      },
      "properties": {
        "icao24": "39cf06",
        "callsign": "AFR684",
        "origin_country": "France",
        "time_position": 1788822057,
        "last_contact": 1788822058,
        "baro_altitude": 12298.68,
        "on_ground": false,
        "velocity": 258.34,
        "true_track": 129.59,
        "vertical_rate": 3.25,
        "geo_altitude": 12893.04,
        "squawk": "0673",
        "spi": false,
        "position_source": 0
      }
    },
    {
      "type": "Feature",
      "geometry": {
        "type": "Point",
        "coordinates": [
          18.505,
          44.2037
        ]
      },
      "properties": {
        "icao24": "407ce4",
        "callsign": "EXS13DK",
        "origin_country": "United Kingdom",
        "time_position": 1788822058,
        "last_contact": 1788822058,
        "baro_altitude": 10972.8,
        "on_ground": false,
        "velocity": 224.08,
        "true_track": 315,
        "vertical_rate": 0,
        "geo_altitude": 11551.92,
        "squawk": "5316",
        "spi": false,
        "position_source": 0
      }
    },
    {
      "type": "Feature",
      "geometry": {
        "type": "Point",
        "coordinates": [
          6.7985,
          44.8356
        ]
      },
      "properties": {
        "icao24": "44e193",
        "callsign": "OOXLS",
        "origin_country": "Belgium",
        "time_position": 1788822059,
        "last_contact": 1788822059,
        "baro_altitude": 9753.6,
        "on_ground": false,
        "velocity": 215.41,
        "true_track": 348.29,
        "vertical_rate": -0.65,
        "geo_altitude": 10279.38,
        "squawk": "1000",
        "spi": false,
        "position_source": 0
      }
    },
    {
      "type": "Feature",
      "geometry": {
        "type": "Point",
        "coordinates": [
          15.9968,
          45.2539
        ]
      },
      "properties": {
        "icao24": "407f7d",
        "callsign": "EXS2RC",
        "origin_country": "United Kingdom",
        "time_position": 1788822058,
        "last_contact": 1788822058,
        "baro_altitude": 10972.8,
        "on_ground": false,
        "velocity": 221.52,
        "true_track": 309.35,
        "vertical_rate": 0,
        "geo_altitude": 11544.3,
        "squawk": "3235",
        "spi": false,
        "position_source": 0
      }
    },
    {
      "type": "Feature",
      "geometry": {
        "type": "Point",
        "coordinates": [
          8.4101,
          47.573
        ]
      },
      "properties": {
        "icao24": "407f66",
        "callsign": "EZY73HP",
        "origin_country": "United Kingdom",
        "time_position": 1788822058,
        "last_contact": 1788822058,
        "baro_altitude": 10980.42,
        "on_ground": false,
        "velocity": 229.29,
        "true_track": 304.12,
        "vertical_rate": 0,
        "geo_altitude": 11521.44,
        "squawk": "7514",
        "spi": false,
        "position_source": 0
      }
    },
    {
      "type": "Feature",
      "geometry": {
        "type": "Point",
        "coordinates": [
          14.7548,
          45.1626
        ]
      },
      "properties": {
        "icao24": "49d00d",
        "callsign": "TVS2721",
        "origin_country": "Czech Republic",
        "time_position": 1788822059,
        "last_contact": 1788822059,
        "baro_altitude": 10363.2,
        "on_ground": false,
        "velocity": 236.45,
        "true_track": 351.87,
        "vertical_rate": 0,
        "geo_altitude": 10927.08,
        "squawk": "1000",
        "spi": false,
        "position_source": 0
      }
    },
    {
      "type": "Feature",
      "geometry": {
        "type": "Point",
        "coordinates": [
          17.7166,
          44.7665
        ]
      },
      "properties": {
        "icao24": "406ac3",
        "callsign": "EXS47MA",
        "origin_country": "United Kingdom",
        "time_position": 1788822058,
        "last_contact": 1788822058,
        "baro_altitude": 10972.8,
        "on_ground": false,
        "velocity": 225.55,
        "true_track": 314.45,
        "vertical_rate": 0,
        "geo_altitude": 11559.54,
        "squawk": "5345",
        "spi": false,
        "position_source": 0
      }
    },
    {
      "type": "Feature",
      "geometry": {
        "type": "Point",
        "coordinates": [
          13.98,
          46.0957
        ]
      },
      "properties": {
        "icao24": "407c0b",
        "callsign": "TOM477",
        "origin_country": "United Kingdom",
        "time_position": 1788822058,
        "last_contact": 1788822058,
        "baro_altitude": 10363.2,
        "on_ground": false,
        "velocity": 226.34,
        "true_track": 318.59,
        "vertical_rate": 0.33,
        "geo_altitude": 10904.22,
        "squawk": "6635",
        "spi": false,
        "position_source": 0
      }
    },
    {
      "type": "Feature",
      "geometry": {
        "type": "Point",
        "coordinates": [
          15.9787,
          44.0224
        ]
      },
      "properties": {
        "icao24": "407d5b",
        "callsign": "WUK8YM",
        "origin_country": "United Kingdom",
        "time_position": 1788822059,
        "last_contact": 1788822059,
        "baro_altitude": 10965.18,
        "on_ground": false,
        "velocity": 224.18,
        "true_track": 304.53,
        "vertical_rate": 0.33,
        "geo_altitude": 11544.3,
        "squawk": "5601",
        "spi": false,
        "position_source": 0
      }
    },
    {
      "type": "Feature",
      "geometry": {
        "type": "Point",
        "coordinates": [
          17.7768,
          47.7129
        ]
      },
      "properties": {
        "icao24": "48c221",
        "callsign": "RYR5UT",
        "origin_country": "Poland",
        "time_position": 1788822058,
        "last_contact": 1788822058,
        "baro_altitude": 3048,
        "on_ground": false,
        "velocity": 150.84,
        "true_track": 323.6,
        "vertical_rate": -2.6,
        "geo_altitude": 3284.22,
        "squawk": "5402",
        "spi": false,
        "position_source": 0
      }
    },
    {
      "type": "Feature",
      "geometry": {
        "type": "Point",
        "coordinates": [
          13.3485,
          45.262
        ]
      },
      "properties": {
        "icao24": "407d00",
        "callsign": "WUK451",
        "origin_country": "United Kingdom",
        "time_position": 1788822058,
        "last_contact": 1788822058,
        "baro_altitude": 10363.2,
        "on_ground": false,
        "velocity": 225.4,
        "true_track": 305.43,
        "vertical_rate": 0,
        "geo_altitude": 10919.46,
        "squawk": "0256",
        "spi": false,
        "position_source": 0
      }
    },
    {
      "type": "Feature",
      "geometry": {
        "type": "Point",
        "coordinates": [
          17.6668,
          47.5047
        ]
      },
      "properties": {
        "icao24": "407d52",
        "callsign": "HGO446",
        "origin_country": "United Kingdom",
        "time_position": 1788822058,
        "last_contact": 1788822058,
        "baro_altitude": 11277.6,
        "on_ground": false,
        "velocity": 278.84,
        "true_track": 116.52,
        "vertical_rate": 0,
        "geo_altitude": 11772.9,
        "squawk": "5235",
        "spi": false,
        "position_source": 0
      }
    },
    {
      "type": "Feature",
      "geometry": {
        "type": "Point",
        "coordinates": [
          11.4448,
          47.699
        ]
      },
      "properties": {
        "icao24": "8013c3",
        "callsign": "AIC2018",
        "origin_country": "India",
        "time_position": 1788822058,
        "last_contact": 1788822058,
        "baro_altitude": 11277.6,
        "on_ground": false,
        "velocity": 254.66,
        "true_track": 126.29,
        "vertical_rate": 0,
        "geo_altitude": 11811,
        "squawk": "1161",
        "spi": false,
        "position_source": 0
      }
    },
    {
      "type": "Feature",
      "geometry": {
        "type": "Point",
        "coordinates": [
          15.7098,
          47.7922
        ]
      },
      "properties": {
        "icao24": "06a0e6",
        "callsign": "QTR1V",
        "origin_country": "Qatar",
        "time_position": 1788822058,
        "last_contact": 1788822059,
        "baro_altitude": 11887.2,
        "on_ground": false,
        "velocity": 273.4,
        "true_track": 115.17,
        "vertical_rate": 0,
        "geo_altitude": 12390.12,
        "squawk": "5223",
        "spi": false,
        "position_source": 0
      }
    },
    {
      "type": "Feature",
      "geometry": {
        "type": "Point",
        "coordinates": [
          8.5584,
          47.4487
        ]
      },
      "properties": {
        "icao24": "4b1803",
        "callsign": "SWR5153",
        "origin_country": "Switzerland",
        "time_position": 1788822054,
        "last_contact": 1788822054,
        "baro_altitude": null,
        "on_ground": true,
        "velocity": 0,
        "true_track": 244.69,
        "vertical_rate": null,
        "geo_altitude": null,
        "squawk": "2000",
        "spi": false,
        "position_source": 0
      }
    },
    {
      "type": "Feature",
      "geometry": {
        "type": "Point",
        "coordinates": [
          8.5554,
          47.456
        ]
      },
      "properties": {
        "icao24": "4b1809",
        "callsign": "SWR9EX",
        "origin_country": "Switzerland",
        "time_position": 1788822058,
        "last_contact": 1788822058,
        "baro_altitude": null,
        "on_ground": true,
        "velocity": 0,
        "true_track": 5.62,
        "vertical_rate": null,
        "geo_altitude": null,
        "squawk": "2000",
        "spi": false,
        "position_source": 0
      }
    },
    {
      "type": "Feature",
      "geometry": {
        "type": "Point",
        "coordinates": [
          13.1862,
          45.572
        ]
      },
      "properties": {
        "icao24": "4080f6",
        "callsign": "EZY75UQ",
        "origin_country": "United Kingdom",
        "time_position": 1788822059,
        "last_contact": 1788822059,
        "baro_altitude": 10972.8,
        "on_ground": false,
        "velocity": 218.64,
        "true_track": 315.67,
        "vertical_rate": 0,
        "geo_altitude": 11536.68,
        "squawk": "0255",
        "spi": false,
        "position_source": 0
      }
    },
    {
      "type": "Feature",
      "geometry": {
        "type": "Point",
        "coordinates": [
          10.3278,
          37.6594
        ]
      },
      "properties": {
        "icao24": "02a1ac",
        "callsign": "LBT521",
        "origin_country": "Tunisia",
        "time_position": 1788822042,
        "last_contact": 1788822042,
        "baro_altitude": 4968.24,
        "on_ground": false,
        "velocity": 210.2,
        "true_track": 174.95,
        "vertical_rate": -15.28,
        "geo_altitude": 5417.82,
        "squawk": "7635",
        "spi": false,
        "position_source": 0
      }
    },
    {
      "type": "Feature",
      "geometry": {
        "type": "Point",
        "coordinates": [
          14.4476,
          46.0564
        ]
      },
      "properties": {
        "icao24": "40815b",
        "callsign": "EZY87AK",
        "origin_country": "United Kingdom",
        "time_position": 1788822058,
        "last_contact": 1788822058,
        "baro_altitude": 10972.8,
        "on_ground": false,
        "velocity": 213.76,
        "true_track": 312.37,
        "vertical_rate": 0.33,
        "geo_altitude": 11536.68,
        "squawk": "2033",
        "spi": false,
        "position_source": 0
      }
    },
    {
      "type": "Feature",
      "geometry": {
        "type": "Point",
        "coordinates": [
          17.9336,
          47.2579
        ]
      },
      "properties": {
        "icao24": "7103d7",
        "callsign": "SVA118",
        "origin_country": "Saudi Arabia",
        "time_position": 1788822058,
        "last_contact": 1788822058,
        "baro_altitude": 11887.2,
        "on_ground": false,
        "velocity": 271.77,
        "true_track": 119.23,
        "vertical_rate": -0.33,
        "geo_altitude": 12412.98,
        "squawk": "4610",
        "spi": false,
        "position_source": 0
      }
    },
    {
      "type": "Feature",
      "geometry": {
        "type": "Point",
        "coordinates": [
          12.2611,
          41.8033
        ]
      },
      "properties": {
        "icao24": "4951d6",
        "callsign": "TAP838Z",
        "origin_country": "Portugal",
        "time_position": 1788822058,
        "last_contact": 1788822058,
        "baro_altitude": null,
        "on_ground": true,
        "velocity": 9.26,
        "true_track": 222.19,
        "vertical_rate": null,
        "geo_altitude": null,
        "squawk": "2257",
        "spi": false,
        "position_source": 0
      }
    },
    {
      "type": "Feature",
      "geometry": {
        "type": "Point",
        "coordinates": [
          16.6014,
          45.5633
        ]
      },
      "properties": {
        "icao24": "408033",
        "callsign": "EXS76RT",
        "origin_country": "United Kingdom",
        "time_position": 1788822059,
        "last_contact": 1788822059,
        "baro_altitude": 10965.18,
        "on_ground": false,
        "velocity": 217.42,
        "true_track": 312.22,
        "vertical_rate": 0,
        "geo_altitude": 11529.06,
        "squawk": "5333",
        "spi": false,
        "position_source": 0
      }
    },
    {
      "type": "Feature",
      "geometry": {
        "type": "Point",
        "coordinates": [
          7.569,
          45.7169
        ]
      },
      "properties": {
        "icao24": "440bcd",
        "callsign": "BCS76P",
        "origin_country": "Austria",
        "time_position": 1788822058,
        "last_contact": 1788822058,
        "baro_altitude": 8305.8,
        "on_ground": false,
        "velocity": 214.89,
        "true_track": 297.06,
        "vertical_rate": 9.1,
        "geo_altitude": 8778.24,
        "squawk": "0461",
        "spi": false,
        "position_source": 0
      }
    },
    {
      "type": "Feature",
      "geometry": {
        "type": "Point",
        "coordinates": [
          15.3151,
          39.5972
        ]
      },
      "properties": {
        "icao24": "4ca8da",
        "callsign": "RYR465X",
        "origin_country": "Ireland",
        "time_position": 1788822058,
        "last_contact": 1788822058,
        "baro_altitude": 7658.1,
        "on_ground": false,
        "velocity": 229.86,
        "true_track": 326.13,
        "vertical_rate": 8.78,
        "geo_altitude": 8161.02,
        "squawk": null,
        "spi": false,
        "position_source": 0
      }
    },
    {
      "type": "Feature",
      "geometry": {
        "type": "Point",
        "coordinates": [
          16.5184,
          47.2133
        ]
      },
      "properties": {
        "icao24": "5084d2",
        "callsign": "MGH132",
        "origin_country": "Ukraine",
        "time_position": 1788822059,
        "last_contact": 1788822059,
        "baro_altitude": 10668,
        "on_ground": false,
        "velocity": 254.75,
        "true_track": 126.71,
        "vertical_rate": 0,
        "geo_altitude": 11186.16,
        "squawk": "1732",
        "spi": false,
        "position_source": 0
      }
    },
    {
      "type": "Feature",
      "geometry": {
        "type": "Point",
        "coordinates": [
          10.3861,
          45.1091
        ]
      },
      "properties": {
        "icao24": "4ca82c",
        "callsign": "MSA83E",
        "origin_country": "Ireland",
        "time_position": 1788822058,
        "last_contact": 1788822058,
        "baro_altitude": 3604.26,
        "on_ground": false,
        "velocity": 185.71,
        "true_track": 179.84,
        "vertical_rate": 17.88,
        "geo_altitude": 3870.96,
        "squawk": null,
        "spi": false,
        "position_source": 0
      }
    },
    {
      "type": "Feature",
      "geometry": {
        "type": "Point",
        "coordinates": [
          16.7699,
          47.1281
        ]
      },
      "properties": {
        "icao24": "4bcdd4",
        "callsign": "SXS37U",
        "origin_country": "Turkey",
        "time_position": 1788822058,
        "last_contact": 1788822058,
        "baro_altitude": 11582.4,
        "on_ground": false,
        "velocity": 205.61,
        "true_track": 307.99,
        "vertical_rate": 0,
        "geo_altitude": 12092.94,
        "squawk": "3204",
        "spi": false,
        "position_source": 0
      }
    },
    {
      "type": "Feature",
      "geometry": {
        "type": "Point",
        "coordinates": [
          15.1759,
          45.9087
        ]
      },
      "properties": {
        "icao24": "4bce45",
        "callsign": "SXS4PG",
        "origin_country": "Turkey",
        "time_position": 1788822058,
        "last_contact": 1788822058,
        "baro_altitude": 11582.4,
        "on_ground": false,
        "velocity": 214.21,
        "true_track": 311.88,
        "vertical_rate": 0.33,
        "geo_altitude": 12138.66,
        "squawk": "5301",
        "spi": false,
        "position_source": 0
      }
    },
    {
      "type": "Feature",
      "geometry": {
        "type": "Point",
        "coordinates": [
          7.3516,
          43.5802
        ]
      },
      "properties": {
        "icao24": "48ea3b",
        "callsign": "ENT4KD",
        "origin_country": "Poland",
        "time_position": 1788822058,
        "last_contact": 1788822058,
        "baro_altitude": 11582.4,
        "on_ground": false,
        "velocity": 240.49,
        "true_track": 50.56,
        "vertical_rate": 0,
        "geo_altitude": 12192,
        "squawk": "1000",
        "spi": false,
        "position_source": 0
      }
    },
    {
      "type": "Feature",
      "geometry": {
        "type": "Point",
        "coordinates": [
          12.2482,
          47.4187
        ]
      },
      "properties": {
        "icao24": "4bcda4",
        "callsign": "SXS9NX",
        "origin_country": "Turkey",
        "time_position": 1788822058,
        "last_contact": 1788822058,
        "baro_altitude": 11582.4,
        "on_ground": false,
        "velocity": 223.69,
        "true_track": 306.4,
        "vertical_rate": 0,
        "geo_altitude": 12115.8,
        "squawk": "6610",
        "spi": false,
        "position_source": 0
      }
    },
    {
      "type": "Feature",
      "geometry": {
        "type": "Point",
        "coordinates": [
          6.5017,
          44.8504
        ]
      },
      "properties": {
        "icao24": "407666",
        "callsign": "EZY8284",
        "origin_country": "United Kingdom",
        "time_position": 1788822058,
        "last_contact": 1788822058,
        "baro_altitude": 10972.8,
        "on_ground": false,
        "velocity": 223.58,
        "true_track": 322.76,
        "vertical_rate": 0,
        "geo_altitude": 11551.92,
        "squawk": "4006",
        "spi": false,
        "position_source": 0
      }
    },
    {
      "type": "Feature",
      "geometry": {
        "type": "Point",
        "coordinates": [
          18.0392,
          44.202
        ]
      },
      "properties": {
        "icao24": "407631",
        "callsign": "EXS7HG",
        "origin_country": "United Kingdom",
        "time_position": 1788822058,
        "last_contact": 1788822058,
        "baro_altitude": 10972.8,
        "on_ground": false,
        "velocity": 219.18,
        "true_track": 308.81,
        "vertical_rate": 0,
        "geo_altitude": 11551.92,
        "squawk": "0062",
        "spi": false,
        "position_source": 0
      }
    },
    {
      "type": "Feature",
      "geometry": {
        "type": "Point",
        "coordinates": [
          10.6637,
          44.8661
        ]
      },
      "properties": {
        "icao24": "4cafca",
        "callsign": "MSA95S",
        "origin_country": "Ireland",
        "time_position": 1788822058,
        "last_contact": 1788822058,
        "baro_altitude": 4533.9,
        "on_ground": false,
        "velocity": 197.7,
        "true_track": 160.39,
        "vertical_rate": 10.08,
        "geo_altitude": 4823.46,
        "squawk": "1000",
        "spi": false,
        "position_source": 0
      }
    },
    {
      "type": "Feature",
      "geometry": {
        "type": "Point",
        "coordinates": [
          10.0547,
          41.5889
        ]
      },
      "properties": {
        "icao24": "4cafcb",
        "callsign": "MSA61P",
        "origin_country": "Ireland",
        "time_position": 1788822057,
        "last_contact": 1788822057,
        "baro_altitude": 4358.64,
        "on_ground": false,
        "velocity": 207.8,
        "true_track": 201.04,
        "vertical_rate": -7.48,
        "geo_altitude": 4686.3,
        "squawk": "4665",
        "spi": false,
        "position_source": 0
      }
    },
    {
      "type": "Feature",
      "geometry": {
        "type": "Point",
        "coordinates": [
          12.2592,
          41.8459
        ]
      },
      "properties": {
        "icao24": "4cafd0",
        "callsign": "RYR7406",
        "origin_country": "Ireland",
        "time_position": 1788822059,
        "last_contact": 1788822059,
        "baro_altitude": null,
        "on_ground": true,
        "velocity": 8.23,
        "true_track": 47.81,
        "vertical_rate": null,
        "geo_altitude": null,
        "squawk": null,
        "spi": false,
        "position_source": 0
      }
    },
    {
      "type": "Feature",
      "geometry": {
        "type": "Point",
        "coordinates": [
          13.9465,
          46.3846
        ]
      },
      "properties": {
        "icao24": "010264",
        "callsign": "MSC2912",
        "origin_country": "Egypt",
        "time_position": 1788822058,
        "last_contact": 1788822058,
        "baro_altitude": 10965.18,
        "on_ground": false,
        "velocity": 213.83,
        "true_track": 311.98,
        "vertical_rate": 0,
        "geo_altitude": 11529.06,
        "squawk": "5505",
        "spi": false,
        "position_source": 0
      }
    },
    {
      "type": "Feature",
      "geometry": {
        "type": "Point",
        "coordinates": [
          15.6882,
          45.1002
        ]
      },
      "properties": {
        "icao24": "01020a",
        "callsign": "MSR780",
        "origin_country": "Egypt",
        "time_position": 1788822059,
        "last_contact": 1788822059,
        "baro_altitude": 11887.2,
        "on_ground": false,
        "velocity": 241.41,
        "true_track": 132.5,
        "vertical_rate": 0.33,
        "geo_altitude": 12466.32,
        "squawk": "2201",
        "spi": false,
        "position_source": 0
      }
    },
    {
      "type": "Feature",
      "geometry": {
        "type": "Point",
        "coordinates": [
          10.3302,
          47.4437
        ]
      },
      "properties": {
        "icao24": "010205",
        "callsign": "MSR796",
        "origin_country": "Egypt",
        "time_position": 1788822059,
        "last_contact": 1788822059,
        "baro_altitude": 11887.2,
        "on_ground": false,
        "velocity": 240.48,
        "true_track": 134.05,
        "vertical_rate": -0.33,
        "geo_altitude": 12420.6,
        "squawk": "5264",
        "spi": false,
        "position_source": 0
      }
    },
    {
      "type": "Feature",
      "geometry": {
        "type": "Point",
        "coordinates": [
          18.1015,
          42.3966
        ]
      },
      "properties": {
        "icao24": "010287",
        "callsign": "NMA740",
        "origin_country": "Egypt",
        "time_position": 1788822056,
        "last_contact": 1788822058,
        "baro_altitude": 10965.18,
        "on_ground": false,
        "velocity": 223.92,
        "true_track": 321.16,
        "vertical_rate": 0,
        "geo_altitude": 11559.54,
        "squawk": null,
        "spi": false,
        "position_source": 0
      }
    },
    {
      "type": "Feature",
      "geometry": {
        "type": "Point",
        "coordinates": [
          14.1926,
          46.914
        ]
      },
      "properties": {
        "icao24": "4d24c0",
        "callsign": "CHZ112",
        "origin_country": "Malta",
        "time_position": 1788822058,
        "last_contact": 1788822058,
        "baro_altitude": 11285.22,
        "on_ground": false,
        "velocity": 254.65,
        "true_track": 135.49,
        "vertical_rate": 0,
        "geo_altitude": 11788.14,
        "squawk": "7660",
        "spi": false,
        "position_source": 0
      }
    },
    {
      "type": "Feature",
      "geometry": {
        "type": "Point",
        "coordinates": [
          12.2347,
          39.3839
        ]
      },
      "properties": {
        "icao24": "4d24ba",
        "callsign": "KMM455",
        "origin_country": "Malta",
        "time_position": 1788822058,
        "last_contact": 1788822058,
        "baro_altitude": 11887.2,
        "on_ground": false,
        "velocity": 233.98,
        "true_track": 153.21,
        "vertical_rate": 0.33,
        "geo_altitude": 12534.9,
        "squawk": "0467",
        "spi": false,
        "position_source": 0
      }
    },
    {
      "type": "Feature",
      "geometry": {
        "type": "Point",
        "coordinates": [
          14.8538,
          45.3382
        ]
      },
      "properties": {
        "icao24": "4075f4",
        "callsign": "TOM8KM",
        "origin_country": "United Kingdom",
        "time_position": 1788822059,
        "last_contact": 1788822059,
        "baro_altitude": 11582.4,
        "on_ground": false,
        "velocity": 220.73,
        "true_track": 320.49,
        "vertical_rate": 0,
        "geo_altitude": 12153.9,
        "squawk": "2266",
        "spi": false,
        "position_source": 0
      }
    },
    {
      "type": "Feature",
      "geometry": {
        "type": "Point",
        "coordinates": [
          11.3592,
          42.7782
        ]
      },
      "properties": {
        "icao24": "4d2533",
        "callsign": "WMT9GW",
        "origin_country": "Malta",
        "time_position": 1788822058,
        "last_contact": 1788822058,
        "baro_altitude": 6530.34,
        "on_ground": false,
        "velocity": 219.69,
        "true_track": 142.33,
        "vertical_rate": -18.21,
        "geo_altitude": 6995.16,
        "squawk": "0543",
        "spi": false,
        "position_source": 0
      }
    },
    {
      "type": "Feature",
      "geometry": {
        "type": "Point",
        "coordinates": [
          8.585,
          45.0369
        ]
      },
      "properties": {
        "icao24": "3004c2",
        "callsign": "NOS1460",
        "origin_country": "Italy",
        "time_position": 1788822058,
        "last_contact": 1788822058,
        "baro_altitude": 3124.2,
        "on_ground": false,
        "velocity": 157.96,
        "true_track": 18.61,
        "vertical_rate": -2.6,
        "geo_altitude": 3383.28,
        "squawk": "1000",
        "spi": false,
        "position_source": 0
      }
    },
    {
      "type": "Feature",
      "geometry": {
        "type": "Point",
        "coordinates": [
          14.0384,
          36.2171
        ]
      },
      "properties": {
        "icao24": "347247",
        "callsign": "IBS1904",
        "origin_country": "Spain",
        "time_position": 1788822058,
        "last_contact": 1788822058,
        "baro_altitude": 10355.58,
        "on_ground": false,
        "velocity": 216.6,
        "true_track": 279.71,
        "vertical_rate": 0,
        "geo_altitude": 10980.42,
        "squawk": "2025",
        "spi": false,
        "position_source": 0
      }
    },
    {
      "type": "Feature",
      "geometry": {
        "type": "Point",
        "coordinates": [
          7.1482,
          36.8004
        ]
      },
      "properties": {
        "icao24": "4d23b8",
        "callsign": "DAH3018",
        "origin_country": "Malta",
        "time_position": 1788821825,
        "last_contact": 1788821925,
        "baro_altitude": 10668,
        "on_ground": false,
        "velocity": 234.73,
        "true_track": 87.99,
        "vertical_rate": 0,
        "geo_altitude": 11292.84,
        "squawk": null,
        "spi": false,
        "position_source": 0
      }
    },
    {
      "type": "Feature",
      "geometry": {
        "type": "Point",
        "coordinates": [
          16.4778,
          45.5035
        ]
      },
      "properties": {
        "icao24": "4d23ea",
        "callsign": "CXI7PV",
        "origin_country": "Malta",
        "time_position": 1788822059,
        "last_contact": 1788822059,
        "baro_altitude": 11582.4,
        "on_ground": false,
        "velocity": 215.4,
        "true_track": 320.91,
        "vertical_rate": 0.33,
        "geo_altitude": 12146.28,
        "squawk": "2013",
        "spi": false,
        "position_source": 0
      }
    },
    {
      "type": "Feature",
      "geometry": {
        "type": "Point",
        "coordinates": [
          18.66,
          42.7207
        ]
      },
      "properties": {
        "icao24": "4072c7",
        "callsign": "EZY34PE",
        "origin_country": "United Kingdom",
        "time_position": 1788822057,
        "last_contact": 1788822057,
        "baro_altitude": 11590.02,
        "on_ground": false,
        "velocity": 220.87,
        "true_track": 303.99,
        "vertical_rate": 0.33,
        "geo_altitude": 12199.62,
        "squawk": "5313",
        "spi": false,
        "position_source": 0
      }
    },
    {
      "type": "Feature",
      "geometry": {
        "type": "Point",
        "coordinates": [
          14.4893,
          35.8509
        ]
      },
      "properties": {
        "icao24": "4cadbe",
        "callsign": "RYR1SK",
        "origin_country": "Ireland",
        "time_position": 1788821869,
        "last_contact": 1788821872,
        "baro_altitude": null,
        "on_ground": true,
        "velocity": 3.86,
        "true_track": 45,
        "vertical_rate": null,
        "geo_altitude": null,
        "squawk": "6025",
        "spi": false,
        "position_source": 0
      }
    },
    {
      "type": "Feature",
      "geometry": {
        "type": "Point",
        "coordinates": [
          12.2146,
          43.1894
        ]
      },
      "properties": {
        "icao24": "4d241f",
        "callsign": "WMT797",
        "origin_country": "Malta",
        "time_position": 1788822058,
        "last_contact": 1788822058,
        "baro_altitude": 8267.7,
        "on_ground": false,
        "velocity": 213.14,
        "true_track": 184.57,
        "vertical_rate": -10.4,
        "geo_altitude": 8793.48,
        "squawk": "2214",
        "spi": false,
        "position_source": 0
      }
    },
    {
      "type": "Feature",
      "geometry": {
        "type": "Point",
        "coordinates": [
          8.1316,
          40.4273
        ]
      },
      "properties": {
        "icao24": "4cadc2",
        "callsign": "RYR7AL",
        "origin_country": "Ireland",
        "time_position": 1788822058,
        "last_contact": 1788822058,
        "baro_altitude": 11277.6,
        "on_ground": false,
        "velocity": 234.1,
        "true_track": 260.64,
        "vertical_rate": 0,
        "geo_altitude": 11902.44,
        "squawk": "1000",
        "spi": false,
        "position_source": 0
      }
    },
    {
      "type": "Feature",
      "geometry": {
        "type": "Point",
        "coordinates": [
          15.2836,
          46.1633
        ]
      },
      "properties": {
        "icao24": "4d242e",
        "callsign": "WZZ1UN",
        "origin_country": "Malta",
        "time_position": 1788822058,
        "last_contact": 1788822059,
        "baro_altitude": 11277.6,
        "on_ground": false,
        "velocity": 243.72,
        "true_track": 135,
        "vertical_rate": 0,
        "geo_altitude": 11856.72,
        "squawk": "7701",
        "spi": false,
        "position_source": 0
      }
    },
    {
      "type": "Feature",
      "geometry": {
        "type": "Point",
        "coordinates": [
          17.8669,
          47.6639
        ]
      },
      "properties": {
        "icao24": "4d242b",
        "callsign": "WMT2JM",
        "origin_country": "Malta",
        "time_position": 1788822058,
        "last_contact": 1788822058,
        "baro_altitude": 11285.22,
        "on_ground": false,
        "velocity": 256.31,
        "true_track": 117.23,
        "vertical_rate": 0,
        "geo_altitude": 11803.38,
        "squawk": "7653",
        "spi": false,
        "position_source": 0
      }
    },
    {
      "type": "Feature",
      "geometry": {
        "type": "Point",
        "coordinates": [
          11.3332,
          47.711
        ]
      },
      "properties": {
        "icao24": "4d240e",
        "callsign": "EWG60W",
        "origin_country": "Malta",
        "time_position": 1788822058,
        "last_contact": 1788822058,
        "baro_altitude": 11574.78,
        "on_ground": false,
        "velocity": 213.74,
        "true_track": 357.24,
        "vertical_rate": 0,
        "geo_altitude": 12100.56,
        "squawk": "3675",
        "spi": false,
        "position_source": 0
      }
    },
    {
      "type": "Feature",
      "geometry": {
        "type": "Point",
        "coordinates": [
          9.7247,
          45.6646
        ]
      },
      "properties": {
        "icao24": "4cadfc",
        "callsign": "RYR5DN",
        "origin_country": "Ireland",
        "time_position": 1788821926,
        "last_contact": 1788821926,
        "baro_altitude": 182.88,
        "on_ground": false,
        "velocity": 76.12,
        "true_track": 284.88,
        "vertical_rate": -3.9,
        "geo_altitude": 304.8,
        "squawk": "1000",
        "spi": false,
        "position_source": 0
      }
    },
    {
      "type": "Feature",
      "geometry": {
        "type": "Point",
        "coordinates": [
          11.3711,
          41.3285
        ]
      },
      "properties": {
        "icao24": "4d2490",
        "callsign": "WMT4RQ",
        "origin_country": "Malta",
        "time_position": 1788822058,
        "last_contact": 1788822058,
        "baro_altitude": 10972.8,
        "on_ground": false,
        "velocity": 231.82,
        "true_track": 75.87,
        "vertical_rate": 0,
        "geo_altitude": 11597.64,
        "squawk": "0214",
        "spi": false,
        "position_source": 0
      }
    },
    {
      "type": "Feature",
      "geometry": {
        "type": "Point",
        "coordinates": [
          11.7893,
          41.8582
        ]
      },
      "properties": {
        "icao24": "4d2492",
        "callsign": "WMT511",
        "origin_country": "Malta",
        "time_position": 1788822058,
        "last_contact": 1788822058,
        "baro_altitude": 2308.86,
        "on_ground": false,
        "velocity": 158.29,
        "true_track": 50.67,
        "vertical_rate": -0.33,
        "geo_altitude": 2545.08,
        "squawk": "1000",
        "spi": false,
        "position_source": 0
      }
    },
    {
      "type": "Feature",
      "geometry": {
        "type": "Point",
        "coordinates": [
          11.0421,
          47.0534
        ]
      },
      "properties": {
        "icao24": "407567",
        "callsign": "EZY89WU",
        "origin_country": "United Kingdom",
        "time_position": 1788822058,
        "last_contact": 1788822058,
        "baro_altitude": 11582.4,
        "on_ground": false,
        "velocity": 220.56,
        "true_track": 313.11,
        "vertical_rate": 0.65,
        "geo_altitude": 12115.8,
        "squawk": "3113",
        "spi": false,
        "position_source": 0
      }
    },
    {
      "type": "Feature",
      "geometry": {
        "type": "Point",
        "coordinates": [
          16.0006,
          39.8299
        ]
      },
      "properties": {
        "icao24": "4cae1e",
        "callsign": "ITY810",
        "origin_country": "Ireland",
        "time_position": 1788822058,
        "last_contact": 1788822058,
        "baro_altitude": 10668,
        "on_ground": false,
        "velocity": 246.76,
        "true_track": 118.38,
        "vertical_rate": 0,
        "geo_altitude": 11300.46,
        "squawk": null,
        "spi": false,
        "position_source": 0
      }
    },
    {
      "type": "Feature",
      "geometry": {
        "type": "Point",
        "coordinates": [
          8.6994,
          40.7834
        ]
      },
      "properties": {
        "icao24": "4d22ab",
        "callsign": "KMM3117",
        "origin_country": "Malta",
        "time_position": 1788822058,
        "last_contact": 1788822058,
        "baro_altitude": 11292.84,
        "on_ground": false,
        "velocity": 237.38,
        "true_track": 138.95,
        "vertical_rate": 0,
        "geo_altitude": 11925.3,
        "squawk": "0515",
        "spi": false,
        "position_source": 0
      }
    },
    {
      "type": "Feature",
      "geometry": {
        "type": "Point",
        "coordinates": [
          15.8107,
          44.3801
        ]
      },
      "properties": {
        "icao24": "4d22c2",
        "callsign": "RYR16SM",
        "origin_country": "Malta",
        "time_position": 1788822058,
        "last_contact": 1788822058,
        "baro_altitude": 7086.6,
        "on_ground": false,
        "velocity": 209.94,
        "true_track": 1.26,
        "vertical_rate": -16.26,
        "geo_altitude": 7566.66,
        "squawk": "6560",
        "spi": false,
        "position_source": 0
      }
    },
    {
      "type": "Feature",
      "geometry": {
        "type": "Point",
        "coordinates": [
          11.3018,
          41.58
        ]
      },
      "properties": {
        "icao24": "4cae64",
        "callsign": "RYR12EE",
        "origin_country": "Ireland",
        "time_position": 1788822058,
        "last_contact": 1788822058,
        "baro_altitude": 11277.6,
        "on_ground": false,
        "velocity": 236.97,
        "true_track": 157,
        "vertical_rate": 0,
        "geo_altitude": 11894.82,
        "squawk": "3755",
        "spi": false,
        "position_source": 0
      }
    },
    {
      "type": "Feature",
      "geometry": {
        "type": "Point",
        "coordinates": [
          11.8225,
          44.3088
        ]
      },
      "properties": {
        "icao24": "4cae61",
        "callsign": "RYR90RC",
        "origin_country": "Ireland",
        "time_position": 1788822058,
        "last_contact": 1788822059,
        "baro_altitude": 10972.8,
        "on_ground": false,
        "velocity": 225.95,
        "true_track": 301.12,
        "vertical_rate": -0.33,
        "geo_altitude": 11559.54,
        "squawk": "2655",
        "spi": false,
        "position_source": 0
      }
    },
    {
      "type": "Feature",
      "geometry": {
        "type": "Point",
        "coordinates": [
          11.7876,
          47.6585
        ]
      },
      "properties": {
        "icao24": "407267",
        "callsign": "EXS14JP",
        "origin_country": "United Kingdom",
        "time_position": 1788822059,
        "last_contact": 1788822059,
        "baro_altitude": 11582.4,
        "on_ground": false,
        "velocity": 222.14,
        "true_track": 307.19,
        "vertical_rate": -0.33,
        "geo_altitude": 12108.18,
        "squawk": "3571",
        "spi": false,
        "position_source": 0
      }
    },
    {
      "type": "Feature",
      "geometry": {
        "type": "Point",
        "coordinates": [
          13.1222,
          36.2863
        ]
      },
      "properties": {
        "icao24": "4d236c",
        "callsign": "RYR83CM",
        "origin_country": "Malta",
        "time_position": 1788822058,
        "last_contact": 1788822059,
        "baro_altitude": 6568.44,
        "on_ground": false,
        "velocity": 223.94,
        "true_track": 105.73,
        "vertical_rate": -12.68,
        "geo_altitude": 7048.5,
        "squawk": "1413",
        "spi": false,
        "position_source": 0
      }
    },
    {
      "type": "Feature",
      "geometry": {
        "type": "Point",
        "coordinates": [
          11.4787,
          40.5867
        ]
      },
      "properties": {
        "icao24": "4d228b",
        "callsign": "RYR33RN",
        "origin_country": "Malta",
        "time_position": 1788822058,
        "last_contact": 1788822058,
        "baro_altitude": 11277.6,
        "on_ground": false,
        "velocity": 236.71,
        "true_track": 145.9,
        "vertical_rate": 0,
        "geo_altitude": 11887.2,
        "squawk": "0536",
        "spi": false,
        "position_source": 0
      }
    },
    {
      "type": "Feature",
      "geometry": {
        "type": "Point",
        "coordinates": [
          11.1625,
          46.3923
        ]
      },
      "properties": {
        "icao24": "4cad10",
        "callsign": "RYR14VV",
        "origin_country": "Ireland",
        "time_position": 1788822058,
        "last_contact": 1788822058,
        "baro_altitude": 10325.1,
        "on_ground": false,
        "velocity": 236.38,
        "true_track": 351.99,
        "vertical_rate": 6.5,
        "geo_altitude": 10858.5,
        "squawk": "0267",
        "spi": false,
        "position_source": 0
      }
    },
    {
      "type": "Feature",
      "geometry": {
        "type": "Point",
        "coordinates": [
          11.8255,
          36.0408
        ]
      },
      "properties": {
        "icao24": "4cad2b",
        "callsign": "RYR5382",
        "origin_country": "Ireland",
        "time_position": 1788822058,
        "last_contact": 1788822058,
        "baro_altitude": 11277.6,
        "on_ground": false,
        "velocity": 253.11,
        "true_track": 90,
        "vertical_rate": 0,
        "geo_altitude": 11925.3,
        "squawk": "1453",
        "spi": false,
        "position_source": 0
      }
    },
    {
      "type": "Feature",
      "geometry": {
        "type": "Point",
        "coordinates": [
          14.2558,
          41.2614
        ]
      },
      "properties": {
        "icao24": "4d21dd",
        "callsign": "WMT2507",
        "origin_country": "Malta",
        "time_position": 1788822058,
        "last_contact": 1788822058,
        "baro_altitude": 10172.7,
        "on_ground": false,
        "velocity": 229.15,
        "true_track": 293.98,
        "vertical_rate": -5.2,
        "geo_altitude": 10774.68,
        "squawk": null,
        "spi": false,
        "position_source": 0
      }
    },
    {
      "type": "Feature",
      "geometry": {
        "type": "Point",
        "coordinates": [
          12.3386,
          45.5003
        ]
      },
      "properties": {
        "icao24": "4d20ff",
        "callsign": "WMT2WP",
        "origin_country": "Malta",
        "time_position": 1788821972,
        "last_contact": 1788821972,
        "baro_altitude": null,
        "on_ground": true,
        "velocity": 1.29,
        "true_track": 312.19,
        "vertical_rate": null,
        "geo_altitude": null,
        "squawk": "1000",
        "spi": false,
        "position_source": 0
      }
    },
    {
      "type": "Feature",
      "geometry": {
        "type": "Point",
        "coordinates": [
          12.6342,
          40.2049
        ]
      },
      "properties": {
        "icao24": "4d2222",
        "callsign": "RYR8FP",
        "origin_country": "Malta",
        "time_position": 1788822059,
        "last_contact": 1788822059,
        "baro_altitude": 11887.2,
        "on_ground": false,
        "velocity": 230.02,
        "true_track": 164.57,
        "vertical_rate": 0,
        "geo_altitude": 12512.04,
        "squawk": "7434",
        "spi": false,
        "position_source": 0
      }
    },
    {
      "type": "Feature",
      "geometry": {
        "type": "Point",
        "coordinates": [
          15.9966,
          38.9358
        ]
      },
      "properties": {
        "icao24": "4d226f",
        "callsign": "RYR9159",
        "origin_country": "Malta",
        "time_position": 1788822056,
        "last_contact": 1788822056,
        "baro_altitude": 1051.56,
        "on_ground": false,
        "velocity": 99.4,
        "true_track": 154.23,
        "vertical_rate": -4.55,
        "geo_altitude": 1287.78,
        "squawk": "7424",
        "spi": false,
        "position_source": 0
      }
    },
    {
      "type": "Feature",
      "geometry": {
        "type": "Point",
        "coordinates": [
          8.3936,
          36.3804
        ]
      },
      "properties": {
        "icao24": "710063",
        "callsign": "SVA342",
        "origin_country": "Saudi Arabia",
        "time_position": 1788821976,
        "last_contact": 1788821976,
        "baro_altitude": 10668,
        "on_ground": false,
        "velocity": 255.04,
        "true_track": 97.07,
        "vertical_rate": 0,
        "geo_altitude": 11277.6,
        "squawk": null,
        "spi": false,
        "position_source": 0
      }
    },
    {
      "type": "Feature",
      "geometry": {
        "type": "Point",
        "coordinates": [
          15.4519,
          42.0474
        ]
      },
      "properties": {
        "icao24": "4d2186",
        "callsign": "WMT3C",
        "origin_country": "Malta",
        "time_position": 1788822058,
        "last_contact": 1788822059,
        "baro_altitude": 10363.2,
        "on_ground": false,
        "velocity": 222.89,
        "true_track": 302.85,
        "vertical_rate": 0,
        "geo_altitude": 10972.8,
        "squawk": null,
        "spi": false,
        "position_source": 0
      }
    },
    {
      "type": "Feature",
      "geometry": {
        "type": "Point",
        "coordinates": [
          12.9127,
          38.07
        ]
      },
      "properties": {
        "icao24": "4d20b1",
        "callsign": "WMT8EA",
        "origin_country": "Malta",
        "time_position": 1788822058,
        "last_contact": 1788822058,
        "baro_altitude": 3192.78,
        "on_ground": false,
        "velocity": 178.7,
        "true_track": 35.15,
        "vertical_rate": -4.55,
        "geo_altitude": 3505.2,
        "squawk": "7773",
        "spi": false,
        "position_source": 0
      }
    },
    {
      "type": "Feature",
      "geometry": {
        "type": "Point",
        "coordinates": [
          6.1257,
          38.5832
        ]
      },
      "properties": {
        "icao24": "3483cb",
        "callsign": "AZW725",
        "origin_country": "Spain",
        "time_position": 1788822056,
        "last_contact": 1788822056,
        "baro_altitude": 11277.6,
        "on_ground": false,
        "velocity": 247,
        "true_track": 169.44,
        "vertical_rate": 0,
        "geo_altitude": 11910.06,
        "squawk": "6316",
        "spi": false,
        "position_source": 0
      }
    },
    {
      "type": "Feature",
      "geometry": {
        "type": "Point",
        "coordinates": [
          17.2721,
          40.6481
        ]
      },
      "properties": {
        "icao24": "4cac8c",
        "callsign": "NOS1382",
        "origin_country": "Ireland",
        "time_position": 1788822058,
        "last_contact": 1788822058,
        "baro_altitude": 10668,
        "on_ground": false,
        "velocity": 238.01,
        "true_track": 127.71,
        "vertical_rate": 0,
        "geo_altitude": 11277.6,
        "squawk": "0442",
        "spi": false,
        "position_source": 0
      }
    },
    {
      "type": "Feature",
      "geometry": {
        "type": "Point",
        "coordinates": [
          8.7367,
          45.5802
        ]
      },
      "properties": {
        "icao24": "4d20f3",
        "callsign": "WMT7359",
        "origin_country": "Malta",
        "time_position": 1788822058,
        "last_contact": 1788822058,
        "baro_altitude": 365.76,
        "on_ground": false,
        "velocity": 72.34,
        "true_track": 348.93,
        "vertical_rate": -3.58,
        "geo_altitude": 487.68,
        "squawk": "1000",
        "spi": false,
        "position_source": 0
      }
    },
    {
      "type": "Feature",
      "geometry": {
        "type": "Point",
        "coordinates": [
          14.6154,
          47.4939
        ]
      },
      "properties": {
        "icao24": "39c429",
        "callsign": "AFR202",
        "origin_country": "France",
        "time_position": 1788822058,
        "last_contact": 1788822059,
        "baro_altitude": 10660.38,
        "on_ground": false,
        "velocity": 272.21,
        "true_track": 105.45,
        "vertical_rate": 0.33,
        "geo_altitude": 11186.16,
        "squawk": "7551",
        "spi": false,
        "position_source": 0
      }
    },
    {
      "type": "Feature",
      "geometry": {
        "type": "Point",
        "coordinates": [
          12.6033,
          47.2411
        ]
      },
      "properties": {
        "icao24": "408352",
        "callsign": "EXS2DR",
        "origin_country": "United Kingdom",
        "time_position": 1788822059,
        "last_contact": 1788822059,
        "baro_altitude": 11582.4,
        "on_ground": false,
        "velocity": 216.28,
        "true_track": 306.49,
        "vertical_rate": -0.33,
        "geo_altitude": 12115.8,
        "squawk": "6630",
        "spi": false,
        "position_source": 0
      }
    },
    {
      "type": "Feature",
      "geometry": {
        "type": "Point",
        "coordinates": [
          13.2529,
          46.5108
        ]
      },
      "properties": {
        "icao24": "40832a",
        "callsign": "TOM3CT",
        "origin_country": "United Kingdom",
        "time_position": 1788822059,
        "last_contact": 1788822059,
        "baro_altitude": 10972.8,
        "on_ground": false,
        "velocity": 212.79,
        "true_track": 307.53,
        "vertical_rate": 0,
        "geo_altitude": 11529.06,
        "squawk": "5337",
        "spi": false,
        "position_source": 0
      }
    },
    {
      "type": "Feature",
      "geometry": {
        "type": "Point",
        "coordinates": [
          11.6676,
          45.9646
        ]
      },
      "properties": {
        "icao24": "408387",
        "callsign": "EZY75PF",
        "origin_country": "United Kingdom",
        "time_position": 1788822058,
        "last_contact": 1788822059,
        "baro_altitude": 10972.8,
        "on_ground": false,
        "velocity": 217.41,
        "true_track": 306.44,
        "vertical_rate": 0,
        "geo_altitude": 11521.44,
        "squawk": "2043",
        "spi": false,
        "position_source": 0
      }
    },
    {
      "type": "Feature",
      "geometry": {
        "type": "Point",
        "coordinates": [
          12.8356,
          44.6178
        ]
      },
      "properties": {
        "icao24": "4d2100",
        "callsign": "WMT6084",
        "origin_country": "Malta",
        "time_position": 1788822058,
        "last_contact": 1788822058,
        "baro_altitude": 6819.9,
        "on_ground": false,
        "velocity": 215.19,
        "true_track": 320.33,
        "vertical_rate": -13.66,
        "geo_altitude": 7254.24,
        "squawk": "5533",
        "spi": false,
        "position_source": 0
      }
    },
    {
      "type": "Feature",
      "geometry": {
        "type": "Point",
        "coordinates": [
          17.9793,
          42.5708
        ]
      },
      "properties": {
        "icao24": "408329",
        "callsign": "TOM1TK",
        "origin_country": "United Kingdom",
        "time_position": 1788822053,
        "last_contact": 1788822055,
        "baro_altitude": 10972.8,
        "on_ground": false,
        "velocity": 228.11,
        "true_track": 323.62,
        "vertical_rate": 0,
        "geo_altitude": 11574.78,
        "squawk": null,
        "spi": false,
        "position_source": 0
      }
    },
    {
      "type": "Feature",
      "geometry": {
        "type": "Point",
        "coordinates": [
          6.3923,
          37.3989
        ]
      },
      "properties": {
        "icao24": "39d2ad",
        "callsign": "AFR990",
        "origin_country": "France",
        "time_position": 1788822025,
        "last_contact": 1788822025,
        "baro_altitude": 10668,
        "on_ground": false,
        "velocity": 260.62,
        "true_track": 169.42,
        "vertical_rate": 0,
        "geo_altitude": 11269.98,
        "squawk": "7640",
        "spi": false,
        "position_source": 0
      }
    },
    {
      "type": "Feature",
      "geometry": {
        "type": "Point",
        "coordinates": [
          17.5961,
          47.0093
        ]
      },
      "properties": {
        "icao24": "39d2b2",
        "callsign": "AFR188",
        "origin_country": "France",
        "time_position": 1788822058,
        "last_contact": 1788822058,
        "baro_altitude": 11277.6,
        "on_ground": false,
        "velocity": 276.51,
        "true_track": 105.87,
        "vertical_rate": 0,
        "geo_altitude": 11780.52,
        "squawk": "7550",
        "spi": false,
        "position_source": 0
      }
    },
    {
      "type": "Feature",
      "geometry": {
        "type": "Point",
        "coordinates": [
          18.769,
          42.7652
        ]
      },
      "properties": {
        "icao24": "4081aa",
        "callsign": "EXS85BE",
        "origin_country": "United Kingdom",
        "time_position": 1788822059,
        "last_contact": 1788822059,
        "baro_altitude": 10972.8,
        "on_ground": false,
        "velocity": 222.7,
        "true_track": 316.5,
        "vertical_rate": -0.33,
        "geo_altitude": 11559.54,
        "squawk": "1356",
        "spi": false,
        "position_source": 0
      }
    },
    {
      "type": "Feature",
      "geometry": {
        "type": "Point",
        "coordinates": [
          12.657,
          38.7568
        ]
      },
      "properties": {
        "icao24": "4d204d",
        "callsign": "LWG2061",
        "origin_country": "Malta",
        "time_position": 1788822058,
        "last_contact": 1788822058,
        "baro_altitude": 5974.08,
        "on_ground": false,
        "velocity": 144.64,
        "true_track": 336.08,
        "vertical_rate": 6.18,
        "geo_altitude": 6408.42,
        "squawk": null,
        "spi": false,
        "position_source": 0
      }
    },
    {
      "type": "Feature",
      "geometry": {
        "type": "Point",
        "coordinates": [
          15.8454,
          45.5011
        ]
      },
      "properties": {
        "icao24": "4081a9",
        "callsign": "EXS42KH",
        "origin_country": "United Kingdom",
        "time_position": 1788822058,
        "last_contact": 1788822058,
        "baro_altitude": 10363.2,
        "on_ground": false,
        "velocity": 221.19,
        "true_track": 308.39,
        "vertical_rate": 0,
        "geo_altitude": 10927.08,
        "squawk": "2272",
        "spi": false,
        "position_source": 0
      }
    },
    {
      "type": "Feature",
      "geometry": {
        "type": "Point",
        "coordinates": [
          12.2595,
          41.7966
        ]
      },
      "properties": {
        "icao24": "4d2068",
        "callsign": "WMT5320",
        "origin_country": "Malta",
        "time_position": 1788821886,
        "last_contact": 1788821887,
        "baro_altitude": null,
        "on_ground": true,
        "velocity": 0,
        "true_track": 295.31,
        "vertical_rate": null,
        "geo_altitude": null,
        "squawk": "1000",
        "spi": false,
        "position_source": 0
      }
    },
    {
      "type": "Feature",
      "geometry": {
        "type": "Point",
        "coordinates": [
          7.5225,
          47.5996
        ]
      },
      "properties": {
        "icao24": "38c7ff",
        "callsign": "TECH18",
        "origin_country": "France",
        "time_position": 1788822057,
        "last_contact": 1788822057,
        "baro_altitude": null,
        "on_ground": true,
        "velocity": 1.54,
        "true_track": 137.81,
        "vertical_rate": null,
        "geo_altitude": null,
        "squawk": null,
        "spi": false,
        "position_source": 0
      }
    },
    {
      "type": "Feature",
      "geometry": {
        "type": "Point",
        "coordinates": [
          8.5641,
          47.4366
        ]
      },
      "properties": {
        "icao24": "4b17f8",
        "callsign": null,
        "origin_country": "Switzerland",
        "time_position": 1788822057,
        "last_contact": 1788822057,
        "baro_altitude": null,
        "on_ground": true,
        "velocity": 0.32,
        "true_track": 146.25,
        "vertical_rate": null,
        "geo_altitude": null,
        "squawk": null,
        "spi": false,
        "position_source": 0
      }
    },
    {
      "type": "Feature",
      "geometry": {
        "type": "Point",
        "coordinates": [
          13.0523,
          40.9777
        ]
      },
      "properties": {
        "icao24": "4a1a61",
        "callsign": "RCR3431",
        "origin_country": "Romania",
        "time_position": 1788822059,
        "last_contact": 1788822059,
        "baro_altitude": 10972.8,
        "on_ground": false,
        "velocity": 249.86,
        "true_track": 86.93,
        "vertical_rate": 0.33,
        "geo_altitude": 11567.16,
        "squawk": "0206",
        "spi": false,
        "position_source": 0
      }
    }
  ]
}