{
  "type": "FeatureCollection",
  "source": "opensky",
  "dataset": "aircraft_italy",
  "generated_at": "2026-08-26T23:42:12.695279+00:00",
  "opensky_time": 1787787727,
  "count": 133,
  "features": [
    {
      "type": "Feature",
      "geometry": {
        "type": "Point",
        "coordinates": [
          16.5478,
          37.4084
        ]
      },
      "properties": {
        "icao24": "801665",
        "callsign": "AIC11E",
        "origin_country": "India",
        "time_position": 1787787726,
        "last_contact": 1787787726,
        "baro_altitude": 11887.2,
        "on_ground": false,
        "velocity": 277.95,
        "true_track": 115.66,
        "vertical_rate": 0,
        "geo_altitude": 12641.58,
        "squawk": "1246",
        "spi": false,
        "position_source": 0
      }
    },
    {
      "type": "Feature",
      "geometry": {
        "type": "Point",
        "coordinates": [
          8.7241,
          45.6445
        ]
      },
      "properties": {
        "icao24": "4400b3",
        "callsign": "EJU31PN",
        "origin_country": "Austria",
        "time_position": 1787787511,
        "last_contact": 1787787522,
        "baro_altitude": null,
        "on_ground": true,
        "velocity": 5.92,
        "true_track": 258.75,
        "vertical_rate": null,
        "geo_altitude": null,
        "squawk": "1000",
        "spi": false,
        "position_source": 0
      }
    },
    {
      "type": "Feature",
      "geometry": {
        "type": "Point",
        "coordinates": [
          13.7432,
          45.2008
        ]
      },
      "properties": {
        "icao24": "407b70",
        "callsign": "WUK557",
        "origin_country": "United Kingdom",
        "time_position": 1787787726,
        "last_contact": 1787787726,
        "baro_altitude": 10965.18,
        "on_ground": false,
        "velocity": 195.71,
        "true_track": 311.48,
        "vertical_rate": 0,
        "geo_altitude": 11536.68,
        "squawk": "0505",
        "spi": false,
        "position_source": 0
      }
    },
    {
      "type": "Feature",
      "geometry": {
        "type": "Point",
        "coordinates": [
          12.3531,
          42.1562
        ]
      },
      "properties": {
        "icao24": "8015a7",
        "callsign": "AIC191",
        "origin_country": "India",
        "time_position": 1787787726,
        "last_contact": 1787787726,
        "baro_altitude": 2415.54,
        "on_ground": false,
        "velocity": 126.78,
        "true_track": 332.71,
        "vertical_rate": -9.75,
        "geo_altitude": 2667,
        "squawk": null,
        "spi": false,
        "position_source": 0
      }
    },
    {
      "type": "Feature",
      "geometry": {
        "type": "Point",
        "coordinates": [
          8.7181,
          45.6317
        ]
      },
      "properties": {
        "icao24": "73806d",
        "callsign": "ELY387",
        "origin_country": "Israel",
        "time_position": 1787787552,
        "last_contact": 1787787552,
        "baro_altitude": null,
        "on_ground": true,
        "velocity": 0.06,
        "true_track": 78.75,
        "vertical_rate": null,
        "geo_altitude": null,
        "squawk": "4137",
        "spi": false,
        "position_source": 0
      }
    },
    {
      "type": "Feature",
      "geometry": {
        "type": "Point",
        "coordinates": [
          15.4908,
          39.4492
        ]
      },
      "properties": {
        "icao24": "73806b",
        "callsign": "ELY392",
        "origin_country": "Israel",
        "time_position": 1787787727,
        "last_contact": 1787787727,
        "baro_altitude": 11277.6,
        "on_ground": false,
        "velocity": 252.66,
        "true_track": 103.78,
        "vertical_rate": 0,
        "geo_altitude": 12001.5,
        "squawk": null,
        "spi": false,
        "position_source": 0
      }
    },
    {
      "type": "Feature",
      "geometry": {
        "type": "Point",
        "coordinates": [
          16.1571,
          39.7504
        ]
      },
      "properties": {
        "icao24": "738064",
        "callsign": "ELY398",
        "origin_country": "Israel",
        "time_position": 1787787726,
        "last_contact": 1787787726,
        "baro_altitude": 11277.6,
        "on_ground": false,
        "velocity": 258.29,
        "true_track": 100.91,
        "vertical_rate": 0.33,
        "geo_altitude": 11993.88,
        "squawk": null,
        "spi": false,
        "position_source": 0
      }
    },
    {
      "type": "Feature",
      "geometry": {
        "type": "Point",
        "coordinates": [
          16.3248,
          39.1373
        ]
      },
      "properties": {
        "icao24": "738058",
        "callsign": "ELY374",
        "origin_country": "Israel",
        "time_position": 1787787726,
        "last_contact": 1787787726,
        "baro_altitude": 11277.6,
        "on_ground": false,
        "velocity": 254.89,
        "true_track": 105.69,
        "vertical_rate": 0,
        "geo_altitude": 12001.5,
        "squawk": null,
        "spi": false,
        "position_source": 0
      }
    },
    {
      "type": "Feature",
      "geometry": {
        "type": "Point",
        "coordinates": [
          7.9474,
          44.0065
        ]
      },
      "properties": {
        "icao24": "44001f",
        "callsign": "EJU76CN",
        "origin_country": "Austria",
        "time_position": 1787787727,
        "last_contact": 1787787727,
        "baro_altitude": 9144,
        "on_ground": false,
        "velocity": 226.59,
        "true_track": 39.47,
        "vertical_rate": 0,
        "geo_altitude": 9692.64,
        "squawk": "1000",
        "spi": false,
        "position_source": 0
      }
    },
    {
      "type": "Feature",
      "geometry": {
        "type": "Point",
        "coordinates": [
          17.5328,
          46.6411
        ]
      },
      "properties": {
        "icao24": "896121",
        "callsign": "UAE59T",
        "origin_country": "United Arab Emirates",
        "time_position": 1787787726,
        "last_contact": 1787787726,
        "baro_altitude": 10668,
        "on_ground": false,
        "velocity": 285.26,
        "true_track": 125.75,
        "vertical_rate": 0,
        "geo_altitude": 11155.68,
        "squawk": "2244",
        "spi": false,
        "position_source": 0
      }
    },
    {
      "type": "Feature",
      "geometry": {
        "type": "Point",
        "coordinates": [
          17.5041,
          47.2708
        ]
      },
      "properties": {
        "icao24": "896181",
        "callsign": "UAE28Y",
        "origin_country": "United Arab Emirates",
        "time_position": 1787787726,
        "last_contact": 1787787727,
        "baro_altitude": 11887.2,
        "on_ground": false,
        "velocity": 290.69,
        "true_track": 118.2,
        "vertical_rate": 0,
        "geo_altitude": 12359.64,
        "squawk": "4612",
        "spi": false,
        "position_source": 0
      }
    },
    {
      "type": "Feature",
      "geometry": {
        "type": "Point",
        "coordinates": [
          16.4074,
          43.0615
        ]
      },
      "properties": {
        "icao24": "440175",
        "callsign": "EJU4357",
        "origin_country": "Austria",
        "time_position": 1787787723,
        "last_contact": 1787787724,
        "baro_altitude": 10980.42,
        "on_ground": false,
        "velocity": 200.18,
        "true_track": 303.36,
        "vertical_rate": 0,
        "geo_altitude": 11605.26,
        "squawk": null,
        "spi": false,
        "position_source": 0
      }
    },
    {
      "type": "Feature",
      "geometry": {
        "type": "Point",
        "coordinates": [
          12.0547,
          46.5673
        ]
      },
      "properties": {
        "icao24": "452186",
        "callsign": "AMQ3342",
        "origin_country": "Bulgaria",
        "time_position": 1787787726,
        "last_contact": 1787787726,
        "baro_altitude": 11277.6,
        "on_ground": false,
        "velocity": 264.88,
        "true_track": 48.23,
        "vertical_rate": -0.33,
        "geo_altitude": 11788.14,
        "squawk": "1000",
        "spi": false,
        "position_source": 0
      }
    },
    {
      "type": "Feature",
      "geometry": {
        "type": "Point",
        "coordinates": [
          8.5727,
          45.0588
        ]
      },
      "properties": {
        "icao24": "440198",
        "callsign": "EJU3786",
        "origin_country": "Austria",
        "time_position": 1787787726,
        "last_contact": 1787787727,
        "baro_altitude": 3863.34,
        "on_ground": false,
        "velocity": 166.58,
        "true_track": 349.14,
        "vertical_rate": -10.08,
        "geo_altitude": 4145.28,
        "squawk": "1000",
        "spi": false,
        "position_source": 0
      }
    },
    {
      "type": "Feature",
      "geometry": {
        "type": "Point",
        "coordinates": [
          18.8636,
          42.2493
        ]
      },
      "properties": {
        "icao24": "452179",
        "callsign": "LBT7262",
        "origin_country": "Bulgaria",
        "time_position": 1787787718,
        "last_contact": 1787787718,
        "baro_altitude": 10675.62,
        "on_ground": false,
        "velocity": 225.43,
        "true_track": 16.57,
        "vertical_rate": 0,
        "geo_altitude": 11292.84,
        "squawk": null,
        "spi": false,
        "position_source": 0
      }
    },
    {
      "type": "Feature",
      "geometry": {
        "type": "Point",
        "coordinates": [
          9.405,
          45.5572
        ]
      },
      "properties": {
        "icao24": "300a44",
        "callsign": "LSI220",
        "origin_country": "Italy",
        "time_position": 1787787726,
        "last_contact": 1787787726,
        "baro_altitude": 2971.8,
        "on_ground": false,
        "velocity": 133.68,
        "true_track": 242.74,
        "vertical_rate": -2.28,
        "geo_altitude": 3200.4,
        "squawk": "2336",
        "spi": false,
        "position_source": 0
      }
    },
    {
      "type": "Feature",
      "geometry": {
        "type": "Point",
        "coordinates": [
          17.7429,
          37.7926
        ]
      },
      "properties": {
        "icao24": "4bb1c4",
        "callsign": "THY1CT",
        "origin_country": "Turkey",
        "time_position": 1787787726,
        "last_contact": 1787787726,
        "baro_altitude": 10972.8,
        "on_ground": false,
        "velocity": 239.01,
        "true_track": 233.4,
        "vertical_rate": 0,
        "geo_altitude": 11696.7,
        "squawk": null,
        "spi": false,
        "position_source": 0
      }
    },
    {
      "type": "Feature",
      "geometry": {
        "type": "Point",
        "coordinates": [
          6.9703,
          39.2269
        ]
      },
      "properties": {
        "icao24": "4bb266",
        "callsign": "THY5LY",
        "origin_country": "Turkey",
        "time_position": 1787787725,
        "last_contact": 1787787726,
        "baro_altitude": 10363.2,
        "on_ground": false,
        "velocity": 262.3,
        "true_track": 59.21,
        "vertical_rate": 0,
        "geo_altitude": 11049,
        "squawk": null,
        "spi": false,
        "position_source": 0
      }
    },
    {
      "type": "Feature",
      "geometry": {
        "type": "Point",
        "coordinates": [
          11,
          40.2342
        ]
      },
      "properties": {
        "icao24": "020176",
        "callsign": "MAC438",
        "origin_country": "Morocco",
        "time_position": 1787787726,
        "last_contact": 1787787726,
        "baro_altitude": 10668,
        "on_ground": false,
        "velocity": 206.99,
        "true_track": 261.57,
        "vertical_rate": 0,
        "geo_altitude": 11376.66,
        "squawk": null,
        "spi": false,
        "position_source": 0
      }
    },
    {
      "type": "Feature",
      "geometry": {
        "type": "Point",
        "coordinates": [
          9.7759,
          43.9558
        ]
      },
      "properties": {
        "icao24": "020175",
        "callsign": "MAC464",
        "origin_country": "Morocco",
        "time_position": 1787787726,
        "last_contact": 1787787726,
        "baro_altitude": 8709.66,
        "on_ground": false,
        "velocity": 213.38,
        "true_track": 237.8,
        "vertical_rate": 5.2,
        "geo_altitude": 9265.92,
        "squawk": "0407",
        "spi": false,
        "position_source": 0
      }
    },
    {
      "type": "Feature",
      "geometry": {
        "type": "Point",
        "coordinates": [
          15.4343,
          38.3671
        ]
      },
      "properties": {
        "icao24": "4bb212",
        "callsign": "THY658",
        "origin_country": "Turkey",
        "time_position": 1787787726,
        "last_contact": 1787787726,
        "baro_altitude": 10050.78,
        "on_ground": false,
        "velocity": 244.07,
        "true_track": 70.42,
        "vertical_rate": 0.33,
        "geo_altitude": 10767.06,
        "squawk": "6176",
        "spi": false,
        "position_source": 0
      }
    },
    {
      "type": "Feature",
      "geometry": {
        "type": "Point",
        "coordinates": [
          6.5815,
          45.1184
        ]
      },
      "properties": {
        "icao24": "4bb142",
        "callsign": "THY41J",
        "origin_country": "Turkey",
        "time_position": 1787787726,
        "last_contact": 1787787726,
        "baro_altitude": 11277.6,
        "on_ground": false,
        "velocity": 270.77,
        "true_track": 110.81,
        "vertical_rate": -0.33,
        "geo_altitude": 11818.62,
        "squawk": "2364",
        "spi": false,
        "position_source": 0
      }
    },
    {
      "type": "Feature",
      "geometry": {
        "type": "Point",
        "coordinates": [
          14.3336,
          47.7337
        ]
      },
      "properties": {
        "icao24": "489229",
        "callsign": "ENT4XN",
        "origin_country": "Poland",
        "time_position": 1787787726,
        "last_contact": 1787787726,
        "baro_altitude": 11582.4,
        "on_ground": false,
        "velocity": 252.94,
        "true_track": 49.7,
        "vertical_rate": 0,
        "geo_altitude": 12085.32,
        "squawk": "1000",
        "spi": false,
        "position_source": 0
      }
    },
    {
      "type": "Feature",
      "geometry": {
        "type": "Point",
        "coordinates": [
          11.2236,
          36.6486
        ]
      },
      "properties": {
        "icao24": "8963d7",
        "callsign": "UAE194",
        "origin_country": "United Arab Emirates",
        "time_position": 1787787726,
        "last_contact": 1787787726,
        "baro_altitude": 10668,
        "on_ground": false,
        "velocity": 275.4,
        "true_track": 97.3,
        "vertical_rate": 0,
        "geo_altitude": 11437.62,
        "squawk": "5232",
        "spi": false,
        "position_source": 0
      }
    },
    {
      "type": "Feature",
      "geometry": {
        "type": "Point",
        "coordinates": [
          17.8809,
          46.3533
        ]
      },
      "properties": {
        "icao24": "4bb181",
        "callsign": "THY4RN",
        "origin_country": "Turkey",
        "time_position": 1787787726,
        "last_contact": 1787787726,
        "baro_altitude": 11879.58,
        "on_ground": false,
        "velocity": 279.74,
        "true_track": 119.77,
        "vertical_rate": -0.33,
        "geo_altitude": 12412.98,
        "squawk": "2247",
        "spi": false,
        "position_source": 0
      }
    },
    {
      "type": "Feature",
      "geometry": {
        "type": "Point",
        "coordinates": [
          16.3971,
          45.2254
        ]
      },
      "properties": {
        "icao24": "407862",
        "callsign": "EXS1190",
        "origin_country": "United Kingdom",
        "time_position": 1787787726,
        "last_contact": 1787787726,
        "baro_altitude": 10972.8,
        "on_ground": false,
        "velocity": 196.84,
        "true_track": 308.85,
        "vertical_rate": 0,
        "geo_altitude": 11521.44,
        "squawk": "2041",
        "spi": false,
        "position_source": 0
      }
    },
    {
      "type": "Feature",
      "geometry": {
        "type": "Point",
        "coordinates": [
          15.681,
          47.7689
        ]
      },
      "properties": {
        "icao24": "4b990c",
        "callsign": "FHY1204",
        "origin_country": "Turkey",
        "time_position": 1787787726,
        "last_contact": 1787787727,
        "baro_altitude": 11277.6,
        "on_ground": false,
        "velocity": 263.69,
        "true_track": 128.35,
        "vertical_rate": 0,
        "geo_altitude": 11765.28,
        "squawk": "6022",
        "spi": false,
        "position_source": 0
      }
    },
    {
      "type": "Feature",
      "geometry": {
        "type": "Point",
        "coordinates": [
          12.711,
          47.0459
        ]
      },
      "properties": {
        "icao24": "4078ae",
        "callsign": "EXS6QZ",
        "origin_country": "United Kingdom",
        "time_position": 1787787726,
        "last_contact": 1787787727,
        "baro_altitude": 11582.4,
        "on_ground": false,
        "velocity": 210.41,
        "true_track": 312.82,
        "vertical_rate": -0.33,
        "geo_altitude": 12085.32,
        "squawk": "0512",
        "spi": false,
        "position_source": 0
      }
    },
    {
      "type": "Feature",
      "geometry": {
        "type": "Point",
        "coordinates": [
          11.8458,
          45.2092
        ]
      },
      "properties": {
        "icao24": "4078ef",
        "callsign": "EZY67NB",
        "origin_country": "United Kingdom",
        "time_position": 1787787726,
        "last_contact": 1787787726,
        "baro_altitude": 10363.2,
        "on_ground": false,
        "velocity": 199.22,
        "true_track": 286.66,
        "vertical_rate": 0,
        "geo_altitude": 10911.84,
        "squawk": "6004",
        "spi": false,
        "position_source": 0
      }
    },
    {
      "type": "Feature",
      "geometry": {
        "type": "Point",
        "coordinates": [
          11.1164,
          46.2757
        ]
      },
      "properties": {
        "icao24": "406696",
        "callsign": "TOM561",
        "origin_country": "United Kingdom",
        "time_position": 1787787726,
        "last_contact": 1787787727,
        "baro_altitude": 11582.4,
        "on_ground": false,
        "velocity": 202.47,
        "true_track": 303.29,
        "vertical_rate": 0,
        "geo_altitude": 12115.8,
        "squawk": "5320",
        "spi": false,
        "position_source": 0
      }
    },
    {
      "type": "Feature",
      "geometry": {
        "type": "Point",
        "coordinates": [
          8.5727,
          47.4543
        ]
      },
      "properties": {
        "icao24": "3cce71",
        "callsign": "FCK2FT",
        "origin_country": "Germany",
        "time_position": 1787787578,
        "last_contact": 1787787578,
        "baro_altitude": null,
        "on_ground": true,
        "velocity": 0.06,
        "true_track": 5.62,
        "vertical_rate": null,
        "geo_altitude": null,
        "squawk": "3042",
        "spi": false,
        "position_source": 0
      }
    },
    {
      "type": "Feature",
      "geometry": {
        "type": "Point",
        "coordinates": [
          18.0585,
          43.1443
        ]
      },
      "properties": {
        "icao24": "40660c",
        "callsign": "TOM3CB",
        "origin_country": "United Kingdom",
        "time_position": 1787787726,
        "last_contact": 1787787726,
        "baro_altitude": 10972.8,
        "on_ground": false,
        "velocity": 204.91,
        "true_track": 325.43,
        "vertical_rate": 0,
        "geo_altitude": 11590.02,
        "squawk": "5530",
        "spi": false,
        "position_source": 0
      }
    },
    {
      "type": "Feature",
      "geometry": {
        "type": "Point",
        "coordinates": [
          17.6105,
          47.0553
        ]
      },
      "properties": {
        "icao24": "49d3d6",
        "callsign": "TVS3210",
        "origin_country": "Czech Republic",
        "time_position": 1787787726,
        "last_contact": 1787787726,
        "baro_altitude": 9448.8,
        "on_ground": false,
        "velocity": 267.89,
        "true_track": 140.53,
        "vertical_rate": -0.33,
        "geo_altitude": 9898.38,
        "squawk": "4501",
        "spi": false,
        "position_source": 0
      }
    },
    {
      "type": "Feature",
      "geometry": {
        "type": "Point",
        "coordinates": [
          18.3386,
          35.5285
        ]
      },
      "properties": {
        "icao24": "040219",
        "callsign": "ETH501",
        "origin_country": "Ethiopia",
        "time_position": 1787787726,
        "last_contact": 1787787726,
        "baro_altitude": 11887.2,
        "on_ground": false,
        "velocity": 267.68,
        "true_track": 101.98,
        "vertical_rate": 0,
        "geo_altitude": 12656.82,
        "squawk": null,
        "spi": false,
        "position_source": 0
      }
    },
    {
      "type": "Feature",
      "geometry": {
        "type": "Point",
        "coordinates": [
          13.0297,
          39.1621
        ]
      },
      "properties": {
        "icao24": "04004a",
        "callsign": "ETH575",
        "origin_country": "Ethiopia",
        "time_position": 1787787726,
        "last_contact": 1787787726,
        "baro_altitude": 11887.2,
        "on_ground": false,
        "velocity": 282.83,
        "true_track": 113.02,
        "vertical_rate": 0,
        "geo_altitude": 12656.82,
        "squawk": null,
        "spi": false,
        "position_source": 0
      }
    },
    {
      "type": "Feature",
      "geometry": {
        "type": "Point",
        "coordinates": [
          12.9218,
          39.0898
        ]
      },
      "properties": {
        "icao24": "040087",
        "callsign": "ETH519",
        "origin_country": "Ethiopia",
        "time_position": 1787787726,
        "last_contact": 1787787726,
        "baro_altitude": 12489.18,
        "on_ground": false,
        "velocity": 277.47,
        "true_track": 116.18,
        "vertical_rate": -0.33,
        "geo_altitude": 13251.18,
        "squawk": null,
        "spi": false,
        "position_source": 0
      }
    },
    {
      "type": "Feature",
      "geometry": {
        "type": "Point",
        "coordinates": [
          18.6091,
          47.1836
        ]
      },
      "properties": {
        "icao24": "49d423",
        "callsign": "TVS2643",
        "origin_country": "Czech Republic",
        "time_position": 1787787726,
        "last_contact": 1787787726,
        "baro_altitude": 11582.4,
        "on_ground": false,
        "velocity": 202.51,
        "true_track": 304.86,
        "vertical_rate": 0,
        "geo_altitude": 12054.84,
        "squawk": "5325",
        "spi": false,
        "position_source": 0
      }
    },
    {
      "type": "Feature",
      "geometry": {
        "type": "Point",
        "coordinates": [
          18.8618,
          43.3107
        ]
      },
      "properties": {
        "icao24": "49d42b",
        "callsign": "TVS2552",
        "origin_country": "Czech Republic",
        "time_position": 1787787726,
        "last_contact": 1787787726,
        "baro_altitude": 11277.6,
        "on_ground": false,
        "velocity": 262.64,
        "true_track": 150.42,
        "vertical_rate": 0,
        "geo_altitude": 11887.2,
        "squawk": "6037",
        "spi": false,
        "position_source": 0
      }
    },
    {
      "type": "Feature",
      "geometry": {
        "type": "Point",
        "coordinates": [
          10.1469,
          40.0532
        ]
      },
      "properties": {
        "icao24": "49d1c6",
        "callsign": "EWG4PR",
        "origin_country": "Czech Republic",
        "time_position": 1787787726,
        "last_contact": 1787787726,
        "baro_altitude": 11277.6,
        "on_ground": false,
        "velocity": 226.21,
        "true_track": 176.74,
        "vertical_rate": 0,
        "geo_altitude": 11986.26,
        "squawk": null,
        "spi": false,
        "position_source": 0
      }
    },
    {
      "type": "Feature",
      "geometry": {
        "type": "Point",
        "coordinates": [
          8.6429,
          45.8691
        ]
      },
      "properties": {
        "icao24": "407eb5",
        "callsign": "DHK524",
        "origin_country": "United Kingdom",
        "time_position": 1787787727,
        "last_contact": 1787787727,
        "baro_altitude": 4526.28,
        "on_ground": false,
        "velocity": 195.47,
        "true_track": 141.41,
        "vertical_rate": -9.43,
        "geo_altitude": 4846.32,
        "squawk": "0506",
        "spi": false,
        "position_source": 0
      }
    },
    {
      "type": "Feature",
      "geometry": {
        "type": "Point",
        "coordinates": [
          17.0486,
          44.4693
        ]
      },
      "properties": {
        "icao24": "407fea",
        "callsign": "WUK962",
        "origin_country": "United Kingdom",
        "time_position": 1787787726,
        "last_contact": 1787787726,
        "baro_altitude": 10972.8,
        "on_ground": false,
        "velocity": 202.51,
        "true_track": 312.12,
        "vertical_rate": 0,
        "geo_altitude": 11567.16,
        "squawk": "5201",
        "spi": false,
        "position_source": 0
      }
    },
    {
      "type": "Feature",
      "geometry": {
        "type": "Point",
        "coordinates": [
          15.4242,
          45.1806
        ]
      },
      "properties": {
        "icao24": "407fda",
        "callsign": "WUK8YM",
        "origin_country": "United Kingdom",
        "time_position": 1787787726,
        "last_contact": 1787787726,
        "baro_altitude": 10980.42,
        "on_ground": false,
        "velocity": 197.3,
        "true_track": 317.11,
        "vertical_rate": -0.33,
        "geo_altitude": 11559.54,
        "squawk": "0510",
        "spi": false,
        "position_source": 0
      }
    },
    {
      "type": "Feature",
      "geometry": {
        "type": "Point",
        "coordinates": [
          6.822,
          43.8383
        ]
      },
      "properties": {
        "icao24": "4ca27a",
        "callsign": "RYR66EF",
        "origin_country": "Ireland",
        "time_position": 1787787726,
        "last_contact": 1787787726,
        "baro_altitude": 11277.6,
        "on_ground": false,
        "velocity": 185.52,
        "true_track": 235.16,
        "vertical_rate": 0,
        "geo_altitude": 11856.72,
        "squawk": "1000",
        "spi": false,
        "position_source": 0
      }
    },
    {
      "type": "Feature",
      "geometry": {
        "type": "Point",
        "coordinates": [
          10.5602,
          46.2644
        ]
      },
      "properties": {
        "icao24": "407fff",
        "callsign": "EZY54ZP",
        "origin_country": "United Kingdom",
        "time_position": 1787787726,
        "last_contact": 1787787726,
        "baro_altitude": 10972.8,
        "on_ground": false,
        "velocity": 200.78,
        "true_track": 309.07,
        "vertical_rate": 0,
        "geo_altitude": 11513.82,
        "squawk": "2750",
        "spi": false,
        "position_source": 0
      }
    },
    {
      "type": "Feature",
      "geometry": {
        "type": "Point",
        "coordinates": [
          10.2537,
          46.1549
        ]
      },
      "properties": {
        "icao24": "407e7b",
        "callsign": "TOM373",
        "origin_country": "United Kingdom",
        "time_position": 1787787727,
        "last_contact": 1787787727,
        "baro_altitude": 11582.4,
        "on_ground": false,
        "velocity": 204.13,
        "true_track": 309.99,
        "vertical_rate": 0.33,
        "geo_altitude": 12123.42,
        "squawk": "7512",
        "spi": false,
        "position_source": 0
      }
    },
    {
      "type": "Feature",
      "geometry": {
        "type": "Point",
        "coordinates": [
          11.3834,
          47.7734
        ]
      },
      "properties": {
        "icao24": "407e82",
        "callsign": "RUK1XR",
        "origin_country": "United Kingdom",
        "time_position": 1787787726,
        "last_contact": 1787787726,
        "baro_altitude": 10972.8,
        "on_ground": false,
        "velocity": 213.15,
        "true_track": 308.34,
        "vertical_rate": 0,
        "geo_altitude": 11430,
        "squawk": "0504",
        "spi": false,
        "position_source": 0
      }
    },
    {
      "type": "Feature",
      "geometry": {
        "type": "Point",
        "coordinates": [
          17.0832,
          44.8845
        ]
      },
      "properties": {
        "icao24": "407e71",
        "callsign": "EXS6MN",
        "origin_country": "United Kingdom",
        "time_position": 1787787726,
        "last_contact": 1787787726,
        "baro_altitude": 10363.2,
        "on_ground": false,
        "velocity": 186.15,
        "true_track": 310.29,
        "vertical_rate": 0,
        "geo_altitude": 10896.6,
        "squawk": "5645",
        "spi": false,
        "position_source": 0
      }
    },
    {
      "type": "Feature",
      "geometry": {
        "type": "Point",
        "coordinates": [
          13.9397,
          46.5225
        ]
      },
      "properties": {
        "icao24": "407e45",
        "callsign": "EXS8GN",
        "origin_country": "United Kingdom",
        "time_position": 1787787726,
        "last_contact": 1787787726,
        "baro_altitude": 10972.8,
        "on_ground": false,
        "velocity": 207.96,
        "true_track": 310.59,
        "vertical_rate": 0,
        "geo_altitude": 11521.44,
        "squawk": "2203",
        "spi": false,
        "position_source": 0
      }
    },
    {
      "type": "Feature",
      "geometry": {
        "type": "Point",
        "coordinates": [
          10.0161,
          45.502
        ]
      },
      "properties": {
        "icao24": "440614",
        "callsign": "EJU68VV",
        "origin_country": "Austria",
        "time_position": 1787787726,
        "last_contact": 1787787726,
        "baro_altitude": 7574.28,
        "on_ground": false,
        "velocity": 218,
        "true_track": 288.01,
        "vertical_rate": -13.98,
        "geo_altitude": 8031.48,
        "squawk": "6621",
        "spi": false,
        "position_source": 0
      }
    },
    {
      "type": "Feature",
      "geometry": {
        "type": "Point",
        "coordinates": [
          10.5337,
          36.3402
        ]
      },
      "properties": {
        "icao24": "06a083",
        "callsign": "QTR1396",
        "origin_country": "Qatar",
        "time_position": 1787787726,
        "last_contact": 1787787727,
        "baro_altitude": 10668,
        "on_ground": false,
        "velocity": 272.36,
        "true_track": 92.27,
        "vertical_rate": 0,
        "geo_altitude": 11437.62,
        "squawk": null,
        "spi": false,
        "position_source": 0
      }
    },
    {
      "type": "Feature",
      "geometry": {
        "type": "Point",
        "coordinates": [
          9.9713,
          39.8503
        ]
      },
      "properties": {
        "icao24": "06a07f",
        "callsign": "QTR49J",
        "origin_country": "Qatar",
        "time_position": 1787787726,
        "last_contact": 1787787726,
        "baro_altitude": 10668,
        "on_ground": false,
        "velocity": 274.94,
        "true_track": 116.09,
        "vertical_rate": 0,
        "geo_altitude": 11353.8,
        "squawk": "3735",
        "spi": false,
        "position_source": 0
      }
    },
    {
      "type": "Feature",
      "geometry": {
        "type": "Point",
        "coordinates": [
          10.7236,
          46.0269
        ]
      },
      "properties": {
        "icao24": "406c71",
        "callsign": "EZY54XH",
        "origin_country": "United Kingdom",
        "time_position": 1787787726,
        "last_contact": 1787787726,
        "baro_altitude": 10972.8,
        "on_ground": false,
        "velocity": 199.38,
        "true_track": 313.95,
        "vertical_rate": 0.33,
        "geo_altitude": 11529.06,
        "squawk": "2051",
        "spi": false,
        "position_source": 0
      }
    },
    {
      "type": "Feature",
      "geometry": {
        "type": "Point",
        "coordinates": [
          13.6734,
          47.4929
        ]
      },
      "properties": {
        "icao24": "407f7c",
        "callsign": "EXS5TV",
        "origin_country": "United Kingdom",
        "time_position": 1787787726,
        "last_contact": 1787787726,
        "baro_altitude": 11582.4,
        "on_ground": false,
        "velocity": 217.04,
        "true_track": 329.36,
        "vertical_rate": 0,
        "geo_altitude": 12077.7,
        "squawk": "5361",
        "spi": false,
        "position_source": 0
      }
    },
    {
      "type": "Feature",
      "geometry": {
        "type": "Point",
        "coordinates": [
          18.3131,
          43.2345
        ]
      },
      "properties": {
        "icao24": "407f62",
        "callsign": "EZY21FJ",
        "origin_country": "United Kingdom",
        "time_position": 1787787712,
        "last_contact": 1787787724,
        "baro_altitude": 10355.58,
        "on_ground": false,
        "velocity": 210.76,
        "true_track": 312.92,
        "vertical_rate": 0.33,
        "geo_altitude": 10965.18,
        "squawk": null,
        "spi": false,
        "position_source": 0
      }
    },
    {
      "type": "Feature",
      "geometry": {
        "type": "Point",
        "coordinates": [
          14.0797,
          45.797
        ]
      },
      "properties": {
        "icao24": "407f60",
        "callsign": "EZY52DQ",
        "origin_country": "United Kingdom",
        "time_position": 1787787726,
        "last_contact": 1787787727,
        "baro_altitude": 10988.04,
        "on_ground": false,
        "velocity": 195.88,
        "true_track": 308.5,
        "vertical_rate": -0.33,
        "geo_altitude": 11506.2,
        "squawk": "5312",
        "spi": false,
        "position_source": 0
      }
    },
    {
      "type": "Feature",
      "geometry": {
        "type": "Point",
        "coordinates": [
          18.8951,
          42.797
        ]
      },
      "properties": {
        "icao24": "49d00d",
        "callsign": "TVS2NP",
        "origin_country": "Czech Republic",
        "time_position": 1787787725,
        "last_contact": 1787787725,
        "baro_altitude": 10972.8,
        "on_ground": false,
        "velocity": 198.83,
        "true_track": 330.38,
        "vertical_rate": 0,
        "geo_altitude": 11597.64,
        "squawk": null,
        "spi": false,
        "position_source": 0
      }
    },
    {
      "type": "Feature",
      "geometry": {
        "type": "Point",
        "coordinates": [
          6.3101,
          47.3579
        ]
      },
      "properties": {
        "icao24": "4cc58a",
        "callsign": "ABD2617",
        "origin_country": "Iceland",
        "time_position": 1787787726,
        "last_contact": 1787787726,
        "baro_altitude": 10668,
        "on_ground": false,
        "velocity": 230.35,
        "true_track": 187.44,
        "vertical_rate": 0,
        "geo_altitude": 11109.96,
        "squawk": "0111",
        "spi": false,
        "position_source": 0
      }
    },
    {
      "type": "Feature",
      "geometry": {
        "type": "Point",
        "coordinates": [
          11.1477,
          46.0607
        ]
      },
      "properties": {
        "icao24": "407c0a",
        "callsign": "TOM2MC",
        "origin_country": "United Kingdom",
        "time_position": 1787787726,
        "last_contact": 1787787726,
        "baro_altitude": 11582.4,
        "on_ground": false,
        "velocity": 196.28,
        "true_track": 317.66,
        "vertical_rate": 0,
        "geo_altitude": 12131.04,
        "squawk": "2065",
        "spi": false,
        "position_source": 0
      }
    },
    {
      "type": "Feature",
      "geometry": {
        "type": "Point",
        "coordinates": [
          6.8349,
          46.3023
        ]
      },
      "properties": {
        "icao24": "440409",
        "callsign": "BCS76P",
        "origin_country": "Austria",
        "time_position": 1787787726,
        "last_contact": 1787787727,
        "baro_altitude": 11468.1,
        "on_ground": false,
        "velocity": 215,
        "true_track": 315.68,
        "vertical_rate": 5.2,
        "geo_altitude": 11993.88,
        "squawk": "5721",
        "spi": false,
        "position_source": 0
      }
    },
    {
      "type": "Feature",
      "geometry": {
        "type": "Point",
        "coordinates": [
          6.7396,
          44.9649
        ]
      },
      "properties": {
        "icao24": "06a1e6",
        "callsign": "QTR8214",
        "origin_country": "Qatar",
        "time_position": 1787787726,
        "last_contact": 1787787726,
        "baro_altitude": 8115.3,
        "on_ground": false,
        "velocity": 261.73,
        "true_track": 86.85,
        "vertical_rate": -3.25,
        "geo_altitude": 8572.5,
        "squawk": "1000",
        "spi": false,
        "position_source": 0
      }
    },
    {
      "type": "Feature",
      "geometry": {
        "type": "Point",
        "coordinates": [
          8.6819,
          45.3845
        ]
      },
      "properties": {
        "icao24": "344695",
        "callsign": "VLG19XM",
        "origin_country": "Spain",
        "time_position": 1787787726,
        "last_contact": 1787787726,
        "baro_altitude": 3451.86,
        "on_ground": false,
        "velocity": 147.45,
        "true_track": 212.03,
        "vertical_rate": 10.4,
        "geo_altitude": 3710.94,
        "squawk": "1000",
        "spi": false,
        "position_source": 0
      }
    },
    {
      "type": "Feature",
      "geometry": {
        "type": "Point",
        "coordinates": [
          11.3488,
          36.9198
        ]
      },
      "properties": {
        "icao24": "504e88",
        "callsign": "SQY5023",
        "origin_country": "Republic of Moldova",
        "time_position": 1787787726,
        "last_contact": 1787787726,
        "baro_altitude": 6560.82,
        "on_ground": false,
        "velocity": 185.31,
        "true_track": 217.44,
        "vertical_rate": -9.75,
        "geo_altitude": 7132.32,
        "squawk": "6031",
        "spi": false,
        "position_source": 0
      }
    },
    {
      "type": "Feature",
      "geometry": {
        "type": "Point",
        "coordinates": [
          8.776,
          42.5589
        ]
      },
      "properties": {
        "icao24": "3b7b84",
        "callsign": "DRAGO2B",
        "origin_country": "France",
        "time_position": 1787787726,
        "last_contact": 1787787726,
        "baro_altitude": 251.46,
        "on_ground": false,
        "velocity": 44.2,
        "true_track": 39.81,
        "vertical_rate": 5.85,
        "geo_altitude": 327.66,
        "squawk": null,
        "spi": false,
        "position_source": 0
      }
    },
    {
      "type": "Feature",
      "geometry": {
        "type": "Point",
        "coordinates": [
          14.0268,
          43.6769
        ]
      },
      "properties": {
        "icao24": "408086",
        "callsign": "TOM713",
        "origin_country": "United Kingdom",
        "time_position": 1787787726,
        "last_contact": 1787787726,
        "baro_altitude": 11582.4,
        "on_ground": false,
        "velocity": 204.91,
        "true_track": 320.19,
        "vertical_rate": 0,
        "geo_altitude": 12214.86,
        "squawk": "5527",
        "spi": false,
        "position_source": 0
      }
    },
    {
      "type": "Feature",
      "geometry": {
        "type": "Point",
        "coordinates": [
          12.2629,
          45.0561
        ]
      },
      "properties": {
        "icao24": "408053",
        "callsign": "EZY17EG",
        "origin_country": "United Kingdom",
        "time_position": 1787787726,
        "last_contact": 1787787726,
        "baro_altitude": 10972.8,
        "on_ground": false,
        "velocity": 198.35,
        "true_track": 313.21,
        "vertical_rate": 0,
        "geo_altitude": 11551.92,
        "squawk": "7742",
        "spi": false,
        "position_source": 0
      }
    },
    {
      "type": "Feature",
      "geometry": {
        "type": "Point",
        "coordinates": [
          10.2318,
          37.7631
        ]
      },
      "properties": {
        "icao24": "02a1a3",
        "callsign": "LBT587",
        "origin_country": "Tunisia",
        "time_position": 1787787720,
        "last_contact": 1787787720,
        "baro_altitude": 4511.04,
        "on_ground": false,
        "velocity": 185.03,
        "true_track": 163.03,
        "vertical_rate": -9.1,
        "geo_altitude": 4968.24,
        "squawk": null,
        "spi": false,
        "position_source": 0
      }
    },
    {
      "type": "Feature",
      "geometry": {
        "type": "Point",
        "coordinates": [
          10.776,
          35.7632
        ]
      },
      "properties": {
        "icao24": "02a1a2",
        "callsign": "LBT805",
        "origin_country": "Tunisia",
        "time_position": 1787787621,
        "last_contact": 1787787621,
        "baro_altitude": 38.1,
        "on_ground": false,
        "velocity": 70.32,
        "true_track": 253.42,
        "vertical_rate": -3.25,
        "geo_altitude": 91.44,
        "squawk": "6020",
        "spi": false,
        "position_source": 0
      }
    },
    {
      "type": "Feature",
      "geometry": {
        "type": "Point",
        "coordinates": [
          17.1464,
          44.7962
        ]
      },
      "properties": {
        "icao24": "40820e",
        "callsign": "EXS3868",
        "origin_country": "United Kingdom",
        "time_position": 1787787726,
        "last_contact": 1787787726,
        "baro_altitude": 10980.42,
        "on_ground": false,
        "velocity": 200.31,
        "true_track": 309.37,
        "vertical_rate": 0,
        "geo_altitude": 11559.54,
        "squawk": "7732",
        "spi": false,
        "position_source": 0
      }
    },
    {
      "type": "Feature",
      "geometry": {
        "type": "Point",
        "coordinates": [
          11.8678,
          47.5443
        ]
      },
      "properties": {
        "icao24": "40820f",
        "callsign": "EXS43UB",
        "origin_country": "United Kingdom",
        "time_position": 1787787726,
        "last_contact": 1787787726,
        "baro_altitude": 10972.8,
        "on_ground": false,
        "velocity": 207.55,
        "true_track": 307.75,
        "vertical_rate": -0.33,
        "geo_altitude": 11475.72,
        "squawk": "1104",
        "spi": false,
        "position_source": 0
      }
    },
    {
      "type": "Feature",
      "geometry": {
        "type": "Point",
        "coordinates": [
          16.9478,
          38.7944
        ]
      },
      "properties": {
        "icao24": "02a1aa",
        "callsign": "DAH3018",
        "origin_country": "Tunisia",
        "time_position": 1787787726,
        "last_contact": 1787787726,
        "baro_altitude": 11277.6,
        "on_ground": false,
        "velocity": 245.98,
        "true_track": 72.1,
        "vertical_rate": 0,
        "geo_altitude": 12001.5,
        "squawk": null,
        "spi": false,
        "position_source": 0
      }
    },
    {
      "type": "Feature",
      "geometry": {
        "type": "Point",
        "coordinates": [
          13.5112,
          40.2141
        ]
      },
      "properties": {
        "icao24": "02a1b4",
        "callsign": "LBT7027",
        "origin_country": "Tunisia",
        "time_position": 1787787726,
        "last_contact": 1787787726,
        "baro_altitude": 11285.22,
        "on_ground": false,
        "velocity": 229.2,
        "true_track": 194.16,
        "vertical_rate": 0,
        "geo_altitude": 12009.12,
        "squawk": "6023",
        "spi": false,
        "position_source": 0
      }
    },
    {
      "type": "Feature",
      "geometry": {
        "type": "Point",
        "coordinates": [
          12.2174,
          47.4361
        ]
      },
      "properties": {
        "icao24": "4080e2",
        "callsign": "EXS36UM",
        "origin_country": "United Kingdom",
        "time_position": 1787787726,
        "last_contact": 1787787726,
        "baro_altitude": 10972.8,
        "on_ground": false,
        "velocity": 207.04,
        "true_track": 305.9,
        "vertical_rate": 0,
        "geo_altitude": 11452.86,
        "squawk": "2250",
        "spi": false,
        "position_source": 0
      }
    },
    {
      "type": "Feature",
      "geometry": {
        "type": "Point",
        "coordinates": [
          12.2855,
          46.2701
        ]
      },
      "properties": {
        "icao24": "408184",
        "callsign": "EZY69ED",
        "origin_country": "United Kingdom",
        "time_position": 1787787726,
        "last_contact": 1787787726,
        "baro_altitude": 11574.78,
        "on_ground": false,
        "velocity": 202.79,
        "true_track": 312.64,
        "vertical_rate": 0,
        "geo_altitude": 12115.8,
        "squawk": "2030",
        "spi": false,
        "position_source": 0
      }
    },
    {
      "type": "Feature",
      "geometry": {
        "type": "Point",
        "coordinates": [
          15.8413,
          46.2662
        ]
      },
      "properties": {
        "icao24": "40815b",
        "callsign": "EZY43KU",
        "origin_country": "United Kingdom",
        "time_position": 1787787726,
        "last_contact": 1787787726,
        "baro_altitude": 10972.8,
        "on_ground": false,
        "velocity": 200.16,
        "true_track": 316.67,
        "vertical_rate": 0,
        "geo_altitude": 11490.96,
        "squawk": "6622",
        "spi": false,
        "position_source": 0
      }
    },
    {
      "type": "Feature",
      "geometry": {
        "type": "Point",
        "coordinates": [
          8.5426,
          45.1862
        ]
      },
      "properties": {
        "icao24": "495145",
        "callsign": "TAP828",
        "origin_country": "Portugal",
        "time_position": 1787787726,
        "last_contact": 1787787726,
        "baro_altitude": 2324.1,
        "on_ground": false,
        "velocity": 156.7,
        "true_track": 34.84,
        "vertical_rate": -7.15,
        "geo_altitude": 2514.6,
        "squawk": "2242",
        "spi": false,
        "position_source": 0
      }
    },
    {
      "type": "Feature",
      "geometry": {
        "type": "Point",
        "coordinates": [
          8.5535,
          47.446
        ]
      },
      "properties": {
        "icao24": "4b5d2e",
        "callsign": "FLORIAN7",
        "origin_country": "Switzerland",
        "time_position": 1787787582,
        "last_contact": 1787787584,
        "baro_altitude": null,
        "on_ground": true,
        "velocity": 0.06,
        "true_track": 202.5,
        "vertical_rate": null,
        "geo_altitude": null,
        "squawk": null,
        "spi": false,
        "position_source": 0
      }
    },
    {
      "type": "Feature",
      "geometry": {
        "type": "Point",
        "coordinates": [
          13.1281,
          47.0244
        ]
      },
      "properties": {
        "icao24": "408032",
        "callsign": "EXS59WJ",
        "origin_country": "United Kingdom",
        "time_position": 1787787726,
        "last_contact": 1787787726,
        "baro_altitude": 10972.8,
        "on_ground": false,
        "velocity": 210.92,
        "true_track": 309.36,
        "vertical_rate": 0,
        "geo_altitude": 11483.34,
        "squawk": "2027",
        "spi": false,
        "position_source": 0
      }
    },
    {
      "type": "Feature",
      "geometry": {
        "type": "Point",
        "coordinates": [
          17.9987,
          40.3645
        ]
      },
      "properties": {
        "icao24": "4007f4",
        "callsign": "BAW63",
        "origin_country": "United Kingdom",
        "time_position": 1787787726,
        "last_contact": 1787787726,
        "baro_altitude": 11277.6,
        "on_ground": false,
        "velocity": 274.33,
        "true_track": 143.93,
        "vertical_rate": 0,
        "geo_altitude": 11978.64,
        "squawk": "1162",
        "spi": false,
        "position_source": 0
      }
    },
    {
      "type": "Feature",
      "geometry": {
        "type": "Point",
        "coordinates": [
          7.2979,
          42.105
        ]
      },
      "properties": {
        "icao24": "4ca9a1",
        "callsign": "NOS2474",
        "origin_country": "Ireland",
        "time_position": 1787787726,
        "last_contact": 1787787726,
        "baro_altitude": 11277.6,
        "on_ground": false,
        "velocity": 198.9,
        "true_track": 213.61,
        "vertical_rate": 0,
        "geo_altitude": 11910.06,
        "squawk": "2372",
        "spi": false,
        "position_source": 0
      }
    },
    {
      "type": "Feature",
      "geometry": {
        "type": "Point",
        "coordinates": [
          8.5726,
          47.4545
        ]
      },
      "properties": {
        "icao24": "4b5c36",
        "callsign": "URSULA3",
        "origin_country": "Switzerland",
        "time_position": 1787787615,
        "last_contact": 1787787652,
        "baro_altitude": null,
        "on_ground": true,
        "velocity": 0.06,
        "true_track": 345.94,
        "vertical_rate": null,
        "geo_altitude": null,
        "squawk": null,
        "spi": false,
        "position_source": 0
      }
    },
    {
      "type": "Feature",
      "geometry": {
        "type": "Point",
        "coordinates": [
          8.5527,
          47.4455
        ]
      },
      "properties": {
        "icao24": "4b5c67",
        "callsign": "FLORIAN6",
        "origin_country": "Switzerland",
        "time_position": 1787787687,
        "last_contact": 1787787687,
        "baro_altitude": null,
        "on_ground": true,
        "velocity": 0.13,
        "true_track": 230.62,
        "vertical_rate": null,
        "geo_altitude": null,
        "squawk": null,
        "spi": false,
        "position_source": 0
      }
    },
    {
      "type": "Feature",
      "geometry": {
        "type": "Point",
        "coordinates": [
          8.5537,
          47.4461
        ]
      },
      "properties": {
        "icao24": "4b5c4b",
        "callsign": "FLORIAN2",
        "origin_country": "Switzerland",
        "time_position": 1787787620,
        "last_contact": 1787787620,
        "baro_altitude": null,
        "on_ground": true,
        "velocity": 0,
        "true_track": 289.69,
        "vertical_rate": null,
        "geo_altitude": null,
        "squawk": null,
        "spi": false,
        "position_source": 0
      }
    },
    {
      "type": "Feature",
      "geometry": {
        "type": "Point",
        "coordinates": [
          9.6974,
          44.2383
        ]
      },
      "properties": {
        "icao24": "501d1d",
        "callsign": "CTN8701",
        "origin_country": "Croatia",
        "time_position": 1787787726,
        "last_contact": 1787787726,
        "baro_altitude": 11582.4,
        "on_ground": false,
        "velocity": 277.89,
        "true_track": 72.44,
        "vertical_rate": 0,
        "geo_altitude": 12153.9,
        "squawk": "1000",
        "spi": false,
        "position_source": 0
      }
    },
    {
      "type": "Feature",
      "geometry": {
        "type": "Point",
        "coordinates": [
          9.2523,
          39.7799
        ]
      },
      "properties": {
        "icao24": "4ca82b",
        "callsign": "MSA83E",
        "origin_country": "Ireland",
        "time_position": 1787787725,
        "last_contact": 1787787726,
        "baro_altitude": 3817.62,
        "on_ground": false,
        "velocity": 167.44,
        "true_track": 174.53,
        "vertical_rate": -5.2,
        "geo_altitude": 4183.38,
        "squawk": null,
        "spi": false,
        "position_source": 0
      }
    },
    {
      "type": "Feature",
      "geometry": {
        "type": "Point",
        "coordinates": [
          13.5215,
          39.9915
        ]
      },
      "properties": {
        "icao24": "4ca82c",
        "callsign": "MSA92C",
        "origin_country": "Ireland",
        "time_position": 1787787726,
        "last_contact": 1787787726,
        "baro_altitude": 11277.6,
        "on_ground": false,
        "velocity": 238.3,
        "true_track": 155.65,
        "vertical_rate": 0,
        "geo_altitude": 11993.88,
        "squawk": null,
        "spi": false,
        "position_source": 0
      }
    },
    {
      "type": "Feature",
      "geometry": {
        "type": "Point",
        "coordinates": [
          17.5184,
          45.1518
        ]
      },
      "properties": {
        "icao24": "4bcdeb",
        "callsign": "SXS6XD",
        "origin_country": "Turkey",
        "time_position": 1787787726,
        "last_contact": 1787787726,
        "baro_altitude": 11887.2,
        "on_ground": false,
        "velocity": 265.75,
        "true_track": 132.8,
        "vertical_rate": 0,
        "geo_altitude": 12458.7,
        "squawk": "7651",
        "spi": false,
        "position_source": 0
      }
    },
    {
      "type": "Feature",
      "geometry": {
        "type": "Point",
        "coordinates": [
          9.7653,
          45.657
        ]
      },
      "properties": {
        "icao24": "4ca769",
        "callsign": "RYR32TE",
        "origin_country": "Ireland",
        "time_position": 1787787727,
        "last_contact": 1787787727,
        "baro_altitude": 365.76,
        "on_ground": false,
        "velocity": 80.23,
        "true_track": 284.48,
        "vertical_rate": -3.25,
        "geo_altitude": 472.44,
        "squawk": "1000",
        "spi": false,
        "position_source": 0
      }
    },
    {
      "type": "Feature",
      "geometry": {
        "type": "Point",
        "coordinates": [
          6.4945,
          40.84
        ]
      },
      "properties": {
        "icao24": "4ca739",
        "callsign": "RYR8978",
        "origin_country": "Ireland",
        "time_position": 1787787726,
        "last_contact": 1787787726,
        "baro_altitude": 8534.4,
        "on_ground": false,
        "velocity": 180.99,
        "true_track": 279.49,
        "vertical_rate": 0,
        "geo_altitude": 9113.52,
        "squawk": "1000",
        "spi": false,
        "position_source": 0
      }
    },
    {
      "type": "Feature",
      "geometry": {
        "type": "Point",
        "coordinates": [
          18.3619,
          47.477
        ]
      },
      "properties": {
        "icao24": "4bcdfa",
        "callsign": "SXS5FR",
        "origin_country": "Turkey",
        "time_position": 1787787726,
        "last_contact": 1787787726,
        "baro_altitude": 11887.2,
        "on_ground": false,
        "velocity": 254.17,
        "true_track": 144.06,
        "vertical_rate": 0,
        "geo_altitude": 12352.02,
        "squawk": "7611",
        "spi": false,
        "position_source": 0
      }
    },
    {
      "type": "Feature",
      "geometry": {
        "type": "Point",
        "coordinates": [
          14.6931,
          47.6396
        ]
      },
      "properties": {
        "icao24": "4bcdac",
        "callsign": "SXS8UA",
        "origin_country": "Turkey",
        "time_position": 1787787726,
        "last_contact": 1787787726,
        "baro_altitude": 11887.2,
        "on_ground": false,
        "velocity": 257.02,
        "true_track": 138.81,
        "vertical_rate": 0,
        "geo_altitude": 12390.12,
        "squawk": "6405",
        "spi": false,
        "position_source": 0
      }
    },
    {
      "type": "Feature",
      "geometry": {
        "type": "Point",
        "coordinates": [
          17.8446,
          46.5755
        ]
      },
      "properties": {
        "icao24": "4bcdab",
        "callsign": "SXS14E",
        "origin_country": "Turkey",
        "time_position": 1787787726,
        "last_contact": 1787787726,
        "baro_altitude": 11277.6,
        "on_ground": false,
        "velocity": 265.39,
        "true_track": 130.2,
        "vertical_rate": 0,
        "geo_altitude": 11780.52,
        "squawk": "6427",
        "spi": false,
        "position_source": 0
      }
    },
    {
      "type": "Feature",
      "geometry": {
        "type": "Point",
        "coordinates": [
          16.0289,
          46.14
        ]
      },
      "properties": {
        "icao24": "4bce0b",
        "callsign": "SXS2BQ",
        "origin_country": "Turkey",
        "time_position": 1787787726,
        "last_contact": 1787787726,
        "baro_altitude": 12496.8,
        "on_ground": false,
        "velocity": 252.07,
        "true_track": 132.02,
        "vertical_rate": 0,
        "geo_altitude": 13045.44,
        "squawk": "4704",
        "spi": false,
        "position_source": 0
      }
    },
    {
      "type": "Feature",
      "geometry": {
        "type": "Point",
        "coordinates": [
          17.5148,
          44.5334
        ]
      },
      "properties": {
        "icao24": "40769a",
        "callsign": "TOM237",
        "origin_country": "United Kingdom",
        "time_position": 1787787726,
        "last_contact": 1787787726,
        "baro_altitude": 10881.36,
        "on_ground": false,
        "velocity": 204.85,
        "true_track": 310.01,
        "vertical_rate": 5.85,
        "geo_altitude": 11445.24,
        "squawk": "5377",
        "spi": false,
        "position_source": 0
      }
    },
    {
      "type": "Feature",
      "geometry": {
        "type": "Point",
        "coordinates": [
          13.8915,
          46.726
        ]
      },
      "properties": {
        "icao24": "407686",
        "callsign": "EZY18NM",
        "origin_country": "United Kingdom",
        "time_position": 1787787726,
        "last_contact": 1787787726,
        "baro_altitude": 11582.4,
        "on_ground": false,
        "velocity": 209.72,
        "true_track": 309.63,
        "vertical_rate": 0,
        "geo_altitude": 12123.42,
        "squawk": "5374",
        "spi": false,
        "position_source": 0
      }
    },
    {
      "type": "Feature",
      "geometry": {
        "type": "Point",
        "coordinates": [
          9.1428,
          47.2938
        ]
      },
      "properties": {
        "icao24": "3474cb",
        "callsign": "BCS136",
        "origin_country": "Spain",
        "time_position": 1787787727,
        "last_contact": 1787787727,
        "baro_altitude": 8991.6,
        "on_ground": false,
        "velocity": 216.4,
        "true_track": 200.89,
        "vertical_rate": -4.88,
        "geo_altitude": 9471.66,
        "squawk": "1000",
        "spi": false,
        "position_source": 0
      }
    },
    {
      "type": "Feature",
      "geometry": {
        "type": "Point",
        "coordinates": [
          10.2874,
          40.5854
        ]
      },
      "properties": {
        "icao24": "4cafca",
        "callsign": "MSA61P",
        "origin_country": "Ireland",
        "time_position": 1787787715,
        "last_contact": 1787787716,
        "baro_altitude": 6035.04,
        "on_ground": false,
        "velocity": 212.92,
        "true_track": 133.14,
        "vertical_rate": 7.8,
        "geo_altitude": 6461.76,
        "squawk": null,
        "spi": false,
        "position_source": 0
      }
    },
    {
      "type": "Feature",
      "geometry": {
        "type": "Point",
        "coordinates": [
          15.4797,
          39.5562
        ]
      },
      "properties": {
        "icao24": "4cafcb",
        "callsign": "MSA95S",
        "origin_country": "Ireland",
        "time_position": 1787787726,
        "last_contact": 1787787726,
        "baro_altitude": 4914.9,
        "on_ground": false,
        "velocity": 225.46,
        "true_track": 147.11,
        "vertical_rate": -11.38,
        "geo_altitude": 5303.52,
        "squawk": null,
        "spi": false,
        "position_source": 0
      }
    },
    {
      "type": "Feature",
      "geometry": {
        "type": "Point",
        "coordinates": [
          6.1185,
          38.9073
        ]
      },
      "properties": {
        "icao24": "407798",
        "callsign": "BAW59",
        "origin_country": "United Kingdom",
        "time_position": 1787787726,
        "last_contact": 1787787726,
        "baro_altitude": 10668,
        "on_ground": false,
        "velocity": 248.76,
        "true_track": 171.32,
        "vertical_rate": 0,
        "geo_altitude": 11353.8,
        "squawk": "6306",
        "spi": false,
        "position_source": 0
      }
    },
    {
      "type": "Feature",
      "geometry": {
        "type": "Point",
        "coordinates": [
          9.3388,
          41.3215
        ]
      },
      "properties": {
        "icao24": "406442",
        "callsign": "EZY25CQ",
        "origin_country": "United Kingdom",
        "time_position": 1787787726,
        "last_contact": 1787787726,
        "baro_altitude": 11582.4,
        "on_ground": false,
        "velocity": 209.8,
        "true_track": 328.84,
        "vertical_rate": 0.65,
        "geo_altitude": 12260.58,
        "squawk": null,
        "spi": false,
        "position_source": 0
      }
    },
    {
      "type": "Feature",
      "geometry": {
        "type": "Point",
        "coordinates": [
          18.843,
          43.0116
        ]
      },
      "properties": {
        "icao24": "010263",
        "callsign": "MSC2918",
        "origin_country": "Egypt",
        "time_position": 1787787726,
        "last_contact": 1787787726,
        "baro_altitude": 10972.8,
        "on_ground": false,
        "velocity": 202.67,
        "true_track": 316.34,
        "vertical_rate": 0,
        "geo_altitude": 11597.64,
        "squawk": null,
        "spi": false,
        "position_source": 0
      }
    },
    {
      "type": "Feature",
      "geometry": {
        "type": "Point",
        "coordinates": [
          18.843,
          35.276
        ]
      },
      "properties": {
        "icao24": "01022d",
        "callsign": "MSC3122",
        "origin_country": "Egypt",
        "time_position": 1787787707,
        "last_contact": 1787787707,
        "baro_altitude": 11285.22,
        "on_ground": false,
        "velocity": 251.95,
        "true_track": 99.52,
        "vertical_rate": 0,
        "geo_altitude": 12031.98,
        "squawk": null,
        "spi": false,
        "position_source": 0
      }
    },
    {
      "type": "Feature",
      "geometry": {
        "type": "Point",
        "coordinates": [
          18.7816,
          42.7008
        ]
      },
      "properties": {
        "icao24": "40773b",
        "callsign": "TOM9315",
        "origin_country": "United Kingdom",
        "time_position": 1787787726,
        "last_contact": 1787787726,
        "baro_altitude": 11582.4,
        "on_ground": false,
        "velocity": 200.38,
        "true_track": 309.17,
        "vertical_rate": 0,
        "geo_altitude": 12222.48,
        "squawk": null,
        "spi": false,
        "position_source": 0
      }
    },
    {
      "type": "Feature",
      "geometry": {
        "type": "Point",
        "coordinates": [
          11.8137,
          47.5135
        ]
      },
      "properties": {
        "icao24": "010289",
        "callsign": "MSR948",
        "origin_country": "Egypt",
        "time_position": 1787787726,
        "last_contact": 1787787726,
        "baro_altitude": 12496.8,
        "on_ground": false,
        "velocity": 274.57,
        "true_track": 124.85,
        "vertical_rate": 0,
        "geo_altitude": 12984.48,
        "squawk": "1142",
        "spi": false,
        "position_source": 0
      }
    },
    {
      "type": "Feature",
      "geometry": {
        "type": "Point",
        "coordinates": [
          14.2507,
          46.9897
        ]
      },
      "properties": {
        "icao24": "407731",
        "callsign": "EXS44T",
        "origin_country": "United Kingdom",
        "time_position": 1787787726,
        "last_contact": 1787787726,
        "baro_altitude": 10972.8,
        "on_ground": false,
        "velocity": 218.16,
        "true_track": 326.35,
        "vertical_rate": 0,
        "geo_altitude": 11460.48,
        "squawk": "2005",
        "spi": false,
        "position_source": 0
      }
    },
    {
      "type": "Feature",
      "geometry": {
        "type": "Point",
        "coordinates": [
          15.0765,
          45.1663
        ]
      },
      "properties": {
        "icao24": "4075f4",
        "callsign": "TOM503",
        "origin_country": "United Kingdom",
        "time_position": 1787787726,
        "last_contact": 1787787726,
        "baro_altitude": 11582.4,
        "on_ground": false,
        "velocity": 206.03,
        "true_track": 320.27,
        "vertical_rate": 0,
        "geo_altitude": 12153.9,
        "squawk": "5535",
        "spi": false,
        "position_source": 0
      }
    },
    {
      "type": "Feature",
      "geometry": {
        "type": "Point",
        "coordinates": [
          7.0358,
          43.6316
        ]
      },
      "properties": {
        "icao24": "4075e0",
        "callsign": "EZY52TN",
        "origin_country": "United Kingdom",
        "time_position": 1787787727,
        "last_contact": 1787787727,
        "baro_altitude": 10500.36,
        "on_ground": false,
        "velocity": 231.11,
        "true_track": 331.55,
        "vertical_rate": 5.2,
        "geo_altitude": 11064.24,
        "squawk": "4015",
        "spi": false,
        "position_source": 0
      }
    },
    {
      "type": "Feature",
      "geometry": {
        "type": "Point",
        "coordinates": [
          11.7381,
          47.7613
        ]
      },
      "properties": {
        "icao24": "4075bb",
        "callsign": "EXS14JP",
        "origin_country": "United Kingdom",
        "time_position": 1787787726,
        "last_contact": 1787787726,
        "baro_altitude": 10972.8,
        "on_ground": false,
        "velocity": 214.55,
        "true_track": 307.69,
        "vertical_rate": 0,
        "geo_altitude": 11430,
        "squawk": "7546",
        "spi": false,
        "position_source": 0
      }
    },
    {
      "type": "Feature",
      "geometry": {
        "type": "Point",
        "coordinates": [
          17.9497,
          36.1957
        ]
      },
      "properties": {
        "icao24": "0101df",
        "callsign": "MSR981",
        "origin_country": "Egypt",
        "time_position": 1787787726,
        "last_contact": 1787787726,
        "baro_altitude": 10363.2,
        "on_ground": false,
        "velocity": 238.36,
        "true_track": 289.41,
        "vertical_rate": -0.33,
        "geo_altitude": 11079.48,
        "squawk": null,
        "spi": false,
        "position_source": 0
      }
    },
    {
      "type": "Feature",
      "geometry": {
        "type": "Point",
        "coordinates": [
          18.4736,
          39.6844
        ]
      },
      "properties": {
        "icao24": "4caeb0",
        "callsign": "NOS3463",
        "origin_country": "Ireland",
        "time_position": 1787787725,
        "last_contact": 1787787726,
        "baro_altitude": 10972.8,
        "on_ground": false,
        "velocity": 212.87,
        "true_track": 313.53,
        "vertical_rate": 0,
        "geo_altitude": 11658.6,
        "squawk": null,
        "spi": false,
        "position_source": 0
      }
    },
    {
      "type": "Feature",
      "geometry": {
        "type": "Point",
        "coordinates": [
          18.0867,
          44.234
        ]
      },
      "properties": {
        "icao24": "4caeb1",
        "callsign": "AIZ749",
        "origin_country": "Ireland",
        "time_position": 1787787726,
        "last_contact": 1787787726,
        "baro_altitude": 10363.2,
        "on_ground": false,
        "velocity": 204.46,
        "true_track": 310.1,
        "vertical_rate": 0,
        "geo_altitude": 10927.08,
        "squawk": "1146",
        "spi": false,
        "position_source": 0
      }
    },
    {
      "type": "Feature",
      "geometry": {
        "type": "Point",
        "coordinates": [
          9.9584,
          45.6004
        ]
      },
      "properties": {
        "icao24": "4caee8",
        "callsign": "RYR14AU",
        "origin_country": "Ireland",
        "time_position": 1787787726,
        "last_contact": 1787787726,
        "baro_altitude": 1303.02,
        "on_ground": false,
        "velocity": 104.46,
        "true_track": 358.59,
        "vertical_rate": -5.53,
        "geo_altitude": 1447.8,
        "squawk": "1000",
        "spi": false,
        "position_source": 0
      }
    },
    {
      "type": "Feature",
      "geometry": {
        "type": "Point",
        "coordinates": [
          18.1031,
          44.1132
        ]
      },
      "properties": {
        "icao24": "4d251b",
        "callsign": "RYR4KG",
        "origin_country": "Malta",
        "time_position": 1787787726,
        "last_contact": 1787787726,
        "baro_altitude": 10972.8,
        "on_ground": false,
        "velocity": 196.69,
        "true_track": 265.2,
        "vertical_rate": 0,
        "geo_altitude": 11559.54,
        "squawk": "4141",
        "spi": false,
        "position_source": 0
      }
    },
    {
      "type": "Feature",
      "geometry": {
        "type": "Point",
        "coordinates": [
          8.7342,
          45.2964
        ]
      },
      "properties": {
        "icao24": "3004c2",
        "callsign": "NOS3177",
        "origin_country": "Italy",
        "time_position": 1787787727,
        "last_contact": 1787787727,
        "baro_altitude": 1828.8,
        "on_ground": false,
        "velocity": 123.67,
        "true_track": 15.19,
        "vertical_rate": -6.83,
        "geo_altitude": 1996.44,
        "squawk": "2035",
        "spi": false,
        "position_source": 0
      }
    },
    {
      "type": "Feature",
      "geometry": {
        "type": "Point",
        "coordinates": [
          10.5044,
          42.8378
        ]
      },
      "properties": {
        "icao24": "300695",
        "callsign": "PEGASO2",
        "origin_country": "Italy",
        "time_position": 1787787725,
        "last_contact": 1787787726,
        "baro_altitude": 586.74,
        "on_ground": false,
        "velocity": 73.63,
        "true_track": 295.67,
        "vertical_rate": 0,
        "geo_altitude": 693.42,
        "squawk": null,
        "spi": false,
        "position_source": 0
      }
    },
    {
      "type": "Feature",
      "geometry": {
        "type": "Point",
        "coordinates": [
          13.397,
          43.282
        ]
      },
      "properties": {
        "icao24": "4d23fa",
        "callsign": "RYR7PV",
        "origin_country": "Malta",
        "time_position": 1787787726,
        "last_contact": 1787787726,
        "baro_altitude": 11582.4,
        "on_ground": false,
        "velocity": 202.95,
        "true_track": 310.27,
        "vertical_rate": -0.33,
        "geo_altitude": 12230.1,
        "squawk": "1000",
        "spi": false,
        "position_source": 0
      }
    },
    {
      "type": "Feature",
      "geometry": {
        "type": "Point",
        "coordinates": [
          18.7727,
          39.4964
        ]
      },
      "properties": {
        "icao24": "4d23e1",
        "callsign": "CHZ212",
        "origin_country": "Malta",
        "time_position": 1787787694,
        "last_contact": 1787787721,
        "baro_altitude": 10668,
        "on_ground": false,
        "velocity": 261.82,
        "true_track": 138.98,
        "vertical_rate": 0,
        "geo_altitude": 11285.22,
        "squawk": null,
        "spi": false,
        "position_source": 0
      }
    },
    {
      "type": "Feature",
      "geometry": {
        "type": "Point",
        "coordinates": [
          7.5205,
          47.6067
        ]
      },
      "properties": {
        "icao24": "390bff",
        "callsign": "INFRA51",
        "origin_country": "France",
        "time_position": 1787787726,
        "last_contact": 1787787727,
        "baro_altitude": null,
        "on_ground": true,
        "velocity": 12.35,
        "true_track": 334.69,
        "vertical_rate": null,
        "geo_altitude": null,
        "squawk": null,
        "spi": false,
        "position_source": 0
      }
    },
    {
      "type": "Feature",
      "geometry": {
        "type": "Point",
        "coordinates": [
          10.8226,
          47.1957
        ]
      },
      "properties": {
        "icao24": "4072c7",
        "callsign": "EZY94FA",
        "origin_country": "United Kingdom",
        "time_position": 1787787726,
        "last_contact": 1787787726,
        "baro_altitude": 11582.4,
        "on_ground": false,
        "velocity": 211.07,
        "true_track": 313.42,
        "vertical_rate": 0.33,
        "geo_altitude": 12085.32,
        "squawk": "0603",
        "spi": false,
        "position_source": 0
      }
    },
    {
      "type": "Feature",
      "geometry": {
        "type": "Point",
        "coordinates": [
          6.1074,
          43.2209
        ]
      },
      "properties": {
        "icao24": "346083",
        "callsign": "AEA1183",
        "origin_country": "Spain",
        "time_position": 1787787726,
        "last_contact": 1787787726,
        "baro_altitude": 11582.4,
        "on_ground": false,
        "velocity": 275.87,
        "true_track": 62.81,
        "vertical_rate": 0,
        "geo_altitude": 12176.76,
        "squawk": "1000",
        "spi": false,
        "position_source": 0
      }
    },
    {
      "type": "Feature",
      "geometry": {
        "type": "Point",
        "coordinates": [
          10.3156,
          43.3177
        ]
      },
      "properties": {
        "icao24": "4cadfc",
        "callsign": "RYR87RR",
        "origin_country": "Ireland",
        "time_position": 1787787726,
        "last_contact": 1787787726,
        "baro_altitude": 9753.6,
        "on_ground": false,
        "velocity": 242.31,
        "true_track": 9.16,
        "vertical_rate": 0.33,
        "geo_altitude": 10340.34,
        "squawk": "5404",
        "spi": false,
        "position_source": 0
      }
    },
    {
      "type": "Feature",
      "geometry": {
        "type": "Point",
        "coordinates": [
          14.7459,
          45.4145
        ]
      },
      "properties": {
        "icao24": "40622b",
        "callsign": "EZY75UQ",
        "origin_country": "United Kingdom",
        "time_position": 1787787726,
        "last_contact": 1787787727,
        "baro_altitude": 10972.8,
        "on_ground": false,
        "velocity": 198.86,
        "true_track": 309.33,
        "vertical_rate": 0,
        "geo_altitude": 11536.68,
        "squawk": "5634",
        "spi": false,
        "position_source": 0
      }
    },
    {
      "type": "Feature",
      "geometry": {
        "type": "Point",
        "coordinates": [
          13.6212,
          47.7859
        ]
      },
      "properties": {
        "icao24": "4070ee",
        "callsign": "EXS26TX",
        "origin_country": "United Kingdom",
        "time_position": 1787787727,
        "last_contact": 1787787727,
        "baro_altitude": 11369.04,
        "on_ground": false,
        "velocity": 213.03,
        "true_track": 317.64,
        "vertical_rate": 4.23,
        "geo_altitude": 11841.48,
        "squawk": "6627",
        "spi": false,
        "position_source": 0
      }
    },
    {
      "type": "Feature",
      "geometry": {
        "type": "Point",
        "coordinates": [
          7.1205,
          45.6419
        ]
      },
      "properties": {
        "icao24": "4d21d4",
        "callsign": "CXI1Y",
        "origin_country": "Malta",
        "time_position": 1787787726,
        "last_contact": 1787787726,
        "baro_altitude": 10980.42,
        "on_ground": false,
        "velocity": 252.64,
        "true_track": 23.01,
        "vertical_rate": 0.33,
        "geo_altitude": 11506.2,
        "squawk": "5311",
        "spi": false,
        "position_source": 0
      }
    },
    {
      "type": "Feature",
      "geometry": {
        "type": "Point",
        "coordinates": [
          15.9586,
          41.5968
        ]
      },
      "properties": {
        "icao24": "4cabf8",
        "callsign": "MSA56B",
        "origin_country": "Ireland",
        "time_position": 1787787726,
        "last_contact": 1787787726,
        "baro_altitude": 6477,
        "on_ground": false,
        "velocity": 238.99,
        "true_track": 107.93,
        "vertical_rate": -14.31,
        "geo_altitude": 6995.16,
        "squawk": "1000",
        "spi": false,
        "position_source": 0
      }
    },
    {
      "type": "Feature",
      "geometry": {
        "type": "Point",
        "coordinates": [
          14.0458,
          40.8446
        ]
      },
      "properties": {
        "icao24": "4cac5a",
        "callsign": "FELIX1",
        "origin_country": "Ireland",
        "time_position": 1787787677,
        "last_contact": 1787787677,
        "baro_altitude": 251.46,
        "on_ground": false,
        "velocity": 38.61,
        "true_track": 357.71,
        "vertical_rate": -1.95,
        "geo_altitude": 350.52,
        "squawk": null,
        "spi": false,
        "position_source": 0
      }
    },
    {
      "type": "Feature",
      "geometry": {
        "type": "Point",
        "coordinates": [
          13.6796,
          46.7125
        ]
      },
      "properties": {
        "icao24": "408347",
        "callsign": "EXS6V",
        "origin_country": "United Kingdom",
        "time_position": 1787787726,
        "last_contact": 1787787726,
        "baro_altitude": 10972.8,
        "on_ground": false,
        "velocity": 207.15,
        "true_track": 309.66,
        "vertical_rate": 0,
        "geo_altitude": 11490.96,
        "squawk": "6623",
        "spi": false,
        "position_source": 0
      }
    },
    {
      "type": "Feature",
      "geometry": {
        "type": "Point",
        "coordinates": [
          17.8872,
          43.3579
        ]
      },
      "properties": {
        "icao24": "408386",
        "callsign": "EZY37LE",
        "origin_country": "United Kingdom",
        "time_position": 1787787726,
        "last_contact": 1787787726,
        "baro_altitude": 10363.2,
        "on_ground": false,
        "velocity": 211.21,
        "true_track": 327.43,
        "vertical_rate": 0,
        "geo_altitude": 10934.7,
        "squawk": "7737",
        "spi": false,
        "position_source": 0
      }
    },
    {
      "type": "Feature",
      "geometry": {
        "type": "Point",
        "coordinates": [
          8.6931,
          47.4204
        ]
      },
      "properties": {
        "icao24": "40836b",
        "callsign": "EZY67TY",
        "origin_country": "United Kingdom",
        "time_position": 1787787726,
        "last_contact": 1787787726,
        "baro_altitude": 10347.96,
        "on_ground": false,
        "velocity": 197.92,
        "true_track": 304.52,
        "vertical_rate": 0,
        "geo_altitude": 10828.02,
        "squawk": "0503",
        "spi": false,
        "position_source": 0
      }
    },
    {
      "type": "Feature",
      "geometry": {
        "type": "Point",
        "coordinates": [
          8.5637,
          47.3417
        ]
      },
      "properties": {
        "icao24": "01013d",
        "callsign": "MSR996",
        "origin_country": "Egypt",
        "time_position": 1787787726,
        "last_contact": 1787787726,
        "baro_altitude": 11277.6,
        "on_ground": false,
        "velocity": 273.55,
        "true_track": 129.89,
        "vertical_rate": 0,
        "geo_altitude": 11772.9,
        "squawk": "2221",
        "spi": false,
        "position_source": 0
      }
    },
    {
      "type": "Feature",
      "geometry": {
        "type": "Point",
        "coordinates": [
          13.5335,
          46.8989
        ]
      },
      "properties": {
        "icao24": "40717f",
        "callsign": "EXS71FD",
        "origin_country": "United Kingdom",
        "time_position": 1787787726,
        "last_contact": 1787787727,
        "baro_altitude": 10972.8,
        "on_ground": false,
        "velocity": 207.63,
        "true_track": 310.48,
        "vertical_rate": 0,
        "geo_altitude": 11468.1,
        "squawk": "7224",
        "spi": false,
        "position_source": 0
      }
    },
    {
      "type": "Feature",
      "geometry": {
        "type": "Point",
        "coordinates": [
          14.419,
          35.9046
        ]
      },
      "properties": {
        "icao24": "4d2038",
        "callsign": "KMM455",
        "origin_country": "Malta",
        "time_position": 1787787726,
        "last_contact": 1787787726,
        "baro_altitude": 434.34,
        "on_ground": false,
        "velocity": 81.48,
        "true_track": 135,
        "vertical_rate": -2.28,
        "geo_altitude": 533.4,
        "squawk": "3757",
        "spi": false,
        "position_source": 0
      }
    },
    {
      "type": "Feature",
      "geometry": {
        "type": "Point",
        "coordinates": [
          12.806,
          43.8922
        ]
      },
      "properties": {
        "icao24": "4082cc",
        "callsign": "TOM699",
        "origin_country": "United Kingdom",
        "time_position": 1787787726,
        "last_contact": 1787787726,
        "baro_altitude": 11582.4,
        "on_ground": false,
        "velocity": 200.99,
        "true_track": 317.49,
        "vertical_rate": 0,
        "geo_altitude": 12199.62,
        "squawk": "2060",
        "spi": false,
        "position_source": 0
      }
    },
    {
      "type": "Feature",
      "geometry": {
        "type": "Point",
        "coordinates": [
          16.502,
          43.2489
        ]
      },
      "properties": {
        "icao24": "4082cb",
        "callsign": "TOM6JL",
        "origin_country": "United Kingdom",
        "time_position": 1787787723,
        "last_contact": 1787787723,
        "baro_altitude": 11582.4,
        "on_ground": false,
        "velocity": 198.72,
        "true_track": 309.75,
        "vertical_rate": 0,
        "geo_altitude": 12199.62,
        "squawk": null,
        "spi": false,
        "position_source": 0
      }
    }
  ]
}