{
  "type": "FeatureCollection",
  "source": "opensky",
  "dataset": "aircraft_italy",
  "generated_at": "2026-09-03T00:02:36.417195+00:00",
  "opensky_time": 1788393747,
  "count": 89,
  "features": [
    {
      "type": "Feature",
      "geometry": {
        "type": "Point",
        "coordinates": [
          12.7403,
          40.919
        ]
      },
      "properties": {
        "icao24": "407a06",
        "callsign": "EZY63MD",
        "origin_country": "United Kingdom",
        "time_position": 1788393746,
        "last_contact": 1788393746,
        "baro_altitude": 10980.42,
        "on_ground": false,
        "velocity": 212.89,
        "true_track": 313.34,
        "vertical_rate": 0,
        "geo_altitude": 11559.54,
        "squawk": "5523",
        "spi": false,
        "position_source": 0
      }
    },
    {
      "type": "Feature",
      "geometry": {
        "type": "Point",
        "coordinates": [
          16.3212,
          44.4802
        ]
      },
      "properties": {
        "icao24": "46b823",
        "callsign": "AEE609",
        "origin_country": "Greece",
        "time_position": 1788393747,
        "last_contact": 1788393747,
        "baro_altitude": 11277.6,
        "on_ground": false,
        "velocity": 263.69,
        "true_track": 137.85,
        "vertical_rate": 0,
        "geo_altitude": 11711.94,
        "squawk": "2150",
        "spi": false,
        "position_source": 0
      }
    },
    {
      "type": "Feature",
      "geometry": {
        "type": "Point",
        "coordinates": [
          16.4306,
          39.9365
        ]
      },
      "properties": {
        "icao24": "8015f7",
        "callsign": "AIC11E",
        "origin_country": "India",
        "time_position": 1788393747,
        "last_contact": 1788393747,
        "baro_altitude": 11277.6,
        "on_ground": false,
        "velocity": 275.81,
        "true_track": 120.49,
        "vertical_rate": 0,
        "geo_altitude": 11803.38,
        "squawk": "2203",
        "spi": false,
        "position_source": 0
      }
    },
    {
      "type": "Feature",
      "geometry": {
        "type": "Point",
        "coordinates": [
          8.2994,
          40.9459
        ]
      },
      "properties": {
        "icao24": "491673",
        "callsign": "JME750A",
        "origin_country": "Portugal",
        "time_position": 1788393746,
        "last_contact": 1788393746,
        "baro_altitude": 12184.38,
        "on_ground": false,
        "velocity": 263.44,
        "true_track": 88.99,
        "vertical_rate": 0,
        "geo_altitude": 12801.6,
        "squawk": "5244",
        "spi": false,
        "position_source": 0
      }
    },
    {
      "type": "Feature",
      "geometry": {
        "type": "Point",
        "coordinates": [
          10.542,
          42.3347
        ]
      },
      "properties": {
        "icao24": "801859",
        "callsign": "AIC188",
        "origin_country": "India",
        "time_position": 1788393747,
        "last_contact": 1788393747,
        "baro_altitude": 11269.98,
        "on_ground": false,
        "velocity": 267.57,
        "true_track": 116.37,
        "vertical_rate": 0,
        "geo_altitude": 11864.34,
        "squawk": "1141",
        "spi": false,
        "position_source": 0
      }
    },
    {
      "type": "Feature",
      "geometry": {
        "type": "Point",
        "coordinates": [
          13.0809,
          39.6432
        ]
      },
      "properties": {
        "icao24": "738069",
        "callsign": "ELY376",
        "origin_country": "Israel",
        "time_position": 1788393746,
        "last_contact": 1788393746,
        "baro_altitude": 10972.8,
        "on_ground": false,
        "velocity": 238.62,
        "true_track": 101.82,
        "vertical_rate": 0,
        "geo_altitude": 11574.78,
        "squawk": "2224",
        "spi": false,
        "position_source": 0
      }
    },
    {
      "type": "Feature",
      "geometry": {
        "type": "Point",
        "coordinates": [
          14.5925,
          41.2286
        ]
      },
      "properties": {
        "icao24": "471d63",
        "callsign": "WMT2507",
        "origin_country": "Hungary",
        "time_position": 1788393747,
        "last_contact": 1788393747,
        "baro_altitude": 9761.22,
        "on_ground": false,
        "velocity": 221.44,
        "true_track": 291.68,
        "vertical_rate": 0,
        "geo_altitude": 10287,
        "squawk": "5531",
        "spi": false,
        "position_source": 0
      }
    },
    {
      "type": "Feature",
      "geometry": {
        "type": "Point",
        "coordinates": [
          16.6375,
          40.7429
        ]
      },
      "properties": {
        "icao24": "440198",
        "callsign": "EJU18KV",
        "origin_country": "Austria",
        "time_position": 1788393746,
        "last_contact": 1788393746,
        "baro_altitude": 10370.82,
        "on_ground": false,
        "velocity": 222.58,
        "true_track": 307.77,
        "vertical_rate": 0,
        "geo_altitude": 10873.74,
        "squawk": null,
        "spi": false,
        "position_source": 0
      }
    },
    {
      "type": "Feature",
      "geometry": {
        "type": "Point",
        "coordinates": [
          16.1521,
          36.8302
        ]
      },
      "properties": {
        "icao24": "4bb1e2",
        "callsign": "THY1CT",
        "origin_country": "Turkey",
        "time_position": 1788393746,
        "last_contact": 1788393746,
        "baro_altitude": 11582.4,
        "on_ground": false,
        "velocity": 222.86,
        "true_track": 232.79,
        "vertical_rate": 0,
        "geo_altitude": 12184.38,
        "squawk": "2340",
        "spi": false,
        "position_source": 0
      }
    },
    {
      "type": "Feature",
      "geometry": {
        "type": "Point",
        "coordinates": [
          11.1523,
          36.6057
        ]
      },
      "properties": {
        "icao24": "4bb248",
        "callsign": "THY5LY",
        "origin_country": "Turkey",
        "time_position": 1788393746,
        "last_contact": 1788393746,
        "baro_altitude": 10668,
        "on_ground": false,
        "velocity": 246.27,
        "true_track": 86.89,
        "vertical_rate": 0,
        "geo_altitude": 11269.98,
        "squawk": null,
        "spi": false,
        "position_source": 0
      }
    },
    {
      "type": "Feature",
      "geometry": {
        "type": "Point",
        "coordinates": [
          13.9782,
          44.1905
        ]
      },
      "properties": {
        "icao24": "4066d0",
        "callsign": "TOM3CB",
        "origin_country": "United Kingdom",
        "time_position": 1788393746,
        "last_contact": 1788393746,
        "baro_altitude": 10972.8,
        "on_ground": false,
        "velocity": 206.46,
        "true_track": 301.55,
        "vertical_rate": 0,
        "geo_altitude": 11460.48,
        "squawk": "6624",
        "spi": false,
        "position_source": 0
      }
    },
    {
      "type": "Feature",
      "geometry": {
        "type": "Point",
        "coordinates": [
          10.3473,
          44.3773
        ]
      },
      "properties": {
        "icao24": "020124",
        "callsign": "MAC464",
        "origin_country": "Morocco",
        "time_position": 1788393746,
        "last_contact": 1788393747,
        "baro_altitude": 6019.8,
        "on_ground": false,
        "velocity": 198.27,
        "true_track": 232.8,
        "vertical_rate": 12.03,
        "geo_altitude": 6393.18,
        "squawk": "0426",
        "spi": false,
        "position_source": 0
      }
    },
    {
      "type": "Feature",
      "geometry": {
        "type": "Point",
        "coordinates": [
          6.8517,
          39.9313
        ]
      },
      "properties": {
        "icao24": "02019d",
        "callsign": "MAC438",
        "origin_country": "Morocco",
        "time_position": 1788393746,
        "last_contact": 1788393746,
        "baro_altitude": 11277.6,
        "on_ground": false,
        "velocity": 230.04,
        "true_track": 259.04,
        "vertical_rate": 0,
        "geo_altitude": 11940.54,
        "squawk": "2325",
        "spi": false,
        "position_source": 0
      }
    },
    {
      "type": "Feature",
      "geometry": {
        "type": "Point",
        "coordinates": [
          8.1347,
          47.7542
        ]
      },
      "properties": {
        "icao24": "406754",
        "callsign": "EZY98DG",
        "origin_country": "United Kingdom",
        "time_position": 1788393746,
        "last_contact": 1788393746,
        "baro_altitude": 10370.82,
        "on_ground": false,
        "velocity": 211.7,
        "true_track": 305.51,
        "vertical_rate": 0,
        "geo_altitude": 10873.74,
        "squawk": "2753",
        "spi": false,
        "position_source": 0
      }
    },
    {
      "type": "Feature",
      "geometry": {
        "type": "Point",
        "coordinates": [
          16.044,
          38.7632
        ]
      },
      "properties": {
        "icao24": "4bb214",
        "callsign": "THY658",
        "origin_country": "Turkey",
        "time_position": 1788393747,
        "last_contact": 1788393747,
        "baro_altitude": 10050.78,
        "on_ground": false,
        "velocity": 230.58,
        "true_track": 76.06,
        "vertical_rate": 0,
        "geo_altitude": 10591.8,
        "squawk": "6166",
        "spi": false,
        "position_source": 0
      }
    },
    {
      "type": "Feature",
      "geometry": {
        "type": "Point",
        "coordinates": [
          13.856,
          45.123
        ]
      },
      "properties": {
        "icao24": "4067f0",
        "callsign": "TOM84K",
        "origin_country": "United Kingdom",
        "time_position": 1788393746,
        "last_contact": 1788393746,
        "baro_altitude": 11582.4,
        "on_ground": false,
        "velocity": 201.52,
        "true_track": 293.95,
        "vertical_rate": 0,
        "geo_altitude": 12054.84,
        "squawk": "2061",
        "spi": false,
        "position_source": 0
      }
    },
    {
      "type": "Feature",
      "geometry": {
        "type": "Point",
        "coordinates": [
          14.5299,
          35.727
        ]
      },
      "properties": {
        "icao24": "406870",
        "callsign": "SPAROW2",
        "origin_country": "United Kingdom",
        "time_position": 1788393746,
        "last_contact": 1788393746,
        "baro_altitude": 1264.92,
        "on_ground": false,
        "velocity": 60.46,
        "true_track": 95.37,
        "vertical_rate": 3.25,
        "geo_altitude": 1417.32,
        "squawk": "6564",
        "spi": false,
        "position_source": 0
      }
    },
    {
      "type": "Feature",
      "geometry": {
        "type": "Point",
        "coordinates": [
          9.8621,
          47.7429
        ]
      },
      "properties": {
        "icao24": "89661f",
        "callsign": "UAE70",
        "origin_country": "United Arab Emirates",
        "time_position": 1788393746,
        "last_contact": 1788393746,
        "baro_altitude": 11887.2,
        "on_ground": false,
        "velocity": 283.37,
        "true_track": 134.93,
        "vertical_rate": 0,
        "geo_altitude": 12344.4,
        "squawk": "5252",
        "spi": false,
        "position_source": 0
      }
    },
    {
      "type": "Feature",
      "geometry": {
        "type": "Point",
        "coordinates": [
          13.0269,
          39.4608
        ]
      },
      "properties": {
        "icao24": "345041",
        "callsign": "VLG1595",
        "origin_country": "Spain",
        "time_position": 1788393747,
        "last_contact": 1788393747,
        "baro_altitude": 10363.2,
        "on_ground": false,
        "velocity": 222.78,
        "true_track": 291.83,
        "vertical_rate": 0,
        "geo_altitude": 10934.7,
        "squawk": "6633",
        "spi": false,
        "position_source": 0
      }
    },
    {
      "type": "Feature",
      "geometry": {
        "type": "Point",
        "coordinates": [
          15.8155,
          40.2451
        ]
      },
      "properties": {
        "icao24": "3009bf",
        "callsign": "IMIOR",
        "origin_country": "Italy",
        "time_position": 1788393736,
        "last_contact": 1788393736,
        "baro_altitude": 1615.44,
        "on_ground": false,
        "velocity": 66.19,
        "true_track": 5.8,
        "vertical_rate": 0,
        "geo_altitude": 1760.22,
        "squawk": null,
        "spi": false,
        "position_source": 0
      }
    },
    {
      "type": "Feature",
      "geometry": {
        "type": "Point",
        "coordinates": [
          16.7063,
          46.1757
        ]
      },
      "properties": {
        "icao24": "4b990c",
        "callsign": "FHY1204",
        "origin_country": "Turkey",
        "time_position": 1788393746,
        "last_contact": 1788393747,
        "baro_altitude": 10675.62,
        "on_ground": false,
        "velocity": 265.02,
        "true_track": 137.2,
        "vertical_rate": 0,
        "geo_altitude": 11056.62,
        "squawk": "4514",
        "spi": false,
        "position_source": 0
      }
    },
    {
      "type": "Feature",
      "geometry": {
        "type": "Point",
        "coordinates": [
          7.5211,
          47.6073
        ]
      },
      "properties": {
        "icao24": "3859ff",
        "callsign": "INFRA52",
        "origin_country": "France",
        "time_position": 1788393744,
        "last_contact": 1788393744,
        "baro_altitude": null,
        "on_ground": true,
        "velocity": 7.2,
        "true_track": 53.44,
        "vertical_rate": null,
        "geo_altitude": null,
        "squawk": null,
        "spi": false,
        "position_source": 0
      }
    },
    {
      "type": "Feature",
      "geometry": {
        "type": "Point",
        "coordinates": [
          14.9272,
          46.9292
        ]
      },
      "properties": {
        "icao24": "407913",
        "callsign": "EXS5TV",
        "origin_country": "United Kingdom",
        "time_position": 1788393746,
        "last_contact": 1788393746,
        "baro_altitude": 11582.4,
        "on_ground": false,
        "velocity": 195.37,
        "true_track": 315.96,
        "vertical_rate": 0.33,
        "geo_altitude": 11986.26,
        "squawk": "1353",
        "spi": false,
        "position_source": 0
      }
    },
    {
      "type": "Feature",
      "geometry": {
        "type": "Point",
        "coordinates": [
          10.8036,
          46.089
        ]
      },
      "properties": {
        "icao24": "40796b",
        "callsign": "TOM713",
        "origin_country": "United Kingdom",
        "time_position": 1788393746,
        "last_contact": 1788393746,
        "baro_altitude": 11582.4,
        "on_ground": false,
        "velocity": 204.32,
        "true_track": 303.81,
        "vertical_rate": 0,
        "geo_altitude": 12100.56,
        "squawk": "7742",
        "spi": false,
        "position_source": 0
      }
    },
    {
      "type": "Feature",
      "geometry": {
        "type": "Point",
        "coordinates": [
          7.4539,
          47.5227
        ]
      },
      "properties": {
        "icao24": "40796c",
        "callsign": "TOM373",
        "origin_country": "United Kingdom",
        "time_position": 1788393747,
        "last_contact": 1788393747,
        "baro_altitude": 11582.4,
        "on_ground": false,
        "velocity": 208.17,
        "true_track": 308.88,
        "vertical_rate": 0,
        "geo_altitude": 12108.18,
        "squawk": "2757",
        "spi": false,
        "position_source": 0
      }
    },
    {
      "type": "Feature",
      "geometry": {
        "type": "Point",
        "coordinates": [
          17.5261,
          44.5374
        ]
      },
      "properties": {
        "icao24": "4bcd84",
        "callsign": "SXS2NB",
        "origin_country": "Turkey",
        "time_position": 1788393746,
        "last_contact": 1788393746,
        "baro_altitude": 11887.2,
        "on_ground": false,
        "velocity": 252.88,
        "true_track": 133.76,
        "vertical_rate": 0,
        "geo_altitude": 12321.54,
        "squawk": "6420",
        "spi": false,
        "position_source": 0
      }
    },
    {
      "type": "Feature",
      "geometry": {
        "type": "Point",
        "coordinates": [
          15.7082,
          47.5164
        ]
      },
      "properties": {
        "icao24": "49d3d5",
        "callsign": "TVS3264",
        "origin_country": "Czech Republic",
        "time_position": 1788393747,
        "last_contact": 1788393747,
        "baro_altitude": 10553.7,
        "on_ground": false,
        "velocity": 263.38,
        "true_track": 171.24,
        "vertical_rate": 2.28,
        "geo_altitude": 10888.98,
        "squawk": "6024",
        "spi": false,
        "position_source": 0
      }
    },
    {
      "type": "Feature",
      "geometry": {
        "type": "Point",
        "coordinates": [
          13.2914,
          46.6164
        ]
      },
      "properties": {
        "icao24": "406f86",
        "callsign": "EXS71FD",
        "origin_country": "United Kingdom",
        "time_position": 1788393746,
        "last_contact": 1788393746,
        "baro_altitude": 10972.8,
        "on_ground": false,
        "velocity": 193.53,
        "true_track": 302.3,
        "vertical_rate": -0.33,
        "geo_altitude": 11399.52,
        "squawk": "5647",
        "spi": false,
        "position_source": 0
      }
    },
    {
      "type": "Feature",
      "geometry": {
        "type": "Point",
        "coordinates": [
          17.0114,
          45.9557
        ]
      },
      "properties": {
        "icao24": "394a04",
        "callsign": "AFR274",
        "origin_country": "France",
        "time_position": 1788393746,
        "last_contact": 1788393746,
        "baro_altitude": 9448.8,
        "on_ground": false,
        "velocity": 269.58,
        "true_track": 118.62,
        "vertical_rate": 0,
        "geo_altitude": 9829.8,
        "squawk": "7564",
        "spi": false,
        "position_source": 0
      }
    },
    {
      "type": "Feature",
      "geometry": {
        "type": "Point",
        "coordinates": [
          12.4842,
          41.9291
        ]
      },
      "properties": {
        "icao24": "71c084",
        "callsign": "KAL922",
        "origin_country": "Republic of Korea",
        "time_position": 1788393747,
        "last_contact": 1788393747,
        "baro_altitude": 11277.6,
        "on_ground": false,
        "velocity": 253.97,
        "true_track": 73.77,
        "vertical_rate": -0.33,
        "geo_altitude": 11849.1,
        "squawk": "0203",
        "spi": false,
        "position_source": 0
      }
    },
    {
      "type": "Feature",
      "geometry": {
        "type": "Point",
        "coordinates": [
          13.135,
          45.8969
        ]
      },
      "properties": {
        "icao24": "49d421",
        "callsign": "TVL5171",
        "origin_country": "Czech Republic",
        "time_position": 1788393746,
        "last_contact": 1788393746,
        "baro_altitude": 11582.4,
        "on_ground": false,
        "velocity": 229.84,
        "true_track": 63.26,
        "vertical_rate": 0,
        "geo_altitude": 12047.22,
        "squawk": "1000",
        "spi": false,
        "position_source": 0
      }
    },
    {
      "type": "Feature",
      "geometry": {
        "type": "Point",
        "coordinates": [
          12.6381,
          35.9946
        ]
      },
      "properties": {
        "icao24": "06a2c6",
        "callsign": "QTR1436",
        "origin_country": "Qatar",
        "time_position": 1788393746,
        "last_contact": 1788393746,
        "baro_altitude": 10058.4,
        "on_ground": false,
        "velocity": 277.2,
        "true_track": 93.19,
        "vertical_rate": 0,
        "geo_altitude": 10652.76,
        "squawk": "4101",
        "spi": false,
        "position_source": 0
      }
    },
    {
      "type": "Feature",
      "geometry": {
        "type": "Point",
        "coordinates": [
          12.9011,
          46.8838
        ]
      },
      "properties": {
        "icao24": "4ba952",
        "callsign": "THY4",
        "origin_country": "Turkey",
        "time_position": 1788393747,
        "last_contact": 1788393747,
        "baro_altitude": 11277.6,
        "on_ground": false,
        "velocity": 270.79,
        "true_track": 105.99,
        "vertical_rate": 0,
        "geo_altitude": 11734.8,
        "squawk": "2271",
        "spi": false,
        "position_source": 0
      }
    },
    {
      "type": "Feature",
      "geometry": {
        "type": "Point",
        "coordinates": [
          17.793,
          45.5907
        ]
      },
      "properties": {
        "icao24": "4bca68",
        "callsign": "RHH225",
        "origin_country": "Turkey",
        "time_position": 1788393746,
        "last_contact": 1788393746,
        "baro_altitude": 12496.8,
        "on_ground": false,
        "velocity": 255.5,
        "true_track": 118.37,
        "vertical_rate": 0,
        "geo_altitude": 12900.66,
        "squawk": "5217",
        "spi": false,
        "position_source": 0
      }
    },
    {
      "type": "Feature",
      "geometry": {
        "type": "Point",
        "coordinates": [
          10.2241,
          36.9531
        ]
      },
      "properties": {
        "icao24": "3424d4",
        "callsign": null,
        "origin_country": "Spain",
        "time_position": 1788393633,
        "last_contact": 1788393633,
        "baro_altitude": 1112.52,
        "on_ground": false,
        "velocity": 102.54,
        "true_track": 343.38,
        "vertical_rate": 4.88,
        "geo_altitude": 1264.92,
        "squawk": null,
        "spi": false,
        "position_source": 0
      }
    },
    {
      "type": "Feature",
      "geometry": {
        "type": "Point",
        "coordinates": [
          8.7178,
          45.6354
        ]
      },
      "properties": {
        "icao24": "31d7a5",
        "callsign": null,
        "origin_country": "Italy",
        "time_position": 1788393696,
        "last_contact": 1788393696,
        "baro_altitude": null,
        "on_ground": true,
        "velocity": 8.23,
        "true_track": 236.25,
        "vertical_rate": null,
        "geo_altitude": null,
        "squawk": null,
        "spi": false,
        "position_source": 0
      }
    },
    {
      "type": "Feature",
      "geometry": {
        "type": "Point",
        "coordinates": [
          13.4828,
          46.5845
        ]
      },
      "properties": {
        "icao24": "407fea",
        "callsign": "WUK557",
        "origin_country": "United Kingdom",
        "time_position": 1788393746,
        "last_contact": 1788393746,
        "baro_altitude": 10363.2,
        "on_ground": false,
        "velocity": 203.01,
        "true_track": 313.97,
        "vertical_rate": 0,
        "geo_altitude": 10812.78,
        "squawk": "1344",
        "spi": false,
        "position_source": 0
      }
    },
    {
      "type": "Feature",
      "geometry": {
        "type": "Point",
        "coordinates": [
          8.7301,
          45.6236
        ]
      },
      "properties": {
        "icao24": "407cf7",
        "callsign": "DHK524",
        "origin_country": "United Kingdom",
        "time_position": 1788393746,
        "last_contact": 1788393746,
        "baro_altitude": null,
        "on_ground": true,
        "velocity": 11.32,
        "true_track": 168.75,
        "vertical_rate": null,
        "geo_altitude": null,
        "squawk": "2263",
        "spi": false,
        "position_source": 0
      }
    },
    {
      "type": "Feature",
      "geometry": {
        "type": "Point",
        "coordinates": [
          11.514,
          43.3396
        ]
      },
      "properties": {
        "icao24": "39cf12",
        "callsign": "AFR684",
        "origin_country": "France",
        "time_position": 1788393746,
        "last_contact": 1788393746,
        "baro_altitude": 11887.2,
        "on_ground": false,
        "velocity": 270.96,
        "true_track": 123.15,
        "vertical_rate": 0,
        "geo_altitude": 12420.6,
        "squawk": "7566",
        "spi": false,
        "position_source": 0
      }
    },
    {
      "type": "Feature",
      "geometry": {
        "type": "Point",
        "coordinates": [
          15.8961,
          47.447
        ]
      },
      "properties": {
        "icao24": "407ce4",
        "callsign": "EXS17EW",
        "origin_country": "United Kingdom",
        "time_position": 1788393747,
        "last_contact": 1788393747,
        "baro_altitude": 10972.8,
        "on_ground": false,
        "velocity": 191.24,
        "true_track": 302.36,
        "vertical_rate": 0,
        "geo_altitude": 11323.32,
        "squawk": "5340",
        "spi": false,
        "position_source": 0
      }
    },
    {
      "type": "Feature",
      "geometry": {
        "type": "Point",
        "coordinates": [
          8.0244,
          47.5294
        ]
      },
      "properties": {
        "icao24": "407f7a",
        "callsign": "EZY98FB",
        "origin_country": "United Kingdom",
        "time_position": 1788393747,
        "last_contact": 1788393747,
        "baro_altitude": 10972.8,
        "on_ground": false,
        "velocity": 208.71,
        "true_track": 305.57,
        "vertical_rate": 0,
        "geo_altitude": 11506.2,
        "squawk": "2766",
        "spi": false,
        "position_source": 0
      }
    },
    {
      "type": "Feature",
      "geometry": {
        "type": "Point",
        "coordinates": [
          14.2366,
          44.0738
        ]
      },
      "properties": {
        "icao24": "407c26",
        "callsign": "TOM6JL",
        "origin_country": "United Kingdom",
        "time_position": 1788393746,
        "last_contact": 1788393746,
        "baro_altitude": 10972.8,
        "on_ground": false,
        "velocity": 207.71,
        "true_track": 301.84,
        "vertical_rate": 0,
        "geo_altitude": 11460.48,
        "squawk": "2067",
        "spi": false,
        "position_source": 0
      }
    },
    {
      "type": "Feature",
      "geometry": {
        "type": "Point",
        "coordinates": [
          15.6284,
          43.441
        ]
      },
      "properties": {
        "icao24": "407c0b",
        "callsign": "TOM503",
        "origin_country": "United Kingdom",
        "time_position": 1788393745,
        "last_contact": 1788393746,
        "baro_altitude": 10972.8,
        "on_ground": false,
        "velocity": 207.5,
        "true_track": 302.55,
        "vertical_rate": 0,
        "geo_altitude": 11445.24,
        "squawk": "2033",
        "spi": false,
        "position_source": 0
      }
    },
    {
      "type": "Feature",
      "geometry": {
        "type": "Point",
        "coordinates": [
          15.6443,
          44.53
        ]
      },
      "properties": {
        "icao24": "407ac1",
        "callsign": "TOM237",
        "origin_country": "United Kingdom",
        "time_position": 1788393746,
        "last_contact": 1788393746,
        "baro_altitude": 11582.4,
        "on_ground": false,
        "velocity": 206.18,
        "true_track": 295.41,
        "vertical_rate": 0,
        "geo_altitude": 12039.6,
        "squawk": "5361",
        "spi": false,
        "position_source": 0
      }
    },
    {
      "type": "Feature",
      "geometry": {
        "type": "Point",
        "coordinates": [
          9.0972,
          40.6793
        ]
      },
      "properties": {
        "icao24": "4bb864",
        "callsign": "PGT1562",
        "origin_country": "Turkey",
        "time_position": 1788393746,
        "last_contact": 1788393746,
        "baro_altitude": 11590.02,
        "on_ground": false,
        "velocity": 234.3,
        "true_track": 87.48,
        "vertical_rate": 0,
        "geo_altitude": 12222.48,
        "squawk": "2246",
        "spi": false,
        "position_source": 0
      }
    },
    {
      "type": "Feature",
      "geometry": {
        "type": "Point",
        "coordinates": [
          13.0092,
          40.9238
        ]
      },
      "properties": {
        "icao24": "504e65",
        "callsign": "FIE232",
        "origin_country": "Republic of Moldova",
        "time_position": 1788393746,
        "last_contact": 1788393747,
        "baro_altitude": 11277.6,
        "on_ground": false,
        "velocity": 240.92,
        "true_track": 92.08,
        "vertical_rate": 0,
        "geo_altitude": 11856.72,
        "squawk": "0201",
        "spi": false,
        "position_source": 0
      }
    },
    {
      "type": "Feature",
      "geometry": {
        "type": "Point",
        "coordinates": [
          15.3417,
          44.5382
        ]
      },
      "properties": {
        "icao24": "3cf3a4",
        "callsign": "DCTOM",
        "origin_country": "Germany",
        "time_position": 1788393746,
        "last_contact": 1788393746,
        "baro_altitude": 11887.2,
        "on_ground": false,
        "velocity": 219.81,
        "true_track": 131.3,
        "vertical_rate": 0.33,
        "geo_altitude": 12374.88,
        "squawk": "0255",
        "spi": false,
        "position_source": 0
      }
    },
    {
      "type": "Feature",
      "geometry": {
        "type": "Point",
        "coordinates": [
          6.4367,
          45.8151
        ]
      },
      "properties": {
        "icao24": "4cc54b",
        "callsign": "ABD2600",
        "origin_country": "Iceland",
        "time_position": 1788393746,
        "last_contact": 1788393747,
        "baro_altitude": 10363.2,
        "on_ground": false,
        "velocity": 228.94,
        "true_track": 359.36,
        "vertical_rate": 0,
        "geo_altitude": 10888.98,
        "squawk": "1000",
        "spi": false,
        "position_source": 0
      }
    },
    {
      "type": "Feature",
      "geometry": {
        "type": "Point",
        "coordinates": [
          8.5672,
          47.4445
        ]
      },
      "properties": {
        "icao24": "4b180c",
        "callsign": "SWR",
        "origin_country": "Switzerland",
        "time_position": 1788393359,
        "last_contact": 1788393744,
        "baro_altitude": null,
        "on_ground": true,
        "velocity": null,
        "true_track": 323.44,
        "vertical_rate": null,
        "geo_altitude": null,
        "squawk": "2000",
        "spi": false,
        "position_source": 0
      }
    },
    {
      "type": "Feature",
      "geometry": {
        "type": "Point",
        "coordinates": [
          6.6925,
          36.5162
        ]
      },
      "properties": {
        "icao24": "0a00c4",
        "callsign": "DAH468",
        "origin_country": "Algeria",
        "time_position": 1788393746,
        "last_contact": 1788393746,
        "baro_altitude": 12359.64,
        "on_ground": false,
        "velocity": 254.81,
        "true_track": 94.17,
        "vertical_rate": 1.3,
        "geo_altitude": 13037.82,
        "squawk": "4242",
        "spi": false,
        "position_source": 0
      }
    },
    {
      "type": "Feature",
      "geometry": {
        "type": "Point",
        "coordinates": [
          11.2413,
          45.6798
        ]
      },
      "properties": {
        "icao24": "48cb15",
        "callsign": "TVS9A1",
        "origin_country": "Poland",
        "time_position": 1788393747,
        "last_contact": 1788393747,
        "baro_altitude": 10972.8,
        "on_ground": false,
        "velocity": 227.85,
        "true_track": 54.37,
        "vertical_rate": 0,
        "geo_altitude": 11468.1,
        "squawk": "1000",
        "spi": false,
        "position_source": 0
      }
    },
    {
      "type": "Feature",
      "geometry": {
        "type": "Point",
        "coordinates": [
          14.1542,
          35.6803
        ]
      },
      "properties": {
        "icao24": "43ee55",
        "callsign": "EAGLE3",
        "origin_country": "United Kingdom",
        "time_position": 1788393746,
        "last_contact": 1788393746,
        "baro_altitude": 861.06,
        "on_ground": false,
        "velocity": 69.94,
        "true_track": 9.74,
        "vertical_rate": 0,
        "geo_altitude": 990.6,
        "squawk": null,
        "spi": false,
        "position_source": 0
      }
    },
    {
      "type": "Feature",
      "geometry": {
        "type": "Point",
        "coordinates": [
          8.5468,
          46.9359
        ]
      },
      "properties": {
        "icao24": "408059",
        "callsign": "EXS67E",
        "origin_country": "United Kingdom",
        "time_position": 1788393745,
        "last_contact": 1788393746,
        "baro_altitude": 11582.4,
        "on_ground": false,
        "velocity": 206.76,
        "true_track": 309.75,
        "vertical_rate": 0,
        "geo_altitude": 12100.56,
        "squawk": "2761",
        "spi": false,
        "position_source": 0
      }
    },
    {
      "type": "Feature",
      "geometry": {
        "type": "Point",
        "coordinates": [
          9.8882,
          46.9818
        ]
      },
      "properties": {
        "icao24": "408053",
        "callsign": "EZY52DQ",
        "origin_country": "United Kingdom",
        "time_position": 1788393746,
        "last_contact": 1788393746,
        "baro_altitude": 11582.4,
        "on_ground": false,
        "velocity": 199.77,
        "true_track": 304.51,
        "vertical_rate": 0,
        "geo_altitude": 12100.56,
        "squawk": "2746",
        "spi": false,
        "position_source": 0
      }
    },
    {
      "type": "Feature",
      "geometry": {
        "type": "Point",
        "coordinates": [
          13.7117,
          46.9808
        ]
      },
      "properties": {
        "icao24": "40823f",
        "callsign": "EXS3868",
        "origin_country": "United Kingdom",
        "time_position": 1788393747,
        "last_contact": 1788393747,
        "baro_altitude": 10965.18,
        "on_ground": false,
        "velocity": 194.19,
        "true_track": 303.98,
        "vertical_rate": 0,
        "geo_altitude": 11399.52,
        "squawk": "2064",
        "spi": false,
        "position_source": 0
      }
    },
    {
      "type": "Feature",
      "geometry": {
        "type": "Point",
        "coordinates": [
          10.8612,
          36.7948
        ]
      },
      "properties": {
        "icao24": "02a1ac",
        "callsign": "LBT4336",
        "origin_country": "Tunisia",
        "time_position": 1788393744,
        "last_contact": 1788393744,
        "baro_altitude": 4610.1,
        "on_ground": false,
        "velocity": 209.53,
        "true_track": 108.61,
        "vertical_rate": 14.96,
        "geo_altitude": 4975.86,
        "squawk": "6155",
        "spi": false,
        "position_source": 0
      }
    },
    {
      "type": "Feature",
      "geometry": {
        "type": "Point",
        "coordinates": [
          6.8203,
          36.4584
        ]
      },
      "properties": {
        "icao24": "02a1b0",
        "callsign": "LBT6847",
        "origin_country": "Tunisia",
        "time_position": 1788393377,
        "last_contact": 1788393518,
        "baro_altitude": 10668,
        "on_ground": false,
        "velocity": 235.8,
        "true_track": 92.25,
        "vertical_rate": -0.33,
        "geo_altitude": 11308.08,
        "squawk": "2221",
        "spi": false,
        "position_source": 0
      }
    },
    {
      "type": "Feature",
      "geometry": {
        "type": "Point",
        "coordinates": [
          14.1735,
          46.3726
        ]
      },
      "properties": {
        "icao24": "4080de",
        "callsign": "EXS82BQ",
        "origin_country": "United Kingdom",
        "time_position": 1788393746,
        "last_contact": 1788393747,
        "baro_altitude": 10972.8,
        "on_ground": false,
        "velocity": 200.06,
        "true_track": 309.05,
        "vertical_rate": 0,
        "geo_altitude": 11407.14,
        "squawk": "5323",
        "spi": false,
        "position_source": 0
      }
    },
    {
      "type": "Feature",
      "geometry": {
        "type": "Point",
        "coordinates": [
          8.5388,
          47.4783
        ]
      },
      "properties": {
        "icao24": "4b5c37",
        "callsign": "URSULA6",
        "origin_country": "Switzerland",
        "time_position": 1788393746,
        "last_contact": 1788393746,
        "baro_altitude": null,
        "on_ground": true,
        "velocity": 9.26,
        "true_track": 227.81,
        "vertical_rate": null,
        "geo_altitude": null,
        "squawk": null,
        "spi": false,
        "position_source": 0
      }
    },
    {
      "type": "Feature",
      "geometry": {
        "type": "Point",
        "coordinates": [
          14.7335,
          37.4382
        ]
      },
      "properties": {
        "icao24": "4ca82c",
        "callsign": "MSA92C",
        "origin_country": "Ireland",
        "time_position": 1788393746,
        "last_contact": 1788393746,
        "baro_altitude": 1592.58,
        "on_ground": false,
        "velocity": 126.74,
        "true_track": 82.07,
        "vertical_rate": -9.1,
        "geo_altitude": 1775.46,
        "squawk": "6362",
        "spi": false,
        "position_source": 0
      }
    },
    {
      "type": "Feature",
      "geometry": {
        "type": "Point",
        "coordinates": [
          8.1401,
          43.9233
        ]
      },
      "properties": {
        "icao24": "501d18",
        "callsign": "CTN9371",
        "origin_country": "Croatia",
        "time_position": 1788393747,
        "last_contact": 1788393747,
        "baro_altitude": 10972.8,
        "on_ground": false,
        "velocity": 242.05,
        "true_track": 69.6,
        "vertical_rate": 0,
        "geo_altitude": 11567.16,
        "squawk": "1000",
        "spi": false,
        "position_source": 0
      }
    },
    {
      "type": "Feature",
      "geometry": {
        "type": "Point",
        "coordinates": [
          15.5409,
          47.0163
        ]
      },
      "properties": {
        "icao24": "4bcde8",
        "callsign": "SXS263",
        "origin_country": "Turkey",
        "time_position": 1788393746,
        "last_contact": 1788393746,
        "baro_altitude": 11277.6,
        "on_ground": false,
        "velocity": 268.98,
        "true_track": 136.94,
        "vertical_rate": 0,
        "geo_altitude": 11658.6,
        "squawk": "4521",
        "spi": false,
        "position_source": 0
      }
    },
    {
      "type": "Feature",
      "geometry": {
        "type": "Point",
        "coordinates": [
          16.1739,
          45.4327
        ]
      },
      "properties": {
        "icao24": "4bcdf9",
        "callsign": "SXS2GA",
        "origin_country": "Turkey",
        "time_position": 1788393746,
        "last_contact": 1788393746,
        "baro_altitude": 11277.6,
        "on_ground": false,
        "velocity": 261.38,
        "true_track": 132.77,
        "vertical_rate": 0,
        "geo_altitude": 11689.08,
        "squawk": "7603",
        "spi": false,
        "position_source": 0
      }
    },
    {
      "type": "Feature",
      "geometry": {
        "type": "Point",
        "coordinates": [
          18.7375,
          46.096
        ]
      },
      "properties": {
        "icao24": "4bcdd6",
        "callsign": "SXS4ZH",
        "origin_country": "Turkey",
        "time_position": 1788393746,
        "last_contact": 1788393747,
        "baro_altitude": 11277.6,
        "on_ground": false,
        "velocity": 260.8,
        "true_track": 141,
        "vertical_rate": 0,
        "geo_altitude": 11643.36,
        "squawk": "6035",
        "spi": false,
        "position_source": 0
      }
    },
    {
      "type": "Feature",
      "geometry": {
        "type": "Point",
        "coordinates": [
          17.5579,
          47.2495
        ]
      },
      "properties": {
        "icao24": "4bcda6",
        "callsign": "SXS11A",
        "origin_country": "Turkey",
        "time_position": 1788393746,
        "last_contact": 1788393746,
        "baro_altitude": 11277.6,
        "on_ground": false,
        "velocity": 263.93,
        "true_track": 143.8,
        "vertical_rate": 0,
        "geo_altitude": 11612.88,
        "squawk": "7603",
        "spi": false,
        "position_source": 0
      }
    },
    {
      "type": "Feature",
      "geometry": {
        "type": "Point",
        "coordinates": [
          18.8972,
          45.9706
        ]
      },
      "properties": {
        "icao24": "4bccb9",
        "callsign": "SXS5FR",
        "origin_country": "Turkey",
        "time_position": 1788393746,
        "last_contact": 1788393747,
        "baro_altitude": 11887.2,
        "on_ground": false,
        "velocity": 255.37,
        "true_track": 135.49,
        "vertical_rate": 0,
        "geo_altitude": 12245.34,
        "squawk": "1102",
        "spi": false,
        "position_source": 0
      }
    },
    {
      "type": "Feature",
      "geometry": {
        "type": "Point",
        "coordinates": [
          17.2812,
          45.7347
        ]
      },
      "properties": {
        "icao24": "4bce12",
        "callsign": "SXS8UA",
        "origin_country": "Turkey",
        "time_position": 1788393747,
        "last_contact": 1788393747,
        "baro_altitude": 11887.2,
        "on_ground": false,
        "velocity": 255.28,
        "true_track": 137.7,
        "vertical_rate": 0,
        "geo_altitude": 12291.06,
        "squawk": "6407",
        "spi": false,
        "position_source": 0
      }
    },
    {
      "type": "Feature",
      "geometry": {
        "type": "Point",
        "coordinates": [
          18.1447,
          35.1797
        ]
      },
      "properties": {
        "icao24": "8940a4",
        "callsign": "GFA021",
        "origin_country": "Bahrain",
        "time_position": 1788393744,
        "last_contact": 1788393744,
        "baro_altitude": 10980.42,
        "on_ground": false,
        "velocity": 228.93,
        "true_track": 280.88,
        "vertical_rate": 0,
        "geo_altitude": 11582.4,
        "squawk": null,
        "spi": false,
        "position_source": 0
      }
    },
    {
      "type": "Feature",
      "geometry": {
        "type": "Point",
        "coordinates": [
          13.0859,
          43.1857
        ]
      },
      "properties": {
        "icao24": "0102b4",
        "callsign": "NMA301",
        "origin_country": "Egypt",
        "time_position": 1788393746,
        "last_contact": 1788393747,
        "baro_altitude": 10668,
        "on_ground": false,
        "velocity": 264.74,
        "true_track": 129.16,
        "vertical_rate": 0,
        "geo_altitude": 11186.16,
        "squawk": "0464",
        "spi": false,
        "position_source": 0
      }
    },
    {
      "type": "Feature",
      "geometry": {
        "type": "Point",
        "coordinates": [
          11.5081,
          36.068
        ]
      },
      "properties": {
        "icao24": "3473d3",
        "callsign": "SVA9504",
        "origin_country": "Spain",
        "time_position": 1788393746,
        "last_contact": 1788393746,
        "baro_altitude": 12192,
        "on_ground": false,
        "velocity": 220.09,
        "true_track": 278.6,
        "vertical_rate": -0.33,
        "geo_altitude": 12839.7,
        "squawk": "5537",
        "spi": false,
        "position_source": 0
      }
    },
    {
      "type": "Feature",
      "geometry": {
        "type": "Point",
        "coordinates": [
          17.6318,
          43.9249
        ]
      },
      "properties": {
        "icao24": "01024e",
        "callsign": "MSC2918",
        "origin_country": "Egypt",
        "time_position": 1788393746,
        "last_contact": 1788393746,
        "baro_altitude": 10363.2,
        "on_ground": false,
        "velocity": 210.27,
        "true_track": 315.59,
        "vertical_rate": 0,
        "geo_altitude": 10782.3,
        "squawk": "2006",
        "spi": false,
        "position_source": 0
      }
    },
    {
      "type": "Feature",
      "geometry": {
        "type": "Point",
        "coordinates": [
          7.2595,
          43.5482
        ]
      },
      "properties": {
        "icao24": "40643c",
        "callsign": "EZY46PZ",
        "origin_country": "United Kingdom",
        "time_position": 1788393746,
        "last_contact": 1788393746,
        "baro_altitude": 2156.46,
        "on_ground": false,
        "velocity": 124.48,
        "true_track": 252.69,
        "vertical_rate": 7.15,
        "geo_altitude": 2362.2,
        "squawk": null,
        "spi": false,
        "position_source": 0
      }
    },
    {
      "type": "Feature",
      "geometry": {
        "type": "Point",
        "coordinates": [
          8.1532,
          45.039
        ]
      },
      "properties": {
        "icao24": "01025e",
        "callsign": "MSR988",
        "origin_country": "Egypt",
        "time_position": 1788393746,
        "last_contact": 1788393747,
        "baro_altitude": 11879.58,
        "on_ground": false,
        "velocity": 266.57,
        "true_track": 101.92,
        "vertical_rate": -0.33,
        "geo_altitude": 12458.7,
        "squawk": "0456",
        "spi": false,
        "position_source": 0
      }
    },
    {
      "type": "Feature",
      "geometry": {
        "type": "Point",
        "coordinates": [
          9.4308,
          42.7261
        ]
      },
      "properties": {
        "icao24": "010288",
        "callsign": "MSR986",
        "origin_country": "Egypt",
        "time_position": 1788393746,
        "last_contact": 1788393747,
        "baro_altitude": 12496.8,
        "on_ground": false,
        "velocity": 265.58,
        "true_track": 112.19,
        "vertical_rate": 0,
        "geo_altitude": 13060.68,
        "squawk": "0204",
        "spi": false,
        "position_source": 0
      }
    },
    {
      "type": "Feature",
      "geometry": {
        "type": "Point",
        "coordinates": [
          12.4298,
          41.5664
        ]
      },
      "properties": {
        "icao24": "010289",
        "callsign": "MSR948",
        "origin_country": "Egypt",
        "time_position": 1788393746,
        "last_contact": 1788393746,
        "baro_altitude": 12496.8,
        "on_ground": false,
        "velocity": 265.98,
        "true_track": 119.04,
        "vertical_rate": 0,
        "geo_altitude": 13037.82,
        "squawk": "2215",
        "spi": false,
        "position_source": 0
      }
    },
    {
      "type": "Feature",
      "geometry": {
        "type": "Point",
        "coordinates": [
          15.3516,
          41.0071
        ]
      },
      "properties": {
        "icao24": "4caeb0",
        "callsign": "NOS3463",
        "origin_country": "Ireland",
        "time_position": 1788393746,
        "last_contact": 1788393746,
        "baro_altitude": 10972.8,
        "on_ground": false,
        "velocity": 216.53,
        "true_track": 320.98,
        "vertical_rate": 0,
        "geo_altitude": 11498.58,
        "squawk": "7741",
        "spi": false,
        "position_source": 0
      }
    },
    {
      "type": "Feature",
      "geometry": {
        "type": "Point",
        "coordinates": [
          7.5224,
          47.6076
        ]
      },
      "properties": {
        "icao24": "390bff",
        "callsign": "INFRA51",
        "origin_country": "France",
        "time_position": 1788393719,
        "last_contact": 1788393719,
        "baro_altitude": null,
        "on_ground": true,
        "velocity": 2.83,
        "true_track": 244.69,
        "vertical_rate": null,
        "geo_altitude": null,
        "squawk": null,
        "spi": false,
        "position_source": 0
      }
    },
    {
      "type": "Feature",
      "geometry": {
        "type": "Point",
        "coordinates": [
          15.5042,
          44.324
        ]
      },
      "properties": {
        "icao24": "4072a4",
        "callsign": "TOM565",
        "origin_country": "United Kingdom",
        "time_position": 1788393746,
        "last_contact": 1788393746,
        "baro_altitude": 10972.8,
        "on_ground": false,
        "velocity": 207.11,
        "true_track": 291.72,
        "vertical_rate": 0,
        "geo_altitude": 11430,
        "squawk": "5306",
        "spi": false,
        "position_source": 0
      }
    },
    {
      "type": "Feature",
      "geometry": {
        "type": "Point",
        "coordinates": [
          9.5808,
          36.2952
        ]
      },
      "properties": {
        "icao24": "4cadc3",
        "callsign": null,
        "origin_country": "Ireland",
        "time_position": 1788393737,
        "last_contact": 1788393738,
        "baro_altitude": 11277.6,
        "on_ground": false,
        "velocity": 244.61,
        "true_track": 98.71,
        "vertical_rate": 0,
        "geo_altitude": 11910.06,
        "squawk": null,
        "spi": false,
        "position_source": 0
      }
    },
    {
      "type": "Feature",
      "geometry": {
        "type": "Point",
        "coordinates": [
          8.4709,
          44.2696
        ]
      },
      "properties": {
        "icao24": "4cadc4",
        "callsign": "RYR95WM",
        "origin_country": "Ireland",
        "time_position": 1788393747,
        "last_contact": 1788393747,
        "baro_altitude": 9128.76,
        "on_ground": false,
        "velocity": 242.31,
        "true_track": 46.03,
        "vertical_rate": -2.6,
        "geo_altitude": 9654.54,
        "squawk": "1000",
        "spi": false,
        "position_source": 0
      }
    },
    {
      "type": "Feature",
      "geometry": {
        "type": "Point",
        "coordinates": [
          6.9355,
          40.6269
        ]
      },
      "properties": {
        "icao24": "46d0a3",
        "callsign": "SEH923",
        "origin_country": "Greece",
        "time_position": 1788393746,
        "last_contact": 1788393746,
        "baro_altitude": 11269.98,
        "on_ground": false,
        "velocity": 232.37,
        "true_track": 98.27,
        "vertical_rate": 0,
        "geo_altitude": 11917.68,
        "squawk": "2214",
        "spi": false,
        "position_source": 0
      }
    },
    {
      "type": "Feature",
      "geometry": {
        "type": "Point",
        "coordinates": [
          14.1653,
          47.6126
        ]
      },
      "properties": {
        "icao24": "4d2278",
        "callsign": "CAI7KJ",
        "origin_country": "Malta",
        "time_position": 1788393746,
        "last_contact": 1788393747,
        "baro_altitude": 11277.6,
        "on_ground": false,
        "velocity": 267,
        "true_track": 130.78,
        "vertical_rate": 0.33,
        "geo_altitude": 11666.22,
        "squawk": "7716",
        "spi": false,
        "position_source": 0
      }
    },
    {
      "type": "Feature",
      "geometry": {
        "type": "Point",
        "coordinates": [
          8.4262,
          47.2625
        ]
      },
      "properties": {
        "icao24": "40832a",
        "callsign": "TOM699",
        "origin_country": "United Kingdom",
        "time_position": 1788393746,
        "last_contact": 1788393746,
        "baro_altitude": 11582.4,
        "on_ground": false,
        "velocity": 208.15,
        "true_track": 306.56,
        "vertical_rate": 0,
        "geo_altitude": 12115.8,
        "squawk": "2777",
        "spi": false,
        "position_source": 0
      }
    },
    {
      "type": "Feature",
      "geometry": {
        "type": "Point",
        "coordinates": [
          12.4744,
          46.0676
        ]
      },
      "properties": {
        "icao24": "408387",
        "callsign": "EZY37LE",
        "origin_country": "United Kingdom",
        "time_position": 1788393746,
        "last_contact": 1788393746,
        "baro_altitude": 10972.8,
        "on_ground": false,
        "velocity": 199.72,
        "true_track": 315.52,
        "vertical_rate": 0,
        "geo_altitude": 11445.24,
        "squawk": "6621",
        "spi": false,
        "position_source": 0
      }
    },
    {
      "type": "Feature",
      "geometry": {
        "type": "Point",
        "coordinates": [
          10.0522,
          46.7809
        ]
      },
      "properties": {
        "icao24": "40836c",
        "callsign": "EZY34PE",
        "origin_country": "United Kingdom",
        "time_position": 1788393746,
        "last_contact": 1788393746,
        "baro_altitude": 10363.2,
        "on_ground": false,
        "velocity": 207.28,
        "true_track": 305.5,
        "vertical_rate": -0.33,
        "geo_altitude": 10866.12,
        "squawk": "7510",
        "spi": false,
        "position_source": 0
      }
    },
    {
      "type": "Feature",
      "geometry": {
        "type": "Point",
        "coordinates": [
          9.1405,
          47.0075
        ]
      },
      "properties": {
        "icao24": "408329",
        "callsign": "TOM83D",
        "origin_country": "United Kingdom",
        "time_position": 1788393746,
        "last_contact": 1788393746,
        "baro_altitude": 11582.4,
        "on_ground": false,
        "velocity": 207.23,
        "true_track": 306.22,
        "vertical_rate": 0,
        "geo_altitude": 12115.8,
        "squawk": "2765",
        "spi": false,
        "position_source": 0
      }
    },
    {
      "type": "Feature",
      "geometry": {
        "type": "Point",
        "coordinates": [
          15.1918,
          45.788
        ]
      },
      "properties": {
        "icao24": "4081aa",
        "callsign": "EXS6V",
        "origin_country": "United Kingdom",
        "time_position": 1788393747,
        "last_contact": 1788393747,
        "baro_altitude": 10988.04,
        "on_ground": false,
        "velocity": 199.21,
        "true_track": 306.07,
        "vertical_rate": 2.93,
        "geo_altitude": 11414.76,
        "squawk": "2035",
        "spi": false,
        "position_source": 0
      }
    },
    {
      "type": "Feature",
      "geometry": {
        "type": "Point",
        "coordinates": [
          14.0419,
          43.0258
        ]
      },
      "properties": {
        "icao24": "300224",
        "callsign": "VND006U",
        "origin_country": "Italy",
        "time_position": 1788393746,
        "last_contact": 1788393747,
        "baro_altitude": 12192,
        "on_ground": false,
        "velocity": 209.63,
        "true_track": 313.21,
        "vertical_rate": -0.33,
        "geo_altitude": 12725.4,
        "squawk": "1000",
        "spi": false,
        "position_source": 0
      }
    },
    {
      "type": "Feature",
      "geometry": {
        "type": "Point",
        "coordinates": [
          14.5247,
          47.1714
        ]
      },
      "properties": {
        "icao24": "407183",
        "callsign": "EXS11MG",
        "origin_country": "United Kingdom",
        "time_position": 1788393747,
        "last_contact": 1788393747,
        "baro_altitude": 10972.8,
        "on_ground": false,
        "velocity": 196.87,
        "true_track": 316.59,
        "vertical_rate": 0,
        "geo_altitude": 11361.42,
        "squawk": "5404",
        "spi": false,
        "position_source": 0
      }
    }
  ]
}