{
  "type": "FeatureCollection",
  "source": "opensky",
  "dataset": "aircraft_italy",
  "generated_at": "2026-06-08T23:55:13.417269+00:00",
  "opensky_time": 1780962910,
  "count": 85,
  "features": [
    {
      "type": "Feature",
      "geometry": {
        "type": "Point",
        "coordinates": [
          17.1309,
          39.6113
        ]
      },
      "properties": {
        "icao24": "801665",
        "callsign": "AIC102",
        "origin_country": "India",
        "time_position": 1780962909,
        "last_contact": 1780962909,
        "baro_altitude": 11277.6,
        "on_ground": false,
        "velocity": 267.15,
        "true_track": 120.81,
        "vertical_rate": 0,
        "geo_altitude": 11704.32,
        "squawk": "5261",
        "spi": false,
        "position_source": 0
      }
    },
    {
      "type": "Feature",
      "geometry": {
        "type": "Point",
        "coordinates": [
          13.7977,
          39.4657
        ]
      },
      "properties": {
        "icao24": "44023f",
        "callsign": "EJU58QD",
        "origin_country": "Austria",
        "time_position": 1780962909,
        "last_contact": 1780962909,
        "baro_altitude": 11582.4,
        "on_ground": false,
        "velocity": 202.92,
        "true_track": 323.97,
        "vertical_rate": 0,
        "geo_altitude": 12108.18,
        "squawk": null,
        "spi": false,
        "position_source": 0
      }
    },
    {
      "type": "Feature",
      "geometry": {
        "type": "Point",
        "coordinates": [
          18.8369,
          40.0073
        ]
      },
      "properties": {
        "icao24": "46b833",
        "callsign": "AEE609",
        "origin_country": "Greece",
        "time_position": 1780962908,
        "last_contact": 1780962908,
        "baro_altitude": 11277.6,
        "on_ground": false,
        "velocity": 245.7,
        "true_track": 146.44,
        "vertical_rate": 0,
        "geo_altitude": 11696.7,
        "squawk": "0536",
        "spi": false,
        "position_source": 0
      }
    },
    {
      "type": "Feature",
      "geometry": {
        "type": "Point",
        "coordinates": [
          18.2777,
          47.7452
        ]
      },
      "properties": {
        "icao24": "a57090",
        "callsign": "N45JE",
        "origin_country": "United States",
        "time_position": 1780962909,
        "last_contact": 1780962909,
        "baro_altitude": 8366.76,
        "on_ground": false,
        "velocity": 244.14,
        "true_track": 115.59,
        "vertical_rate": 10.4,
        "geo_altitude": 8671.56,
        "squawk": "7104",
        "spi": false,
        "position_source": 0
      }
    },
    {
      "type": "Feature",
      "geometry": {
        "type": "Point",
        "coordinates": [
          14.8896,
          45.9387
        ]
      },
      "properties": {
        "icao24": "73806d",
        "callsign": "ELY314",
        "origin_country": "Israel",
        "time_position": 1780962909,
        "last_contact": 1780962909,
        "baro_altitude": 11277.6,
        "on_ground": false,
        "velocity": 245.77,
        "true_track": 129.05,
        "vertical_rate": 0.33,
        "geo_altitude": 11666.22,
        "squawk": "1146",
        "spi": false,
        "position_source": 0
      }
    },
    {
      "type": "Feature",
      "geometry": {
        "type": "Point",
        "coordinates": [
          14.7119,
          43.7711
        ]
      },
      "properties": {
        "icao24": "73806a",
        "callsign": "ELY388",
        "origin_country": "Israel",
        "time_position": 1780962909,
        "last_contact": 1780962909,
        "baro_altitude": 10058.4,
        "on_ground": false,
        "velocity": 256.92,
        "true_track": 120.57,
        "vertical_rate": 0,
        "geo_altitude": 10485.12,
        "squawk": "6756",
        "spi": false,
        "position_source": 0
      }
    },
    {
      "type": "Feature",
      "geometry": {
        "type": "Point",
        "coordinates": [
          10.6616,
          40.1244
        ]
      },
      "properties": {
        "icao24": "738058",
        "callsign": "ELY376",
        "origin_country": "Israel",
        "time_position": 1780962908,
        "last_contact": 1780962908,
        "baro_altitude": 10668,
        "on_ground": false,
        "velocity": 251.72,
        "true_track": 101.2,
        "vertical_rate": 0,
        "geo_altitude": 11178.54,
        "squawk": "5256",
        "spi": false,
        "position_source": 0
      }
    },
    {
      "type": "Feature",
      "geometry": {
        "type": "Point",
        "coordinates": [
          14.3272,
          44.7347
        ]
      },
      "properties": {
        "icao24": "738055",
        "callsign": "ELY326",
        "origin_country": "Israel",
        "time_position": 1780962909,
        "last_contact": 1780962909,
        "baro_altitude": 10058.4,
        "on_ground": false,
        "velocity": 253.04,
        "true_track": 121.36,
        "vertical_rate": -0.33,
        "geo_altitude": 10462.26,
        "squawk": "0662",
        "spi": false,
        "position_source": 0
      }
    },
    {
      "type": "Feature",
      "geometry": {
        "type": "Point",
        "coordinates": [
          17.9379,
          46.9587
        ]
      },
      "properties": {
        "icao24": "471d5a",
        "callsign": "WZZ1JS",
        "origin_country": "Hungary",
        "time_position": 1780962909,
        "last_contact": 1780962909,
        "baro_altitude": 7399.02,
        "on_ground": false,
        "velocity": 219.15,
        "true_track": 74.76,
        "vertical_rate": -10.08,
        "geo_altitude": 7711.44,
        "squawk": "1000",
        "spi": false,
        "position_source": 0
      }
    },
    {
      "type": "Feature",
      "geometry": {
        "type": "Point",
        "coordinates": [
          7.7078,
          46.6319
        ]
      },
      "properties": {
        "icao24": "452119",
        "callsign": "AMQ169",
        "origin_country": "Bulgaria",
        "time_position": 1780962909,
        "last_contact": 1780962909,
        "baro_altitude": 10972.8,
        "on_ground": false,
        "velocity": 247.63,
        "true_track": 57.73,
        "vertical_rate": 0,
        "geo_altitude": 11315.7,
        "squawk": "1000",
        "spi": false,
        "position_source": 0
      }
    },
    {
      "type": "Feature",
      "geometry": {
        "type": "Point",
        "coordinates": [
          16.1154,
          46.6132
        ]
      },
      "properties": {
        "icao24": "300a5c",
        "callsign": "LSI125",
        "origin_country": "Italy",
        "time_position": 1780962909,
        "last_contact": 1780962909,
        "baro_altitude": 11887.2,
        "on_ground": false,
        "velocity": 259.31,
        "true_track": 71.49,
        "vertical_rate": 0,
        "geo_altitude": 12275.82,
        "squawk": "6011",
        "spi": false,
        "position_source": 0
      }
    },
    {
      "type": "Feature",
      "geometry": {
        "type": "Point",
        "coordinates": [
          8.7295,
          45.6062
        ]
      },
      "properties": {
        "icao24": "300a44",
        "callsign": "LSI220",
        "origin_country": "Italy",
        "time_position": 1780962747,
        "last_contact": 1780962747,
        "baro_altitude": 251.46,
        "on_ground": false,
        "velocity": 79.61,
        "true_track": 349.2,
        "vertical_rate": -3.9,
        "geo_altitude": 342.9,
        "squawk": "4131",
        "spi": false,
        "position_source": 0
      }
    },
    {
      "type": "Feature",
      "geometry": {
        "type": "Point",
        "coordinates": [
          6.1384,
          45.2631
        ]
      },
      "properties": {
        "icao24": "7380c3",
        "callsign": "ELY028",
        "origin_country": "Israel",
        "time_position": 1780962909,
        "last_contact": 1780962909,
        "baro_altitude": 11269.98,
        "on_ground": false,
        "velocity": 268.26,
        "true_track": 111.25,
        "vertical_rate": -0.65,
        "geo_altitude": 11658.6,
        "squawk": "2360",
        "spi": false,
        "position_source": 0
      }
    },
    {
      "type": "Feature",
      "geometry": {
        "type": "Point",
        "coordinates": [
          18.5569,
          46.1483
        ]
      },
      "properties": {
        "icao24": "506ca5",
        "callsign": "RMB3",
        "origin_country": "Slovenia",
        "time_position": 1780962909,
        "last_contact": 1780962909,
        "baro_altitude": 12496.8,
        "on_ground": false,
        "velocity": 243.65,
        "true_track": 129.77,
        "vertical_rate": 0,
        "geo_altitude": 12854.94,
        "squawk": "6016",
        "spi": false,
        "position_source": 0
      }
    },
    {
      "type": "Feature",
      "geometry": {
        "type": "Point",
        "coordinates": [
          11.4891,
          40.1985
        ]
      },
      "properties": {
        "icao24": "020145",
        "callsign": "MAC438",
        "origin_country": "Morocco",
        "time_position": 1780962909,
        "last_contact": 1780962909,
        "baro_altitude": 10972.8,
        "on_ground": false,
        "velocity": 223.19,
        "true_track": 260.58,
        "vertical_rate": 0,
        "geo_altitude": 11513.82,
        "squawk": "6135",
        "spi": false,
        "position_source": 0
      }
    },
    {
      "type": "Feature",
      "geometry": {
        "type": "Point",
        "coordinates": [
          18.2465,
          47.5023
        ]
      },
      "properties": {
        "icao24": "780a61",
        "callsign": "CPA254",
        "origin_country": "China",
        "time_position": 1780962909,
        "last_contact": 1780962909,
        "baro_altitude": 10058.4,
        "on_ground": false,
        "velocity": 257.72,
        "true_track": 113.9,
        "vertical_rate": 0,
        "geo_altitude": 10408.92,
        "squawk": "5267",
        "spi": false,
        "position_source": 0
      }
    },
    {
      "type": "Feature",
      "geometry": {
        "type": "Point",
        "coordinates": [
          6.1137,
          46.0694
        ]
      },
      "properties": {
        "icao24": "0200ae",
        "callsign": "RAM220M",
        "origin_country": "Morocco",
        "time_position": 1780962910,
        "last_contact": 1780962910,
        "baro_altitude": 10972.8,
        "on_ground": false,
        "velocity": 245.23,
        "true_track": 43.81,
        "vertical_rate": 0.33,
        "geo_altitude": 11315.7,
        "squawk": "2324",
        "spi": false,
        "position_source": 0
      }
    },
    {
      "type": "Feature",
      "geometry": {
        "type": "Point",
        "coordinates": [
          8.6712,
          44.1918
        ]
      },
      "properties": {
        "icao24": "3465c9",
        "callsign": "VOE781",
        "origin_country": "Spain",
        "time_position": 1780962909,
        "last_contact": 1780962909,
        "baro_altitude": 9563.1,
        "on_ground": false,
        "velocity": 256.08,
        "true_track": 60.91,
        "vertical_rate": -4.88,
        "geo_altitude": 9974.58,
        "squawk": "3335",
        "spi": false,
        "position_source": 0
      }
    },
    {
      "type": "Feature",
      "geometry": {
        "type": "Point",
        "coordinates": [
          17.5568,
          42.6204
        ]
      },
      "properties": {
        "icao24": "4067f0",
        "callsign": "TOM285",
        "origin_country": "United Kingdom",
        "time_position": 1780962908,
        "last_contact": 1780962909,
        "baro_altitude": 10972.8,
        "on_ground": false,
        "velocity": 212.04,
        "true_track": 310.38,
        "vertical_rate": 0,
        "geo_altitude": 11384.28,
        "squawk": "6636",
        "spi": false,
        "position_source": 0
      }
    },
    {
      "type": "Feature",
      "geometry": {
        "type": "Point",
        "coordinates": [
          14.3967,
          46.2934
        ]
      },
      "properties": {
        "icao24": "4bb18a",
        "callsign": "THY189",
        "origin_country": "Turkey",
        "time_position": 1780962909,
        "last_contact": 1780962910,
        "baro_altitude": 11879.58,
        "on_ground": false,
        "velocity": 265.97,
        "true_track": 115.92,
        "vertical_rate": 0,
        "geo_altitude": 12283.44,
        "squawk": "1175",
        "spi": false,
        "position_source": 0
      }
    },
    {
      "type": "Feature",
      "geometry": {
        "type": "Point",
        "coordinates": [
          18.6575,
          35.1321
        ]
      },
      "properties": {
        "icao24": "8a0795",
        "callsign": "KNE9121",
        "origin_country": "Indonesia",
        "time_position": 1780962873,
        "last_contact": 1780962873,
        "baro_altitude": 11887.2,
        "on_ground": false,
        "velocity": 262.13,
        "true_track": 96.76,
        "vertical_rate": 0,
        "geo_altitude": 12382.5,
        "squawk": "4107",
        "spi": false,
        "position_source": 0
      }
    },
    {
      "type": "Feature",
      "geometry": {
        "type": "Point",
        "coordinates": [
          15.7271,
          45.3567
        ]
      },
      "properties": {
        "icao24": "4077bb",
        "callsign": "EXS94VU",
        "origin_country": "United Kingdom",
        "time_position": 1780962909,
        "last_contact": 1780962909,
        "baro_altitude": 11582.4,
        "on_ground": false,
        "velocity": 208.48,
        "true_track": 305.97,
        "vertical_rate": 0,
        "geo_altitude": 12001.5,
        "squawk": "3273",
        "spi": false,
        "position_source": 0
      }
    },
    {
      "type": "Feature",
      "geometry": {
        "type": "Point",
        "coordinates": [
          14.8813,
          45.899
        ]
      },
      "properties": {
        "icao24": "40665f",
        "callsign": "TOM3TH",
        "origin_country": "United Kingdom",
        "time_position": 1780962909,
        "last_contact": 1780962909,
        "baro_altitude": 10972.8,
        "on_ground": false,
        "velocity": 217.08,
        "true_track": 317.88,
        "vertical_rate": 0,
        "geo_altitude": 11369.04,
        "squawk": "2640",
        "spi": false,
        "position_source": 0
      }
    },
    {
      "type": "Feature",
      "geometry": {
        "type": "Point",
        "coordinates": [
          7.9558,
          47.7399
        ]
      },
      "properties": {
        "icao24": "40665e",
        "callsign": "TOM477",
        "origin_country": "United Kingdom",
        "time_position": 1780962909,
        "last_contact": 1780962909,
        "baro_altitude": 11582.4,
        "on_ground": false,
        "velocity": 212.03,
        "true_track": 303.42,
        "vertical_rate": -0.33,
        "geo_altitude": 11879.58,
        "squawk": "7526",
        "spi": false,
        "position_source": 0
      }
    },
    {
      "type": "Feature",
      "geometry": {
        "type": "Point",
        "coordinates": [
          18.6201,
          42.6271
        ]
      },
      "properties": {
        "icao24": "407914",
        "callsign": "EXS47MA",
        "origin_country": "United Kingdom",
        "time_position": 1780961334,
        "last_contact": 1780962908,
        "baro_altitude": 10972.8,
        "on_ground": false,
        "velocity": 221.59,
        "true_track": 320.84,
        "vertical_rate": 0,
        "geo_altitude": 10012.68,
        "squawk": "3227",
        "spi": false,
        "position_source": 0
      }
    },
    {
      "type": "Feature",
      "geometry": {
        "type": "Point",
        "coordinates": [
          16.0551,
          46.4989
        ]
      },
      "properties": {
        "icao24": "49d3d3",
        "callsign": "TVS22H",
        "origin_country": "Czech Republic",
        "time_position": 1780962909,
        "last_contact": 1780962909,
        "baro_altitude": 10668,
        "on_ground": false,
        "velocity": 245.52,
        "true_track": 152.41,
        "vertical_rate": 0,
        "geo_altitude": 11049,
        "squawk": "5601",
        "spi": false,
        "position_source": 0
      }
    },
    {
      "type": "Feature",
      "geometry": {
        "type": "Point",
        "coordinates": [
          15.189,
          39.4475
        ]
      },
      "properties": {
        "icao24": "040047",
        "callsign": "ETH519",
        "origin_country": "Ethiopia",
        "time_position": 1780962909,
        "last_contact": 1780962909,
        "baro_altitude": 11887.2,
        "on_ground": false,
        "velocity": 264.09,
        "true_track": 128.28,
        "vertical_rate": -0.33,
        "geo_altitude": 12374.88,
        "squawk": "4316",
        "spi": false,
        "position_source": 0
      }
    },
    {
      "type": "Feature",
      "geometry": {
        "type": "Point",
        "coordinates": [
          13.6105,
          41.0002
        ]
      },
      "properties": {
        "icao24": "04004a",
        "callsign": "ETH575",
        "origin_country": "Ethiopia",
        "time_position": 1780962909,
        "last_contact": 1780962909,
        "baro_altitude": 11887.2,
        "on_ground": false,
        "velocity": 264.38,
        "true_track": 119.11,
        "vertical_rate": 0,
        "geo_altitude": 12390.12,
        "squawk": "4312",
        "spi": false,
        "position_source": 0
      }
    },
    {
      "type": "Feature",
      "geometry": {
        "type": "Point",
        "coordinates": [
          8.8291,
          47.6456
        ]
      },
      "properties": {
        "icao24": "4ba949",
        "callsign": "THY4",
        "origin_country": "Turkey",
        "time_position": 1780962909,
        "last_contact": 1780962909,
        "baro_altitude": 10668,
        "on_ground": false,
        "velocity": 266.39,
        "true_track": 104.2,
        "vertical_rate": 0,
        "geo_altitude": 10988.04,
        "squawk": "2212",
        "spi": false,
        "position_source": 0
      }
    },
    {
      "type": "Feature",
      "geometry": {
        "type": "Point",
        "coordinates": [
          16.671,
          46.9363
        ]
      },
      "properties": {
        "icao24": "49d369",
        "callsign": "TVS7KQ",
        "origin_country": "Czech Republic",
        "time_position": 1780962908,
        "last_contact": 1780962909,
        "baro_altitude": 10058.4,
        "on_ground": false,
        "velocity": 236.94,
        "true_track": 155.77,
        "vertical_rate": 0,
        "geo_altitude": 10424.16,
        "squawk": "6006",
        "spi": false,
        "position_source": 0
      }
    },
    {
      "type": "Feature",
      "geometry": {
        "type": "Point",
        "coordinates": [
          12.1906,
          46.3598
        ]
      },
      "properties": {
        "icao24": "48e9f4",
        "callsign": "RYS6JZ",
        "origin_country": "Poland",
        "time_position": 1780962909,
        "last_contact": 1780962909,
        "baro_altitude": 10972.8,
        "on_ground": false,
        "velocity": 252.52,
        "true_track": 38.71,
        "vertical_rate": 0,
        "geo_altitude": 11361.42,
        "squawk": "5306",
        "spi": false,
        "position_source": 0
      }
    },
    {
      "type": "Feature",
      "geometry": {
        "type": "Point",
        "coordinates": [
          8.7475,
          45.5411
        ]
      },
      "properties": {
        "icao24": "407fd2",
        "callsign": "DHK524",
        "origin_country": "United Kingdom",
        "time_position": 1780962909,
        "last_contact": 1780962909,
        "baro_altitude": 632.46,
        "on_ground": false,
        "velocity": 77.49,
        "true_track": 349.29,
        "vertical_rate": -4.23,
        "geo_altitude": 716.28,
        "squawk": "0510",
        "spi": false,
        "position_source": 0
      }
    },
    {
      "type": "Feature",
      "geometry": {
        "type": "Point",
        "coordinates": [
          16.4505,
          44.6414
        ]
      },
      "properties": {
        "icao24": "407e46",
        "callsign": "EXS2VM",
        "origin_country": "United Kingdom",
        "time_position": 1780962909,
        "last_contact": 1780962909,
        "baro_altitude": 10965.18,
        "on_ground": false,
        "velocity": 211.54,
        "true_track": 319.14,
        "vertical_rate": 0,
        "geo_altitude": 11369.04,
        "squawk": "2005",
        "spi": false,
        "position_source": 0
      }
    },
    {
      "type": "Feature",
      "geometry": {
        "type": "Point",
        "coordinates": [
          18.8652,
          42.3917
        ]
      },
      "properties": {
        "icao24": "3949ee",
        "callsign": "AFR672",
        "origin_country": "France",
        "time_position": 1780962909,
        "last_contact": 1780962909,
        "baro_altitude": 10058.4,
        "on_ground": false,
        "velocity": 267.23,
        "true_track": 139.84,
        "vertical_rate": 0,
        "geo_altitude": 10454.64,
        "squawk": "0661",
        "spi": false,
        "position_source": 0
      }
    },
    {
      "type": "Feature",
      "geometry": {
        "type": "Point",
        "coordinates": [
          8.2262,
          47.3467
        ]
      },
      "properties": {
        "icao24": "407f7a",
        "callsign": "EZY87AK",
        "origin_country": "United Kingdom",
        "time_position": 1780962909,
        "last_contact": 1780962909,
        "baro_altitude": 11582.4,
        "on_ground": false,
        "velocity": 214.9,
        "true_track": 304.57,
        "vertical_rate": -0.33,
        "geo_altitude": 11917.68,
        "squawk": "2763",
        "spi": false,
        "position_source": 0
      }
    },
    {
      "type": "Feature",
      "geometry": {
        "type": "Point",
        "coordinates": [
          7.0055,
          43.9098
        ]
      },
      "properties": {
        "icao24": "48c2a2",
        "callsign": "RYR170",
        "origin_country": "Poland",
        "time_position": 1780962909,
        "last_contact": 1780962909,
        "baro_altitude": 12496.8,
        "on_ground": false,
        "velocity": 203.33,
        "true_track": 235.83,
        "vertical_rate": 0,
        "geo_altitude": 12938.76,
        "squawk": "1000",
        "spi": false,
        "position_source": 0
      }
    },
    {
      "type": "Feature",
      "geometry": {
        "type": "Point",
        "coordinates": [
          7.856,
          40.6342
        ]
      },
      "properties": {
        "icao24": "4bb861",
        "callsign": "PGT1562",
        "origin_country": "Turkey",
        "time_position": 1780962908,
        "last_contact": 1780962909,
        "baro_altitude": 10972.8,
        "on_ground": false,
        "velocity": 248.38,
        "true_track": 86.68,
        "vertical_rate": 0,
        "geo_altitude": 11506.2,
        "squawk": "5264",
        "spi": false,
        "position_source": 0
      }
    },
    {
      "type": "Feature",
      "geometry": {
        "type": "Point",
        "coordinates": [
          8.7709,
          45.7544
        ]
      },
      "properties": {
        "icao24": "4402ae",
        "callsign": "EJU96FZ",
        "origin_country": "Austria",
        "time_position": 1780962909,
        "last_contact": 1780962910,
        "baro_altitude": 3634.74,
        "on_ground": false,
        "velocity": 178.86,
        "true_track": 149.97,
        "vertical_rate": -12.68,
        "geo_altitude": 3855.72,
        "squawk": "2232",
        "spi": false,
        "position_source": 0
      }
    },
    {
      "type": "Feature",
      "geometry": {
        "type": "Point",
        "coordinates": [
          15.1435,
          45.088
        ]
      },
      "properties": {
        "icao24": "407d5c",
        "callsign": "WUK7402",
        "origin_country": "United Kingdom",
        "time_position": 1780962909,
        "last_contact": 1780962909,
        "baro_altitude": 11277.6,
        "on_ground": false,
        "velocity": 250.44,
        "true_track": 140.75,
        "vertical_rate": 0,
        "geo_altitude": 11711.94,
        "squawk": "0516",
        "spi": false,
        "position_source": 0
      }
    },
    {
      "type": "Feature",
      "geometry": {
        "type": "Point",
        "coordinates": [
          8.5631,
          47.4421
        ]
      },
      "properties": {
        "icao24": "4b1804",
        "callsign": "SWR",
        "origin_country": "Switzerland",
        "time_position": 1780962900,
        "last_contact": 1780962907,
        "baro_altitude": null,
        "on_ground": true,
        "velocity": 0,
        "true_track": 64.69,
        "vertical_rate": null,
        "geo_altitude": null,
        "squawk": "2000",
        "spi": false,
        "position_source": 0
      }
    },
    {
      "type": "Feature",
      "geometry": {
        "type": "Point",
        "coordinates": [
          8.572,
          47.4395
        ]
      },
      "properties": {
        "icao24": "4b1805",
        "callsign": "SWR",
        "origin_country": "Switzerland",
        "time_position": 1780962908,
        "last_contact": 1780962909,
        "baro_altitude": null,
        "on_ground": true,
        "velocity": 0.06,
        "true_track": 149.06,
        "vertical_rate": null,
        "geo_altitude": null,
        "squawk": "2000",
        "spi": false,
        "position_source": 0
      }
    },
    {
      "type": "Feature",
      "geometry": {
        "type": "Point",
        "coordinates": [
          8.5609,
          47.4424
        ]
      },
      "properties": {
        "icao24": "4b1808",
        "callsign": "SWR",
        "origin_country": "Switzerland",
        "time_position": 1780962888,
        "last_contact": 1780962906,
        "baro_altitude": null,
        "on_ground": true,
        "velocity": 0,
        "true_track": 244.69,
        "vertical_rate": null,
        "geo_altitude": null,
        "squawk": "2000",
        "spi": false,
        "position_source": 0
      }
    },
    {
      "type": "Feature",
      "geometry": {
        "type": "Point",
        "coordinates": [
          9.229,
          47.2267
        ]
      },
      "properties": {
        "icao24": "40804d",
        "callsign": "WUK8YM",
        "origin_country": "United Kingdom",
        "time_position": 1780962909,
        "last_contact": 1780962909,
        "baro_altitude": 10972.8,
        "on_ground": false,
        "velocity": 215.51,
        "true_track": 302.32,
        "vertical_rate": 0,
        "geo_altitude": 11300.46,
        "squawk": "1165",
        "spi": false,
        "position_source": 0
      }
    },
    {
      "type": "Feature",
      "geometry": {
        "type": "Point",
        "coordinates": [
          13.0668,
          36.9907
        ]
      },
      "properties": {
        "icao24": "02a1a9",
        "callsign": "LBT691",
        "origin_country": "Tunisia",
        "time_position": 1780962909,
        "last_contact": 1780962909,
        "baro_altitude": 11361.42,
        "on_ground": false,
        "velocity": 229.59,
        "true_track": 254,
        "vertical_rate": -4.55,
        "geo_altitude": 11902.44,
        "squawk": "2341",
        "spi": false,
        "position_source": 0
      }
    },
    {
      "type": "Feature",
      "geometry": {
        "type": "Point",
        "coordinates": [
          12.8896,
          47.1477
        ]
      },
      "properties": {
        "icao24": "408210",
        "callsign": "EXS37G",
        "origin_country": "United Kingdom",
        "time_position": 1780962909,
        "last_contact": 1780962909,
        "baro_altitude": 10980.42,
        "on_ground": false,
        "velocity": 215.77,
        "true_track": 307.44,
        "vertical_rate": 0.33,
        "geo_altitude": 11353.8,
        "squawk": "5525",
        "spi": false,
        "position_source": 0
      }
    },
    {
      "type": "Feature",
      "geometry": {
        "type": "Point",
        "coordinates": [
          8.557,
          47.4538
        ]
      },
      "properties": {
        "icao24": "4b5d9c",
        "callsign": "TE782",
        "origin_country": "Switzerland",
        "time_position": 1780954910,
        "last_contact": 1780962906,
        "baro_altitude": null,
        "on_ground": true,
        "velocity": 3.6,
        "true_track": 14.06,
        "vertical_rate": null,
        "geo_altitude": null,
        "squawk": null,
        "spi": false,
        "position_source": 0
      }
    },
    {
      "type": "Feature",
      "geometry": {
        "type": "Point",
        "coordinates": [
          11.9768,
          45.9287
        ]
      },
      "properties": {
        "icao24": "408032",
        "callsign": "EXS47K",
        "origin_country": "United Kingdom",
        "time_position": 1780962909,
        "last_contact": 1780962909,
        "baro_altitude": 11582.4,
        "on_ground": false,
        "velocity": 210.54,
        "true_track": 302.02,
        "vertical_rate": 0,
        "geo_altitude": 11986.26,
        "squawk": "1171",
        "spi": false,
        "position_source": 0
      }
    },
    {
      "type": "Feature",
      "geometry": {
        "type": "Point",
        "coordinates": [
          17.4596,
          35.7104
        ]
      },
      "properties": {
        "icao24": "02a043",
        "callsign": "XRC1028",
        "origin_country": "Tunisia",
        "time_position": 1780962909,
        "last_contact": 1780962909,
        "baro_altitude": 10972.8,
        "on_ground": false,
        "velocity": 214.51,
        "true_track": 281.9,
        "vertical_rate": 0,
        "geo_altitude": 11452.86,
        "squawk": null,
        "spi": false,
        "position_source": 0
      }
    },
    {
      "type": "Feature",
      "geometry": {
        "type": "Point",
        "coordinates": [
          7.2034,
          43.6545
        ]
      },
      "properties": {
        "icao24": "42474c",
        "callsign": "TBJ97",
        "origin_country": "United Kingdom",
        "time_position": 1780962903,
        "last_contact": 1780962908,
        "baro_altitude": null,
        "on_ground": true,
        "velocity": 0,
        "true_track": 135,
        "vertical_rate": null,
        "geo_altitude": null,
        "squawk": "6307",
        "spi": false,
        "position_source": 0
      }
    },
    {
      "type": "Feature",
      "geometry": {
        "type": "Point",
        "coordinates": [
          11.0617,
          37.0952
        ]
      },
      "properties": {
        "icao24": "4baa4f",
        "callsign": "THY5LY",
        "origin_country": "Turkey",
        "time_position": 1780962908,
        "last_contact": 1780962909,
        "baro_altitude": 10066.02,
        "on_ground": false,
        "velocity": 233.23,
        "true_track": 75.04,
        "vertical_rate": 0,
        "geo_altitude": 10584.18,
        "squawk": "4205",
        "spi": false,
        "position_source": 0
      }
    },
    {
      "type": "Feature",
      "geometry": {
        "type": "Point",
        "coordinates": [
          11.6676,
          44.2351
        ]
      },
      "properties": {
        "icao24": "4ca84e",
        "callsign": "RYR2EH",
        "origin_country": "Ireland",
        "time_position": 1780962909,
        "last_contact": 1780962909,
        "baro_altitude": 4495.8,
        "on_ground": false,
        "velocity": 175.05,
        "true_track": 301.54,
        "vertical_rate": -10.08,
        "geo_altitude": 4732.02,
        "squawk": "1000",
        "spi": false,
        "position_source": 0
      }
    },
    {
      "type": "Feature",
      "geometry": {
        "type": "Point",
        "coordinates": [
          10.4014,
          36.0336
        ]
      },
      "properties": {
        "icao24": "02a194",
        "callsign": "TAR681",
        "origin_country": "Tunisia",
        "time_position": 1780962875,
        "last_contact": 1780962875,
        "baro_altitude": 2308.86,
        "on_ground": false,
        "velocity": 145.92,
        "true_track": 167.58,
        "vertical_rate": -9.75,
        "geo_altitude": 2552.7,
        "squawk": "4301",
        "spi": false,
        "position_source": 0
      }
    },
    {
      "type": "Feature",
      "geometry": {
        "type": "Point",
        "coordinates": [
          9.0043,
          39.2952
        ]
      },
      "properties": {
        "icao24": "4ca82b",
        "callsign": "MSA83E",
        "origin_country": "Ireland",
        "time_position": 1780962904,
        "last_contact": 1780962904,
        "baro_altitude": 251.46,
        "on_ground": false,
        "velocity": 75.5,
        "true_track": 139.14,
        "vertical_rate": -4.88,
        "geo_altitude": 350.52,
        "squawk": null,
        "spi": false,
        "position_source": 0
      }
    },
    {
      "type": "Feature",
      "geometry": {
        "type": "Point",
        "coordinates": [
          13.6082,
          39.5387
        ]
      },
      "properties": {
        "icao24": "4ca82c",
        "callsign": "MSA92C",
        "origin_country": "Ireland",
        "time_position": 1780962908,
        "last_contact": 1780962909,
        "baro_altitude": 10668,
        "on_ground": false,
        "velocity": 243.59,
        "true_track": 160.38,
        "vertical_rate": 0,
        "geo_altitude": 11155.68,
        "squawk": "1000",
        "spi": false,
        "position_source": 0
      }
    },
    {
      "type": "Feature",
      "geometry": {
        "type": "Point",
        "coordinates": [
          18.2625,
          42.561
        ]
      },
      "properties": {
        "icao24": "501c4b",
        "callsign": "CTN664",
        "origin_country": "Croatia",
        "time_position": 1780962806,
        "last_contact": 1780962815,
        "baro_altitude": null,
        "on_ground": true,
        "velocity": 0,
        "true_track": 208.12,
        "vertical_rate": null,
        "geo_altitude": null,
        "squawk": null,
        "spi": false,
        "position_source": 0
      }
    },
    {
      "type": "Feature",
      "geometry": {
        "type": "Point",
        "coordinates": [
          14.8646,
          46.8311
        ]
      },
      "properties": {
        "icao24": "4bcdb5",
        "callsign": "SXS2NB",
        "origin_country": "Turkey",
        "time_position": 1780962909,
        "last_contact": 1780962909,
        "baro_altitude": 11277.6,
        "on_ground": false,
        "velocity": 250.15,
        "true_track": 131,
        "vertical_rate": -0.33,
        "geo_altitude": 11666.22,
        "squawk": "7711",
        "spi": false,
        "position_source": 0
      }
    },
    {
      "type": "Feature",
      "geometry": {
        "type": "Point",
        "coordinates": [
          6.0824,
          44.291
        ]
      },
      "properties": {
        "icao24": "4ca61d",
        "callsign": "RYR65PA",
        "origin_country": "Ireland",
        "time_position": 1780962909,
        "last_contact": 1780962909,
        "baro_altitude": 10972.8,
        "on_ground": false,
        "velocity": 232.71,
        "true_track": 2.28,
        "vertical_rate": 0,
        "geo_altitude": 11369.04,
        "squawk": "1063",
        "spi": false,
        "position_source": 0
      }
    },
    {
      "type": "Feature",
      "geometry": {
        "type": "Point",
        "coordinates": [
          10.5828,
          43.2337
        ]
      },
      "properties": {
        "icao24": "4ca64e",
        "callsign": "RYR7DE",
        "origin_country": "Ireland",
        "time_position": 1780962909,
        "last_contact": 1780962909,
        "baro_altitude": 8983.98,
        "on_ground": false,
        "velocity": 209.72,
        "true_track": 20.84,
        "vertical_rate": -7.8,
        "geo_altitude": 9395.46,
        "squawk": "5457",
        "spi": false,
        "position_source": 0
      }
    },
    {
      "type": "Feature",
      "geometry": {
        "type": "Point",
        "coordinates": [
          12.4352,
          46.1278
        ]
      },
      "properties": {
        "icao24": "4074b5",
        "callsign": "EZY97FN",
        "origin_country": "United Kingdom",
        "time_position": 1780962909,
        "last_contact": 1780962909,
        "baro_altitude": 10972.8,
        "on_ground": false,
        "velocity": 222.64,
        "true_track": 314.44,
        "vertical_rate": 0,
        "geo_altitude": 11361.42,
        "squawk": "7737",
        "spi": false,
        "position_source": 0
      }
    },
    {
      "type": "Feature",
      "geometry": {
        "type": "Point",
        "coordinates": [
          7.0164,
          36.9634
        ]
      },
      "properties": {
        "icao24": "010275",
        "callsign": "RSX6082",
        "origin_country": "Egypt",
        "time_position": 1780962907,
        "last_contact": 1780962909,
        "baro_altitude": 11277.6,
        "on_ground": false,
        "velocity": 242.03,
        "true_track": 116.78,
        "vertical_rate": 0,
        "geo_altitude": 11856.72,
        "squawk": "2207",
        "spi": false,
        "position_source": 0
      }
    },
    {
      "type": "Feature",
      "geometry": {
        "type": "Point",
        "coordinates": [
          14.0508,
          45.881
        ]
      },
      "properties": {
        "icao24": "4d24d6",
        "callsign": "WZZ410",
        "origin_country": "",
        "time_position": 1780962909,
        "last_contact": 1780962909,
        "baro_altitude": 11445.24,
        "on_ground": false,
        "velocity": 210.75,
        "true_track": 264.82,
        "vertical_rate": -4.88,
        "geo_altitude": 11871.96,
        "squawk": "1000",
        "spi": false,
        "position_source": 0
      }
    },
    {
      "type": "Feature",
      "geometry": {
        "type": "Point",
        "coordinates": [
          18.9456,
          43.1847
        ]
      },
      "properties": {
        "icao24": "407739",
        "callsign": "TOM38A",
        "origin_country": "United Kingdom",
        "time_position": 1780962908,
        "last_contact": 1780962909,
        "baro_altitude": 11582.4,
        "on_ground": false,
        "velocity": 210.31,
        "true_track": 322.65,
        "vertical_rate": 0,
        "geo_altitude": 11986.26,
        "squawk": "3232",
        "spi": false,
        "position_source": 0
      }
    },
    {
      "type": "Feature",
      "geometry": {
        "type": "Point",
        "coordinates": [
          10.4606,
          41.2289
        ]
      },
      "properties": {
        "icao24": "4d2527",
        "callsign": "WMT4RQ",
        "origin_country": "",
        "time_position": 1780962909,
        "last_contact": 1780962909,
        "baro_altitude": 10980.42,
        "on_ground": false,
        "velocity": 251.14,
        "true_track": 74.31,
        "vertical_rate": 0,
        "geo_altitude": 11506.2,
        "squawk": "1414",
        "spi": false,
        "position_source": 0
      }
    },
    {
      "type": "Feature",
      "geometry": {
        "type": "Point",
        "coordinates": [
          14.4814,
          35.8597
        ]
      },
      "properties": {
        "icao24": "4d23c8",
        "callsign": "VJT678",
        "origin_country": "Malta",
        "time_position": 1780962909,
        "last_contact": 1780962909,
        "baro_altitude": 45.72,
        "on_ground": false,
        "velocity": 9.2,
        "true_track": 333.43,
        "vertical_rate": 0,
        "geo_altitude": 114.3,
        "squawk": "4314",
        "spi": false,
        "position_source": 0
      }
    },
    {
      "type": "Feature",
      "geometry": {
        "type": "Point",
        "coordinates": [
          8.9561,
          43.7205
        ]
      },
      "properties": {
        "icao24": "4cadf0",
        "callsign": "RYR18XM",
        "origin_country": "Ireland",
        "time_position": 1780962909,
        "last_contact": 1780962909,
        "baro_altitude": 11277.6,
        "on_ground": false,
        "velocity": 217.47,
        "true_track": 214.59,
        "vertical_rate": 0,
        "geo_altitude": 11727.18,
        "squawk": "1000",
        "spi": false,
        "position_source": 0
      }
    },
    {
      "type": "Feature",
      "geometry": {
        "type": "Point",
        "coordinates": [
          14.3586,
          42.7015
        ]
      },
      "properties": {
        "icao24": "424c98",
        "callsign": "MABTE",
        "origin_country": "United Kingdom",
        "time_position": 1780962909,
        "last_contact": 1780962909,
        "baro_altitude": 13106.4,
        "on_ground": false,
        "velocity": 215.42,
        "true_track": 299.63,
        "vertical_rate": 0,
        "geo_altitude": 13548.36,
        "squawk": "5521",
        "spi": false,
        "position_source": 0
      }
    },
    {
      "type": "Feature",
      "geometry": {
        "type": "Point",
        "coordinates": [
          12.6184,
          43.8865
        ]
      },
      "properties": {
        "icao24": "4cae53",
        "callsign": "RYR90RC",
        "origin_country": "Ireland",
        "time_position": 1780962909,
        "last_contact": 1780962909,
        "baro_altitude": 12192,
        "on_ground": false,
        "velocity": 208.92,
        "true_track": 304.67,
        "vertical_rate": 0.33,
        "geo_altitude": 12649.2,
        "squawk": "4416",
        "spi": false,
        "position_source": 0
      }
    },
    {
      "type": "Feature",
      "geometry": {
        "type": "Point",
        "coordinates": [
          17.2448,
          38.9268
        ]
      },
      "properties": {
        "icao24": "4d22ac",
        "callsign": "BBG251",
        "origin_country": "Malta",
        "time_position": 1780962909,
        "last_contact": 1780962909,
        "baro_altitude": 10668,
        "on_ground": false,
        "velocity": 240.82,
        "true_track": 106,
        "vertical_rate": 0,
        "geo_altitude": 11109.96,
        "squawk": null,
        "spi": false,
        "position_source": 0
      }
    },
    {
      "type": "Feature",
      "geometry": {
        "type": "Point",
        "coordinates": [
          10.1015,
          44.7087
        ]
      },
      "properties": {
        "icao24": "4d22ff",
        "callsign": "RYR5DN",
        "origin_country": "Malta",
        "time_position": 1780962909,
        "last_contact": 1780962909,
        "baro_altitude": 5989.32,
        "on_ground": false,
        "velocity": 193.79,
        "true_track": 353.14,
        "vertical_rate": -10.08,
        "geo_altitude": 6286.5,
        "squawk": "5152",
        "spi": true,
        "position_source": 0
      }
    },
    {
      "type": "Feature",
      "geometry": {
        "type": "Point",
        "coordinates": [
          18.2907,
          44.2706
        ]
      },
      "properties": {
        "icao24": "407267",
        "callsign": "EXS5TV",
        "origin_country": "United Kingdom",
        "time_position": 1780962908,
        "last_contact": 1780962909,
        "baro_altitude": 10972.8,
        "on_ground": false,
        "velocity": 212.5,
        "true_track": 313.63,
        "vertical_rate": 0,
        "geo_altitude": 11376.66,
        "squawk": "1145",
        "spi": false,
        "position_source": 0
      }
    },
    {
      "type": "Feature",
      "geometry": {
        "type": "Point",
        "coordinates": [
          14.4578,
          35.8734
        ]
      },
      "properties": {
        "icao24": "4d2304",
        "callsign": "RYR83CM",
        "origin_country": "Malta",
        "time_position": 1780962909,
        "last_contact": 1780962909,
        "baro_altitude": 190.5,
        "on_ground": false,
        "velocity": 78.94,
        "true_track": 134.74,
        "vertical_rate": -3.58,
        "geo_altitude": 274.32,
        "squawk": "1420",
        "spi": false,
        "position_source": 0
      }
    },
    {
      "type": "Feature",
      "geometry": {
        "type": "Point",
        "coordinates": [
          16.6212,
          45.7754
        ]
      },
      "properties": {
        "icao24": "4070ef",
        "callsign": "EXS4FC",
        "origin_country": "United Kingdom",
        "time_position": 1780962910,
        "last_contact": 1780962910,
        "baro_altitude": 10972.8,
        "on_ground": false,
        "velocity": 215.04,
        "true_track": 316.26,
        "vertical_rate": 0,
        "geo_altitude": 11361.42,
        "squawk": "2034",
        "spi": false,
        "position_source": 0
      }
    },
    {
      "type": "Feature",
      "geometry": {
        "type": "Point",
        "coordinates": [
          17.3299,
          44.7995
        ]
      },
      "properties": {
        "icao24": "4070e9",
        "callsign": "EXS35MT",
        "origin_country": "United Kingdom",
        "time_position": 1780962909,
        "last_contact": 1780962909,
        "baro_altitude": 10972.8,
        "on_ground": false,
        "velocity": 215.84,
        "true_track": 311.13,
        "vertical_rate": 0,
        "geo_altitude": 11361.42,
        "squawk": "3272",
        "spi": false,
        "position_source": 0
      }
    },
    {
      "type": "Feature",
      "geometry": {
        "type": "Point",
        "coordinates": [
          13.3132,
          46.9498
        ]
      },
      "properties": {
        "icao24": "4070e1",
        "callsign": "EXS7HG",
        "origin_country": "United Kingdom",
        "time_position": 1780962909,
        "last_contact": 1780962909,
        "baro_altitude": 10972.8,
        "on_ground": false,
        "velocity": 214.23,
        "true_track": 307.59,
        "vertical_rate": 0,
        "geo_altitude": 11346.18,
        "squawk": "5356",
        "spi": false,
        "position_source": 0
      }
    },
    {
      "type": "Feature",
      "geometry": {
        "type": "Point",
        "coordinates": [
          14.1792,
          47.3431
        ]
      },
      "properties": {
        "icao24": "4d21c8",
        "callsign": "CXI7PV",
        "origin_country": "Malta",
        "time_position": 1780962909,
        "last_contact": 1780962909,
        "baro_altitude": 10972.8,
        "on_ground": false,
        "velocity": 219.13,
        "true_track": 318.9,
        "vertical_rate": 0,
        "geo_altitude": 11338.56,
        "squawk": "2007",
        "spi": false,
        "position_source": 0
      }
    },
    {
      "type": "Feature",
      "geometry": {
        "type": "Point",
        "coordinates": [
          13.9205,
          47.6347
        ]
      },
      "properties": {
        "icao24": "4d2212",
        "callsign": "RYR1132",
        "origin_country": "Malta",
        "time_position": 1780962909,
        "last_contact": 1780962909,
        "baro_altitude": 10972.8,
        "on_ground": false,
        "velocity": 213.93,
        "true_track": 233.9,
        "vertical_rate": 0,
        "geo_altitude": 11323.32,
        "squawk": "6014",
        "spi": false,
        "position_source": 0
      }
    },
    {
      "type": "Feature",
      "geometry": {
        "type": "Point",
        "coordinates": [
          9.0782,
          45.4187
        ]
      },
      "properties": {
        "icao24": "4d2229",
        "callsign": "RYR6LW",
        "origin_country": "Malta",
        "time_position": 1780962657,
        "last_contact": 1780962657,
        "baro_altitude": 1943.1,
        "on_ground": false,
        "velocity": 140.93,
        "true_track": 253.02,
        "vertical_rate": -9.43,
        "geo_altitude": 2087.88,
        "squawk": "6020",
        "spi": false,
        "position_source": 0
      }
    },
    {
      "type": "Feature",
      "geometry": {
        "type": "Point",
        "coordinates": [
          8.1064,
          46.5392
        ]
      },
      "properties": {
        "icao24": "4d2271",
        "callsign": "RYR25FL",
        "origin_country": "Malta",
        "time_position": 1780962909,
        "last_contact": 1780962909,
        "baro_altitude": 10668,
        "on_ground": false,
        "velocity": 245.18,
        "true_track": 138.15,
        "vertical_rate": 0,
        "geo_altitude": 11018.52,
        "squawk": "0533",
        "spi": false,
        "position_source": 0
      }
    },
    {
      "type": "Feature",
      "geometry": {
        "type": "Point",
        "coordinates": [
          10.3834,
          43.2459
        ]
      },
      "properties": {
        "icao24": "4d2280",
        "callsign": "RYR5WD",
        "origin_country": "Malta",
        "time_position": 1780962909,
        "last_contact": 1780962909,
        "baro_altitude": 10668,
        "on_ground": false,
        "velocity": 225.35,
        "true_track": 196.04,
        "vertical_rate": 0,
        "geo_altitude": 11125.2,
        "squawk": "4676",
        "spi": false,
        "position_source": 0
      }
    },
    {
      "type": "Feature",
      "geometry": {
        "type": "Point",
        "coordinates": [
          8.5867,
          44.2695
        ]
      },
      "properties": {
        "icao24": "4d2265",
        "callsign": "RYR119T",
        "origin_country": "Malta",
        "time_position": 1780962908,
        "last_contact": 1780962909,
        "baro_altitude": 10668,
        "on_ground": false,
        "velocity": 208.31,
        "true_track": 260.19,
        "vertical_rate": 0,
        "geo_altitude": 11087.1,
        "squawk": "1000",
        "spi": false,
        "position_source": 0
      }
    },
    {
      "type": "Feature",
      "geometry": {
        "type": "Point",
        "coordinates": [
          16.8396,
          41.1607
        ]
      },
      "properties": {
        "icao24": "4cabf8",
        "callsign": "MSA56B",
        "origin_country": "Ireland",
        "time_position": 1780962909,
        "last_contact": 1780962909,
        "baro_altitude": 335.28,
        "on_ground": false,
        "velocity": 76.83,
        "true_track": 249.62,
        "vertical_rate": -4.55,
        "geo_altitude": 419.1,
        "squawk": "1000",
        "spi": false,
        "position_source": 0
      }
    },
    {
      "type": "Feature",
      "geometry": {
        "type": "Point",
        "coordinates": [
          6.6598,
          43.7444
        ]
      },
      "properties": {
        "icao24": "4cac63",
        "callsign": "ABR420",
        "origin_country": "Ireland",
        "time_position": 1780962910,
        "last_contact": 1780962910,
        "baro_altitude": 10668,
        "on_ground": false,
        "velocity": 200.2,
        "true_track": 235.57,
        "vertical_rate": 0,
        "geo_altitude": 11109.96,
        "squawk": "1000",
        "spi": false,
        "position_source": 0
      }
    },
    {
      "type": "Feature",
      "geometry": {
        "type": "Point",
        "coordinates": [
          15.6541,
          45.394
        ]
      },
      "properties": {
        "icao24": "407031",
        "callsign": "EXS6MN",
        "origin_country": "United Kingdom",
        "time_position": 1780962909,
        "last_contact": 1780962909,
        "baro_altitude": 10972.8,
        "on_ground": false,
        "velocity": 211.77,
        "true_track": 306.01,
        "vertical_rate": 0,
        "geo_altitude": 11391.9,
        "squawk": "5661",
        "spi": false,
        "position_source": 0
      }
    },
    {
      "type": "Feature",
      "geometry": {
        "type": "Point",
        "coordinates": [
          15.8618,
          46.0221
        ]
      },
      "properties": {
        "icao24": "40702e",
        "callsign": "EXS406",
        "origin_country": "United Kingdom",
        "time_position": 1780962909,
        "last_contact": 1780962909,
        "baro_altitude": 11582.4,
        "on_ground": false,
        "velocity": 212.16,
        "true_track": 320.02,
        "vertical_rate": 0,
        "geo_altitude": 11986.26,
        "squawk": "2205",
        "spi": false,
        "position_source": 0
      }
    },
    {
      "type": "Feature",
      "geometry": {
        "type": "Point",
        "coordinates": [
          14.9428,
          45.8914
        ]
      },
      "properties": {
        "icao24": "4082e6",
        "callsign": "TOM7CV",
        "origin_country": "United Kingdom",
        "time_position": 1780962909,
        "last_contact": 1780962909,
        "baro_altitude": 11582.4,
        "on_ground": false,
        "velocity": 213.69,
        "true_track": 317.24,
        "vertical_rate": 0,
        "geo_altitude": 11986.26,
        "squawk": "2215",
        "spi": false,
        "position_source": 0
      }
    }
  ]
}