{
  "type": "FeatureCollection",
  "source": "opensky",
  "dataset": "aircraft_italy",
  "generated_at": "2026-06-08T02:05:08.023817+00:00",
  "opensky_time": 1780884300,
  "count": 71,
  "features": [
    {
      "type": "Feature",
      "geometry": {
        "type": "Point",
        "coordinates": [
          10.6431,
          46.552
        ]
      },
      "properties": {
        "icao24": "a48850",
        "callsign": "UPS266",
        "origin_country": "United States",
        "time_position": 1780884299,
        "last_contact": 1780884299,
        "baro_altitude": 10058.4,
        "on_ground": false,
        "velocity": 247.17,
        "true_track": 162.81,
        "vertical_rate": 0.33,
        "geo_altitude": 10408.92,
        "squawk": "2542",
        "spi": false,
        "position_source": 0
      }
    },
    {
      "type": "Feature",
      "geometry": {
        "type": "Point",
        "coordinates": [
          17.248,
          37.9877
        ]
      },
      "properties": {
        "icao24": "4bc8cc",
        "callsign": "PGT652",
        "origin_country": "Turkey",
        "time_position": 1780884299,
        "last_contact": 1780884299,
        "baro_altitude": 10668,
        "on_ground": false,
        "velocity": 237.8,
        "true_track": 61.44,
        "vertical_rate": 0,
        "geo_altitude": 11201.4,
        "squawk": "4104",
        "spi": false,
        "position_source": 0
      }
    },
    {
      "type": "Feature",
      "geometry": {
        "type": "Point",
        "coordinates": [
          18.2128,
          38.8996
        ]
      },
      "properties": {
        "icao24": "46b836",
        "callsign": "AEE713",
        "origin_country": "Greece",
        "time_position": 1780884299,
        "last_contact": 1780884299,
        "baro_altitude": 10683.24,
        "on_ground": false,
        "velocity": 245.14,
        "true_track": 105.58,
        "vertical_rate": 0,
        "geo_altitude": 11170.92,
        "squawk": "1412",
        "spi": false,
        "position_source": 0
      }
    },
    {
      "type": "Feature",
      "geometry": {
        "type": "Point",
        "coordinates": [
          8.9313,
          43.8026
        ]
      },
      "properties": {
        "icao24": "3c4b28",
        "callsign": "DLH573",
        "origin_country": "Germany",
        "time_position": 1780884299,
        "last_contact": 1780884299,
        "baro_altitude": 10972.8,
        "on_ground": false,
        "velocity": 238.83,
        "true_track": 1.85,
        "vertical_rate": 0,
        "geo_altitude": 11384.28,
        "squawk": "1000",
        "spi": false,
        "position_source": 0
      }
    },
    {
      "type": "Feature",
      "geometry": {
        "type": "Point",
        "coordinates": [
          15.65,
          46.7616
        ]
      },
      "properties": {
        "icao24": "4bb567",
        "callsign": "CAI76GG",
        "origin_country": "Turkey",
        "time_position": 1780884300,
        "last_contact": 1780884300,
        "baro_altitude": 11277.6,
        "on_ground": false,
        "velocity": 253.3,
        "true_track": 131.46,
        "vertical_rate": 0,
        "geo_altitude": 11620.5,
        "squawk": "7667",
        "spi": false,
        "position_source": 0
      }
    },
    {
      "type": "Feature",
      "geometry": {
        "type": "Point",
        "coordinates": [
          18.983,
          45.0786
        ]
      },
      "properties": {
        "icao24": "4bb573",
        "callsign": "CAI6DT",
        "origin_country": "Turkey",
        "time_position": 1780884299,
        "last_contact": 1780884299,
        "baro_altitude": 11887.2,
        "on_ground": false,
        "velocity": 254.17,
        "true_track": 125.94,
        "vertical_rate": 0,
        "geo_altitude": 12260.58,
        "squawk": "6431",
        "spi": false,
        "position_source": 0
      }
    },
    {
      "type": "Feature",
      "geometry": {
        "type": "Point",
        "coordinates": [
          8.924,
          43.6805
        ]
      },
      "properties": {
        "icao24": "3c4a06",
        "callsign": "DLH577",
        "origin_country": "Germany",
        "time_position": 1780884299,
        "last_contact": 1780884299,
        "baro_altitude": 11582.4,
        "on_ground": false,
        "velocity": 238.31,
        "true_track": 1.86,
        "vertical_rate": -0.33,
        "geo_altitude": 11993.88,
        "squawk": "1000",
        "spi": false,
        "position_source": 0
      }
    },
    {
      "type": "Feature",
      "geometry": {
        "type": "Point",
        "coordinates": [
          9.2258,
          42.7129
        ]
      },
      "properties": {
        "icao24": "89618b",
        "callsign": "UAE242",
        "origin_country": "United Arab Emirates",
        "time_position": 1780884299,
        "last_contact": 1780884299,
        "baro_altitude": 11887.2,
        "on_ground": false,
        "velocity": 262.88,
        "true_track": 110.39,
        "vertical_rate": -0.33,
        "geo_altitude": 12291.06,
        "squawk": "2367",
        "spi": false,
        "position_source": 0
      }
    },
    {
      "type": "Feature",
      "geometry": {
        "type": "Point",
        "coordinates": [
          11.6514,
          41.9195
        ]
      },
      "properties": {
        "icao24": "8004e0",
        "callsign": "AIC188",
        "origin_country": "India",
        "time_position": 1780884299,
        "last_contact": 1780884299,
        "baro_altitude": 10058.4,
        "on_ground": false,
        "velocity": 268.86,
        "true_track": 112.74,
        "vertical_rate": 0,
        "geo_altitude": 10477.5,
        "squawk": "4310",
        "spi": false,
        "position_source": 0
      }
    },
    {
      "type": "Feature",
      "geometry": {
        "type": "Point",
        "coordinates": [
          12.4513,
          39.6028
        ]
      },
      "properties": {
        "icao24": "4892c0",
        "callsign": "ENT1341",
        "origin_country": "Poland",
        "time_position": 1780884300,
        "last_contact": 1780884300,
        "baro_altitude": 11277.6,
        "on_ground": false,
        "velocity": 210.84,
        "true_track": 204.81,
        "vertical_rate": 0,
        "geo_altitude": 11780.52,
        "squawk": "6024",
        "spi": false,
        "position_source": 0
      }
    },
    {
      "type": "Feature",
      "geometry": {
        "type": "Point",
        "coordinates": [
          12.9352,
          45.5235
        ]
      },
      "properties": {
        "icao24": "4079a9",
        "callsign": "TOM203",
        "origin_country": "United Kingdom",
        "time_position": 1780884299,
        "last_contact": 1780884299,
        "baro_altitude": 9753.6,
        "on_ground": false,
        "velocity": 226.8,
        "true_track": 302.21,
        "vertical_rate": 0,
        "geo_altitude": 10096.5,
        "squawk": "5350",
        "spi": false,
        "position_source": 0
      }
    },
    {
      "type": "Feature",
      "geometry": {
        "type": "Point",
        "coordinates": [
          6.1172,
          38.9825
        ]
      },
      "properties": {
        "icao24": "40688c",
        "callsign": "BAW56",
        "origin_country": "United Kingdom",
        "time_position": 1780884299,
        "last_contact": 1780884299,
        "baro_altitude": 11582.4,
        "on_ground": false,
        "velocity": 244.42,
        "true_track": 350.8,
        "vertical_rate": 0,
        "geo_altitude": 12092.94,
        "squawk": null,
        "spi": false,
        "position_source": 0
      }
    },
    {
      "type": "Feature",
      "geometry": {
        "type": "Point",
        "coordinates": [
          12.3248,
          43.3192
        ]
      },
      "properties": {
        "icao24": "3a2e21",
        "callsign": "REU975",
        "origin_country": "France",
        "time_position": 1780884299,
        "last_contact": 1780884300,
        "baro_altitude": 12192,
        "on_ground": false,
        "velocity": 233.87,
        "true_track": 306.59,
        "vertical_rate": -0.33,
        "geo_altitude": 12588.24,
        "squawk": "6635",
        "spi": false,
        "position_source": 0
      }
    },
    {
      "type": "Feature",
      "geometry": {
        "type": "Point",
        "coordinates": [
          13.9554,
          42.4128
        ]
      },
      "properties": {
        "icao24": "3a2e22",
        "callsign": "REU973",
        "origin_country": "France",
        "time_position": 1780884299,
        "last_contact": 1780884299,
        "baro_altitude": 11582.4,
        "on_ground": false,
        "velocity": 235.44,
        "true_track": 307.72,
        "vertical_rate": -0.33,
        "geo_altitude": 12016.74,
        "squawk": "2054",
        "spi": false,
        "position_source": 0
      }
    },
    {
      "type": "Feature",
      "geometry": {
        "type": "Point",
        "coordinates": [
          15.2985,
          42.837
        ]
      },
      "properties": {
        "icao24": "3965a6",
        "callsign": "AFR673",
        "origin_country": "France",
        "time_position": 1780884299,
        "last_contact": 1780884299,
        "baro_altitude": 10972.8,
        "on_ground": false,
        "velocity": 227.17,
        "true_track": 304.48,
        "vertical_rate": 0,
        "geo_altitude": 11376.66,
        "squawk": "2034",
        "spi": false,
        "position_source": 0
      }
    },
    {
      "type": "Feature",
      "geometry": {
        "type": "Point",
        "coordinates": [
          18.9009,
          38.6862
        ]
      },
      "properties": {
        "icao24": "4bb067",
        "callsign": "THY597",
        "origin_country": "Turkey",
        "time_position": 1780884299,
        "last_contact": 1780884299,
        "baro_altitude": 11277.6,
        "on_ground": false,
        "velocity": 245.49,
        "true_track": 64.03,
        "vertical_rate": 0,
        "geo_altitude": 11772.9,
        "squawk": "4114",
        "spi": false,
        "position_source": 0
      }
    },
    {
      "type": "Feature",
      "geometry": {
        "type": "Point",
        "coordinates": [
          6.6131,
          43.9456
        ]
      },
      "properties": {
        "icao24": "44ccc2",
        "callsign": "BEL12B",
        "origin_country": "Belgium",
        "time_position": 1780884299,
        "last_contact": 1780884299,
        "baro_altitude": 11582.4,
        "on_ground": false,
        "velocity": 217.96,
        "true_track": 356.75,
        "vertical_rate": 0,
        "geo_altitude": 12016.74,
        "squawk": "1000",
        "spi": false,
        "position_source": 0
      }
    },
    {
      "type": "Feature",
      "geometry": {
        "type": "Point",
        "coordinates": [
          6.8691,
          37.6595
        ]
      },
      "properties": {
        "icao24": "44ccd1",
        "callsign": "BEL28A",
        "origin_country": "Belgium",
        "time_position": 1780884299,
        "last_contact": 1780884299,
        "baro_altitude": 11582.4,
        "on_ground": false,
        "velocity": 240.85,
        "true_track": 5.52,
        "vertical_rate": 0,
        "geo_altitude": 12115.8,
        "squawk": null,
        "spi": false,
        "position_source": 0
      }
    },
    {
      "type": "Feature",
      "geometry": {
        "type": "Point",
        "coordinates": [
          7.4666,
          43.8238
        ]
      },
      "properties": {
        "icao24": "4ac839",
        "callsign": "JET1",
        "origin_country": "Sweden",
        "time_position": 1780884300,
        "last_contact": 1780884300,
        "baro_altitude": 4229.1,
        "on_ground": false,
        "velocity": 164.29,
        "true_track": 177.31,
        "vertical_rate": -6.18,
        "geo_altitude": 4488.18,
        "squawk": null,
        "spi": false,
        "position_source": 0
      }
    },
    {
      "type": "Feature",
      "geometry": {
        "type": "Point",
        "coordinates": [
          10.4051,
          36.677
        ]
      },
      "properties": {
        "icao24": "040188",
        "callsign": "ETH740",
        "origin_country": "Ethiopia",
        "time_position": 1780884055,
        "last_contact": 1780884055,
        "baro_altitude": 11574.78,
        "on_ground": false,
        "velocity": 234.24,
        "true_track": 276.94,
        "vertical_rate": 0,
        "geo_altitude": 12131.04,
        "squawk": "6632",
        "spi": false,
        "position_source": 0
      }
    },
    {
      "type": "Feature",
      "geometry": {
        "type": "Point",
        "coordinates": [
          18.3554,
          37.6025
        ]
      },
      "properties": {
        "icao24": "040187",
        "callsign": "ETH726",
        "origin_country": "Ethiopia",
        "time_position": 1780884299,
        "last_contact": 1780884299,
        "baro_altitude": 12192,
        "on_ground": false,
        "velocity": 228.96,
        "true_track": 295.41,
        "vertical_rate": 0,
        "geo_altitude": 12702.54,
        "squawk": "7065",
        "spi": false,
        "position_source": 0
      }
    },
    {
      "type": "Feature",
      "geometry": {
        "type": "Point",
        "coordinates": [
          17.7877,
          44.7393
        ]
      },
      "properties": {
        "icao24": "4bcd82",
        "callsign": "SXS1BQ",
        "origin_country": "Turkey",
        "time_position": 1780884299,
        "last_contact": 1780884299,
        "baro_altitude": 11887.2,
        "on_ground": false,
        "velocity": 250.37,
        "true_track": 129.41,
        "vertical_rate": 0,
        "geo_altitude": 12260.58,
        "squawk": "2207",
        "spi": false,
        "position_source": 0
      }
    },
    {
      "type": "Feature",
      "geometry": {
        "type": "Point",
        "coordinates": [
          12.2697,
          41.8059
        ]
      },
      "properties": {
        "icao24": "040048",
        "callsign": "ETH552",
        "origin_country": "Ethiopia",
        "time_position": 1780884108,
        "last_contact": 1780884108,
        "baro_altitude": null,
        "on_ground": true,
        "velocity": 7.2,
        "true_track": 247.5,
        "vertical_rate": null,
        "geo_altitude": null,
        "squawk": "6622",
        "spi": false,
        "position_source": 0
      }
    },
    {
      "type": "Feature",
      "geometry": {
        "type": "Point",
        "coordinates": [
          9.8997,
          44.8002
        ]
      },
      "properties": {
        "icao24": "40029b",
        "callsign": "VPCFR",
        "origin_country": "United Kingdom",
        "time_position": 1780884299,
        "last_contact": 1780884299,
        "baro_altitude": 14325.6,
        "on_ground": false,
        "velocity": 247.47,
        "true_track": 306.04,
        "vertical_rate": 0,
        "geo_altitude": 14676.12,
        "squawk": "5513",
        "spi": false,
        "position_source": 0
      }
    },
    {
      "type": "Feature",
      "geometry": {
        "type": "Point",
        "coordinates": [
          16.4388,
          44.648
        ]
      },
      "properties": {
        "icao24": "407fc2",
        "callsign": "WUK26NJ",
        "origin_country": "United Kingdom",
        "time_position": 1780884299,
        "last_contact": 1780884299,
        "baro_altitude": 10972.8,
        "on_ground": false,
        "velocity": 216.23,
        "true_track": 317.12,
        "vertical_rate": 0,
        "geo_altitude": 11376.66,
        "squawk": "2225",
        "spi": false,
        "position_source": 0
      }
    },
    {
      "type": "Feature",
      "geometry": {
        "type": "Point",
        "coordinates": [
          16.8607,
          47.3565
        ]
      },
      "properties": {
        "icao24": "407faf",
        "callsign": "TOM495",
        "origin_country": "United Kingdom",
        "time_position": 1780884299,
        "last_contact": 1780884300,
        "baro_altitude": 11582.4,
        "on_ground": false,
        "velocity": 219.35,
        "true_track": 315.1,
        "vertical_rate": 0,
        "geo_altitude": 11894.82,
        "squawk": "5354",
        "spi": false,
        "position_source": 0
      }
    },
    {
      "type": "Feature",
      "geometry": {
        "type": "Point",
        "coordinates": [
          12.2412,
          41.7919
        ]
      },
      "properties": {
        "icao24": "040241",
        "callsign": "ETH500",
        "origin_country": "Ethiopia",
        "time_position": 1780884227,
        "last_contact": 1780884227,
        "baro_altitude": null,
        "on_ground": true,
        "velocity": 3.86,
        "true_track": 160.31,
        "vertical_rate": null,
        "geo_altitude": null,
        "squawk": "5535",
        "spi": false,
        "position_source": 0
      }
    },
    {
      "type": "Feature",
      "geometry": {
        "type": "Point",
        "coordinates": [
          13.8825,
          35.841
        ]
      },
      "properties": {
        "icao24": "744821",
        "callsign": "RJA517",
        "origin_country": "Jordan",
        "time_position": 1780884299,
        "last_contact": 1780884300,
        "baro_altitude": 10972.8,
        "on_ground": false,
        "velocity": 223.15,
        "true_track": 276.49,
        "vertical_rate": 0,
        "geo_altitude": 11529.06,
        "squawk": "2037",
        "spi": false,
        "position_source": 0
      }
    },
    {
      "type": "Feature",
      "geometry": {
        "type": "Point",
        "coordinates": [
          10.3396,
          44.9579
        ]
      },
      "properties": {
        "icao24": "48e959",
        "callsign": "LOT6230",
        "origin_country": "Poland",
        "time_position": 1780884299,
        "last_contact": 1780884299,
        "baro_altitude": 10972.8,
        "on_ground": false,
        "velocity": 225.67,
        "true_track": 41.21,
        "vertical_rate": 0,
        "geo_altitude": 11361.42,
        "squawk": "1000",
        "spi": false,
        "position_source": 0
      }
    },
    {
      "type": "Feature",
      "geometry": {
        "type": "Point",
        "coordinates": [
          9.0038,
          46.9472
        ]
      },
      "properties": {
        "icao24": "49d13d",
        "callsign": "EWG8LZ",
        "origin_country": "Czech Republic",
        "time_position": 1780884299,
        "last_contact": 1780884299,
        "baro_altitude": 10972.8,
        "on_ground": false,
        "velocity": 217.52,
        "true_track": 350.47,
        "vertical_rate": 0,
        "geo_altitude": 11338.56,
        "squawk": "2740",
        "spi": false,
        "position_source": 0
      }
    },
    {
      "type": "Feature",
      "geometry": {
        "type": "Point",
        "coordinates": [
          8.8313,
          47.1686
        ]
      },
      "properties": {
        "icao24": "407c0b",
        "callsign": "TOM805",
        "origin_country": "United Kingdom",
        "time_position": 1780884299,
        "last_contact": 1780884299,
        "baro_altitude": 10972.8,
        "on_ground": false,
        "velocity": 214.37,
        "true_track": 308.08,
        "vertical_rate": 0,
        "geo_altitude": 11338.56,
        "squawk": "2753",
        "spi": false,
        "position_source": 0
      }
    },
    {
      "type": "Feature",
      "geometry": {
        "type": "Point",
        "coordinates": [
          18.6778,
          45.214
        ]
      },
      "properties": {
        "icao24": "4bb856",
        "callsign": "PGT5056",
        "origin_country": "Turkey",
        "time_position": 1780884299,
        "last_contact": 1780884299,
        "baro_altitude": 11277.6,
        "on_ground": false,
        "velocity": 249.26,
        "true_track": 125.59,
        "vertical_rate": 0,
        "geo_altitude": 11628.12,
        "squawk": "7660",
        "spi": false,
        "position_source": 0
      }
    },
    {
      "type": "Feature",
      "geometry": {
        "type": "Point",
        "coordinates": [
          16.6815,
          39.1379
        ]
      },
      "properties": {
        "icao24": "344645",
        "callsign": "VLG448P",
        "origin_country": "Spain",
        "time_position": 1780884299,
        "last_contact": 1780884299,
        "baro_altitude": 10965.18,
        "on_ground": false,
        "velocity": 206.48,
        "true_track": 287.4,
        "vertical_rate": 0,
        "geo_altitude": 11483.34,
        "squawk": "2070",
        "spi": false,
        "position_source": 0
      }
    },
    {
      "type": "Feature",
      "geometry": {
        "type": "Point",
        "coordinates": [
          11.3102,
          40.1895
        ]
      },
      "properties": {
        "icao24": "46b8b5",
        "callsign": "AEE3LP",
        "origin_country": "Greece",
        "time_position": 1780884299,
        "last_contact": 1780884299,
        "baro_altitude": 11285.22,
        "on_ground": false,
        "velocity": 260.8,
        "true_track": 101.38,
        "vertical_rate": 0,
        "geo_altitude": 11772.9,
        "squawk": "1162",
        "spi": false,
        "position_source": 0
      }
    },
    {
      "type": "Feature",
      "geometry": {
        "type": "Point",
        "coordinates": [
          16.4222,
          39.0476
        ]
      },
      "properties": {
        "icao24": "46b8b6",
        "callsign": "AEE7VH",
        "origin_country": "Greece",
        "time_position": 1780884299,
        "last_contact": 1780884299,
        "baro_altitude": 11887.2,
        "on_ground": false,
        "velocity": 247,
        "true_track": 98.38,
        "vertical_rate": 0,
        "geo_altitude": 12397.74,
        "squawk": "1426",
        "spi": false,
        "position_source": 0
      }
    },
    {
      "type": "Feature",
      "geometry": {
        "type": "Point",
        "coordinates": [
          12.9882,
          38.4655
        ]
      },
      "properties": {
        "icao24": "48e899",
        "callsign": "ENT4009",
        "origin_country": "Poland",
        "time_position": 1780884299,
        "last_contact": 1780884299,
        "baro_altitude": 11277.6,
        "on_ground": false,
        "velocity": 222.76,
        "true_track": 195.13,
        "vertical_rate": 0.33,
        "geo_altitude": 11811,
        "squawk": "0242",
        "spi": false,
        "position_source": 0
      }
    },
    {
      "type": "Feature",
      "geometry": {
        "type": "Point",
        "coordinates": [
          11.4136,
          42.1183
        ]
      },
      "properties": {
        "icao24": "80159f",
        "callsign": "AIC191",
        "origin_country": "India",
        "time_position": 1780884299,
        "last_contact": 1780884299,
        "baro_altitude": 5844.54,
        "on_ground": false,
        "velocity": 193.77,
        "true_track": 304.07,
        "vertical_rate": 12.68,
        "geo_altitude": 6156.96,
        "squawk": null,
        "spi": false,
        "position_source": 0
      }
    },
    {
      "type": "Feature",
      "geometry": {
        "type": "Point",
        "coordinates": [
          6.5022,
          44.9927
        ]
      },
      "properties": {
        "icao24": "06a0dd",
        "callsign": "QTR8230",
        "origin_country": "Qatar",
        "time_position": 1780884299,
        "last_contact": 1780884299,
        "baro_altitude": 8983.98,
        "on_ground": false,
        "velocity": 223.22,
        "true_track": 76,
        "vertical_rate": -3.58,
        "geo_altitude": 9380.22,
        "squawk": "1000",
        "spi": false,
        "position_source": 0
      }
    },
    {
      "type": "Feature",
      "geometry": {
        "type": "Point",
        "coordinates": [
          8.5594,
          47.4533
        ]
      },
      "properties": {
        "icao24": "4b1802",
        "callsign": "SWR",
        "origin_country": "Switzerland",
        "time_position": 1780884298,
        "last_contact": 1780884298,
        "baro_altitude": null,
        "on_ground": true,
        "velocity": 0,
        "true_track": 5.62,
        "vertical_rate": null,
        "geo_altitude": null,
        "squawk": null,
        "spi": false,
        "position_source": 0
      }
    },
    {
      "type": "Feature",
      "geometry": {
        "type": "Point",
        "coordinates": [
          8.556,
          47.456
        ]
      },
      "properties": {
        "icao24": "4b180a",
        "callsign": "SWR",
        "origin_country": "Switzerland",
        "time_position": 1780884289,
        "last_contact": 1780884294,
        "baro_altitude": null,
        "on_ground": true,
        "velocity": 0,
        "true_track": 5.62,
        "vertical_rate": null,
        "geo_altitude": null,
        "squawk": "2000",
        "spi": false,
        "position_source": 0
      }
    },
    {
      "type": "Feature",
      "geometry": {
        "type": "Point",
        "coordinates": [
          8.5633,
          47.4439
        ]
      },
      "properties": {
        "icao24": "4b180b",
        "callsign": "SWR2PA",
        "origin_country": "Switzerland",
        "time_position": 1780884283,
        "last_contact": 1780884299,
        "baro_altitude": null,
        "on_ground": true,
        "velocity": 0.26,
        "true_track": 146.25,
        "vertical_rate": null,
        "geo_altitude": null,
        "squawk": null,
        "spi": false,
        "position_source": 0
      }
    },
    {
      "type": "Feature",
      "geometry": {
        "type": "Point",
        "coordinates": [
          7.1976,
          45.4857
        ]
      },
      "properties": {
        "icao24": "3c6748",
        "callsign": "DLH1319",
        "origin_country": "Germany",
        "time_position": 1780884299,
        "last_contact": 1780884299,
        "baro_altitude": 10972.8,
        "on_ground": false,
        "velocity": 216.55,
        "true_track": 17.7,
        "vertical_rate": 0,
        "geo_altitude": 11399.52,
        "squawk": "1000",
        "spi": false,
        "position_source": 0
      }
    },
    {
      "type": "Feature",
      "geometry": {
        "type": "Point",
        "coordinates": [
          15.5266,
          46.5355
        ]
      },
      "properties": {
        "icao24": "02a1a3",
        "callsign": "LBT7678",
        "origin_country": "Tunisia",
        "time_position": 1780884299,
        "last_contact": 1780884299,
        "baro_altitude": 10972.8,
        "on_ground": false,
        "velocity": 231.91,
        "true_track": 26.91,
        "vertical_rate": 0.33,
        "geo_altitude": 11300.46,
        "squawk": "6166",
        "spi": false,
        "position_source": 0
      }
    },
    {
      "type": "Feature",
      "geometry": {
        "type": "Point",
        "coordinates": [
          8.5584,
          47.4557
        ]
      },
      "properties": {
        "icao24": "4b5da2",
        "callsign": "TE21",
        "origin_country": "Switzerland",
        "time_position": 1780884299,
        "last_contact": 1780884299,
        "baro_altitude": null,
        "on_ground": true,
        "velocity": 7.72,
        "true_track": 8.44,
        "vertical_rate": null,
        "geo_altitude": null,
        "squawk": null,
        "spi": false,
        "position_source": 0
      }
    },
    {
      "type": "Feature",
      "geometry": {
        "type": "Point",
        "coordinates": [
          8.9743,
          44.6803
        ]
      },
      "properties": {
        "icao24": "3c6564",
        "callsign": "OCN133",
        "origin_country": "Germany",
        "time_position": 1780884299,
        "last_contact": 1780884299,
        "baro_altitude": 11582.4,
        "on_ground": false,
        "velocity": 225.96,
        "true_track": 1.83,
        "vertical_rate": 0,
        "geo_altitude": 11971.02,
        "squawk": "1000",
        "spi": false,
        "position_source": 0
      }
    },
    {
      "type": "Feature",
      "geometry": {
        "type": "Point",
        "coordinates": [
          14.2338,
          37.7329
        ]
      },
      "properties": {
        "icao24": "02a1b4",
        "callsign": "LBT7261",
        "origin_country": "Tunisia",
        "time_position": 1780884299,
        "last_contact": 1780884299,
        "baro_altitude": 11590.02,
        "on_ground": false,
        "velocity": 221.23,
        "true_track": 217.54,
        "vertical_rate": 0,
        "geo_altitude": 12123.42,
        "squawk": "2213",
        "spi": false,
        "position_source": 0
      }
    },
    {
      "type": "Feature",
      "geometry": {
        "type": "Point",
        "coordinates": [
          17.5996,
          39.7442
        ]
      },
      "properties": {
        "icao24": "02a1b3",
        "callsign": "LBT7535",
        "origin_country": "Tunisia",
        "time_position": 1780884299,
        "last_contact": 1780884299,
        "baro_altitude": 10965.18,
        "on_ground": false,
        "velocity": 206.32,
        "true_track": 231.07,
        "vertical_rate": 0,
        "geo_altitude": 11437.62,
        "squawk": null,
        "spi": false,
        "position_source": 0
      }
    },
    {
      "type": "Feature",
      "geometry": {
        "type": "Point",
        "coordinates": [
          17.8462,
          41.3754
        ]
      },
      "properties": {
        "icao24": "7103d7",
        "callsign": "SVA131",
        "origin_country": "Saudi Arabia",
        "time_position": 1780884300,
        "last_contact": 1780884300,
        "baro_altitude": 11574.78,
        "on_ground": false,
        "velocity": 233.48,
        "true_track": 321.26,
        "vertical_rate": -0.33,
        "geo_altitude": 12039.6,
        "squawk": "5522",
        "spi": false,
        "position_source": 0
      }
    },
    {
      "type": "Feature",
      "geometry": {
        "type": "Point",
        "coordinates": [
          15.4639,
          47.08
        ]
      },
      "properties": {
        "icao24": "440c14",
        "callsign": "C17",
        "origin_country": "Austria",
        "time_position": 1780884209,
        "last_contact": 1780884214,
        "baro_altitude": null,
        "on_ground": true,
        "velocity": 0,
        "true_track": 357.19,
        "vertical_rate": null,
        "geo_altitude": null,
        "squawk": "1657",
        "spi": false,
        "position_source": 0
      }
    },
    {
      "type": "Feature",
      "geometry": {
        "type": "Point",
        "coordinates": [
          8.5603,
          47.4577
        ]
      },
      "properties": {
        "icao24": "4b5d62",
        "callsign": "VIKTOR21",
        "origin_country": "Switzerland",
        "time_position": 1780884299,
        "last_contact": 1780884299,
        "baro_altitude": null,
        "on_ground": true,
        "velocity": 3.09,
        "true_track": 278.44,
        "vertical_rate": null,
        "geo_altitude": null,
        "squawk": null,
        "spi": false,
        "position_source": 0
      }
    },
    {
      "type": "Feature",
      "geometry": {
        "type": "Point",
        "coordinates": [
          8.5635,
          47.4458
        ]
      },
      "properties": {
        "icao24": "4b5d6e",
        "callsign": "VIKTOR31",
        "origin_country": "Switzerland",
        "time_position": 1780884298,
        "last_contact": 1780884298,
        "baro_altitude": null,
        "on_ground": true,
        "velocity": 3.34,
        "true_track": 163.12,
        "vertical_rate": null,
        "geo_altitude": null,
        "squawk": null,
        "spi": false,
        "position_source": 0
      }
    },
    {
      "type": "Feature",
      "geometry": {
        "type": "Point",
        "coordinates": [
          8.5479,
          47.4544
        ]
      },
      "properties": {
        "icao24": "4b5c1a",
        "callsign": "GUSTI2",
        "origin_country": "Switzerland",
        "time_position": 1780884299,
        "last_contact": 1780884299,
        "baro_altitude": null,
        "on_ground": true,
        "velocity": 14.92,
        "true_track": 154.69,
        "vertical_rate": null,
        "geo_altitude": null,
        "squawk": null,
        "spi": false,
        "position_source": 0
      }
    },
    {
      "type": "Feature",
      "geometry": {
        "type": "Point",
        "coordinates": [
          8.5309,
          47.4829
        ]
      },
      "properties": {
        "icao24": "4b5c27",
        "callsign": "EUGEN11",
        "origin_country": "Switzerland",
        "time_position": 1780884299,
        "last_contact": 1780884299,
        "baro_altitude": null,
        "on_ground": true,
        "velocity": 3.6,
        "true_track": 154.69,
        "vertical_rate": null,
        "geo_altitude": null,
        "squawk": null,
        "spi": false,
        "position_source": 0
      }
    },
    {
      "type": "Feature",
      "geometry": {
        "type": "Point",
        "coordinates": [
          8.5585,
          47.456
        ]
      },
      "properties": {
        "icao24": "4b5c68",
        "callsign": "URSULA4",
        "origin_country": "Switzerland",
        "time_position": 1780884295,
        "last_contact": 1780884295,
        "baro_altitude": null,
        "on_ground": true,
        "velocity": 5.4,
        "true_track": 5.62,
        "vertical_rate": null,
        "geo_altitude": null,
        "squawk": null,
        "spi": false,
        "position_source": 0
      }
    },
    {
      "type": "Feature",
      "geometry": {
        "type": "Point",
        "coordinates": [
          11.8362,
          47.6242
        ]
      },
      "properties": {
        "icao24": "440bc9",
        "callsign": "BCS6RU",
        "origin_country": "Austria",
        "time_position": 1780884300,
        "last_contact": 1780884300,
        "baro_altitude": 11285.22,
        "on_ground": false,
        "velocity": 240.88,
        "true_track": 184.16,
        "vertical_rate": 0,
        "geo_altitude": 11628.12,
        "squawk": "3620",
        "spi": false,
        "position_source": 0
      }
    },
    {
      "type": "Feature",
      "geometry": {
        "type": "Point",
        "coordinates": [
          7.6102,
          43.7455
        ]
      },
      "properties": {
        "icao24": "4c31e2",
        "callsign": "MPC001",
        "origin_country": "Serbia",
        "time_position": 1780884299,
        "last_contact": 1780884299,
        "baro_altitude": 3406.14,
        "on_ground": false,
        "velocity": 119.58,
        "true_track": 221.16,
        "vertical_rate": -8.78,
        "geo_altitude": 3642.36,
        "squawk": "0407",
        "spi": false,
        "position_source": 0
      }
    },
    {
      "type": "Feature",
      "geometry": {
        "type": "Point",
        "coordinates": [
          15.3142,
          43.5805
        ]
      },
      "properties": {
        "icao24": "4ca960",
        "callsign": "NOS7547",
        "origin_country": "Ireland",
        "time_position": 1780884299,
        "last_contact": 1780884299,
        "baro_altitude": 10972.8,
        "on_ground": false,
        "velocity": 219.62,
        "true_track": 302.76,
        "vertical_rate": 0,
        "geo_altitude": 11369.04,
        "squawk": "5527",
        "spi": false,
        "position_source": 0
      }
    },
    {
      "type": "Feature",
      "geometry": {
        "type": "Point",
        "coordinates": [
          17.2804,
          46.8171
        ]
      },
      "properties": {
        "icao24": "4bcdd4",
        "callsign": "SXS6CH",
        "origin_country": "Turkey",
        "time_position": 1780884299,
        "last_contact": 1780884299,
        "baro_altitude": 11887.2,
        "on_ground": false,
        "velocity": 248.27,
        "true_track": 127.08,
        "vertical_rate": 0.33,
        "geo_altitude": 12192,
        "squawk": "6020",
        "spi": false,
        "position_source": 0
      }
    },
    {
      "type": "Feature",
      "geometry": {
        "type": "Point",
        "coordinates": [
          15.3185,
          46.9217
        ]
      },
      "properties": {
        "icao24": "4bcde3",
        "callsign": "SXS8KW",
        "origin_country": "Turkey",
        "time_position": 1780884299,
        "last_contact": 1780884299,
        "baro_altitude": 11277.6,
        "on_ground": false,
        "velocity": 250.1,
        "true_track": 132.75,
        "vertical_rate": 0,
        "geo_altitude": 11597.64,
        "squawk": "7703",
        "spi": false,
        "position_source": 0
      }
    },
    {
      "type": "Feature",
      "geometry": {
        "type": "Point",
        "coordinates": [
          7.8618,
          45.4809
        ]
      },
      "properties": {
        "icao24": "300813",
        "callsign": "IWOOD",
        "origin_country": "Italy",
        "time_position": 1780884299,
        "last_contact": 1780884299,
        "baro_altitude": 853.44,
        "on_ground": false,
        "velocity": 73.14,
        "true_track": 195.5,
        "vertical_rate": -0.33,
        "geo_altitude": 990.6,
        "squawk": null,
        "spi": false,
        "position_source": 0
      }
    },
    {
      "type": "Feature",
      "geometry": {
        "type": "Point",
        "coordinates": [
          13.2687,
          35.897
        ]
      },
      "properties": {
        "icao24": "717c97",
        "callsign": "KNE9404",
        "origin_country": "Saudi Arabia",
        "time_position": 1780884299,
        "last_contact": 1780884299,
        "baro_altitude": 10363.2,
        "on_ground": false,
        "velocity": 233.95,
        "true_track": 276.31,
        "vertical_rate": 0,
        "geo_altitude": 10911.84,
        "squawk": "2004",
        "spi": false,
        "position_source": 0
      }
    },
    {
      "type": "Feature",
      "geometry": {
        "type": "Point",
        "coordinates": [
          16.9512,
          44.3438
        ]
      },
      "properties": {
        "icao24": "4d23ea",
        "callsign": "CXI1YQ",
        "origin_country": "Malta",
        "time_position": 1780884298,
        "last_contact": 1780884299,
        "baro_altitude": 11277.6,
        "on_ground": false,
        "velocity": 239.99,
        "true_track": 141.09,
        "vertical_rate": 0,
        "geo_altitude": 11658.6,
        "squawk": "6001",
        "spi": false,
        "position_source": 0
      }
    },
    {
      "type": "Feature",
      "geometry": {
        "type": "Point",
        "coordinates": [
          7.8515,
          41.65
        ]
      },
      "properties": {
        "icao24": "3c7a45",
        "callsign": "CFG289",
        "origin_country": "Germany",
        "time_position": 1780884299,
        "last_contact": 1780884299,
        "baro_altitude": 12192,
        "on_ground": false,
        "velocity": 229.56,
        "true_track": 10.33,
        "vertical_rate": 0,
        "geo_altitude": 12633.96,
        "squawk": null,
        "spi": false,
        "position_source": 0
      }
    },
    {
      "type": "Feature",
      "geometry": {
        "type": "Point",
        "coordinates": [
          7.128,
          43.5295
        ]
      },
      "properties": {
        "icao24": "4bd066",
        "callsign": "TCTCF",
        "origin_country": "Turkey",
        "time_position": 1780884299,
        "last_contact": 1780884299,
        "baro_altitude": 533.4,
        "on_ground": false,
        "velocity": 93.51,
        "true_track": 43.89,
        "vertical_rate": -0.98,
        "geo_altitude": 655.32,
        "squawk": "1000",
        "spi": false,
        "position_source": 0
      }
    },
    {
      "type": "Feature",
      "geometry": {
        "type": "Point",
        "coordinates": [
          9.3657,
          44.7259
        ]
      },
      "properties": {
        "icao24": "4cac36",
        "callsign": "NOS55FM",
        "origin_country": "Ireland",
        "time_position": 1780884299,
        "last_contact": 1780884299,
        "baro_altitude": 6530.34,
        "on_ground": false,
        "velocity": 200.17,
        "true_track": 309.79,
        "vertical_rate": -5.2,
        "geo_altitude": 6858,
        "squawk": "2043",
        "spi": false,
        "position_source": 0
      }
    },
    {
      "type": "Feature",
      "geometry": {
        "type": "Point",
        "coordinates": [
          6.2584,
          38.5548
        ]
      },
      "properties": {
        "icao24": "39c423",
        "callsign": "AFR923",
        "origin_country": "France",
        "time_position": 1780884300,
        "last_contact": 1780884300,
        "baro_altitude": 12192,
        "on_ground": false,
        "velocity": 242.68,
        "true_track": 343.37,
        "vertical_rate": 0,
        "geo_altitude": 12710.16,
        "squawk": null,
        "spi": false,
        "position_source": 0
      }
    },
    {
      "type": "Feature",
      "geometry": {
        "type": "Point",
        "coordinates": [
          13.3182,
          46.2566
        ]
      },
      "properties": {
        "icao24": "39c428",
        "callsign": "AFR201",
        "origin_country": "France",
        "time_position": 1780884299,
        "last_contact": 1780884299,
        "baro_altitude": 11574.78,
        "on_ground": false,
        "velocity": 229.09,
        "true_track": 284.57,
        "vertical_rate": 0,
        "geo_altitude": 11940.54,
        "squawk": "0501",
        "spi": false,
        "position_source": 0
      }
    },
    {
      "type": "Feature",
      "geometry": {
        "type": "Point",
        "coordinates": [
          8.7179,
          45.6394
        ]
      },
      "properties": {
        "icao24": "4cab8a",
        "callsign": "NOS9720",
        "origin_country": "Ireland",
        "time_position": 1780884292,
        "last_contact": 1780884292,
        "baro_altitude": null,
        "on_ground": true,
        "velocity": 9.26,
        "true_track": 343.12,
        "vertical_rate": null,
        "geo_altitude": null,
        "squawk": null,
        "spi": false,
        "position_source": 0
      }
    },
    {
      "type": "Feature",
      "geometry": {
        "type": "Point",
        "coordinates": [
          13.6051,
          35.8668
        ]
      },
      "properties": {
        "icao24": "71011e",
        "callsign": "SVA397",
        "origin_country": "Saudi Arabia",
        "time_position": 1780884299,
        "last_contact": 1780884299,
        "baro_altitude": 12184.38,
        "on_ground": false,
        "velocity": 231.96,
        "true_track": 276.49,
        "vertical_rate": 0.33,
        "geo_altitude": 12725.4,
        "squawk": "6621",
        "spi": false,
        "position_source": 0
      }
    },
    {
      "type": "Feature",
      "geometry": {
        "type": "Point",
        "coordinates": [
          6.0835,
          39.2418
        ]
      },
      "properties": {
        "icao24": "39d2b1",
        "callsign": "AFR995",
        "origin_country": "France",
        "time_position": 1780884298,
        "last_contact": 1780884299,
        "baro_altitude": 12192,
        "on_ground": false,
        "velocity": 239.31,
        "true_track": 354.45,
        "vertical_rate": -0.33,
        "geo_altitude": 12672.06,
        "squawk": null,
        "spi": false,
        "position_source": 0
      }
    },
    {
      "type": "Feature",
      "geometry": {
        "type": "Point",
        "coordinates": [
          9.7157,
          44.4142
        ]
      },
      "properties": {
        "icao24": "3c66ea",
        "callsign": "DLH1327",
        "origin_country": "Germany",
        "time_position": 1780884299,
        "last_contact": 1780884299,
        "baro_altitude": 10965.18,
        "on_ground": false,
        "velocity": 214.43,
        "true_track": 356.42,
        "vertical_rate": 0,
        "geo_altitude": 11384.28,
        "squawk": "6157",
        "spi": false,
        "position_source": 0
      }
    }
  ]
}