{
  "type": "FeatureCollection",
  "source": "opensky",
  "dataset": "aircraft_italy",
  "generated_at": "2026-07-23T01:16:09.389152+00:00",
  "opensky_time": 1784769359,
  "count": 71,
  "features": [
    {
      "type": "Feature",
      "geometry": {
        "type": "Point",
        "coordinates": [
          8.5651,
          47.4419
        ]
      },
      "properties": {
        "icao24": "4b1804",
        "callsign": "SWR8KY",
        "origin_country": "Switzerland",
        "time_position": 1784769353,
        "last_contact": 1784769357,
        "baro_altitude": null,
        "on_ground": true,
        "velocity": 0,
        "true_track": 146.25,
        "vertical_rate": null,
        "geo_altitude": null,
        "squawk": null,
        "spi": false,
        "position_source": 0
      }
    },
    {
      "type": "Feature",
      "geometry": {
        "type": "Point",
        "coordinates": [
          18.6612,
          39.463
        ]
      },
      "properties": {
        "icao24": "801666",
        "callsign": "AIC101",
        "origin_country": "India",
        "time_position": 1784769358,
        "last_contact": 1784769358,
        "baro_altitude": 12192,
        "on_ground": false,
        "velocity": 219.62,
        "true_track": 302.76,
        "vertical_rate": 0,
        "geo_altitude": 12793.98,
        "squawk": "2047",
        "spi": false,
        "position_source": 0
      }
    },
    {
      "type": "Feature",
      "geometry": {
        "type": "Point",
        "coordinates": [
          6.0549,
          39.6461
        ]
      },
      "properties": {
        "icao24": "46b83a",
        "callsign": "AEE7VH",
        "origin_country": "Greece",
        "time_position": 1784769358,
        "last_contact": 1784769358,
        "baro_altitude": 11582.4,
        "on_ground": false,
        "velocity": 262.61,
        "true_track": 87.53,
        "vertical_rate": 0,
        "geo_altitude": 12237.72,
        "squawk": "1416",
        "spi": false,
        "position_source": 0
      }
    },
    {
      "type": "Feature",
      "geometry": {
        "type": "Point",
        "coordinates": [
          10.6587,
          40.2421
        ]
      },
      "properties": {
        "icao24": "46b833",
        "callsign": "AEE3LP",
        "origin_country": "Greece",
        "time_position": 1784769358,
        "last_contact": 1784769358,
        "baro_altitude": 10675.62,
        "on_ground": false,
        "velocity": 261.22,
        "true_track": 101.82,
        "vertical_rate": 0.33,
        "geo_altitude": 11269.98,
        "squawk": "1160",
        "spi": false,
        "position_source": 0
      }
    },
    {
      "type": "Feature",
      "geometry": {
        "type": "Point",
        "coordinates": [
          14.1942,
          39.7044
        ]
      },
      "properties": {
        "icao24": "46b824",
        "callsign": "AEE3EM",
        "origin_country": "Greece",
        "time_position": 1784769358,
        "last_contact": 1784769358,
        "baro_altitude": 11285.22,
        "on_ground": false,
        "velocity": 263.67,
        "true_track": 103.2,
        "vertical_rate": 0,
        "geo_altitude": 11887.2,
        "squawk": "4311",
        "spi": false,
        "position_source": 0
      }
    },
    {
      "type": "Feature",
      "geometry": {
        "type": "Point",
        "coordinates": [
          7.4863,
          47.7925
        ]
      },
      "properties": {
        "icao24": "3c542a",
        "callsign": "BCS73B",
        "origin_country": "Germany",
        "time_position": 1784769358,
        "last_contact": 1784769358,
        "baro_altitude": 10058.4,
        "on_ground": false,
        "velocity": 216.31,
        "true_track": 219.6,
        "vertical_rate": 0.33,
        "geo_altitude": 10386.06,
        "squawk": "1000",
        "spi": false,
        "position_source": 0
      }
    },
    {
      "type": "Feature",
      "geometry": {
        "type": "Point",
        "coordinates": [
          13.1157,
          39.6941
        ]
      },
      "properties": {
        "icao24": "02a1a7",
        "callsign": "LBT7480",
        "origin_country": "Tunisia",
        "time_position": 1784769358,
        "last_contact": 1784769358,
        "baro_altitude": 10988.04,
        "on_ground": false,
        "velocity": 238.77,
        "true_track": 24.3,
        "vertical_rate": 0,
        "geo_altitude": 11597.64,
        "squawk": "6156",
        "spi": false,
        "position_source": 0
      }
    },
    {
      "type": "Feature",
      "geometry": {
        "type": "Point",
        "coordinates": [
          11.9257,
          37.5638
        ]
      },
      "properties": {
        "icao24": "02a1a8",
        "callsign": "LBT7472",
        "origin_country": "Tunisia",
        "time_position": 1784769358,
        "last_contact": 1784769358,
        "baro_altitude": 10058.4,
        "on_ground": false,
        "velocity": 240.86,
        "true_track": 19.98,
        "vertical_rate": 5.2,
        "geo_altitude": 10660.38,
        "squawk": "6151",
        "spi": false,
        "position_source": 0
      }
    },
    {
      "type": "Feature",
      "geometry": {
        "type": "Point",
        "coordinates": [
          12.2454,
          40.0129
        ]
      },
      "properties": {
        "icao24": "4690e1",
        "callsign": "AEE713",
        "origin_country": "Greece",
        "time_position": 1784769358,
        "last_contact": 1784769358,
        "baro_altitude": 10683.24,
        "on_ground": false,
        "velocity": 255.26,
        "true_track": 101.63,
        "vertical_rate": 0,
        "geo_altitude": 11254.74,
        "squawk": "4303",
        "spi": false,
        "position_source": 0
      }
    },
    {
      "type": "Feature",
      "geometry": {
        "type": "Point",
        "coordinates": [
          8.556,
          47.4607
        ]
      },
      "properties": {
        "icao24": "4b5da2",
        "callsign": "TE21",
        "origin_country": "Switzerland",
        "time_position": 1784769358,
        "last_contact": 1784769358,
        "baro_altitude": null,
        "on_ground": true,
        "velocity": 0.06,
        "true_track": 70.31,
        "vertical_rate": null,
        "geo_altitude": null,
        "squawk": null,
        "spi": false,
        "position_source": 0
      }
    },
    {
      "type": "Feature",
      "geometry": {
        "type": "Point",
        "coordinates": [
          7.0417,
          38.9505
        ]
      },
      "properties": {
        "icao24": "3c6561",
        "callsign": "OCN133",
        "origin_country": "Germany",
        "time_position": 1784769358,
        "last_contact": 1784769358,
        "baro_altitude": 12192,
        "on_ground": false,
        "velocity": 236.96,
        "true_track": 6.11,
        "vertical_rate": 0,
        "geo_altitude": 12900.66,
        "squawk": null,
        "spi": false,
        "position_source": 0
      }
    },
    {
      "type": "Feature",
      "geometry": {
        "type": "Point",
        "coordinates": [
          16.9495,
          38.7841
        ]
      },
      "properties": {
        "icao24": "0a008f",
        "callsign": "DAH3021",
        "origin_country": "Algeria",
        "time_position": 1784769359,
        "last_contact": 1784769359,
        "baro_altitude": 10972.8,
        "on_ground": false,
        "velocity": 208.4,
        "true_track": 251.88,
        "vertical_rate": 0,
        "geo_altitude": 11551.92,
        "squawk": "2324",
        "spi": false,
        "position_source": 0
      }
    },
    {
      "type": "Feature",
      "geometry": {
        "type": "Point",
        "coordinates": [
          11.5513,
          35.1061
        ]
      },
      "properties": {
        "icao24": "02a1b0",
        "callsign": "LBT7692",
        "origin_country": "Tunisia",
        "time_position": 1784769358,
        "last_contact": 1784769358,
        "baro_altitude": 7802.88,
        "on_ground": false,
        "velocity": 220.02,
        "true_track": 21.1,
        "vertical_rate": 5.53,
        "geo_altitude": 8366.76,
        "squawk": "6135",
        "spi": false,
        "position_source": 0
      }
    },
    {
      "type": "Feature",
      "geometry": {
        "type": "Point",
        "coordinates": [
          7.2634,
          43.9736
        ]
      },
      "properties": {
        "icao24": "408181",
        "callsign": "EZY63MD",
        "origin_country": "United Kingdom",
        "time_position": 1784769358,
        "last_contact": 1784769358,
        "baro_altitude": 10972.8,
        "on_ground": false,
        "velocity": 195.94,
        "true_track": 302.56,
        "vertical_rate": 0.33,
        "geo_altitude": 11490.96,
        "squawk": "4004",
        "spi": false,
        "position_source": 0
      }
    },
    {
      "type": "Feature",
      "geometry": {
        "type": "Point",
        "coordinates": [
          14.4444,
          39.5288
        ]
      },
      "properties": {
        "icao24": "738061",
        "callsign": "ELY376",
        "origin_country": "Israel",
        "time_position": 1784769358,
        "last_contact": 1784769358,
        "baro_altitude": 10668,
        "on_ground": false,
        "velocity": 258.66,
        "true_track": 104.4,
        "vertical_rate": 0,
        "geo_altitude": 11231.88,
        "squawk": "2201",
        "spi": false,
        "position_source": 0
      }
    },
    {
      "type": "Feature",
      "geometry": {
        "type": "Point",
        "coordinates": [
          11.9715,
          44.5658
        ]
      },
      "properties": {
        "icao24": "738073",
        "callsign": "ELY025",
        "origin_country": "Israel",
        "time_position": 1784769358,
        "last_contact": 1784769358,
        "baro_altitude": 10363.2,
        "on_ground": false,
        "velocity": 223.38,
        "true_track": 281.83,
        "vertical_rate": 0,
        "geo_altitude": 10789.92,
        "squawk": "0253",
        "spi": false,
        "position_source": 0
      }
    },
    {
      "type": "Feature",
      "geometry": {
        "type": "Point",
        "coordinates": [
          11.7798,
          47.7376
        ]
      },
      "properties": {
        "icao24": "452051",
        "callsign": "BCS840",
        "origin_country": "Bulgaria",
        "time_position": 1784769358,
        "last_contact": 1784769358,
        "baro_altitude": 10668,
        "on_ground": false,
        "velocity": 228.18,
        "true_track": 184.79,
        "vertical_rate": -0.33,
        "geo_altitude": 10942.32,
        "squawk": "1000",
        "spi": false,
        "position_source": 0
      }
    },
    {
      "type": "Feature",
      "geometry": {
        "type": "Point",
        "coordinates": [
          15.7617,
          45.7883
        ]
      },
      "properties": {
        "icao24": "4891b3",
        "callsign": "ENT4501",
        "origin_country": "Poland",
        "time_position": 1784769358,
        "last_contact": 1784769358,
        "baro_altitude": 11277.6,
        "on_ground": false,
        "velocity": 231.07,
        "true_track": 195.89,
        "vertical_rate": 0,
        "geo_altitude": 11635.74,
        "squawk": "5215",
        "spi": false,
        "position_source": 0
      }
    },
    {
      "type": "Feature",
      "geometry": {
        "type": "Point",
        "coordinates": [
          15.4622,
          45.1123
        ]
      },
      "properties": {
        "icao24": "4891b2",
        "callsign": "ENT1211",
        "origin_country": "Poland",
        "time_position": 1784769357,
        "last_contact": 1784769358,
        "baro_altitude": 11277.6,
        "on_ground": false,
        "velocity": 230.25,
        "true_track": 195.15,
        "vertical_rate": 0,
        "geo_altitude": 11681.46,
        "squawk": "6037",
        "spi": false,
        "position_source": 0
      }
    },
    {
      "type": "Feature",
      "geometry": {
        "type": "Point",
        "coordinates": [
          15.2987,
          43.343
        ]
      },
      "properties": {
        "icao24": "738101",
        "callsign": "ELY016",
        "origin_country": "Israel",
        "time_position": 1784769356,
        "last_contact": 1784769358,
        "baro_altitude": 12192,
        "on_ground": false,
        "velocity": 280.45,
        "true_track": 116.47,
        "vertical_rate": -0.33,
        "geo_altitude": 12679.68,
        "squawk": "0404",
        "spi": false,
        "position_source": 0
      }
    },
    {
      "type": "Feature",
      "geometry": {
        "type": "Point",
        "coordinates": [
          8.0607,
          47.3455
        ]
      },
      "properties": {
        "icao24": "7380c2",
        "callsign": "ELY017",
        "origin_country": "Israel",
        "time_position": 1784769357,
        "last_contact": 1784769358,
        "baro_altitude": 10972.8,
        "on_ground": false,
        "velocity": 219.65,
        "true_track": 294.34,
        "vertical_rate": -0.33,
        "geo_altitude": 11376.66,
        "squawk": "2741",
        "spi": false,
        "position_source": 0
      }
    },
    {
      "type": "Feature",
      "geometry": {
        "type": "Point",
        "coordinates": [
          16.2139,
          44.7117
        ]
      },
      "properties": {
        "icao24": "7380c1",
        "callsign": "ELY010",
        "origin_country": "Israel",
        "time_position": 1784769358,
        "last_contact": 1784769358,
        "baro_altitude": 11879.58,
        "on_ground": false,
        "velocity": 276.95,
        "true_track": 133.27,
        "vertical_rate": -0.33,
        "geo_altitude": 12306.3,
        "squawk": "2251",
        "spi": false,
        "position_source": 0
      }
    },
    {
      "type": "Feature",
      "geometry": {
        "type": "Point",
        "coordinates": [
          18.1754,
          47.007
        ]
      },
      "properties": {
        "icao24": "7380c6",
        "callsign": "ELY005",
        "origin_country": "Israel",
        "time_position": 1784769358,
        "last_contact": 1784769359,
        "baro_altitude": 10363.2,
        "on_ground": false,
        "velocity": 224.31,
        "true_track": 319.18,
        "vertical_rate": 0,
        "geo_altitude": 10668,
        "squawk": "6041",
        "spi": false,
        "position_source": 0
      }
    },
    {
      "type": "Feature",
      "geometry": {
        "type": "Point",
        "coordinates": [
          16.8949,
          44.1083
        ]
      },
      "properties": {
        "icao24": "7380c3",
        "callsign": "ELY001",
        "origin_country": "Israel",
        "time_position": 1784769357,
        "last_contact": 1784769358,
        "baro_altitude": 10363.2,
        "on_ground": false,
        "velocity": 231.45,
        "true_track": 296.11,
        "vertical_rate": -0.33,
        "geo_altitude": 10774.68,
        "squawk": "5616",
        "spi": false,
        "position_source": 0
      }
    },
    {
      "type": "Feature",
      "geometry": {
        "type": "Point",
        "coordinates": [
          7.4156,
          45.1756
        ]
      },
      "properties": {
        "icao24": "7380c9",
        "callsign": "ELY027",
        "origin_country": "Israel",
        "time_position": 1784769358,
        "last_contact": 1784769358,
        "baro_altitude": 10972.8,
        "on_ground": false,
        "velocity": 221.98,
        "true_track": 286.84,
        "vertical_rate": 0,
        "geo_altitude": 11452.86,
        "squawk": "5740",
        "spi": false,
        "position_source": 0
      }
    },
    {
      "type": "Feature",
      "geometry": {
        "type": "Point",
        "coordinates": [
          15.9162,
          46.3076
        ]
      },
      "properties": {
        "icao24": "7380ca",
        "callsign": "ELY018",
        "origin_country": "Israel",
        "time_position": 1784769358,
        "last_contact": 1784769358,
        "baro_altitude": 11887.2,
        "on_ground": false,
        "velocity": 274.82,
        "true_track": 132.95,
        "vertical_rate": -0.33,
        "geo_altitude": 12260.58,
        "squawk": "1147",
        "spi": false,
        "position_source": 0
      }
    },
    {
      "type": "Feature",
      "geometry": {
        "type": "Point",
        "coordinates": [
          8.5455,
          47.4752
        ]
      },
      "properties": {
        "icao24": "4b5c27",
        "callsign": "EUGEN11",
        "origin_country": "Switzerland",
        "time_position": 1784769344,
        "last_contact": 1784769344,
        "baro_altitude": null,
        "on_ground": true,
        "velocity": 0,
        "true_track": 0,
        "vertical_rate": null,
        "geo_altitude": null,
        "squawk": null,
        "spi": false,
        "position_source": 0
      }
    },
    {
      "type": "Feature",
      "geometry": {
        "type": "Point",
        "coordinates": [
          10.6055,
          41.283
        ]
      },
      "properties": {
        "icao24": "345617",
        "callsign": "LAV2136",
        "origin_country": "Spain",
        "time_position": 1784769358,
        "last_contact": 1784769358,
        "baro_altitude": 11277.6,
        "on_ground": false,
        "velocity": 211.24,
        "true_track": 247.37,
        "vertical_rate": 0,
        "geo_altitude": 11856.72,
        "squawk": "4135",
        "spi": false,
        "position_source": 0
      }
    },
    {
      "type": "Feature",
      "geometry": {
        "type": "Point",
        "coordinates": [
          16.8966,
          46.9985
        ]
      },
      "properties": {
        "icao24": "4bb294",
        "callsign": "TKJ51T",
        "origin_country": "Turkey",
        "time_position": 1784769358,
        "last_contact": 1784769358,
        "baro_altitude": 10058.4,
        "on_ground": false,
        "velocity": 261.55,
        "true_track": 126.44,
        "vertical_rate": 0,
        "geo_altitude": 10370.82,
        "squawk": "2105",
        "spi": false,
        "position_source": 0
      }
    },
    {
      "type": "Feature",
      "geometry": {
        "type": "Point",
        "coordinates": [
          14.9845,
          43.8087
        ]
      },
      "properties": {
        "icao24": "489225",
        "callsign": "ENT1357",
        "origin_country": "Poland",
        "time_position": 1784769358,
        "last_contact": 1784769358,
        "baro_altitude": 11277.6,
        "on_ground": false,
        "velocity": 232.14,
        "true_track": 195.42,
        "vertical_rate": 0,
        "geo_altitude": 11719.56,
        "squawk": "1334",
        "spi": false,
        "position_source": 0
      }
    },
    {
      "type": "Feature",
      "geometry": {
        "type": "Point",
        "coordinates": [
          12.1652,
          44.6126
        ]
      },
      "properties": {
        "icao24": "4bb187",
        "callsign": "THY181",
        "origin_country": "Turkey",
        "time_position": 1784769357,
        "last_contact": 1784769358,
        "baro_altitude": 9745.98,
        "on_ground": false,
        "velocity": 226.3,
        "true_track": 280.88,
        "vertical_rate": 0,
        "geo_altitude": 10157.46,
        "squawk": "5351",
        "spi": false,
        "position_source": 0
      }
    },
    {
      "type": "Feature",
      "geometry": {
        "type": "Point",
        "coordinates": [
          8.7762,
          45.1573
        ]
      },
      "properties": {
        "icao24": "4bb188",
        "callsign": "THY4JD",
        "origin_country": "Turkey",
        "time_position": 1784769358,
        "last_contact": 1784769358,
        "baro_altitude": 10965.18,
        "on_ground": false,
        "velocity": 225.99,
        "true_track": 272.09,
        "vertical_rate": 0,
        "geo_altitude": 11422.38,
        "squawk": "3244",
        "spi": false,
        "position_source": 0
      }
    },
    {
      "type": "Feature",
      "geometry": {
        "type": "Point",
        "coordinates": [
          13.1469,
          39.1029
        ]
      },
      "properties": {
        "icao24": "4ca907",
        "callsign": "MSA976P",
        "origin_country": "Ireland",
        "time_position": 1784769358,
        "last_contact": 1784769358,
        "baro_altitude": 6812.28,
        "on_ground": false,
        "velocity": 192.62,
        "true_track": 340.98,
        "vertical_rate": 10.08,
        "geo_altitude": 7193.28,
        "squawk": null,
        "spi": false,
        "position_source": 0
      }
    },
    {
      "type": "Feature",
      "geometry": {
        "type": "Point",
        "coordinates": [
          11.1842,
          41.2155
        ]
      },
      "properties": {
        "icao24": "4ca82c",
        "callsign": "MSA9784",
        "origin_country": "Ireland",
        "time_position": 1784769358,
        "last_contact": 1784769358,
        "baro_altitude": 7917.18,
        "on_ground": false,
        "velocity": 216.92,
        "true_track": 34.86,
        "vertical_rate": -4.88,
        "geo_altitude": 8382,
        "squawk": null,
        "spi": false,
        "position_source": 0
      }
    },
    {
      "type": "Feature",
      "geometry": {
        "type": "Point",
        "coordinates": [
          6.8022,
          40.9239
        ]
      },
      "properties": {
        "icao24": "345042",
        "callsign": "VLG1595",
        "origin_country": "Spain",
        "time_position": 1784769358,
        "last_contact": 1784769358,
        "baro_altitude": 10363.2,
        "on_ground": false,
        "velocity": 220.66,
        "true_track": 276.69,
        "vertical_rate": 0,
        "geo_altitude": 10949.94,
        "squawk": "1000",
        "spi": false,
        "position_source": 0
      }
    },
    {
      "type": "Feature",
      "geometry": {
        "type": "Point",
        "coordinates": [
          18.347,
          44.9579
        ]
      },
      "properties": {
        "icao24": "4bcdf0",
        "callsign": "SXS79Y",
        "origin_country": "Turkey",
        "time_position": 1784769358,
        "last_contact": 1784769358,
        "baro_altitude": 11277.6,
        "on_ground": false,
        "velocity": 256.45,
        "true_track": 139.31,
        "vertical_rate": 0,
        "geo_altitude": 11643.36,
        "squawk": "4506",
        "spi": false,
        "position_source": 0
      }
    },
    {
      "type": "Feature",
      "geometry": {
        "type": "Point",
        "coordinates": [
          16.1417,
          46.5122
        ]
      },
      "properties": {
        "icao24": "4bcdec",
        "callsign": "SXS9WA",
        "origin_country": "Turkey",
        "time_position": 1784769358,
        "last_contact": 1784769358,
        "baro_altitude": 10668,
        "on_ground": false,
        "velocity": 265.24,
        "true_track": 136.18,
        "vertical_rate": 0,
        "geo_altitude": 10995.66,
        "squawk": "6420",
        "spi": false,
        "position_source": 0
      }
    },
    {
      "type": "Feature",
      "geometry": {
        "type": "Point",
        "coordinates": [
          12.9565,
          40.9905
        ]
      },
      "properties": {
        "icao24": "3009bc",
        "callsign": "ARES44",
        "origin_country": "Italy",
        "time_position": 1784769357,
        "last_contact": 1784769359,
        "baro_altitude": 464.82,
        "on_ground": false,
        "velocity": 64.92,
        "true_track": 356.82,
        "vertical_rate": -0.33,
        "geo_altitude": 541.02,
        "squawk": null,
        "spi": false,
        "position_source": 0
      }
    },
    {
      "type": "Feature",
      "geometry": {
        "type": "Point",
        "coordinates": [
          10.0061,
          45.4709
        ]
      },
      "properties": {
        "icao24": "4ca738",
        "callsign": "RYR9MV",
        "origin_country": "Ireland",
        "time_position": 1784769358,
        "last_contact": 1784769358,
        "baro_altitude": 1935.48,
        "on_ground": false,
        "velocity": 124.81,
        "true_track": 313.5,
        "vertical_rate": -2.6,
        "geo_altitude": 2080.26,
        "squawk": "6026",
        "spi": false,
        "position_source": 0
      }
    },
    {
      "type": "Feature",
      "geometry": {
        "type": "Point",
        "coordinates": [
          17.7849,
          43.1788
        ]
      },
      "properties": {
        "icao24": "740825",
        "callsign": "RJA281",
        "origin_country": "Jordan",
        "time_position": 1784769358,
        "last_contact": 1784769358,
        "baro_altitude": 10965.18,
        "on_ground": false,
        "velocity": 228.51,
        "true_track": 305.19,
        "vertical_rate": -0.33,
        "geo_altitude": 11407.14,
        "squawk": "7627",
        "spi": true,
        "position_source": 0
      }
    },
    {
      "type": "Feature",
      "geometry": {
        "type": "Point",
        "coordinates": [
          18.823,
          44.4846
        ]
      },
      "properties": {
        "icao24": "4bcde4",
        "callsign": "SXS6XR",
        "origin_country": "Turkey",
        "time_position": 1784769357,
        "last_contact": 1784769358,
        "baro_altitude": 11277.6,
        "on_ground": false,
        "velocity": 256.81,
        "true_track": 138,
        "vertical_rate": 0,
        "geo_altitude": 11650.98,
        "squawk": "6424",
        "spi": false,
        "position_source": 0
      }
    },
    {
      "type": "Feature",
      "geometry": {
        "type": "Point",
        "coordinates": [
          9.0825,
          47.307
        ]
      },
      "properties": {
        "icao24": "3c1bac",
        "callsign": "BCS755",
        "origin_country": "Germany",
        "time_position": 1784769358,
        "last_contact": 1784769358,
        "baro_altitude": 9448.8,
        "on_ground": false,
        "velocity": 236.38,
        "true_track": 198.79,
        "vertical_rate": 0.33,
        "geo_altitude": 9822.18,
        "squawk": "1000",
        "spi": false,
        "position_source": 0
      }
    },
    {
      "type": "Feature",
      "geometry": {
        "type": "Point",
        "coordinates": [
          17.5299,
          44.5323
        ]
      },
      "properties": {
        "icao24": "4bcdaa",
        "callsign": "SXS3FP",
        "origin_country": "Turkey",
        "time_position": 1784769358,
        "last_contact": 1784769359,
        "baro_altitude": 11887.2,
        "on_ground": false,
        "velocity": 252.15,
        "true_track": 133.76,
        "vertical_rate": 0,
        "geo_altitude": 12298.68,
        "squawk": "7651",
        "spi": false,
        "position_source": 0
      }
    },
    {
      "type": "Feature",
      "geometry": {
        "type": "Point",
        "coordinates": [
          12.7419,
          45.4012
        ]
      },
      "properties": {
        "icao24": "40660e",
        "callsign": "TOM6JL",
        "origin_country": "United Kingdom",
        "time_position": 1784769358,
        "last_contact": 1784769358,
        "baro_altitude": 11582.4,
        "on_ground": false,
        "velocity": 197.14,
        "true_track": 307.26,
        "vertical_rate": 0,
        "geo_altitude": 11993.88,
        "squawk": "2026",
        "spi": false,
        "position_source": 0
      }
    },
    {
      "type": "Feature",
      "geometry": {
        "type": "Point",
        "coordinates": [
          18.0404,
          46.414
        ]
      },
      "properties": {
        "icao24": "4bccb9",
        "callsign": "SXS7GP",
        "origin_country": "Turkey",
        "time_position": 1784769358,
        "last_contact": 1784769358,
        "baro_altitude": 11582.4,
        "on_ground": false,
        "velocity": 205.12,
        "true_track": 310.32,
        "vertical_rate": 0,
        "geo_altitude": 11917.68,
        "squawk": "3232",
        "spi": false,
        "position_source": 0
      }
    },
    {
      "type": "Feature",
      "geometry": {
        "type": "Point",
        "coordinates": [
          10.5068,
          36.1955
        ]
      },
      "properties": {
        "icao24": "8940c9",
        "callsign": "GFA021",
        "origin_country": "Bahrain",
        "time_position": 1784769132,
        "last_contact": 1784769142,
        "baro_altitude": 10363.2,
        "on_ground": false,
        "velocity": 206.49,
        "true_track": 277.44,
        "vertical_rate": 0,
        "geo_altitude": 11041.38,
        "squawk": "6631",
        "spi": false,
        "position_source": 0
      }
    },
    {
      "type": "Feature",
      "geometry": {
        "type": "Point",
        "coordinates": [
          12.9975,
          38.8074
        ]
      },
      "properties": {
        "icao24": "424cbf",
        "callsign": "MACOR",
        "origin_country": "United Kingdom",
        "time_position": 1784769358,
        "last_contact": 1784769358,
        "baro_altitude": 4785.36,
        "on_ground": false,
        "velocity": 209.61,
        "true_track": 145.8,
        "vertical_rate": -11.05,
        "geo_altitude": 5128.26,
        "squawk": "2254",
        "spi": false,
        "position_source": 0
      }
    },
    {
      "type": "Feature",
      "geometry": {
        "type": "Point",
        "coordinates": [
          17.4576,
          40.3256
        ]
      },
      "properties": {
        "icao24": "3a4494",
        "callsign": "REU985",
        "origin_country": "France",
        "time_position": 1784769358,
        "last_contact": 1784769358,
        "baro_altitude": 10972.8,
        "on_ground": false,
        "velocity": 217.31,
        "true_track": 307.3,
        "vertical_rate": 0,
        "geo_altitude": 11498.58,
        "squawk": "4744",
        "spi": false,
        "position_source": 0
      }
    },
    {
      "type": "Feature",
      "geometry": {
        "type": "Point",
        "coordinates": [
          10.0159,
          39.8546
        ]
      },
      "properties": {
        "icao24": "49d2b7",
        "callsign": "EWG8LZ",
        "origin_country": "Czech Republic",
        "time_position": 1784769358,
        "last_contact": 1784769358,
        "baro_altitude": 10972.8,
        "on_ground": false,
        "velocity": 222.93,
        "true_track": 4.5,
        "vertical_rate": 0,
        "geo_altitude": 11590.02,
        "squawk": "6144",
        "spi": false,
        "position_source": 0
      }
    },
    {
      "type": "Feature",
      "geometry": {
        "type": "Point",
        "coordinates": [
          17.8776,
          43.1307
        ]
      },
      "properties": {
        "icao24": "010283",
        "callsign": "MSR986",
        "origin_country": "Egypt",
        "time_position": 1784769358,
        "last_contact": 1784769358,
        "baro_altitude": 11887.2,
        "on_ground": false,
        "velocity": 276.46,
        "true_track": 137.94,
        "vertical_rate": 0,
        "geo_altitude": 12321.54,
        "squawk": "1156",
        "spi": false,
        "position_source": 0
      }
    },
    {
      "type": "Feature",
      "geometry": {
        "type": "Point",
        "coordinates": [
          14.1515,
          43.443
        ]
      },
      "properties": {
        "icao24": "0101e0",
        "callsign": "MSR988",
        "origin_country": "Egypt",
        "time_position": 1784769358,
        "last_contact": 1784769358,
        "baro_altitude": 11277.6,
        "on_ground": false,
        "velocity": 278.92,
        "true_track": 117.94,
        "vertical_rate": -0.33,
        "geo_altitude": 11750.04,
        "squawk": "1165",
        "spi": false,
        "position_source": 0
      }
    },
    {
      "type": "Feature",
      "geometry": {
        "type": "Point",
        "coordinates": [
          9.1332,
          44.4744
        ]
      },
      "properties": {
        "icao24": "4d24fe",
        "callsign": "AIZ991",
        "origin_country": "Malta",
        "time_position": 1784769358,
        "last_contact": 1784769358,
        "baro_altitude": 10972.8,
        "on_ground": false,
        "velocity": 212.38,
        "true_track": 297.56,
        "vertical_rate": 0,
        "geo_altitude": 11445.24,
        "squawk": "4131",
        "spi": false,
        "position_source": 0
      }
    },
    {
      "type": "Feature",
      "geometry": {
        "type": "Point",
        "coordinates": [
          16.0398,
          42.7384
        ]
      },
      "properties": {
        "icao24": "0101de",
        "callsign": "MSR981",
        "origin_country": "Egypt",
        "time_position": 1784769336,
        "last_contact": 1784769348,
        "baro_altitude": 10363.2,
        "on_ground": false,
        "velocity": 228.48,
        "true_track": 311.62,
        "vertical_rate": -0.33,
        "geo_altitude": 10820.4,
        "squawk": null,
        "spi": false,
        "position_source": 0
      }
    },
    {
      "type": "Feature",
      "geometry": {
        "type": "Point",
        "coordinates": [
          8.0619,
          44.721
        ]
      },
      "properties": {
        "icao24": "347301",
        "callsign": "BCS7CK",
        "origin_country": "Spain",
        "time_position": 1784769358,
        "last_contact": 1784769358,
        "baro_altitude": 7863.84,
        "on_ground": false,
        "velocity": 214.56,
        "true_track": 208.65,
        "vertical_rate": 8.45,
        "geo_altitude": 8244.84,
        "squawk": "1000",
        "spi": false,
        "position_source": 0
      }
    },
    {
      "type": "Feature",
      "geometry": {
        "type": "Point",
        "coordinates": [
          17.38,
          35.8089
        ]
      },
      "properties": {
        "icao24": "744822",
        "callsign": "RJA555",
        "origin_country": "Jordan",
        "time_position": 1784769358,
        "last_contact": 1784769358,
        "baro_altitude": 10363.2,
        "on_ground": false,
        "velocity": 209,
        "true_track": 274.52,
        "vertical_rate": 0,
        "geo_altitude": 11026.14,
        "squawk": null,
        "spi": false,
        "position_source": 0
      }
    },
    {
      "type": "Feature",
      "geometry": {
        "type": "Point",
        "coordinates": [
          9.6673,
          43.7537
        ]
      },
      "properties": {
        "icao24": "4d22b6",
        "callsign": "RYR26PZ",
        "origin_country": "Malta",
        "time_position": 1784769358,
        "last_contact": 1784769358,
        "baro_altitude": 10972.8,
        "on_ground": false,
        "velocity": 245.92,
        "true_track": 54.88,
        "vertical_rate": 0,
        "geo_altitude": 11468.1,
        "squawk": "1000",
        "spi": false,
        "position_source": 0
      }
    },
    {
      "type": "Feature",
      "geometry": {
        "type": "Point",
        "coordinates": [
          12.0885,
          42.1233
        ]
      },
      "properties": {
        "icao24": "4ca256",
        "callsign": "RYR786",
        "origin_country": "Ireland",
        "time_position": 1784769358,
        "last_contact": 1784769358,
        "baro_altitude": 1653.54,
        "on_ground": false,
        "velocity": 128.02,
        "true_track": 157.56,
        "vertical_rate": -2.6,
        "geo_altitude": 1798.32,
        "squawk": "7451",
        "spi": false,
        "position_source": 0
      }
    },
    {
      "type": "Feature",
      "geometry": {
        "type": "Point",
        "coordinates": [
          17.1694,
          45.9041
        ]
      },
      "properties": {
        "icao24": "3c4583",
        "callsign": "BOX748",
        "origin_country": "Germany",
        "time_position": 1784769358,
        "last_contact": 1784769358,
        "baro_altitude": 9448.8,
        "on_ground": false,
        "velocity": 282.39,
        "true_track": 138.32,
        "vertical_rate": 0,
        "geo_altitude": 9768.84,
        "squawk": "2277",
        "spi": false,
        "position_source": 0
      }
    },
    {
      "type": "Feature",
      "geometry": {
        "type": "Point",
        "coordinates": [
          13.9579,
          47.6771
        ]
      },
      "properties": {
        "icao24": "40832a",
        "callsign": "TOM6KC",
        "origin_country": "United Kingdom",
        "time_position": 1784769358,
        "last_contact": 1784769358,
        "baro_altitude": 12192,
        "on_ground": false,
        "velocity": 204.47,
        "true_track": 305.89,
        "vertical_rate": -0.33,
        "geo_altitude": 12534.9,
        "squawk": "5305",
        "spi": false,
        "position_source": 0
      }
    },
    {
      "type": "Feature",
      "geometry": {
        "type": "Point",
        "coordinates": [
          17.1658,
          47.3841
        ]
      },
      "properties": {
        "icao24": "408386",
        "callsign": "EZY73HP",
        "origin_country": "United Kingdom",
        "time_position": 1784769358,
        "last_contact": 1784769358,
        "baro_altitude": 11018.52,
        "on_ground": false,
        "velocity": 196.96,
        "true_track": 297.37,
        "vertical_rate": 4.88,
        "geo_altitude": 11292.84,
        "squawk": "3256",
        "spi": false,
        "position_source": 0
      }
    },
    {
      "type": "Feature",
      "geometry": {
        "type": "Point",
        "coordinates": [
          18.3265,
          39.5665
        ]
      },
      "properties": {
        "icao24": "010153",
        "callsign": "MSR996",
        "origin_country": "Egypt",
        "time_position": 1784769357,
        "last_contact": 1784769358,
        "baro_altitude": 10668,
        "on_ground": false,
        "velocity": 286.93,
        "true_track": 117.44,
        "vertical_rate": 0,
        "geo_altitude": 11186.16,
        "squawk": "1152",
        "spi": false,
        "position_source": 0
      }
    },
    {
      "type": "Feature",
      "geometry": {
        "type": "Point",
        "coordinates": [
          14.452,
          47.2326
        ]
      },
      "properties": {
        "icao24": "4bb850",
        "callsign": "PGT66L",
        "origin_country": "Turkey",
        "time_position": 1784769358,
        "last_contact": 1784769359,
        "baro_altitude": 11277.6,
        "on_ground": false,
        "velocity": 262.7,
        "true_track": 131.75,
        "vertical_rate": 0.33,
        "geo_altitude": 11574.78,
        "squawk": "6431",
        "spi": false,
        "position_source": 0
      }
    },
    {
      "type": "Feature",
      "geometry": {
        "type": "Point",
        "coordinates": [
          15.6331,
          45.6592
        ]
      },
      "properties": {
        "icao24": "504e77",
        "callsign": "FIA5812",
        "origin_country": "Republic of Moldova",
        "time_position": 1784769358,
        "last_contact": 1784769358,
        "baro_altitude": 9753.6,
        "on_ground": false,
        "velocity": 262.88,
        "true_track": 73.52,
        "vertical_rate": 0,
        "geo_altitude": 10111.74,
        "squawk": "1166",
        "spi": false,
        "position_source": 0
      }
    },
    {
      "type": "Feature",
      "geometry": {
        "type": "Point",
        "coordinates": [
          15.9661,
          40.7487
        ]
      },
      "properties": {
        "icao24": "4bb876",
        "callsign": "PGT1562",
        "origin_country": "Turkey",
        "time_position": 1784769358,
        "last_contact": 1784769358,
        "baro_altitude": 11269.98,
        "on_ground": false,
        "velocity": 264.74,
        "true_track": 92.78,
        "vertical_rate": 0,
        "geo_altitude": 11826.24,
        "squawk": "1162",
        "spi": false,
        "position_source": 0
      }
    },
    {
      "type": "Feature",
      "geometry": {
        "type": "Point",
        "coordinates": [
          11.4812,
          36.0527
        ]
      },
      "properties": {
        "icao24": "504e88",
        "callsign": "SQY5024",
        "origin_country": "Republic of Moldova",
        "time_position": 1784769358,
        "last_contact": 1784769358,
        "baro_altitude": 6286.5,
        "on_ground": false,
        "velocity": 204.07,
        "true_track": 63.5,
        "vertical_rate": 12.03,
        "geo_altitude": 6766.56,
        "squawk": "6150",
        "spi": false,
        "position_source": 0
      }
    },
    {
      "type": "Feature",
      "geometry": {
        "type": "Point",
        "coordinates": [
          7.8052,
          44.3815
        ]
      },
      "properties": {
        "icao24": "451dad",
        "callsign": "BCS460",
        "origin_country": "Bulgaria",
        "time_position": 1784769359,
        "last_contact": 1784769359,
        "baro_altitude": 9555.48,
        "on_ground": false,
        "velocity": 215.51,
        "true_track": 208.83,
        "vertical_rate": 7.15,
        "geo_altitude": 9997.44,
        "squawk": "1000",
        "spi": false,
        "position_source": 0
      }
    },
    {
      "type": "Feature",
      "geometry": {
        "type": "Point",
        "coordinates": [
          10.5896,
          42.4478
        ]
      },
      "properties": {
        "icao24": "47ae38",
        "callsign": "NBT50P",
        "origin_country": "Norway",
        "time_position": 1784769358,
        "last_contact": 1784769358,
        "baro_altitude": 11887.2,
        "on_ground": false,
        "velocity": 278.57,
        "true_track": 109.64,
        "vertical_rate": -0.33,
        "geo_altitude": 12458.7,
        "squawk": "5206",
        "spi": false,
        "position_source": 0
      }
    },
    {
      "type": "Feature",
      "geometry": {
        "type": "Point",
        "coordinates": [
          7.8025,
          43.9151
        ]
      },
      "properties": {
        "icao24": "440582",
        "callsign": "EJU76CN",
        "origin_country": "Austria",
        "time_position": 1784769359,
        "last_contact": 1784769359,
        "baro_altitude": 9044.94,
        "on_ground": false,
        "velocity": 201.94,
        "true_track": 24.21,
        "vertical_rate": -4.88,
        "geo_altitude": 9494.52,
        "squawk": "1000",
        "spi": false,
        "position_source": 0
      }
    },
    {
      "type": "Feature",
      "geometry": {
        "type": "Point",
        "coordinates": [
          9.7931,
          40.0648
        ]
      },
      "properties": {
        "icao24": "3c66a1",
        "callsign": "DLH1327",
        "origin_country": "Germany",
        "time_position": 1784769358,
        "last_contact": 1784769358,
        "baro_altitude": 11590.02,
        "on_ground": false,
        "velocity": 226.4,
        "true_track": 1.17,
        "vertical_rate": 0,
        "geo_altitude": 12222.48,
        "squawk": "6140",
        "spi": false,
        "position_source": 0
      }
    },
    {
      "type": "Feature",
      "geometry": {
        "type": "Point",
        "coordinates": [
          15.348,
          45.1944
        ]
      },
      "properties": {
        "icao24": "4d2022",
        "callsign": "WZZ1JS",
        "origin_country": "Malta",
        "time_position": 1784769358,
        "last_contact": 1784769358,
        "baro_altitude": 10972.8,
        "on_ground": false,
        "velocity": 244.93,
        "true_track": 46.79,
        "vertical_rate": 0.33,
        "geo_altitude": 11391.9,
        "squawk": "1000",
        "spi": false,
        "position_source": 0
      }
    },
    {
      "type": "Feature",
      "geometry": {
        "type": "Point",
        "coordinates": [
          8.5606,
          47.4428
        ]
      },
      "properties": {
        "icao24": "4b17e3",
        "callsign": "SWR7ZX",
        "origin_country": "Switzerland",
        "time_position": 1784769122,
        "last_contact": 1784769126,
        "baro_altitude": null,
        "on_ground": true,
        "velocity": 0,
        "true_track": 244.69,
        "vertical_rate": null,
        "geo_altitude": null,
        "squawk": null,
        "spi": false,
        "position_source": 0
      }
    }
  ]
}