{
  "type": "FeatureCollection",
  "source": "opensky",
  "dataset": "aircraft_italy",
  "generated_at": "2026-06-01T23:18:12.991927+00:00",
  "opensky_time": 1780355892,
  "count": 137,
  "features": [
    {
      "type": "Feature",
      "geometry": {
        "type": "Point",
        "coordinates": [
          18.7085,
          43.1336
        ]
      },
      "properties": {
        "icao24": "80166c",
        "callsign": "AIC2018",
        "origin_country": "India",
        "time_position": 1780355892,
        "last_contact": 1780355892,
        "baro_altitude": 11277.6,
        "on_ground": false,
        "velocity": 272.22,
        "true_track": 136.68,
        "vertical_rate": -0.33,
        "geo_altitude": 11582.4,
        "squawk": "5270",
        "spi": false,
        "position_source": 0
      }
    },
    {
      "type": "Feature",
      "geometry": {
        "type": "Point",
        "coordinates": [
          15.3918,
          44.8634
        ]
      },
      "properties": {
        "icao24": "471eff",
        "callsign": "WMT286",
        "origin_country": "Hungary",
        "time_position": 1780355891,
        "last_contact": 1780355891,
        "baro_altitude": 11285.22,
        "on_ground": false,
        "velocity": 259.27,
        "true_track": 140.88,
        "vertical_rate": 0,
        "geo_altitude": 11612.88,
        "squawk": "5202",
        "spi": false,
        "position_source": 0
      }
    },
    {
      "type": "Feature",
      "geometry": {
        "type": "Point",
        "coordinates": [
          7.2033,
          43.6569
        ]
      },
      "properties": {
        "icao24": "44020c",
        "callsign": "EJU73FG",
        "origin_country": "Austria",
        "time_position": 1780355822,
        "last_contact": 1780355827,
        "baro_altitude": null,
        "on_ground": true,
        "velocity": 0,
        "true_track": 309.38,
        "vertical_rate": null,
        "geo_altitude": null,
        "squawk": "6323",
        "spi": false,
        "position_source": 0
      }
    },
    {
      "type": "Feature",
      "geometry": {
        "type": "Point",
        "coordinates": [
          13.5548,
          46.4446
        ]
      },
      "properties": {
        "icao24": "46b824",
        "callsign": "AEE609",
        "origin_country": "Greece",
        "time_position": 1780355892,
        "last_contact": 1780355892,
        "baro_altitude": 11277.6,
        "on_ground": false,
        "velocity": 261.92,
        "true_track": 134.52,
        "vertical_rate": -0.33,
        "geo_altitude": 11628.12,
        "squawk": "4703",
        "spi": false,
        "position_source": 0
      }
    },
    {
      "type": "Feature",
      "geometry": {
        "type": "Point",
        "coordinates": [
          11.4498,
          44.5348
        ]
      },
      "properties": {
        "icao24": "801612",
        "callsign": "AIC110",
        "origin_country": "India",
        "time_position": 1780355892,
        "last_contact": 1780355892,
        "baro_altitude": 11277.6,
        "on_ground": false,
        "velocity": 263.98,
        "true_track": 100.21,
        "vertical_rate": 0,
        "geo_altitude": 11658.6,
        "squawk": "0411",
        "spi": false,
        "position_source": 0
      }
    },
    {
      "type": "Feature",
      "geometry": {
        "type": "Point",
        "coordinates": [
          8.3098,
          47.3472
        ]
      },
      "properties": {
        "icao24": "407b54",
        "callsign": "WUK597",
        "origin_country": "United Kingdom",
        "time_position": 1780355892,
        "last_contact": 1780355892,
        "baro_altitude": 10972.8,
        "on_ground": false,
        "velocity": 209.81,
        "true_track": 285.5,
        "vertical_rate": 0,
        "geo_altitude": 11369.04,
        "squawk": "3274",
        "spi": false,
        "position_source": 0
      }
    },
    {
      "type": "Feature",
      "geometry": {
        "type": "Point",
        "coordinates": [
          14.4061,
          41.9158
        ]
      },
      "properties": {
        "icao24": "471fac",
        "callsign": "WMT5655",
        "origin_country": "Hungary",
        "time_position": 1780355892,
        "last_contact": 1780355892,
        "baro_altitude": 10972.8,
        "on_ground": false,
        "velocity": 228.04,
        "true_track": 79.6,
        "vertical_rate": -0.33,
        "geo_altitude": 11376.66,
        "squawk": "1250",
        "spi": false,
        "position_source": 0
      }
    },
    {
      "type": "Feature",
      "geometry": {
        "type": "Point",
        "coordinates": [
          12.3363,
          45.4931
        ]
      },
      "properties": {
        "icao24": "471fad",
        "callsign": "WMT6084",
        "origin_country": "Hungary",
        "time_position": 1780355701,
        "last_contact": 1780355701,
        "baro_altitude": 7.62,
        "on_ground": false,
        "velocity": 70.32,
        "true_track": 41.74,
        "vertical_rate": -3.58,
        "geo_altitude": 83.82,
        "squawk": "5523",
        "spi": false,
        "position_source": 0
      }
    },
    {
      "type": "Feature",
      "geometry": {
        "type": "Point",
        "coordinates": [
          16.0662,
          46.1961
        ]
      },
      "properties": {
        "icao24": "471fae",
        "callsign": "WZZ1JS",
        "origin_country": "Hungary",
        "time_position": 1780355892,
        "last_contact": 1780355892,
        "baro_altitude": 10668,
        "on_ground": false,
        "velocity": 235.28,
        "true_track": 85.61,
        "vertical_rate": 0,
        "geo_altitude": 10965.18,
        "squawk": "1000",
        "spi": false,
        "position_source": 0
      }
    },
    {
      "type": "Feature",
      "geometry": {
        "type": "Point",
        "coordinates": [
          15.8428,
          43.2831
        ]
      },
      "properties": {
        "icao24": "73806b",
        "callsign": "ELY388",
        "origin_country": "Israel",
        "time_position": 1780355891,
        "last_contact": 1780355891,
        "baro_altitude": 10668,
        "on_ground": false,
        "velocity": 254.99,
        "true_track": 121.64,
        "vertical_rate": 0,
        "geo_altitude": 11010.9,
        "squawk": "0425",
        "spi": false,
        "position_source": 0
      }
    },
    {
      "type": "Feature",
      "geometry": {
        "type": "Point",
        "coordinates": [
          17.3854,
          46.8521
        ]
      },
      "properties": {
        "icao24": "4bb46e",
        "callsign": "MNB413",
        "origin_country": "Turkey",
        "time_position": 1780355891,
        "last_contact": 1780355891,
        "baro_altitude": 11887.2,
        "on_ground": false,
        "velocity": 258.47,
        "true_track": 130.16,
        "vertical_rate": 0.33,
        "geo_altitude": 12115.8,
        "squawk": "2151",
        "spi": false,
        "position_source": 0
      }
    },
    {
      "type": "Feature",
      "geometry": {
        "type": "Point",
        "coordinates": [
          8.7198,
          45.6211
        ]
      },
      "properties": {
        "icao24": "73805c",
        "callsign": "ELY834",
        "origin_country": "Israel",
        "time_position": 1780355891,
        "last_contact": 1780355891,
        "baro_altitude": null,
        "on_ground": true,
        "velocity": 3.34,
        "true_track": 348.75,
        "vertical_rate": null,
        "geo_altitude": null,
        "squawk": null,
        "spi": false,
        "position_source": 0
      }
    },
    {
      "type": "Feature",
      "geometry": {
        "type": "Point",
        "coordinates": [
          15.0874,
          45.4453
        ]
      },
      "properties": {
        "icao24": "738073",
        "callsign": "ELY318",
        "origin_country": "Israel",
        "time_position": 1780355891,
        "last_contact": 1780355891,
        "baro_altitude": 11887.2,
        "on_ground": false,
        "velocity": 269.92,
        "true_track": 134.69,
        "vertical_rate": 0,
        "geo_altitude": 12222.48,
        "squawk": "5230",
        "spi": false,
        "position_source": 0
      }
    },
    {
      "type": "Feature",
      "geometry": {
        "type": "Point",
        "coordinates": [
          9.8929,
          40.2816
        ]
      },
      "properties": {
        "icao24": "738054",
        "callsign": "ELY392",
        "origin_country": "Israel",
        "time_position": 1780355891,
        "last_contact": 1780355891,
        "baro_altitude": 10363.2,
        "on_ground": false,
        "velocity": 237.5,
        "true_track": 101.12,
        "vertical_rate": 0,
        "geo_altitude": 10812.78,
        "squawk": "1411",
        "spi": false,
        "position_source": 0
      }
    },
    {
      "type": "Feature",
      "geometry": {
        "type": "Point",
        "coordinates": [
          13.2318,
          39.7862
        ]
      },
      "properties": {
        "icao24": "738052",
        "callsign": "ELY398",
        "origin_country": "Israel",
        "time_position": 1780355891,
        "last_contact": 1780355892,
        "baro_altitude": 10363.2,
        "on_ground": false,
        "velocity": 238.56,
        "true_track": 103.98,
        "vertical_rate": 0,
        "geo_altitude": 10774.68,
        "squawk": "1452",
        "spi": false,
        "position_source": 0
      }
    },
    {
      "type": "Feature",
      "geometry": {
        "type": "Point",
        "coordinates": [
          8.6223,
          44.3252
        ]
      },
      "properties": {
        "icao24": "44001f",
        "callsign": "EJU72TV",
        "origin_country": "Austria",
        "time_position": 1780355891,
        "last_contact": 1780355891,
        "baro_altitude": 7597.14,
        "on_ground": false,
        "velocity": 220.73,
        "true_track": 13.62,
        "vertical_rate": -12.03,
        "geo_altitude": 7962.9,
        "squawk": "1000",
        "spi": false,
        "position_source": 0
      }
    },
    {
      "type": "Feature",
      "geometry": {
        "type": "Point",
        "coordinates": [
          16.2847,
          45.4293
        ]
      },
      "properties": {
        "icao24": "452199",
        "callsign": "AIZ514",
        "origin_country": "Bulgaria",
        "time_position": 1780355891,
        "last_contact": 1780355892,
        "baro_altitude": 10058.4,
        "on_ground": false,
        "velocity": 260.46,
        "true_track": 134.68,
        "vertical_rate": -0.33,
        "geo_altitude": 8854.44,
        "squawk": "3136",
        "spi": false,
        "position_source": 0
      }
    },
    {
      "type": "Feature",
      "geometry": {
        "type": "Point",
        "coordinates": [
          12.0642,
          45.4601
        ]
      },
      "properties": {
        "icao24": "300a44",
        "callsign": "LSI220",
        "origin_country": "Italy",
        "time_position": 1780355892,
        "last_contact": 1780355892,
        "baro_altitude": 10363.2,
        "on_ground": false,
        "velocity": 235.71,
        "true_track": 284.79,
        "vertical_rate": 0,
        "geo_altitude": 10728.96,
        "squawk": "2316",
        "spi": false,
        "position_source": 0
      }
    },
    {
      "type": "Feature",
      "geometry": {
        "type": "Point",
        "coordinates": [
          9.5093,
          44.9428
        ]
      },
      "properties": {
        "icao24": "4892c0",
        "callsign": "ENT5EY",
        "origin_country": "Poland",
        "time_position": 1780355892,
        "last_contact": 1780355892,
        "baro_altitude": 11582.4,
        "on_ground": false,
        "velocity": 235.03,
        "true_track": 49.62,
        "vertical_rate": 0,
        "geo_altitude": 12001.5,
        "squawk": "1000",
        "spi": false,
        "position_source": 0
      }
    },
    {
      "type": "Feature",
      "geometry": {
        "type": "Point",
        "coordinates": [
          13.5945,
          47.3918
        ]
      },
      "properties": {
        "icao24": "4892c7",
        "callsign": "ENT2HC",
        "origin_country": "Poland",
        "time_position": 1780355892,
        "last_contact": 1780355892,
        "baro_altitude": 12192,
        "on_ground": false,
        "velocity": 210.99,
        "true_track": 50.84,
        "vertical_rate": 0,
        "geo_altitude": 12512.04,
        "squawk": "1000",
        "spi": false,
        "position_source": 0
      }
    },
    {
      "type": "Feature",
      "geometry": {
        "type": "Point",
        "coordinates": [
          12.3306,
          35.5426
        ]
      },
      "properties": {
        "icao24": "8a0815",
        "callsign": "KNE9107",
        "origin_country": "Indonesia",
        "time_position": 1780355891,
        "last_contact": 1780355891,
        "baro_altitude": 11887.2,
        "on_ground": false,
        "velocity": 237.99,
        "true_track": 99.71,
        "vertical_rate": 0,
        "geo_altitude": 12298.68,
        "squawk": null,
        "spi": false,
        "position_source": 0
      }
    },
    {
      "type": "Feature",
      "geometry": {
        "type": "Point",
        "coordinates": [
          6.1367,
          41.3357
        ]
      },
      "properties": {
        "icao24": "02010d",
        "callsign": "MAC468",
        "origin_country": "Morocco",
        "time_position": 1780355891,
        "last_contact": 1780355891,
        "baro_altitude": 11887.2,
        "on_ground": false,
        "velocity": 232.25,
        "true_track": 221.14,
        "vertical_rate": 0.33,
        "geo_altitude": 12382.5,
        "squawk": "4036",
        "spi": false,
        "position_source": 0
      }
    },
    {
      "type": "Feature",
      "geometry": {
        "type": "Point",
        "coordinates": [
          9.9095,
          39.9168
        ]
      },
      "properties": {
        "icao24": "4bb28b",
        "callsign": "THY5LY",
        "origin_country": "Turkey",
        "time_position": 1780355891,
        "last_contact": 1780355891,
        "baro_altitude": 9753.6,
        "on_ground": false,
        "velocity": 231.14,
        "true_track": 78.97,
        "vertical_rate": 0,
        "geo_altitude": 10195.56,
        "squawk": null,
        "spi": false,
        "position_source": 0
      }
    },
    {
      "type": "Feature",
      "geometry": {
        "type": "Point",
        "coordinates": [
          14.3161,
          45.9974
        ]
      },
      "properties": {
        "icao24": "8005f2",
        "callsign": "AIC160",
        "origin_country": "India",
        "time_position": 1780355892,
        "last_contact": 1780355892,
        "baro_altitude": 11879.58,
        "on_ground": false,
        "velocity": 274.98,
        "true_track": 130.9,
        "vertical_rate": -0.33,
        "geo_altitude": 12214.86,
        "squawk": "5266",
        "spi": false,
        "position_source": 0
      }
    },
    {
      "type": "Feature",
      "geometry": {
        "type": "Point",
        "coordinates": [
          16.6898,
          44.7916
        ]
      },
      "properties": {
        "icao24": "89639f",
        "callsign": "UAE6",
        "origin_country": "United Arab Emirates",
        "time_position": 1780355891,
        "last_contact": 1780355891,
        "baro_altitude": 11887.2,
        "on_ground": false,
        "velocity": 275.74,
        "true_track": 129.09,
        "vertical_rate": 0,
        "geo_altitude": 12192,
        "squawk": "5243",
        "spi": false,
        "position_source": 0
      }
    },
    {
      "type": "Feature",
      "geometry": {
        "type": "Point",
        "coordinates": [
          17.6058,
          43.9223
        ]
      },
      "properties": {
        "icao24": "4067f0",
        "callsign": "TOM9YC",
        "origin_country": "United Kingdom",
        "time_position": 1780355890,
        "last_contact": 1780355891,
        "baro_altitude": 10972.8,
        "on_ground": false,
        "velocity": 205.25,
        "true_track": 295.54,
        "vertical_rate": 0,
        "geo_altitude": 11262.36,
        "squawk": "3263",
        "spi": false,
        "position_source": 0
      }
    },
    {
      "type": "Feature",
      "geometry": {
        "type": "Point",
        "coordinates": [
          16.7919,
          46.7597
        ]
      },
      "properties": {
        "icao24": "4bb19a",
        "callsign": "THY4RN",
        "origin_country": "Turkey",
        "time_position": 1780355891,
        "last_contact": 1780355892,
        "baro_altitude": 11879.58,
        "on_ground": false,
        "velocity": 264.49,
        "true_track": 118.46,
        "vertical_rate": 0.33,
        "geo_altitude": 12161.52,
        "squawk": "4611",
        "spi": false,
        "position_source": 0
      }
    },
    {
      "type": "Feature",
      "geometry": {
        "type": "Point",
        "coordinates": [
          18.0428,
          42.6454
        ]
      },
      "properties": {
        "icao24": "896480",
        "callsign": "UAE5V",
        "origin_country": "United Arab Emirates",
        "time_position": 1780355891,
        "last_contact": 1780355891,
        "baro_altitude": 11277.6,
        "on_ground": false,
        "velocity": 271.75,
        "true_track": 113.07,
        "vertical_rate": -0.33,
        "geo_altitude": 11590.02,
        "squawk": "3751",
        "spi": false,
        "position_source": 0
      }
    },
    {
      "type": "Feature",
      "geometry": {
        "type": "Point",
        "coordinates": [
          18.776,
          43.7964
        ]
      },
      "properties": {
        "icao24": "4077bb",
        "callsign": "EXS36UM",
        "origin_country": "United Kingdom",
        "time_position": 1780355892,
        "last_contact": 1780355892,
        "baro_altitude": 10972.8,
        "on_ground": false,
        "velocity": 213.16,
        "true_track": 310.3,
        "vertical_rate": -0.33,
        "geo_altitude": 11254.74,
        "squawk": "1167",
        "spi": false,
        "position_source": 0
      }
    },
    {
      "type": "Feature",
      "geometry": {
        "type": "Point",
        "coordinates": [
          16.8449,
          46.9077
        ]
      },
      "properties": {
        "icao24": "4076ed",
        "callsign": "EXS406",
        "origin_country": "United Kingdom",
        "time_position": 1780355891,
        "last_contact": 1780355892,
        "baro_altitude": 10972.8,
        "on_ground": false,
        "velocity": 209.5,
        "true_track": 304.9,
        "vertical_rate": 0,
        "geo_altitude": 11239.5,
        "squawk": "2220",
        "spi": false,
        "position_source": 0
      }
    },
    {
      "type": "Feature",
      "geometry": {
        "type": "Point",
        "coordinates": [
          8.6815,
          47.1663
        ]
      },
      "properties": {
        "icao24": "406673",
        "callsign": "EZY85HY",
        "origin_country": "United Kingdom",
        "time_position": 1780355891,
        "last_contact": 1780355891,
        "baro_altitude": 10972.8,
        "on_ground": false,
        "velocity": 205.64,
        "true_track": 288.98,
        "vertical_rate": 0,
        "geo_altitude": 11361.42,
        "squawk": "2770",
        "spi": false,
        "position_source": 0
      }
    },
    {
      "type": "Feature",
      "geometry": {
        "type": "Point",
        "coordinates": [
          7.8071,
          47.5161
        ]
      },
      "properties": {
        "icao24": "40665e",
        "callsign": "TOM6LM",
        "origin_country": "United Kingdom",
        "time_position": 1780355892,
        "last_contact": 1780355892,
        "baro_altitude": 10972.8,
        "on_ground": false,
        "velocity": 214.61,
        "true_track": 302.97,
        "vertical_rate": 0,
        "geo_altitude": 11338.56,
        "squawk": "7524",
        "spi": false,
        "position_source": 0
      }
    },
    {
      "type": "Feature",
      "geometry": {
        "type": "Point",
        "coordinates": [
          9.5953,
          43.0199
        ]
      },
      "properties": {
        "icao24": "896711",
        "callsign": "A6AFE",
        "origin_country": "United Arab Emirates",
        "time_position": 1780355892,
        "last_contact": 1780355892,
        "baro_altitude": 8648.7,
        "on_ground": false,
        "velocity": 227.36,
        "true_track": 284.95,
        "vertical_rate": -8.78,
        "geo_altitude": 9022.08,
        "squawk": "3203",
        "spi": false,
        "position_source": 0
      }
    },
    {
      "type": "Feature",
      "geometry": {
        "type": "Point",
        "coordinates": [
          17.7216,
          44.4249
        ]
      },
      "properties": {
        "icao24": "40660c",
        "callsign": "TOM3TH",
        "origin_country": "United Kingdom",
        "time_position": 1780355891,
        "last_contact": 1780355891,
        "baro_altitude": 11582.4,
        "on_ground": false,
        "velocity": 210.78,
        "true_track": 309.75,
        "vertical_rate": 0,
        "geo_altitude": 11871.96,
        "squawk": "5515",
        "spi": false,
        "position_source": 0
      }
    },
    {
      "type": "Feature",
      "geometry": {
        "type": "Point",
        "coordinates": [
          16.3807,
          43.3203
        ]
      },
      "properties": {
        "icao24": "40796c",
        "callsign": "TOM1TK",
        "origin_country": "United Kingdom",
        "time_position": 1780355891,
        "last_contact": 1780355891,
        "baro_altitude": 11582.4,
        "on_ground": false,
        "velocity": 208.6,
        "true_track": 309.7,
        "vertical_rate": 0,
        "geo_altitude": 11925.3,
        "squawk": "6624",
        "spi": false,
        "position_source": 0
      }
    },
    {
      "type": "Feature",
      "geometry": {
        "type": "Point",
        "coordinates": [
          18.32,
          42.0755
        ]
      },
      "properties": {
        "icao24": "40796a",
        "callsign": "TOM451",
        "origin_country": "United Kingdom",
        "time_position": 1780355891,
        "last_contact": 1780355892,
        "baro_altitude": 10972.8,
        "on_ground": false,
        "velocity": 216.18,
        "true_track": 311.24,
        "vertical_rate": -0.33,
        "geo_altitude": 11323.32,
        "squawk": "5504",
        "spi": false,
        "position_source": 0
      }
    },
    {
      "type": "Feature",
      "geometry": {
        "type": "Point",
        "coordinates": [
          18.6463,
          42.5914
        ]
      },
      "properties": {
        "icao24": "400ff4",
        "callsign": "TOM1AB",
        "origin_country": "United Kingdom",
        "time_position": 1780355891,
        "last_contact": 1780355891,
        "baro_altitude": 10972.8,
        "on_ground": false,
        "velocity": 206.91,
        "true_track": 306.81,
        "vertical_rate": 0.33,
        "geo_altitude": 11269.98,
        "squawk": "2223",
        "spi": false,
        "position_source": 0
      }
    },
    {
      "type": "Feature",
      "geometry": {
        "type": "Point",
        "coordinates": [
          16.8944,
          45.7236
        ]
      },
      "properties": {
        "icao24": "896682",
        "callsign": "UAE78P",
        "origin_country": "United Arab Emirates",
        "time_position": 1780355891,
        "last_contact": 1780355891,
        "baro_altitude": 11894.82,
        "on_ground": false,
        "velocity": 270.7,
        "true_track": 127.04,
        "vertical_rate": 0.33,
        "geo_altitude": 12146.28,
        "squawk": "2246",
        "spi": false,
        "position_source": 0
      }
    },
    {
      "type": "Feature",
      "geometry": {
        "type": "Point",
        "coordinates": [
          17.6296,
          46.6842
        ]
      },
      "properties": {
        "icao24": "4b9856",
        "callsign": "FHY727",
        "origin_country": "Turkey",
        "time_position": 1780355438,
        "last_contact": 1780355892,
        "baro_altitude": 10972.8,
        "on_ground": false,
        "velocity": 0.77,
        "true_track": 70.31,
        "vertical_rate": null,
        "geo_altitude": null,
        "squawk": "5323",
        "spi": false,
        "position_source": 0
      }
    },
    {
      "type": "Feature",
      "geometry": {
        "type": "Point",
        "coordinates": [
          17.8191,
          47.4886
        ]
      },
      "properties": {
        "icao24": "4bcd83",
        "callsign": "SXS4BD",
        "origin_country": "Turkey",
        "time_position": 1780355891,
        "last_contact": 1780355892,
        "baro_altitude": 11582.4,
        "on_ground": false,
        "velocity": 220.62,
        "true_track": 305.99,
        "vertical_rate": 0.33,
        "geo_altitude": 11818.62,
        "squawk": "5315",
        "spi": false,
        "position_source": 0
      }
    },
    {
      "type": "Feature",
      "geometry": {
        "type": "Point",
        "coordinates": [
          11.9121,
          36.4911
        ]
      },
      "properties": {
        "icao24": "040140",
        "callsign": "ETH741",
        "origin_country": "Ethiopia",
        "time_position": 1780355891,
        "last_contact": 1780355891,
        "baro_altitude": 11269.98,
        "on_ground": false,
        "velocity": 245.93,
        "true_track": 96.49,
        "vertical_rate": -0.33,
        "geo_altitude": 11711.94,
        "squawk": null,
        "spi": false,
        "position_source": 0
      }
    },
    {
      "type": "Feature",
      "geometry": {
        "type": "Point",
        "coordinates": [
          14.7972,
          46.3856
        ]
      },
      "properties": {
        "icao24": "394a03",
        "callsign": "AFR116",
        "origin_country": "France",
        "time_position": 1780355892,
        "last_contact": 1780355892,
        "baro_altitude": 9448.8,
        "on_ground": false,
        "velocity": 267.23,
        "true_track": 110.04,
        "vertical_rate": 0,
        "geo_altitude": 9753.6,
        "squawk": "0674",
        "spi": false,
        "position_source": 0
      }
    },
    {
      "type": "Feature",
      "geometry": {
        "type": "Point",
        "coordinates": [
          16.0675,
          41.8916
        ]
      },
      "properties": {
        "icao24": "394a13",
        "callsign": "AFR672",
        "origin_country": "France",
        "time_position": 1780355891,
        "last_contact": 1780355892,
        "baro_altitude": 9448.8,
        "on_ground": false,
        "velocity": 269.66,
        "true_track": 138.4,
        "vertical_rate": 0,
        "geo_altitude": 9837.42,
        "squawk": "0676",
        "spi": false,
        "position_source": 0
      }
    },
    {
      "type": "Feature",
      "geometry": {
        "type": "Point",
        "coordinates": [
          17.9959,
          46.442
        ]
      },
      "properties": {
        "icao24": "5082f0",
        "callsign": "MGH132",
        "origin_country": "Ukraine",
        "time_position": 1780355891,
        "last_contact": 1780355891,
        "baro_altitude": 10660.38,
        "on_ground": false,
        "velocity": 249.96,
        "true_track": 127.98,
        "vertical_rate": 0,
        "geo_altitude": 10911.84,
        "squawk": "4522",
        "spi": false,
        "position_source": 0
      }
    },
    {
      "type": "Feature",
      "geometry": {
        "type": "Point",
        "coordinates": [
          11.1139,
          41.7376
        ]
      },
      "properties": {
        "icao24": "040048",
        "callsign": "ETH519",
        "origin_country": "Ethiopia",
        "time_position": 1780355891,
        "last_contact": 1780355891,
        "baro_altitude": 11590.02,
        "on_ground": false,
        "velocity": 260.08,
        "true_track": 125.42,
        "vertical_rate": 5.85,
        "geo_altitude": 12024.36,
        "squawk": "4310",
        "spi": false,
        "position_source": 0
      }
    },
    {
      "type": "Feature",
      "geometry": {
        "type": "Point",
        "coordinates": [
          10.6049,
          42.0467
        ]
      },
      "properties": {
        "icao24": "04004a",
        "callsign": "ETH575",
        "origin_country": "Ethiopia",
        "time_position": 1780355892,
        "last_contact": 1780355892,
        "baro_altitude": 11879.58,
        "on_ground": false,
        "velocity": 259.07,
        "true_track": 125.3,
        "vertical_rate": -0.33,
        "geo_altitude": 12329.16,
        "squawk": "4314",
        "spi": false,
        "position_source": 0
      }
    },
    {
      "type": "Feature",
      "geometry": {
        "type": "Point",
        "coordinates": [
          18.418,
          47.3685
        ]
      },
      "properties": {
        "icao24": "406ecd",
        "callsign": "VIR346",
        "origin_country": "United Kingdom",
        "time_position": 1780355891,
        "last_contact": 1780355891,
        "baro_altitude": 10668,
        "on_ground": false,
        "velocity": 262.37,
        "true_track": 112.84,
        "vertical_rate": 0.33,
        "geo_altitude": 10896.6,
        "squawk": "2222",
        "spi": false,
        "position_source": 0
      }
    },
    {
      "type": "Feature",
      "geometry": {
        "type": "Point",
        "coordinates": [
          14.2797,
          45.2563
        ]
      },
      "properties": {
        "icao24": "407fc1",
        "callsign": "WUK7402",
        "origin_country": "United Kingdom",
        "time_position": 1780355892,
        "last_contact": 1780355892,
        "baro_altitude": 11277.6,
        "on_ground": false,
        "velocity": 255.23,
        "true_track": 131.08,
        "vertical_rate": 0,
        "geo_altitude": 11635.74,
        "squawk": "2260",
        "spi": false,
        "position_source": 0
      }
    },
    {
      "type": "Feature",
      "geometry": {
        "type": "Point",
        "coordinates": [
          8.9177,
          45.1594
        ]
      },
      "properties": {
        "icao24": "44083c",
        "callsign": "EJU87JC",
        "origin_country": "Austria",
        "time_position": 1780355891,
        "last_contact": 1780355891,
        "baro_altitude": 2735.58,
        "on_ground": false,
        "velocity": 148.08,
        "true_track": 338.61,
        "vertical_rate": -12.35,
        "geo_altitude": 2895.6,
        "squawk": "5176",
        "spi": false,
        "position_source": 0
      }
    },
    {
      "type": "Feature",
      "geometry": {
        "type": "Point",
        "coordinates": [
          8.7299,
          45.6272
        ]
      },
      "properties": {
        "icao24": "31d7ab",
        "callsign": "MIKE2",
        "origin_country": "Italy",
        "time_position": 1780355891,
        "last_contact": 1780355891,
        "baro_altitude": null,
        "on_ground": true,
        "velocity": 3.09,
        "true_track": 112.5,
        "vertical_rate": null,
        "geo_altitude": null,
        "squawk": null,
        "spi": false,
        "position_source": 0
      }
    },
    {
      "type": "Feature",
      "geometry": {
        "type": "Point",
        "coordinates": [
          8.7176,
          45.6268
        ]
      },
      "properties": {
        "icao24": "31d7a2",
        "callsign": null,
        "origin_country": "Italy",
        "time_position": 1780355696,
        "last_contact": 1780355696,
        "baro_altitude": null,
        "on_ground": true,
        "velocity": 8.75,
        "true_track": 168.75,
        "vertical_rate": null,
        "geo_altitude": null,
        "squawk": null,
        "spi": false,
        "position_source": 0
      }
    },
    {
      "type": "Feature",
      "geometry": {
        "type": "Point",
        "coordinates": [
          14.1143,
          46.7299
        ]
      },
      "properties": {
        "icao24": "407ff4",
        "callsign": "WUK243",
        "origin_country": "United Kingdom",
        "time_position": 1780355891,
        "last_contact": 1780355892,
        "baro_altitude": 11285.22,
        "on_ground": false,
        "velocity": 247.14,
        "true_track": 126.54,
        "vertical_rate": 0,
        "geo_altitude": 11628.12,
        "squawk": "0534",
        "spi": false,
        "position_source": 0
      }
    },
    {
      "type": "Feature",
      "geometry": {
        "type": "Point",
        "coordinates": [
          13.2162,
          38.2178
        ]
      },
      "properties": {
        "icao24": "4ca24e",
        "callsign": "RYR34TT",
        "origin_country": "Ireland",
        "time_position": 1780355823,
        "last_contact": 1780355823,
        "baro_altitude": 480.06,
        "on_ground": false,
        "velocity": 90.58,
        "true_track": 246.93,
        "vertical_rate": -4.88,
        "geo_altitude": 579.12,
        "squawk": null,
        "spi": false,
        "position_source": 0
      }
    },
    {
      "type": "Feature",
      "geometry": {
        "type": "Point",
        "coordinates": [
          14.7239,
          40.7711
        ]
      },
      "properties": {
        "icao24": "71c359",
        "callsign": "AAR512",
        "origin_country": "Republic of Korea",
        "time_position": 1780355892,
        "last_contact": 1780355892,
        "baro_altitude": 11277.6,
        "on_ground": false,
        "velocity": 251.67,
        "true_track": 91.64,
        "vertical_rate": 0,
        "geo_altitude": 11681.46,
        "squawk": "4311",
        "spi": false,
        "position_source": 0
      }
    },
    {
      "type": "Feature",
      "geometry": {
        "type": "Point",
        "coordinates": [
          8.9848,
          47.1986
        ]
      },
      "properties": {
        "icao24": "3420c6",
        "callsign": "BCS136",
        "origin_country": "Spain",
        "time_position": 1780355891,
        "last_contact": 1780355892,
        "baro_altitude": 10058.4,
        "on_ground": false,
        "velocity": 225.35,
        "true_track": 197.4,
        "vertical_rate": 0,
        "geo_altitude": 10439.4,
        "squawk": "1000",
        "spi": false,
        "position_source": 0
      }
    },
    {
      "type": "Feature",
      "geometry": {
        "type": "Point",
        "coordinates": [
          14.5975,
          46.0941
        ]
      },
      "properties": {
        "icao24": "407e69",
        "callsign": "EXS37G",
        "origin_country": "United Kingdom",
        "time_position": 1780355892,
        "last_contact": 1780355892,
        "baro_altitude": 10972.8,
        "on_ground": false,
        "velocity": 205.69,
        "true_track": 302.02,
        "vertical_rate": 0,
        "geo_altitude": 11292.84,
        "squawk": "2017",
        "spi": false,
        "position_source": 0
      }
    },
    {
      "type": "Feature",
      "geometry": {
        "type": "Point",
        "coordinates": [
          8.725,
          45.646
        ]
      },
      "properties": {
        "icao24": "44079a",
        "callsign": "EJU95JU",
        "origin_country": "Austria",
        "time_position": 1780355597,
        "last_contact": 1780355597,
        "baro_altitude": null,
        "on_ground": true,
        "velocity": 0,
        "true_track": 258.75,
        "vertical_rate": null,
        "geo_altitude": null,
        "squawk": "5507",
        "spi": false,
        "position_source": 0
      }
    },
    {
      "type": "Feature",
      "geometry": {
        "type": "Point",
        "coordinates": [
          13.5417,
          46.4228
        ]
      },
      "properties": {
        "icao24": "407c26",
        "callsign": "TOM477",
        "origin_country": "United Kingdom",
        "time_position": 1780355892,
        "last_contact": 1780355892,
        "baro_altitude": 10972.8,
        "on_ground": false,
        "velocity": 209.85,
        "true_track": 305.52,
        "vertical_rate": 0,
        "geo_altitude": 11308.08,
        "squawk": "2042",
        "spi": false,
        "position_source": 0
      }
    },
    {
      "type": "Feature",
      "geometry": {
        "type": "Point",
        "coordinates": [
          8.7213,
          45.6362
        ]
      },
      "properties": {
        "icao24": "440469",
        "callsign": "EJU73BK",
        "origin_country": "Austria",
        "time_position": 1780355891,
        "last_contact": 1780355891,
        "baro_altitude": null,
        "on_ground": true,
        "velocity": 22.12,
        "true_track": 348.75,
        "vertical_rate": null,
        "geo_altitude": null,
        "squawk": "1000",
        "spi": false,
        "position_source": 0
      }
    },
    {
      "type": "Feature",
      "geometry": {
        "type": "Point",
        "coordinates": [
          13.1853,
          40.116
        ]
      },
      "properties": {
        "icao24": "4402f1",
        "callsign": "EJU58QD",
        "origin_country": "Austria",
        "time_position": 1780355891,
        "last_contact": 1780355892,
        "baro_altitude": 10972.8,
        "on_ground": false,
        "velocity": 211.85,
        "true_track": 323.49,
        "vertical_rate": -0.33,
        "geo_altitude": 11330.94,
        "squawk": null,
        "spi": false,
        "position_source": 0
      }
    },
    {
      "type": "Feature",
      "geometry": {
        "type": "Point",
        "coordinates": [
          12.6527,
          47.0217
        ]
      },
      "properties": {
        "icao24": "406a59",
        "callsign": "EXS94VU",
        "origin_country": "United Kingdom",
        "time_position": 1780355891,
        "last_contact": 1780355891,
        "baro_altitude": 10972.8,
        "on_ground": false,
        "velocity": 205.68,
        "true_track": 308.7,
        "vertical_rate": 0,
        "geo_altitude": 11330.94,
        "squawk": "5355",
        "spi": false,
        "position_source": 0
      }
    },
    {
      "type": "Feature",
      "geometry": {
        "type": "Point",
        "coordinates": [
          12.4952,
          47.3152
        ]
      },
      "properties": {
        "icao24": "407d5b",
        "callsign": "WUK962",
        "origin_country": "United Kingdom",
        "time_position": 1780355892,
        "last_contact": 1780355892,
        "baro_altitude": 10363.2,
        "on_ground": false,
        "velocity": 209.18,
        "true_track": 307.41,
        "vertical_rate": 0,
        "geo_altitude": 10706.1,
        "squawk": "0502",
        "spi": false,
        "position_source": 0
      }
    },
    {
      "type": "Feature",
      "geometry": {
        "type": "Point",
        "coordinates": [
          9.7027,
          39.0052
        ]
      },
      "properties": {
        "icao24": "407d10",
        "callsign": "TOM3WL",
        "origin_country": "United Kingdom",
        "time_position": 1780355891,
        "last_contact": 1780355891,
        "baro_altitude": 11582.4,
        "on_ground": false,
        "velocity": 208.29,
        "true_track": 352.05,
        "vertical_rate": 0,
        "geo_altitude": 12024.36,
        "squawk": null,
        "spi": false,
        "position_source": 0
      }
    },
    {
      "type": "Feature",
      "geometry": {
        "type": "Point",
        "coordinates": [
          14.0735,
          44.8181
        ]
      },
      "properties": {
        "icao24": "40804d",
        "callsign": "WUK8YM",
        "origin_country": "United Kingdom",
        "time_position": 1780355892,
        "last_contact": 1780355892,
        "baro_altitude": 10972.8,
        "on_ground": false,
        "velocity": 206.57,
        "true_track": 310.35,
        "vertical_rate": 0,
        "geo_altitude": 11315.7,
        "squawk": "5605",
        "spi": false,
        "position_source": 0
      }
    },
    {
      "type": "Feature",
      "geometry": {
        "type": "Point",
        "coordinates": [
          16.1605,
          44.1585
        ]
      },
      "properties": {
        "icao24": "40804e",
        "callsign": "WUK8QH",
        "origin_country": "United Kingdom",
        "time_position": 1780355891,
        "last_contact": 1780355891,
        "baro_altitude": 10980.42,
        "on_ground": false,
        "velocity": 207.46,
        "true_track": 304.08,
        "vertical_rate": 0,
        "geo_altitude": 11315.7,
        "squawk": "0501",
        "spi": false,
        "position_source": 0
      }
    },
    {
      "type": "Feature",
      "geometry": {
        "type": "Point",
        "coordinates": [
          18.2516,
          44.1196
        ]
      },
      "properties": {
        "icao24": "408059",
        "callsign": "EXS7HG",
        "origin_country": "United Kingdom",
        "time_position": 1780355891,
        "last_contact": 1780355891,
        "baro_altitude": 11582.4,
        "on_ground": false,
        "velocity": 214.73,
        "true_track": 309.95,
        "vertical_rate": 0,
        "geo_altitude": 11864.34,
        "squawk": "2206",
        "spi": false,
        "position_source": 0
      }
    },
    {
      "type": "Feature",
      "geometry": {
        "type": "Point",
        "coordinates": [
          9.6048,
          46.9889
        ]
      },
      "properties": {
        "icao24": "408051",
        "callsign": "EZY18GD",
        "origin_country": "United Kingdom",
        "time_position": 1780355891,
        "last_contact": 1780355891,
        "baro_altitude": 10965.18,
        "on_ground": false,
        "velocity": 208.96,
        "true_track": 305.18,
        "vertical_rate": 0,
        "geo_altitude": 11346.18,
        "squawk": "2740",
        "spi": false,
        "position_source": 0
      }
    },
    {
      "type": "Feature",
      "geometry": {
        "type": "Point",
        "coordinates": [
          14.7254,
          44.4237
        ]
      },
      "properties": {
        "icao24": "408262",
        "callsign": "EXS75EV",
        "origin_country": "United Kingdom",
        "time_position": 1780355892,
        "last_contact": 1780355892,
        "baro_altitude": 11574.78,
        "on_ground": false,
        "velocity": 203.95,
        "true_track": 310.6,
        "vertical_rate": 0.33,
        "geo_altitude": 11940.54,
        "squawk": "2062",
        "spi": false,
        "position_source": 0
      }
    },
    {
      "type": "Feature",
      "geometry": {
        "type": "Point",
        "coordinates": [
          12.2697,
          47.2434
        ]
      },
      "properties": {
        "icao24": "40823d",
        "callsign": "EXS78PB",
        "origin_country": "United Kingdom",
        "time_position": 1780355891,
        "last_contact": 1780355891,
        "baro_altitude": 10980.42,
        "on_ground": false,
        "velocity": 204.89,
        "true_track": 307.96,
        "vertical_rate": 0,
        "geo_altitude": 11338.56,
        "squawk": "2350",
        "spi": false,
        "position_source": 0
      }
    },
    {
      "type": "Feature",
      "geometry": {
        "type": "Point",
        "coordinates": [
          18.474,
          39.1655
        ]
      },
      "properties": {
        "icao24": "0a008e",
        "callsign": "DAH3018",
        "origin_country": "Algeria",
        "time_position": 1780355892,
        "last_contact": 1780355892,
        "baro_altitude": 10668,
        "on_ground": false,
        "velocity": 232.5,
        "true_track": 72.49,
        "vertical_rate": 0,
        "geo_altitude": 11033.76,
        "squawk": null,
        "spi": false,
        "position_source": 0
      }
    },
    {
      "type": "Feature",
      "geometry": {
        "type": "Point",
        "coordinates": [
          13.5823,
          35.8689
        ]
      },
      "properties": {
        "icao24": "710415",
        "callsign": "SVA5647",
        "origin_country": "Saudi Arabia",
        "time_position": 1780355891,
        "last_contact": 1780355891,
        "baro_altitude": 11574.78,
        "on_ground": false,
        "velocity": 251.62,
        "true_track": 276.46,
        "vertical_rate": 0,
        "geo_altitude": 11978.64,
        "squawk": null,
        "spi": false,
        "position_source": 0
      }
    },
    {
      "type": "Feature",
      "geometry": {
        "type": "Point",
        "coordinates": [
          11.4731,
          47.6161
        ]
      },
      "properties": {
        "icao24": "4080a4",
        "callsign": "EXS42KH",
        "origin_country": "United Kingdom",
        "time_position": 1780355891,
        "last_contact": 1780355891,
        "baro_altitude": 11582.4,
        "on_ground": false,
        "velocity": 199.84,
        "true_track": 307.78,
        "vertical_rate": 0,
        "geo_altitude": 11925.3,
        "squawk": "1143",
        "spi": false,
        "position_source": 0
      }
    },
    {
      "type": "Feature",
      "geometry": {
        "type": "Point",
        "coordinates": [
          18.3486,
          43.784
        ]
      },
      "properties": {
        "icao24": "408184",
        "callsign": "EZY38CZ",
        "origin_country": "United Kingdom",
        "time_position": 1780355892,
        "last_contact": 1780355892,
        "baro_altitude": 11590.02,
        "on_ground": false,
        "velocity": 212.26,
        "true_track": 322.88,
        "vertical_rate": 0,
        "geo_altitude": 11887.2,
        "squawk": "2023",
        "spi": false,
        "position_source": 0
      }
    },
    {
      "type": "Feature",
      "geometry": {
        "type": "Point",
        "coordinates": [
          14.8055,
          43.572
        ]
      },
      "properties": {
        "icao24": "40815b",
        "callsign": "EZY87AK",
        "origin_country": "United Kingdom",
        "time_position": 1780355891,
        "last_contact": 1780355892,
        "baro_altitude": 11574.78,
        "on_ground": false,
        "velocity": 202.59,
        "true_track": 311.71,
        "vertical_rate": 0,
        "geo_altitude": 11940.54,
        "squawk": "6621",
        "spi": false,
        "position_source": 0
      }
    },
    {
      "type": "Feature",
      "geometry": {
        "type": "Point",
        "coordinates": [
          9.5458,
          47.0466
        ]
      },
      "properties": {
        "icao24": "40815c",
        "callsign": "EZY17EG",
        "origin_country": "United Kingdom",
        "time_position": 1780355891,
        "last_contact": 1780355891,
        "baro_altitude": 11574.78,
        "on_ground": false,
        "velocity": 211.13,
        "true_track": 306.48,
        "vertical_rate": 0,
        "geo_altitude": 11963.4,
        "squawk": "2755",
        "spi": false,
        "position_source": 0
      }
    },
    {
      "type": "Feature",
      "geometry": {
        "type": "Point",
        "coordinates": [
          18.6873,
          47.5783
        ]
      },
      "properties": {
        "icao24": "4009d9",
        "callsign": "BAW870",
        "origin_country": "United Kingdom",
        "time_position": 1780355891,
        "last_contact": 1780355892,
        "baro_altitude": 4145.28,
        "on_ground": false,
        "velocity": 183.78,
        "true_track": 126,
        "vertical_rate": -9.75,
        "geo_altitude": 4297.68,
        "squawk": "0530",
        "spi": false,
        "position_source": 0
      }
    },
    {
      "type": "Feature",
      "geometry": {
        "type": "Point",
        "coordinates": [
          8.5573,
          47.4537
        ]
      },
      "properties": {
        "icao24": "4b5d98",
        "callsign": "ATL779",
        "origin_country": "Switzerland",
        "time_position": 1780355833,
        "last_contact": 1780355845,
        "baro_altitude": null,
        "on_ground": true,
        "velocity": 1.29,
        "true_track": 28.12,
        "vertical_rate": null,
        "geo_altitude": null,
        "squawk": null,
        "spi": false,
        "position_source": 0
      }
    },
    {
      "type": "Feature",
      "geometry": {
        "type": "Point",
        "coordinates": [
          16.282,
          35.5911
        ]
      },
      "properties": {
        "icao24": "7105ab",
        "callsign": "SVA5657",
        "origin_country": "Saudi Arabia",
        "time_position": 1780355891,
        "last_contact": 1780355891,
        "baro_altitude": 10972.8,
        "on_ground": false,
        "velocity": 251.44,
        "true_track": 278,
        "vertical_rate": -0.33,
        "geo_altitude": 11353.8,
        "squawk": null,
        "spi": false,
        "position_source": 0
      }
    },
    {
      "type": "Feature",
      "geometry": {
        "type": "Point",
        "coordinates": [
          7.964,
          44.3863
        ]
      },
      "properties": {
        "icao24": "4ca9c3",
        "callsign": "RYR54ZU",
        "origin_country": "Ireland",
        "time_position": 1780355891,
        "last_contact": 1780355891,
        "baro_altitude": 11277.6,
        "on_ground": false,
        "velocity": 220.85,
        "true_track": 239.79,
        "vertical_rate": 0.65,
        "geo_altitude": 11704.32,
        "squawk": "1000",
        "spi": false,
        "position_source": 0
      }
    },
    {
      "type": "Feature",
      "geometry": {
        "type": "Point",
        "coordinates": [
          7.7372,
          45.7173
        ]
      },
      "properties": {
        "icao24": "440bc4",
        "callsign": "BCS76P",
        "origin_country": "Austria",
        "time_position": 1780355891,
        "last_contact": 1780355891,
        "baro_altitude": 8054.34,
        "on_ground": false,
        "velocity": 212.59,
        "true_track": 308.81,
        "vertical_rate": 10.08,
        "geo_altitude": 8382,
        "squawk": "5724",
        "spi": false,
        "position_source": 0
      }
    },
    {
      "type": "Feature",
      "geometry": {
        "type": "Point",
        "coordinates": [
          9.2315,
          44.2256
        ]
      },
      "properties": {
        "icao24": "4ca961",
        "callsign": "NOS1446",
        "origin_country": "Ireland",
        "time_position": 1780355892,
        "last_contact": 1780355892,
        "baro_altitude": 9547.86,
        "on_ground": false,
        "velocity": 241.52,
        "true_track": 69.94,
        "vertical_rate": -6.83,
        "geo_altitude": 9951.72,
        "squawk": "1000",
        "spi": false,
        "position_source": 0
      }
    },
    {
      "type": "Feature",
      "geometry": {
        "type": "Point",
        "coordinates": [
          11.9829,
          44.0862
        ]
      },
      "properties": {
        "icao24": "4ca84e",
        "callsign": "RYR2EH",
        "origin_country": "Ireland",
        "time_position": 1780355891,
        "last_contact": 1780355891,
        "baro_altitude": 6004.56,
        "on_ground": false,
        "velocity": 161.74,
        "true_track": 301.87,
        "vertical_rate": -10.73,
        "geo_altitude": 6278.88,
        "squawk": "1000",
        "spi": false,
        "position_source": 0
      }
    },
    {
      "type": "Feature",
      "geometry": {
        "type": "Point",
        "coordinates": [
          9.7612,
          41.5848
        ]
      },
      "properties": {
        "icao24": "4ca7b6",
        "callsign": "RYR29CD",
        "origin_country": "Ireland",
        "time_position": 1780355892,
        "last_contact": 1780355892,
        "baro_altitude": 10203.18,
        "on_ground": false,
        "velocity": 217.72,
        "true_track": 15.91,
        "vertical_rate": 9.75,
        "geo_altitude": 10629.9,
        "squawk": null,
        "spi": false,
        "position_source": 0
      }
    },
    {
      "type": "Feature",
      "geometry": {
        "type": "Point",
        "coordinates": [
          15.5674,
          46.7605
        ]
      },
      "properties": {
        "icao24": "5084d2",
        "callsign": "MGH102",
        "origin_country": "Ukraine",
        "time_position": 1780355891,
        "last_contact": 1780355891,
        "baro_altitude": 10668,
        "on_ground": false,
        "velocity": 260.95,
        "true_track": 131.48,
        "vertical_rate": 0,
        "geo_altitude": 10957.56,
        "squawk": "7713",
        "spi": false,
        "position_source": 0
      }
    },
    {
      "type": "Feature",
      "geometry": {
        "type": "Point",
        "coordinates": [
          16.8966,
          47.1074
        ]
      },
      "properties": {
        "icao24": "4bcda5",
        "callsign": "SXS14E",
        "origin_country": "Turkey",
        "time_position": 1780355891,
        "last_contact": 1780355891,
        "baro_altitude": 11277.6,
        "on_ground": false,
        "velocity": 251.56,
        "true_track": 129.19,
        "vertical_rate": 0,
        "geo_altitude": 11536.68,
        "squawk": "7642",
        "spi": false,
        "position_source": 0
      }
    },
    {
      "type": "Feature",
      "geometry": {
        "type": "Point",
        "coordinates": [
          17.7115,
          46.6069
        ]
      },
      "properties": {
        "icao24": "4bcda2",
        "callsign": "SXS1ZQ",
        "origin_country": "Turkey",
        "time_position": 1780355891,
        "last_contact": 1780355891,
        "baro_altitude": 11277.6,
        "on_ground": false,
        "velocity": 253.89,
        "true_track": 128.17,
        "vertical_rate": 0,
        "geo_altitude": 11536.68,
        "squawk": "4531",
        "spi": false,
        "position_source": 0
      }
    },
    {
      "type": "Feature",
      "geometry": {
        "type": "Point",
        "coordinates": [
          16.2709,
          45.1856
        ]
      },
      "properties": {
        "icao24": "4bcdb0",
        "callsign": "SXS6XD",
        "origin_country": "Turkey",
        "time_position": 1780355891,
        "last_contact": 1780355892,
        "baro_altitude": 11277.6,
        "on_ground": false,
        "velocity": 255,
        "true_track": 130.66,
        "vertical_rate": 0,
        "geo_altitude": 11582.4,
        "squawk": "7711",
        "spi": false,
        "position_source": 0
      }
    },
    {
      "type": "Feature",
      "geometry": {
        "type": "Point",
        "coordinates": [
          8.7944,
          45.357
        ]
      },
      "properties": {
        "icao24": "4ca708",
        "callsign": "RYR9UE",
        "origin_country": "Ireland",
        "time_position": 1780355891,
        "last_contact": 1780355892,
        "baro_altitude": 1440.18,
        "on_ground": false,
        "velocity": 131.7,
        "true_track": 7.18,
        "vertical_rate": -3.58,
        "geo_altitude": 1539.24,
        "squawk": "5521",
        "spi": false,
        "position_source": 0
      }
    },
    {
      "type": "Feature",
      "geometry": {
        "type": "Point",
        "coordinates": [
          17.5204,
          47.7598
        ]
      },
      "properties": {
        "icao24": "4bce04",
        "callsign": "SXS93K",
        "origin_country": "Turkey",
        "time_position": 1780355891,
        "last_contact": 1780355892,
        "baro_altitude": 12192,
        "on_ground": false,
        "velocity": 218.13,
        "true_track": 306.46,
        "vertical_rate": -0.33,
        "geo_altitude": 12443.46,
        "squawk": "2662",
        "spi": false,
        "position_source": 0
      }
    },
    {
      "type": "Feature",
      "geometry": {
        "type": "Point",
        "coordinates": [
          8.2679,
          47.0572
        ]
      },
      "properties": {
        "icao24": "40769a",
        "callsign": "TOM771",
        "origin_country": "United Kingdom",
        "time_position": 1780355891,
        "last_contact": 1780355891,
        "baro_altitude": 10972.8,
        "on_ground": false,
        "velocity": 211.98,
        "true_track": 331.76,
        "vertical_rate": 0,
        "geo_altitude": 11346.18,
        "squawk": "2751",
        "spi": false,
        "position_source": 0
      }
    },
    {
      "type": "Feature",
      "geometry": {
        "type": "Point",
        "coordinates": [
          17.3945,
          46.788
        ]
      },
      "properties": {
        "icao24": "40768c",
        "callsign": "EZY34PE",
        "origin_country": "United Kingdom",
        "time_position": 1780355892,
        "last_contact": 1780355892,
        "baro_altitude": 10957.56,
        "on_ground": false,
        "velocity": 204.95,
        "true_track": 308.68,
        "vertical_rate": -0.33,
        "geo_altitude": 11209.02,
        "squawk": "5336",
        "spi": false,
        "position_source": 0
      }
    },
    {
      "type": "Feature",
      "geometry": {
        "type": "Point",
        "coordinates": [
          8.6814,
          47.5396
        ]
      },
      "properties": {
        "icao24": "407686",
        "callsign": "EZY75UQ",
        "origin_country": "United Kingdom",
        "time_position": 1780355891,
        "last_contact": 1780355892,
        "baro_altitude": 11590.02,
        "on_ground": false,
        "velocity": 210.46,
        "true_track": 303.53,
        "vertical_rate": 0,
        "geo_altitude": 11971.02,
        "squawk": "2777",
        "spi": false,
        "position_source": 0
      }
    },
    {
      "type": "Feature",
      "geometry": {
        "type": "Point",
        "coordinates": [
          10.5213,
          47.3944
        ]
      },
      "properties": {
        "icao24": "40766d",
        "callsign": "EXS14VP",
        "origin_country": "United Kingdom",
        "time_position": 1780355891,
        "last_contact": 1780355892,
        "baro_altitude": 11582.4,
        "on_ground": false,
        "velocity": 204.83,
        "true_track": 314.08,
        "vertical_rate": 0,
        "geo_altitude": 11948.16,
        "squawk": "7540",
        "spi": false,
        "position_source": 0
      }
    },
    {
      "type": "Feature",
      "geometry": {
        "type": "Point",
        "coordinates": [
          15.1646,
          36.0566
        ]
      },
      "properties": {
        "icao24": "3474da",
        "callsign": "IBS1904",
        "origin_country": "Spain",
        "time_position": 1780355891,
        "last_contact": 1780355891,
        "baro_altitude": 10980.42,
        "on_ground": false,
        "velocity": 235.73,
        "true_track": 280.18,
        "vertical_rate": 0,
        "geo_altitude": 11391.9,
        "squawk": null,
        "spi": false,
        "position_source": 0
      }
    },
    {
      "type": "Feature",
      "geometry": {
        "type": "Point",
        "coordinates": [
          14.5306,
          44.608
        ]
      },
      "properties": {
        "icao24": "4076b0",
        "callsign": "TOM285",
        "origin_country": "United Kingdom",
        "time_position": 1780355891,
        "last_contact": 1780355892,
        "baro_altitude": 11582.4,
        "on_ground": false,
        "velocity": 206.9,
        "true_track": 301.48,
        "vertical_rate": -0.33,
        "geo_altitude": 11917.68,
        "squawk": "2060",
        "spi": false,
        "position_source": 0
      }
    },
    {
      "type": "Feature",
      "geometry": {
        "type": "Point",
        "coordinates": [
          9.9722,
          45.5709
        ]
      },
      "properties": {
        "icao24": "3007e2",
        "callsign": "IRJAH",
        "origin_country": "Italy",
        "time_position": 1780355886,
        "last_contact": 1780355891,
        "baro_altitude": 510.54,
        "on_ground": false,
        "velocity": 59.63,
        "true_track": 100.44,
        "vertical_rate": -2.93,
        "geo_altitude": 579.12,
        "squawk": null,
        "spi": false,
        "position_source": 0
      }
    },
    {
      "type": "Feature",
      "geometry": {
        "type": "Point",
        "coordinates": [
          16.9082,
          43.8072
        ]
      },
      "properties": {
        "icao24": "010205",
        "callsign": "MSR780",
        "origin_country": "Egypt",
        "time_position": 1780355891,
        "last_contact": 1780355891,
        "baro_altitude": 11269.98,
        "on_ground": false,
        "velocity": 258.36,
        "true_track": 136.45,
        "vertical_rate": 0,
        "geo_altitude": 11590.02,
        "squawk": "2221",
        "spi": false,
        "position_source": 0
      }
    },
    {
      "type": "Feature",
      "geometry": {
        "type": "Point",
        "coordinates": [
          16.206,
          35.5697
        ]
      },
      "properties": {
        "icao24": "010297",
        "callsign": "SVI1116",
        "origin_country": "Egypt",
        "time_position": 1780355892,
        "last_contact": 1780355892,
        "baro_altitude": 11582.4,
        "on_ground": false,
        "velocity": 225.25,
        "true_track": 278.54,
        "vertical_rate": 0,
        "geo_altitude": 11894.82,
        "squawk": null,
        "spi": false,
        "position_source": 0
      }
    },
    {
      "type": "Feature",
      "geometry": {
        "type": "Point",
        "coordinates": [
          12.8533,
          46.9103
        ]
      },
      "properties": {
        "icao24": "4075f4",
        "callsign": "TOM8KM",
        "origin_country": "United Kingdom",
        "time_position": 1780355891,
        "last_contact": 1780355892,
        "baro_altitude": 11582.4,
        "on_ground": false,
        "velocity": 201.74,
        "true_track": 308.48,
        "vertical_rate": 0,
        "geo_altitude": 11925.3,
        "squawk": "1152",
        "spi": false,
        "position_source": 0
      }
    },
    {
      "type": "Feature",
      "geometry": {
        "type": "Point",
        "coordinates": [
          9.8,
          45.6505
        ]
      },
      "properties": {
        "icao24": "4caf34",
        "callsign": "RYR6MJ",
        "origin_country": "Ireland",
        "time_position": 1780355892,
        "last_contact": 1780355892,
        "baro_altitude": 541.02,
        "on_ground": false,
        "velocity": 89.97,
        "true_track": 284.91,
        "vertical_rate": -4.55,
        "geo_altitude": 617.22,
        "squawk": "2624",
        "spi": false,
        "position_source": 0
      }
    },
    {
      "type": "Feature",
      "geometry": {
        "type": "Point",
        "coordinates": [
          13.3707,
          38.0884
        ]
      },
      "properties": {
        "icao24": "300687",
        "callsign": "LID641",
        "origin_country": "Italy",
        "time_position": 1780355892,
        "last_contact": 1780355892,
        "baro_altitude": 525.78,
        "on_ground": false,
        "velocity": 47.43,
        "true_track": 126.62,
        "vertical_rate": 4.88,
        "geo_altitude": 601.98,
        "squawk": null,
        "spi": false,
        "position_source": 0
      }
    },
    {
      "type": "Feature",
      "geometry": {
        "type": "Point",
        "coordinates": [
          16.7078,
          45.4426
        ]
      },
      "properties": {
        "icao24": "4d23ea",
        "callsign": "CXI7PV",
        "origin_country": "Malta",
        "time_position": 1780355892,
        "last_contact": 1780355892,
        "baro_altitude": 11582.4,
        "on_ground": false,
        "velocity": 201.61,
        "true_track": 318.83,
        "vertical_rate": 0,
        "geo_altitude": 11864.34,
        "squawk": "5520",
        "spi": false,
        "position_source": 0
      }
    },
    {
      "type": "Feature",
      "geometry": {
        "type": "Point",
        "coordinates": [
          17.4251,
          45.2147
        ]
      },
      "properties": {
        "icao24": "4d23e1",
        "callsign": "CHZ111",
        "origin_country": "Malta",
        "time_position": 1780355892,
        "last_contact": 1780355892,
        "baro_altitude": 10980.42,
        "on_ground": false,
        "velocity": 213.06,
        "true_track": 317.84,
        "vertical_rate": 0,
        "geo_altitude": 11201.4,
        "squawk": "1141",
        "spi": false,
        "position_source": 0
      }
    },
    {
      "type": "Feature",
      "geometry": {
        "type": "Point",
        "coordinates": [
          9.7666,
          45.6567
        ]
      },
      "properties": {
        "icao24": "4cadfe",
        "callsign": "RYR5DN",
        "origin_country": "Ireland",
        "time_position": 1780355761,
        "last_contact": 1780355761,
        "baro_altitude": 403.86,
        "on_ground": false,
        "velocity": 86.72,
        "true_track": 284.78,
        "vertical_rate": -4.55,
        "geo_altitude": 480.06,
        "squawk": "5164",
        "spi": false,
        "position_source": 0
      }
    },
    {
      "type": "Feature",
      "geometry": {
        "type": "Point",
        "coordinates": [
          14.035,
          46.3686
        ]
      },
      "properties": {
        "icao24": "40753d",
        "callsign": "TOM7149",
        "origin_country": "United Kingdom",
        "time_position": 1780355891,
        "last_contact": 1780355891,
        "baro_altitude": 11582.4,
        "on_ground": false,
        "velocity": 204.66,
        "true_track": 304.97,
        "vertical_rate": 0.33,
        "geo_altitude": 11910.06,
        "squawk": "2270",
        "spi": false,
        "position_source": 0
      }
    },
    {
      "type": "Feature",
      "geometry": {
        "type": "Point",
        "coordinates": [
          16.9469,
          42.2747
        ]
      },
      "properties": {
        "icao24": "40756b",
        "callsign": "EZY89WU",
        "origin_country": "United Kingdom",
        "time_position": 1780355892,
        "last_contact": 1780355892,
        "baro_altitude": 11582.4,
        "on_ground": false,
        "velocity": 209.6,
        "true_track": 311.32,
        "vertical_rate": 0,
        "geo_altitude": 11932.92,
        "squawk": "3717",
        "spi": false,
        "position_source": 0
      }
    },
    {
      "type": "Feature",
      "geometry": {
        "type": "Point",
        "coordinates": [
          16.9183,
          40.8225
        ]
      },
      "properties": {
        "icao24": "424c8c",
        "callsign": "MABSU",
        "origin_country": "United Kingdom",
        "time_position": 1780355891,
        "last_contact": 1780355891,
        "baro_altitude": 5356.86,
        "on_ground": false,
        "velocity": 192.92,
        "true_track": 113.08,
        "vertical_rate": -11.05,
        "geo_altitude": 5577.84,
        "squawk": "1000",
        "spi": false,
        "position_source": 0
      }
    },
    {
      "type": "Feature",
      "geometry": {
        "type": "Point",
        "coordinates": [
          15.9737,
          47.2006
        ]
      },
      "properties": {
        "icao24": "4d22b0",
        "callsign": "RYR61YD",
        "origin_country": "Malta",
        "time_position": 1780355892,
        "last_contact": 1780355892,
        "baro_altitude": 6347.46,
        "on_ground": false,
        "velocity": 219.06,
        "true_track": 37.46,
        "vertical_rate": -10.73,
        "geo_altitude": 6560.82,
        "squawk": "1000",
        "spi": false,
        "position_source": 0
      }
    },
    {
      "type": "Feature",
      "geometry": {
        "type": "Point",
        "coordinates": [
          18.3756,
          46.3927
        ]
      },
      "properties": {
        "icao24": "4cae84",
        "callsign": "TOM737",
        "origin_country": "Ireland",
        "time_position": 1780355891,
        "last_contact": 1780355891,
        "baro_altitude": 10972.8,
        "on_ground": false,
        "velocity": 220.13,
        "true_track": 319.83,
        "vertical_rate": 0,
        "geo_altitude": 11209.02,
        "squawk": "6011",
        "spi": false,
        "position_source": 0
      }
    },
    {
      "type": "Feature",
      "geometry": {
        "type": "Point",
        "coordinates": [
          14.4403,
          40.5903
        ]
      },
      "properties": {
        "icao24": "4d2385",
        "callsign": "RYR465X",
        "origin_country": "Malta",
        "time_position": 1780355892,
        "last_contact": 1780355892,
        "baro_altitude": 11361.42,
        "on_ground": false,
        "velocity": 219.6,
        "true_track": 322.14,
        "vertical_rate": 5.2,
        "geo_altitude": 11772.9,
        "squawk": "5122",
        "spi": false,
        "position_source": 0
      }
    },
    {
      "type": "Feature",
      "geometry": {
        "type": "Point",
        "coordinates": [
          12.7938,
          43.8239
        ]
      },
      "properties": {
        "icao24": "4cad11",
        "callsign": "RYR90RC",
        "origin_country": "Ireland",
        "time_position": 1780355892,
        "last_contact": 1780355892,
        "baro_altitude": 11582.4,
        "on_ground": false,
        "velocity": 208.74,
        "true_track": 303.85,
        "vertical_rate": 0,
        "geo_altitude": 11978.64,
        "squawk": "2630",
        "spi": false,
        "position_source": 0
      }
    },
    {
      "type": "Feature",
      "geometry": {
        "type": "Point",
        "coordinates": [
          9.0654,
          40.4362
        ]
      },
      "properties": {
        "icao24": "4d21e6",
        "callsign": "BBG251",
        "origin_country": "Malta",
        "time_position": 1780355891,
        "last_contact": 1780355891,
        "baro_altitude": 10363.2,
        "on_ground": false,
        "velocity": 239.42,
        "true_track": 100.9,
        "vertical_rate": -0.65,
        "geo_altitude": 10835.64,
        "squawk": "1423",
        "spi": false,
        "position_source": 0
      }
    },
    {
      "type": "Feature",
      "geometry": {
        "type": "Point",
        "coordinates": [
          10.8864,
          41.715
        ]
      },
      "properties": {
        "icao24": "4d20fd",
        "callsign": "WMT7T",
        "origin_country": "Malta",
        "time_position": 1780355892,
        "last_contact": 1780355892,
        "baro_altitude": 7399.02,
        "on_ground": false,
        "velocity": 209.59,
        "true_track": 63.62,
        "vertical_rate": -11.05,
        "geo_altitude": 7772.4,
        "squawk": "1000",
        "spi": false,
        "position_source": 0
      }
    },
    {
      "type": "Feature",
      "geometry": {
        "type": "Point",
        "coordinates": [
          12.2571,
          41.8567
        ]
      },
      "properties": {
        "icao24": "4d20fb",
        "callsign": "WMT9059",
        "origin_country": "Malta",
        "time_position": 1780355675,
        "last_contact": 1780355675,
        "baro_altitude": 68.58,
        "on_ground": false,
        "velocity": 71.94,
        "true_track": 163.38,
        "vertical_rate": -4.55,
        "geo_altitude": 144.78,
        "squawk": "5516",
        "spi": false,
        "position_source": 0
      }
    },
    {
      "type": "Feature",
      "geometry": {
        "type": "Point",
        "coordinates": [
          9.7656,
          45.6569
        ]
      },
      "properties": {
        "icao24": "4d221a",
        "callsign": "RYR4787",
        "origin_country": "Malta",
        "time_position": 1780355603,
        "last_contact": 1780355603,
        "baro_altitude": 403.86,
        "on_ground": false,
        "velocity": 87.35,
        "true_track": 285.02,
        "vertical_rate": -4.23,
        "geo_altitude": 495.3,
        "squawk": "5163",
        "spi": false,
        "position_source": 0
      }
    },
    {
      "type": "Feature",
      "geometry": {
        "type": "Point",
        "coordinates": [
          18.7682,
          40.3635
        ]
      },
      "properties": {
        "icao24": "4d222b",
        "callsign": "RYR7975",
        "origin_country": "Malta",
        "time_position": 1780355891,
        "last_contact": 1780355891,
        "baro_altitude": 8542.02,
        "on_ground": false,
        "velocity": 182.1,
        "true_track": 301.13,
        "vertical_rate": 0,
        "geo_altitude": 8877.3,
        "squawk": "6636",
        "spi": false,
        "position_source": 0
      }
    },
    {
      "type": "Feature",
      "geometry": {
        "type": "Point",
        "coordinates": [
          10.3346,
          45.1693
        ]
      },
      "properties": {
        "icao24": "4d227d",
        "callsign": "RYR8LX",
        "origin_country": "Malta",
        "time_position": 1780355892,
        "last_contact": 1780355892,
        "baro_altitude": 3528.06,
        "on_ground": false,
        "velocity": 192.18,
        "true_track": 321.41,
        "vertical_rate": -12.35,
        "geo_altitude": 3718.56,
        "squawk": "2641",
        "spi": false,
        "position_source": 0
      }
    },
    {
      "type": "Feature",
      "geometry": {
        "type": "Point",
        "coordinates": [
          12.2006,
          41.9903
        ]
      },
      "properties": {
        "icao24": "4d2186",
        "callsign": "WMT6292",
        "origin_country": "Malta",
        "time_position": 1780355891,
        "last_contact": 1780355891,
        "baro_altitude": 868.68,
        "on_ground": false,
        "velocity": 95.65,
        "true_track": 156.88,
        "vertical_rate": -4.55,
        "geo_altitude": 967.74,
        "squawk": "1000",
        "spi": false,
        "position_source": 0
      }
    },
    {
      "type": "Feature",
      "geometry": {
        "type": "Point",
        "coordinates": [
          18.6473,
          45.2381
        ]
      },
      "properties": {
        "icao24": "71002b",
        "callsign": "SVA118",
        "origin_country": "Saudi Arabia",
        "time_position": 1780355892,
        "last_contact": 1780355892,
        "baro_altitude": 11277.6,
        "on_ground": false,
        "velocity": 265.19,
        "true_track": 118.5,
        "vertical_rate": -0.33,
        "geo_altitude": 11529.06,
        "squawk": "5227",
        "spi": false,
        "position_source": 0
      }
    },
    {
      "type": "Feature",
      "geometry": {
        "type": "Point",
        "coordinates": [
          8.7419,
          45.5619
        ]
      },
      "properties": {
        "icao24": "4d20b1",
        "callsign": "WMT4JM",
        "origin_country": "Malta",
        "time_position": 1780355891,
        "last_contact": 1780355891,
        "baro_altitude": 533.4,
        "on_ground": false,
        "velocity": 76.48,
        "true_track": 349.14,
        "vertical_rate": -4.23,
        "geo_altitude": 594.36,
        "squawk": "1000",
        "spi": false,
        "position_source": 0
      }
    },
    {
      "type": "Feature",
      "geometry": {
        "type": "Point",
        "coordinates": [
          14.9914,
          43.2987
        ]
      },
      "properties": {
        "icao24": "4d20a9",
        "callsign": "9HMSMS",
        "origin_country": "Malta",
        "time_position": 1780355892,
        "last_contact": 1780355892,
        "baro_altitude": 13106.4,
        "on_ground": false,
        "velocity": 279.44,
        "true_track": 141.65,
        "vertical_rate": 0.33,
        "geo_altitude": 13434.06,
        "squawk": "2266",
        "spi": false,
        "position_source": 0
      }
    },
    {
      "type": "Feature",
      "geometry": {
        "type": "Point",
        "coordinates": [
          10.3121,
          44.8397
        ]
      },
      "properties": {
        "icao24": "4cac1e",
        "callsign": "RYR43PX",
        "origin_country": "Ireland",
        "time_position": 1780355891,
        "last_contact": 1780355891,
        "baro_altitude": 5699.76,
        "on_ground": false,
        "velocity": 165.22,
        "true_track": 339.59,
        "vertical_rate": -9.75,
        "geo_altitude": 5958.84,
        "squawk": "5404",
        "spi": false,
        "position_source": 0
      }
    },
    {
      "type": "Feature",
      "geometry": {
        "type": "Point",
        "coordinates": [
          13.2983,
          40.8918
        ]
      },
      "properties": {
        "icao24": "04c15b",
        "callsign": "KQA115",
        "origin_country": "Kenya",
        "time_position": 1780355891,
        "last_contact": 1780355891,
        "baro_altitude": 11887.2,
        "on_ground": false,
        "velocity": 261.64,
        "true_track": 136.51,
        "vertical_rate": -0.33,
        "geo_altitude": 12306.3,
        "squawk": "0673",
        "spi": false,
        "position_source": 0
      }
    },
    {
      "type": "Feature",
      "geometry": {
        "type": "Point",
        "coordinates": [
          13.1585,
          45.3647
        ]
      },
      "properties": {
        "icao24": "408346",
        "callsign": "EXS85BE",
        "origin_country": "United Kingdom",
        "time_position": 1780355891,
        "last_contact": 1780355891,
        "baro_altitude": 10972.8,
        "on_ground": false,
        "velocity": 206.32,
        "true_track": 303.61,
        "vertical_rate": 0,
        "geo_altitude": 11338.56,
        "squawk": "2245",
        "spi": false,
        "position_source": 0
      }
    },
    {
      "type": "Feature",
      "geometry": {
        "type": "Point",
        "coordinates": [
          9.7343,
          45.8222
        ]
      },
      "properties": {
        "icao24": "40837b",
        "callsign": "EXS61JS",
        "origin_country": "United Kingdom",
        "time_position": 1780355892,
        "last_contact": 1780355892,
        "baro_altitude": 10980.42,
        "on_ground": false,
        "velocity": 215.53,
        "true_track": 305.28,
        "vertical_rate": 0,
        "geo_altitude": 11376.66,
        "squawk": "3736",
        "spi": false,
        "position_source": 0
      }
    },
    {
      "type": "Feature",
      "geometry": {
        "type": "Point",
        "coordinates": [
          9.8266,
          46.4085
        ]
      },
      "properties": {
        "icao24": "40836b",
        "callsign": "EZY75PF",
        "origin_country": "United Kingdom",
        "time_position": 1780355891,
        "last_contact": 1780355891,
        "baro_altitude": 10972.8,
        "on_ground": false,
        "velocity": 215.25,
        "true_track": 306.35,
        "vertical_rate": -0.33,
        "geo_altitude": 11353.8,
        "squawk": "7515",
        "spi": false,
        "position_source": 0
      }
    },
    {
      "type": "Feature",
      "geometry": {
        "type": "Point",
        "coordinates": [
          15.1504,
          45.6355
        ]
      },
      "properties": {
        "icao24": "4d2131",
        "callsign": "VJT957",
        "origin_country": "Malta",
        "time_position": 1780355891,
        "last_contact": 1780355891,
        "baro_altitude": 12489.18,
        "on_ground": false,
        "velocity": 258.9,
        "true_track": 127.74,
        "vertical_rate": -0.65,
        "geo_altitude": 12832.08,
        "squawk": "1153",
        "spi": false,
        "position_source": 0
      }
    },
    {
      "type": "Feature",
      "geometry": {
        "type": "Point",
        "coordinates": [
          12.2568,
          41.8572
        ]
      },
      "properties": {
        "icao24": "4d206b",
        "callsign": "WMT49BD",
        "origin_country": "Malta",
        "time_position": 1780355875,
        "last_contact": 1780355877,
        "baro_altitude": 76.2,
        "on_ground": false,
        "velocity": 73.38,
        "true_track": 162.45,
        "vertical_rate": -3.58,
        "geo_altitude": 144.78,
        "squawk": "1000",
        "spi": false,
        "position_source": 0
      }
    },
    {
      "type": "Feature",
      "geometry": {
        "type": "Point",
        "coordinates": [
          13.1581,
          45.1571
        ]
      },
      "properties": {
        "icao24": "4081aa",
        "callsign": "EXS49TA",
        "origin_country": "United Kingdom",
        "time_position": 1780355891,
        "last_contact": 1780355892,
        "baro_altitude": 11582.4,
        "on_ground": false,
        "velocity": 202.76,
        "true_track": 312.84,
        "vertical_rate": 0,
        "geo_altitude": 11963.4,
        "squawk": "3725",
        "spi": false,
        "position_source": 0
      }
    },
    {
      "type": "Feature",
      "geometry": {
        "type": "Point",
        "coordinates": [
          17.9265,
          45.4155
        ]
      },
      "properties": {
        "icao24": "39d2a4",
        "callsign": "AFR188",
        "origin_country": "France",
        "time_position": 1780355891,
        "last_contact": 1780355891,
        "baro_altitude": 11277.6,
        "on_ground": false,
        "velocity": 272.4,
        "true_track": 116.71,
        "vertical_rate": -0.33,
        "geo_altitude": 11529.06,
        "squawk": "0675",
        "spi": false,
        "position_source": 0
      }
    },
    {
      "type": "Feature",
      "geometry": {
        "type": "Point",
        "coordinates": [
          11.4663,
          41.9083
        ]
      },
      "properties": {
        "icao24": "4d208e",
        "callsign": "WMT511",
        "origin_country": "Malta",
        "time_position": 1780355891,
        "last_contact": 1780355891,
        "baro_altitude": 3482.34,
        "on_ground": false,
        "velocity": 182.88,
        "true_track": 72.48,
        "vertical_rate": -5.53,
        "geo_altitude": 3688.08,
        "squawk": "2236",
        "spi": false,
        "position_source": 0
      }
    },
    {
      "type": "Feature",
      "geometry": {
        "type": "Point",
        "coordinates": [
          7.9303,
          47.1203
        ]
      },
      "properties": {
        "icao24": "407176",
        "callsign": "EXS57G",
        "origin_country": "United Kingdom",
        "time_position": 1780355891,
        "last_contact": 1780355892,
        "baro_altitude": 10972.8,
        "on_ground": false,
        "velocity": 213.64,
        "true_track": 294.47,
        "vertical_rate": 0,
        "geo_altitude": 11346.18,
        "squawk": "1175",
        "spi": false,
        "position_source": 0
      }
    },
    {
      "type": "Feature",
      "geometry": {
        "type": "Point",
        "coordinates": [
          8.6308,
          44.6074
        ]
      },
      "properties": {
        "icao24": "4d200f",
        "callsign": "WMT3ZV",
        "origin_country": "Malta",
        "time_position": 1780355892,
        "last_contact": 1780355892,
        "baro_altitude": 6042.66,
        "on_ground": false,
        "velocity": 191.8,
        "true_track": 43.15,
        "vertical_rate": -3.9,
        "geo_altitude": 6332.22,
        "squawk": "1000",
        "spi": false,
        "position_source": 0
      }
    },
    {
      "type": "Feature",
      "geometry": {
        "type": "Point",
        "coordinates": [
          8.9788,
          47.0399
        ]
      },
      "properties": {
        "icao24": "4082cc",
        "callsign": "TOM72X",
        "origin_country": "United Kingdom",
        "time_position": 1780355891,
        "last_contact": 1780355892,
        "baro_altitude": 11582.4,
        "on_ground": false,
        "velocity": 209.39,
        "true_track": 306.31,
        "vertical_rate": 0,
        "geo_altitude": 11963.4,
        "squawk": "2750",
        "spi": false,
        "position_source": 0
      }
    },
    {
      "type": "Feature",
      "geometry": {
        "type": "Point",
        "coordinates": [
          8.5458,
          47.4531
        ]
      },
      "properties": {
        "icao24": "4b17fd",
        "callsign": "SWR20D",
        "origin_country": "Switzerland",
        "time_position": 1780355890,
        "last_contact": 1780355890,
        "baro_altitude": null,
        "on_ground": true,
        "velocity": 0,
        "true_track": 292.5,
        "vertical_rate": null,
        "geo_altitude": null,
        "squawk": null,
        "spi": false,
        "position_source": 0
      }
    },
    {
      "type": "Feature",
      "geometry": {
        "type": "Point",
        "coordinates": [
          8.564,
          47.4424
        ]
      },
      "properties": {
        "icao24": "4b17fe",
        "callsign": "SWR9EX",
        "origin_country": "Switzerland",
        "time_position": 1780355883,
        "last_contact": 1780355888,
        "baro_altitude": null,
        "on_ground": true,
        "velocity": 0,
        "true_track": 143.44,
        "vertical_rate": null,
        "geo_altitude": null,
        "squawk": null,
        "spi": false,
        "position_source": 0
      }
    },
    {
      "type": "Feature",
      "geometry": {
        "type": "Point",
        "coordinates": [
          8.5653,
          47.442
        ]
      },
      "properties": {
        "icao24": "4b17ff",
        "callsign": "SWISS",
        "origin_country": "Switzerland",
        "time_position": 1780355891,
        "last_contact": 1780355891,
        "baro_altitude": null,
        "on_ground": true,
        "velocity": 0,
        "true_track": 143.44,
        "vertical_rate": null,
        "geo_altitude": null,
        "squawk": "2000",
        "spi": false,
        "position_source": 0
      }
    }
  ]
}