{
  "type": "FeatureCollection",
  "source": "opensky",
  "dataset": "aircraft_italy",
  "generated_at": "2026-08-22T23:51:54.162564+00:00",
  "opensky_time": 1787442704,
  "count": 131,
  "features": [
    {
      "type": "Feature",
      "geometry": {
        "type": "Point",
        "coordinates": [
          17.6968,
          47.3954
        ]
      },
      "properties": {
        "icao24": "4bc8d0",
        "callsign": "PGT69QK",
        "origin_country": "Turkey",
        "time_position": 1787442703,
        "last_contact": 1787442703,
        "baro_altitude": 10980.42,
        "on_ground": false,
        "velocity": 210.88,
        "true_track": 301.63,
        "vertical_rate": 0.33,
        "geo_altitude": 11437.62,
        "squawk": "2646",
        "spi": false,
        "position_source": 0
      }
    },
    {
      "type": "Feature",
      "geometry": {
        "type": "Point",
        "coordinates": [
          8.5687,
          45.0696
        ]
      },
      "properties": {
        "icao24": "440224",
        "callsign": "EJU36QL",
        "origin_country": "Austria",
        "time_position": 1787442703,
        "last_contact": 1787442704,
        "baro_altitude": 5966.46,
        "on_ground": false,
        "velocity": 171.13,
        "true_track": 349.43,
        "vertical_rate": -11.05,
        "geo_altitude": 6286.5,
        "squawk": "1000",
        "spi": false,
        "position_source": 0
      }
    },
    {
      "type": "Feature",
      "geometry": {
        "type": "Point",
        "coordinates": [
          16.8385,
          47.0462
        ]
      },
      "properties": {
        "icao24": "4bc84a",
        "callsign": "PGT7122",
        "origin_country": "Turkey",
        "time_position": 1787442703,
        "last_contact": 1787442703,
        "baro_altitude": 10660.38,
        "on_ground": false,
        "velocity": 249.4,
        "true_track": 127.04,
        "vertical_rate": 0,
        "geo_altitude": 11117.58,
        "squawk": "6414",
        "spi": false,
        "position_source": 0
      }
    },
    {
      "type": "Feature",
      "geometry": {
        "type": "Point",
        "coordinates": [
          9.2284,
          40.4403
        ]
      },
      "properties": {
        "icao24": "738069",
        "callsign": "ELY292",
        "origin_country": "Israel",
        "time_position": 1787442703,
        "last_contact": 1787442703,
        "baro_altitude": 11277.6,
        "on_ground": false,
        "velocity": 241.64,
        "true_track": 101.05,
        "vertical_rate": 0,
        "geo_altitude": 11925.3,
        "squawk": "1411",
        "spi": false,
        "position_source": 0
      }
    },
    {
      "type": "Feature",
      "geometry": {
        "type": "Point",
        "coordinates": [
          11.679,
          41.6887
        ]
      },
      "properties": {
        "icao24": "4bb470",
        "callsign": "MNB1546",
        "origin_country": "Turkey",
        "time_position": 1787442703,
        "last_contact": 1787442704,
        "baro_altitude": 11582.4,
        "on_ground": false,
        "velocity": 224.65,
        "true_track": 254.6,
        "vertical_rate": 0,
        "geo_altitude": 12199.62,
        "squawk": "7346",
        "spi": false,
        "position_source": 0
      }
    },
    {
      "type": "Feature",
      "geometry": {
        "type": "Point",
        "coordinates": [
          15.5923,
          39.3764
        ]
      },
      "properties": {
        "icao24": "738075",
        "callsign": "ELY003",
        "origin_country": "Israel",
        "time_position": 1787442703,
        "last_contact": 1787442703,
        "baro_altitude": 9753.6,
        "on_ground": false,
        "velocity": 241.35,
        "true_track": 286.85,
        "vertical_rate": 0,
        "geo_altitude": 10363.2,
        "squawk": "4153",
        "spi": false,
        "position_source": 0
      }
    },
    {
      "type": "Feature",
      "geometry": {
        "type": "Point",
        "coordinates": [
          17.1571,
          42.6271
        ]
      },
      "properties": {
        "icao24": "738059",
        "callsign": "ELY288",
        "origin_country": "Israel",
        "time_position": 1787442698,
        "last_contact": 1787442701,
        "baro_altitude": 11277.6,
        "on_ground": false,
        "velocity": 246.87,
        "true_track": 121.54,
        "vertical_rate": 0,
        "geo_altitude": 11871.96,
        "squawk": "0464",
        "spi": false,
        "position_source": 0
      }
    },
    {
      "type": "Feature",
      "geometry": {
        "type": "Point",
        "coordinates": [
          8.8678,
          46.8716
        ]
      },
      "properties": {
        "icao24": "80189d",
        "callsign": "AIC188",
        "origin_country": "India",
        "time_position": 1787442703,
        "last_contact": 1787442703,
        "baro_altitude": 11269.98,
        "on_ground": false,
        "velocity": 278.2,
        "true_track": 115.52,
        "vertical_rate": -0.33,
        "geo_altitude": 11727.18,
        "squawk": "1155",
        "spi": false,
        "position_source": 0
      }
    },
    {
      "type": "Feature",
      "geometry": {
        "type": "Point",
        "coordinates": [
          11.4495,
          45.3495
        ]
      },
      "properties": {
        "icao24": "440073",
        "callsign": "EJU12HZ",
        "origin_country": "Austria",
        "time_position": 1787442703,
        "last_contact": 1787442704,
        "baro_altitude": 10629.9,
        "on_ground": false,
        "velocity": 199.38,
        "true_track": 284.04,
        "vertical_rate": -3.58,
        "geo_altitude": 11125.2,
        "squawk": "5535",
        "spi": false,
        "position_source": 0
      }
    },
    {
      "type": "Feature",
      "geometry": {
        "type": "Point",
        "coordinates": [
          13.8097,
          46.5028
        ]
      },
      "properties": {
        "icao24": "abbe23",
        "callsign": "FDX10",
        "origin_country": "United States",
        "time_position": 1787442703,
        "last_contact": 1787442703,
        "baro_altitude": 10058.4,
        "on_ground": false,
        "velocity": 276.18,
        "true_track": 111.64,
        "vertical_rate": 0,
        "geo_altitude": 10500.36,
        "squawk": "0675",
        "spi": false,
        "position_source": 0
      }
    },
    {
      "type": "Feature",
      "geometry": {
        "type": "Point",
        "coordinates": [
          11.7156,
          45.354
        ]
      },
      "properties": {
        "icao24": "440198",
        "callsign": "EJU67TU",
        "origin_country": "Austria",
        "time_position": 1787442703,
        "last_contact": 1787442703,
        "baro_altitude": 10972.8,
        "on_ground": false,
        "velocity": 205.79,
        "true_track": 285.22,
        "vertical_rate": 0,
        "geo_altitude": 11483.34,
        "squawk": "2011",
        "spi": false,
        "position_source": 0
      }
    },
    {
      "type": "Feature",
      "geometry": {
        "type": "Point",
        "coordinates": [
          8.7219,
          45.6464
        ]
      },
      "properties": {
        "icao24": "440195",
        "callsign": "EJU46ZK",
        "origin_country": "Austria",
        "time_position": 1787442401,
        "last_contact": 1787442401,
        "baro_altitude": null,
        "on_ground": true,
        "velocity": 0.51,
        "true_track": 78.75,
        "vertical_rate": null,
        "geo_altitude": null,
        "squawk": "6322",
        "spi": false,
        "position_source": 0
      }
    },
    {
      "type": "Feature",
      "geometry": {
        "type": "Point",
        "coordinates": [
          11.1395,
          43.6789
        ]
      },
      "properties": {
        "icao24": "345613",
        "callsign": "VOE2047",
        "origin_country": "Spain",
        "time_position": 1787442703,
        "last_contact": 1787442704,
        "baro_altitude": 11574.78,
        "on_ground": false,
        "velocity": 218.76,
        "true_track": 298.98,
        "vertical_rate": 0,
        "geo_altitude": 12146.28,
        "squawk": "2030",
        "spi": false,
        "position_source": 0
      }
    },
    {
      "type": "Feature",
      "geometry": {
        "type": "Point",
        "coordinates": [
          12.937,
          40.2322
        ]
      },
      "properties": {
        "icao24": "4bb289",
        "callsign": "THY5LY",
        "origin_country": "Turkey",
        "time_position": 1787442703,
        "last_contact": 1787442703,
        "baro_altitude": 10660.38,
        "on_ground": false,
        "velocity": 240.25,
        "true_track": 83.48,
        "vertical_rate": 0,
        "geo_altitude": 11300.46,
        "squawk": "1272",
        "spi": false,
        "position_source": 0
      }
    },
    {
      "type": "Feature",
      "geometry": {
        "type": "Point",
        "coordinates": [
          11.2764,
          44.5399
        ]
      },
      "properties": {
        "icao24": "020175",
        "callsign": "MAC465",
        "origin_country": "Morocco",
        "time_position": 1787442640,
        "last_contact": 1787442640,
        "baro_altitude": 15.24,
        "on_ground": false,
        "velocity": 72.24,
        "true_track": 117.11,
        "vertical_rate": -3.9,
        "geo_altitude": 106.68,
        "squawk": "1000",
        "spi": false,
        "position_source": 0
      }
    },
    {
      "type": "Feature",
      "geometry": {
        "type": "Point",
        "coordinates": [
          16.2295,
          43.965
        ]
      },
      "properties": {
        "icao24": "8005eb",
        "callsign": "AIC132",
        "origin_country": "India",
        "time_position": 1787442703,
        "last_contact": 1787442703,
        "baro_altitude": 11277.6,
        "on_ground": false,
        "velocity": 264.22,
        "true_track": 133.26,
        "vertical_rate": 0,
        "geo_altitude": 11849.1,
        "squawk": "5264",
        "spi": false,
        "position_source": 0
      }
    },
    {
      "type": "Feature",
      "geometry": {
        "type": "Point",
        "coordinates": [
          18.5941,
          40.6043
        ]
      },
      "properties": {
        "icao24": "02019d",
        "callsign": "MAC529",
        "origin_country": "Morocco",
        "time_position": 1787442702,
        "last_contact": 1787442702,
        "baro_altitude": 10363.2,
        "on_ground": false,
        "velocity": 224.33,
        "true_track": 270.92,
        "vertical_rate": 0,
        "geo_altitude": 10965.18,
        "squawk": "2324",
        "spi": false,
        "position_source": 0
      }
    },
    {
      "type": "Feature",
      "geometry": {
        "type": "Point",
        "coordinates": [
          12.7419,
          47.2144
        ]
      },
      "properties": {
        "icao24": "406752",
        "callsign": "EZY57JK",
        "origin_country": "United Kingdom",
        "time_position": 1787442703,
        "last_contact": 1787442703,
        "baro_altitude": 10980.42,
        "on_ground": false,
        "velocity": 197.58,
        "true_track": 307.91,
        "vertical_rate": 0,
        "geo_altitude": 11414.76,
        "squawk": "6625",
        "spi": false,
        "position_source": 0
      }
    },
    {
      "type": "Feature",
      "geometry": {
        "type": "Point",
        "coordinates": [
          8.5286,
          41.2592
        ]
      },
      "properties": {
        "icao24": "346612",
        "callsign": "VOE8NN",
        "origin_country": "Spain",
        "time_position": 1787442703,
        "last_contact": 1787442703,
        "baro_altitude": 10988.04,
        "on_ground": false,
        "velocity": 223.48,
        "true_track": 302.59,
        "vertical_rate": 0.33,
        "geo_altitude": 11574.78,
        "squawk": null,
        "spi": false,
        "position_source": 0
      }
    },
    {
      "type": "Feature",
      "geometry": {
        "type": "Point",
        "coordinates": [
          6.3481,
          40.7677
        ]
      },
      "properties": {
        "icao24": "4bb14e",
        "callsign": "THY6470",
        "origin_country": "Turkey",
        "time_position": 1787442703,
        "last_contact": 1787442704,
        "baro_altitude": 11582.4,
        "on_ground": false,
        "velocity": 256.63,
        "true_track": 94.94,
        "vertical_rate": 0,
        "geo_altitude": 12192,
        "squawk": "1451",
        "spi": false,
        "position_source": 0
      }
    },
    {
      "type": "Feature",
      "geometry": {
        "type": "Point",
        "coordinates": [
          13.5404,
          47.2
        ]
      },
      "properties": {
        "icao24": "4067f7",
        "callsign": "TOM96B",
        "origin_country": "United Kingdom",
        "time_position": 1787442703,
        "last_contact": 1787442704,
        "baro_altitude": 13106.4,
        "on_ground": false,
        "velocity": 234.85,
        "true_track": 305.64,
        "vertical_rate": -0.33,
        "geo_altitude": 13586.46,
        "squawk": "2267",
        "spi": false,
        "position_source": 0
      }
    },
    {
      "type": "Feature",
      "geometry": {
        "type": "Point",
        "coordinates": [
          18.6426,
          42.9191
        ]
      },
      "properties": {
        "icao24": "896477",
        "callsign": "UAE6",
        "origin_country": "United Arab Emirates",
        "time_position": 1787442702,
        "last_contact": 1787442703,
        "baro_altitude": 11277.6,
        "on_ground": false,
        "velocity": 265.57,
        "true_track": 134.37,
        "vertical_rate": 0,
        "geo_altitude": 11864.34,
        "squawk": "2247",
        "spi": false,
        "position_source": 0
      }
    },
    {
      "type": "Feature",
      "geometry": {
        "type": "Point",
        "coordinates": [
          17.2901,
          44.7101
        ]
      },
      "properties": {
        "icao24": "4064a4",
        "callsign": "TOM9CV",
        "origin_country": "United Kingdom",
        "time_position": 1787442703,
        "last_contact": 1787442703,
        "baro_altitude": 11582.4,
        "on_ground": false,
        "velocity": 219.28,
        "true_track": 309.48,
        "vertical_rate": 0,
        "geo_altitude": 12123.42,
        "squawk": "2025",
        "spi": false,
        "position_source": 0
      }
    },
    {
      "type": "Feature",
      "geometry": {
        "type": "Point",
        "coordinates": [
          11.0731,
          47.2067
        ]
      },
      "properties": {
        "icao24": "abf0c7",
        "callsign": "FDX5384",
        "origin_country": "United States",
        "time_position": 1787442703,
        "last_contact": 1787442703,
        "baro_altitude": 10058.4,
        "on_ground": false,
        "velocity": 280.2,
        "true_track": 109.63,
        "vertical_rate": 0,
        "geo_altitude": 10469.88,
        "squawk": "0652",
        "spi": false,
        "position_source": 0
      }
    },
    {
      "type": "Feature",
      "geometry": {
        "type": "Point",
        "coordinates": [
          7.4793,
          40.2755
        ]
      },
      "properties": {
        "icao24": "407838",
        "callsign": "EZY68YJ",
        "origin_country": "United Kingdom",
        "time_position": 1787442703,
        "last_contact": 1787442703,
        "baro_altitude": 10972.8,
        "on_ground": false,
        "velocity": 237.08,
        "true_track": 340.35,
        "vertical_rate": -0.33,
        "geo_altitude": 11597.64,
        "squawk": null,
        "spi": false,
        "position_source": 0
      }
    },
    {
      "type": "Feature",
      "geometry": {
        "type": "Point",
        "coordinates": [
          15.7299,
          46.0282
        ]
      },
      "properties": {
        "icao24": "4b991a",
        "callsign": "FHY1366",
        "origin_country": "Turkey",
        "time_position": 1787442704,
        "last_contact": 1787442704,
        "baro_altitude": 10675.62,
        "on_ground": false,
        "velocity": 249.91,
        "true_track": 135.25,
        "vertical_rate": 0.33,
        "geo_altitude": 11155.68,
        "squawk": "7642",
        "spi": false,
        "position_source": 0
      }
    },
    {
      "type": "Feature",
      "geometry": {
        "type": "Point",
        "coordinates": [
          11.5728,
          47.7941
        ]
      },
      "properties": {
        "icao24": "40665f",
        "callsign": "TOM2KA",
        "origin_country": "United Kingdom",
        "time_position": 1787442703,
        "last_contact": 1787442703,
        "baro_altitude": 11582.4,
        "on_ground": false,
        "velocity": 194.77,
        "true_track": 306.84,
        "vertical_rate": 0,
        "geo_altitude": 11993.88,
        "squawk": "3114",
        "spi": false,
        "position_source": 0
      }
    },
    {
      "type": "Feature",
      "geometry": {
        "type": "Point",
        "coordinates": [
          17.6786,
          35.6963
        ]
      },
      "properties": {
        "icao24": "04018f",
        "callsign": "ETH741",
        "origin_country": "Ethiopia",
        "time_position": 1787442704,
        "last_contact": 1787442704,
        "baro_altitude": 11269.98,
        "on_ground": false,
        "velocity": 264.16,
        "true_track": 102.14,
        "vertical_rate": -0.33,
        "geo_altitude": 11940.54,
        "squawk": "4114",
        "spi": false,
        "position_source": 0
      }
    },
    {
      "type": "Feature",
      "geometry": {
        "type": "Point",
        "coordinates": [
          16.6801,
          45.5098
        ]
      },
      "properties": {
        "icao24": "4bcd84",
        "callsign": "SXS2NB",
        "origin_country": "Turkey",
        "time_position": 1787442703,
        "last_contact": 1787442704,
        "baro_altitude": 11887.2,
        "on_ground": false,
        "velocity": 244.97,
        "true_track": 130.14,
        "vertical_rate": 0.33,
        "geo_altitude": 12420.6,
        "squawk": "7712",
        "spi": false,
        "position_source": 0
      }
    },
    {
      "type": "Feature",
      "geometry": {
        "type": "Point",
        "coordinates": [
          15.6318,
          43.5171
        ]
      },
      "properties": {
        "icao24": "502d0f",
        "callsign": "BTI8CH",
        "origin_country": "Latvia",
        "time_position": 1787442703,
        "last_contact": 1787442704,
        "baro_altitude": 10972.8,
        "on_ground": false,
        "velocity": 232.32,
        "true_track": 4.83,
        "vertical_rate": 0,
        "geo_altitude": 11536.68,
        "squawk": "6563",
        "spi": false,
        "position_source": 0
      }
    },
    {
      "type": "Feature",
      "geometry": {
        "type": "Point",
        "coordinates": [
          14.5465,
          45.8979
        ]
      },
      "properties": {
        "icao24": "06a391",
        "callsign": "QTR10A",
        "origin_country": "Qatar",
        "time_position": 1787442703,
        "last_contact": 1787442703,
        "baro_altitude": 10363.2,
        "on_ground": false,
        "velocity": 215.01,
        "true_track": 314.13,
        "vertical_rate": 0,
        "geo_altitude": 10828.02,
        "squawk": "7735",
        "spi": false,
        "position_source": 0
      }
    },
    {
      "type": "Feature",
      "geometry": {
        "type": "Point",
        "coordinates": [
          18.0765,
          46.7229
        ]
      },
      "properties": {
        "icao24": "49d423",
        "callsign": "TVS7KQ",
        "origin_country": "Czech Republic",
        "time_position": 1787442704,
        "last_contact": 1787442704,
        "baro_altitude": 11277.6,
        "on_ground": false,
        "velocity": 244.26,
        "true_track": 142.96,
        "vertical_rate": 0,
        "geo_altitude": 11757.66,
        "squawk": "5403",
        "spi": false,
        "position_source": 0
      }
    },
    {
      "type": "Feature",
      "geometry": {
        "type": "Point",
        "coordinates": [
          16.8049,
          47.7666
        ]
      },
      "properties": {
        "icao24": "49d42b",
        "callsign": "TVS32V",
        "origin_country": "Czech Republic",
        "time_position": 1787442703,
        "last_contact": 1787442703,
        "baro_altitude": 10668,
        "on_ground": false,
        "velocity": 251.17,
        "true_track": 140.74,
        "vertical_rate": 0.33,
        "geo_altitude": 11087.1,
        "squawk": "6004",
        "spi": false,
        "position_source": 0
      }
    },
    {
      "type": "Feature",
      "geometry": {
        "type": "Point",
        "coordinates": [
          15.73,
          39.1109
        ]
      },
      "properties": {
        "icao24": "040101",
        "callsign": "ETH575",
        "origin_country": "Ethiopia",
        "time_position": 1787442704,
        "last_contact": 1787442704,
        "baro_altitude": 11887.2,
        "on_ground": false,
        "velocity": 257.34,
        "true_track": 128.59,
        "vertical_rate": 0,
        "geo_altitude": 12557.76,
        "squawk": "2231",
        "spi": false,
        "position_source": 0
      }
    },
    {
      "type": "Feature",
      "geometry": {
        "type": "Point",
        "coordinates": [
          17.0212,
          37.363
        ]
      },
      "properties": {
        "icao24": "4ba9d2",
        "callsign": "THY1CT",
        "origin_country": "Turkey",
        "time_position": 1787442704,
        "last_contact": 1787442704,
        "baro_altitude": 11582.4,
        "on_ground": false,
        "velocity": 237.26,
        "true_track": 232.93,
        "vertical_rate": 0,
        "geo_altitude": 12252.96,
        "squawk": "2340",
        "spi": false,
        "position_source": 0
      }
    },
    {
      "type": "Feature",
      "geometry": {
        "type": "Point",
        "coordinates": [
          18.273,
          42.9577
        ]
      },
      "properties": {
        "icao24": "49d1c6",
        "callsign": "EWG680",
        "origin_country": "Czech Republic",
        "time_position": 1787442703,
        "last_contact": 1787442703,
        "baro_altitude": 11887.2,
        "on_ground": false,
        "velocity": 232.98,
        "true_track": 140.02,
        "vertical_rate": 0,
        "geo_altitude": 12473.94,
        "squawk": "0502",
        "spi": false,
        "position_source": 0
      }
    },
    {
      "type": "Feature",
      "geometry": {
        "type": "Point",
        "coordinates": [
          10.604,
          47.3361
        ]
      },
      "properties": {
        "icao24": "4ba94d",
        "callsign": "THY4",
        "origin_country": "Turkey",
        "time_position": 1787442703,
        "last_contact": 1787442704,
        "baro_altitude": 11277.6,
        "on_ground": false,
        "velocity": 283.29,
        "true_track": 106.13,
        "vertical_rate": 0,
        "geo_altitude": 11704.32,
        "squawk": "2220",
        "spi": false,
        "position_source": 0
      }
    },
    {
      "type": "Feature",
      "geometry": {
        "type": "Point",
        "coordinates": [
          16.3137,
          47.4208
        ]
      },
      "properties": {
        "icao24": "49d365",
        "callsign": "TVQ6469",
        "origin_country": "Czech Republic",
        "time_position": 1787442703,
        "last_contact": 1787442703,
        "baro_altitude": 6088.38,
        "on_ground": false,
        "velocity": 222.59,
        "true_track": 56.79,
        "vertical_rate": -10.4,
        "geo_altitude": 6362.7,
        "squawk": "6161",
        "spi": false,
        "position_source": 0
      }
    },
    {
      "type": "Feature",
      "geometry": {
        "type": "Point",
        "coordinates": [
          17.903,
          46.8627
        ]
      },
      "properties": {
        "icao24": "49d38c",
        "callsign": "TVS5NR",
        "origin_country": "Czech Republic",
        "time_position": 1787442703,
        "last_contact": 1787442703,
        "baro_altitude": 10675.62,
        "on_ground": false,
        "velocity": 247.17,
        "true_track": 142.27,
        "vertical_rate": 0,
        "geo_altitude": 11117.58,
        "squawk": "4530",
        "spi": false,
        "position_source": 0
      }
    },
    {
      "type": "Feature",
      "geometry": {
        "type": "Point",
        "coordinates": [
          11.7595,
          47.3453
        ]
      },
      "properties": {
        "icao24": "71c252",
        "callsign": "KAL504",
        "origin_country": "Republic of Korea",
        "time_position": 1787442704,
        "last_contact": 1787442704,
        "baro_altitude": 10058.4,
        "on_ground": false,
        "velocity": 284.25,
        "true_track": 98.12,
        "vertical_rate": 0,
        "geo_altitude": 10469.88,
        "squawk": "0651",
        "spi": false,
        "position_source": 0
      }
    },
    {
      "type": "Feature",
      "geometry": {
        "type": "Point",
        "coordinates": [
          10.9021,
          46.1674
        ]
      },
      "properties": {
        "icao24": "744843",
        "callsign": "RJA266",
        "origin_country": "Jordan",
        "time_position": 1787442703,
        "last_contact": 1787442703,
        "baro_altitude": 11879.58,
        "on_ground": false,
        "velocity": 282.07,
        "true_track": 118.9,
        "vertical_rate": 0,
        "geo_altitude": 12382.5,
        "squawk": "1173",
        "spi": false,
        "position_source": 0
      }
    },
    {
      "type": "Feature",
      "geometry": {
        "type": "Point",
        "coordinates": [
          18.2625,
          35.9025
        ]
      },
      "properties": {
        "icao24": "744827",
        "callsign": "RJA553",
        "origin_country": "Jordan",
        "time_position": 1787442703,
        "last_contact": 1787442703,
        "baro_altitude": 10355.58,
        "on_ground": false,
        "velocity": 229.91,
        "true_track": 278.49,
        "vertical_rate": -0.33,
        "geo_altitude": 10988.04,
        "squawk": null,
        "spi": false,
        "position_source": 0
      }
    },
    {
      "type": "Feature",
      "geometry": {
        "type": "Point",
        "coordinates": [
          10.5064,
          44.5547
        ]
      },
      "properties": {
        "icao24": "4a1265",
        "callsign": "DNA412",
        "origin_country": "Romania",
        "time_position": 1787442703,
        "last_contact": 1787442703,
        "baro_altitude": 9136.38,
        "on_ground": false,
        "velocity": 267.26,
        "true_track": 75.96,
        "vertical_rate": -0.33,
        "geo_altitude": 9639.3,
        "squawk": "0466",
        "spi": false,
        "position_source": 0
      }
    },
    {
      "type": "Feature",
      "geometry": {
        "type": "Point",
        "coordinates": [
          15.6983,
          38.6935
        ]
      },
      "properties": {
        "icao24": "407fff",
        "callsign": "EZY63MD",
        "origin_country": "United Kingdom",
        "time_position": 1787442703,
        "last_contact": 1787442703,
        "baro_altitude": 10363.2,
        "on_ground": false,
        "velocity": 233.9,
        "true_track": 315.27,
        "vertical_rate": 0,
        "geo_altitude": 11003.28,
        "squawk": "6630",
        "spi": false,
        "position_source": 0
      }
    },
    {
      "type": "Feature",
      "geometry": {
        "type": "Point",
        "coordinates": [
          8.7571,
          45.5063
        ]
      },
      "properties": {
        "icao24": "4ca25b",
        "callsign": "RYR40VK",
        "origin_country": "Ireland",
        "time_position": 1787442703,
        "last_contact": 1787442703,
        "baro_altitude": 815.34,
        "on_ground": false,
        "velocity": 96.45,
        "true_track": 348.93,
        "vertical_rate": -5.2,
        "geo_altitude": 929.64,
        "squawk": "1000",
        "spi": false,
        "position_source": 0
      }
    },
    {
      "type": "Feature",
      "geometry": {
        "type": "Point",
        "coordinates": [
          8.7867,
          45.3986
        ]
      },
      "properties": {
        "icao24": "440614",
        "callsign": "EJU94AD",
        "origin_country": "Austria",
        "time_position": 1787442704,
        "last_contact": 1787442704,
        "baro_altitude": 1211.58,
        "on_ground": false,
        "velocity": 102.71,
        "true_track": 349.03,
        "vertical_rate": -2.6,
        "geo_altitude": 1333.5,
        "squawk": "1000",
        "spi": false,
        "position_source": 0
      }
    },
    {
      "type": "Feature",
      "geometry": {
        "type": "Point",
        "coordinates": [
          17.861,
          42.4391
        ]
      },
      "properties": {
        "icao24": "440611",
        "callsign": "EJU3686",
        "origin_country": "Austria",
        "time_position": 1787442702,
        "last_contact": 1787442703,
        "baro_altitude": 10972.8,
        "on_ground": false,
        "velocity": 218.96,
        "true_track": 310.43,
        "vertical_rate": 0,
        "geo_altitude": 11559.54,
        "squawk": "2045",
        "spi": false,
        "position_source": 0
      }
    },
    {
      "type": "Feature",
      "geometry": {
        "type": "Point",
        "coordinates": [
          17.3765,
          45.9227
        ]
      },
      "properties": {
        "icao24": "45aa53",
        "callsign": "NSZ3879",
        "origin_country": "Denmark",
        "time_position": 1787442703,
        "last_contact": 1787442703,
        "baro_altitude": 11574.78,
        "on_ground": false,
        "velocity": 225.5,
        "true_track": 340.82,
        "vertical_rate": 0.33,
        "geo_altitude": 12100.56,
        "squawk": "2072",
        "spi": false,
        "position_source": 0
      }
    },
    {
      "type": "Feature",
      "geometry": {
        "type": "Point",
        "coordinates": [
          12.7759,
          47.2005
        ]
      },
      "properties": {
        "icao24": "406c81",
        "callsign": "EXS34RY",
        "origin_country": "United Kingdom",
        "time_position": 1787442703,
        "last_contact": 1787442703,
        "baro_altitude": 11582.4,
        "on_ground": false,
        "velocity": 206.42,
        "true_track": 307.81,
        "vertical_rate": -0.33,
        "geo_altitude": 12024.36,
        "squawk": "2023",
        "spi": false,
        "position_source": 0
      }
    },
    {
      "type": "Feature",
      "geometry": {
        "type": "Point",
        "coordinates": [
          11.8375,
          38.6666
        ]
      },
      "properties": {
        "icao24": "407f5f",
        "callsign": "EZY25CQ",
        "origin_country": "United Kingdom",
        "time_position": 1787442704,
        "last_contact": 1787442704,
        "baro_altitude": 10972.8,
        "on_ground": false,
        "velocity": 223.72,
        "true_track": 324.26,
        "vertical_rate": 0,
        "geo_altitude": 11635.74,
        "squawk": "6564",
        "spi": false,
        "position_source": 0
      }
    },
    {
      "type": "Feature",
      "geometry": {
        "type": "Point",
        "coordinates": [
          14.3754,
          46.9473
        ]
      },
      "properties": {
        "icao24": "407f0d",
        "callsign": "RUK14",
        "origin_country": "United Kingdom",
        "time_position": 1787442703,
        "last_contact": 1787442704,
        "baro_altitude": 10972.8,
        "on_ground": false,
        "velocity": 206.38,
        "true_track": 305.16,
        "vertical_rate": 0,
        "geo_altitude": 11414.76,
        "squawk": "0523",
        "spi": false,
        "position_source": 0
      }
    },
    {
      "type": "Feature",
      "geometry": {
        "type": "Point",
        "coordinates": [
          9.9296,
          44.3645
        ]
      },
      "properties": {
        "icao24": "48c2a8",
        "callsign": "RYS7239",
        "origin_country": "Poland",
        "time_position": 1787442703,
        "last_contact": 1787442703,
        "baro_altitude": 11277.6,
        "on_ground": false,
        "velocity": 214.62,
        "true_track": 224.81,
        "vertical_rate": 0,
        "geo_altitude": 11818.62,
        "squawk": "1000",
        "spi": false,
        "position_source": 0
      }
    },
    {
      "type": "Feature",
      "geometry": {
        "type": "Point",
        "coordinates": [
          12.1114,
          45.8542
        ]
      },
      "properties": {
        "icao24": "71c521",
        "callsign": "AAR582",
        "origin_country": "Republic of Korea",
        "time_position": 1787442704,
        "last_contact": 1787442704,
        "baro_altitude": 9486.9,
        "on_ground": false,
        "velocity": 277.19,
        "true_track": 83.18,
        "vertical_rate": 3.9,
        "geo_altitude": 9913.62,
        "squawk": "0415",
        "spi": false,
        "position_source": 0
      }
    },
    {
      "type": "Feature",
      "geometry": {
        "type": "Point",
        "coordinates": [
          9.8037,
          45.6826
        ]
      },
      "properties": {
        "icao24": "48c128",
        "callsign": "RYR850",
        "origin_country": "Poland",
        "time_position": 1787442703,
        "last_contact": 1787442703,
        "baro_altitude": 3505.2,
        "on_ground": false,
        "velocity": 141.03,
        "true_track": 181.88,
        "vertical_rate": -2.93,
        "geo_altitude": 3710.94,
        "squawk": "1000",
        "spi": false,
        "position_source": 0
      }
    },
    {
      "type": "Feature",
      "geometry": {
        "type": "Point",
        "coordinates": [
          10.8956,
          44.3498
        ]
      },
      "properties": {
        "icao24": "3444c8",
        "callsign": "VOE9BA",
        "origin_country": "Spain",
        "time_position": 1787442704,
        "last_contact": 1787442704,
        "baro_altitude": 9311.64,
        "on_ground": false,
        "velocity": 225.93,
        "true_track": 175.82,
        "vertical_rate": 7.8,
        "geo_altitude": 9799.32,
        "squawk": "7424",
        "spi": false,
        "position_source": 0
      }
    },
    {
      "type": "Feature",
      "geometry": {
        "type": "Point",
        "coordinates": [
          8.3399,
          44.987
        ]
      },
      "properties": {
        "icao24": "44046d",
        "callsign": "EJU82FJ",
        "origin_country": "Austria",
        "time_position": 1787442703,
        "last_contact": 1787442703,
        "baro_altitude": 11582.4,
        "on_ground": false,
        "velocity": 207.12,
        "true_track": 283.79,
        "vertical_rate": 0,
        "geo_altitude": 12100.56,
        "squawk": "6635",
        "spi": false,
        "position_source": 0
      }
    },
    {
      "type": "Feature",
      "geometry": {
        "type": "Point",
        "coordinates": [
          17.3502,
          42.7178
        ]
      },
      "properties": {
        "icao24": "440425",
        "callsign": "EJU65WZ",
        "origin_country": "Austria",
        "time_position": 1787442703,
        "last_contact": 1787442703,
        "baro_altitude": 9768.84,
        "on_ground": false,
        "velocity": 213.82,
        "true_track": 310.51,
        "vertical_rate": 0,
        "geo_altitude": 10317.48,
        "squawk": null,
        "spi": false,
        "position_source": 0
      }
    },
    {
      "type": "Feature",
      "geometry": {
        "type": "Point",
        "coordinates": [
          15.4771,
          40.7282
        ]
      },
      "properties": {
        "icao24": "4bb850",
        "callsign": "PGT1742",
        "origin_country": "Turkey",
        "time_position": 1787442703,
        "last_contact": 1787442704,
        "baro_altitude": 11285.22,
        "on_ground": false,
        "velocity": 245.5,
        "true_track": 91.68,
        "vertical_rate": 0,
        "geo_altitude": 11902.44,
        "squawk": "5211",
        "spi": false,
        "position_source": 0
      }
    },
    {
      "type": "Feature",
      "geometry": {
        "type": "Point",
        "coordinates": [
          17.2928,
          47.3608
        ]
      },
      "properties": {
        "icao24": "4bb886",
        "callsign": "TKJ3MQ",
        "origin_country": "Turkey",
        "time_position": 1787442703,
        "last_contact": 1787442703,
        "baro_altitude": 10066.02,
        "on_ground": false,
        "velocity": 259.37,
        "true_track": 118.04,
        "vertical_rate": 0,
        "geo_altitude": 10492.74,
        "squawk": "5233",
        "spi": false,
        "position_source": 0
      }
    },
    {
      "type": "Feature",
      "geometry": {
        "type": "Point",
        "coordinates": [
          8.9231,
          45.4495
        ]
      },
      "properties": {
        "icao24": "4402ac",
        "callsign": "EJU3678",
        "origin_country": "Austria",
        "time_position": 1787442703,
        "last_contact": 1787442704,
        "baro_altitude": 2346.96,
        "on_ground": false,
        "velocity": 128.06,
        "true_track": 167.47,
        "vertical_rate": -2.6,
        "geo_altitude": 2529.84,
        "squawk": "7734",
        "spi": false,
        "position_source": 0
      }
    },
    {
      "type": "Feature",
      "geometry": {
        "type": "Point",
        "coordinates": [
          14.3732,
          35.8089
        ]
      },
      "properties": {
        "icao24": "06a0b7",
        "callsign": "QTR42U",
        "origin_country": "Qatar",
        "time_position": 1787442703,
        "last_contact": 1787442703,
        "baro_altitude": 12496.8,
        "on_ground": false,
        "velocity": 269.53,
        "true_track": 97.02,
        "vertical_rate": -0.33,
        "geo_altitude": 13213.08,
        "squawk": "1175",
        "spi": false,
        "position_source": 0
      }
    },
    {
      "type": "Feature",
      "geometry": {
        "type": "Point",
        "coordinates": [
          15.6669,
          45.6378
        ]
      },
      "properties": {
        "icao24": "408124",
        "callsign": "EXS85BE",
        "origin_country": "United Kingdom",
        "time_position": 1787442703,
        "last_contact": 1787442704,
        "baro_altitude": 10972.8,
        "on_ground": false,
        "velocity": 209.14,
        "true_track": 308.31,
        "vertical_rate": 0,
        "geo_altitude": 11468.1,
        "squawk": "2252",
        "spi": false,
        "position_source": 0
      }
    },
    {
      "type": "Feature",
      "geometry": {
        "type": "Point",
        "coordinates": [
          17.7358,
          47.5803
        ]
      },
      "properties": {
        "icao24": "48cb15",
        "callsign": "TVS2623",
        "origin_country": "Poland",
        "time_position": 1787442703,
        "last_contact": 1787442703,
        "baro_altitude": 10363.2,
        "on_ground": false,
        "velocity": 208.83,
        "true_track": 300.99,
        "vertical_rate": 0,
        "geo_altitude": 10774.68,
        "squawk": "5332",
        "spi": false,
        "position_source": 0
      }
    },
    {
      "type": "Feature",
      "geometry": {
        "type": "Point",
        "coordinates": [
          6.0041,
          41.3242
        ]
      },
      "properties": {
        "icao24": "02a1a6",
        "callsign": "LBT593",
        "origin_country": "Tunisia",
        "time_position": 1787442703,
        "last_contact": 1787442704,
        "baro_altitude": 11887.2,
        "on_ground": false,
        "velocity": 220.61,
        "true_track": 166.51,
        "vertical_rate": 0,
        "geo_altitude": 12496.8,
        "squawk": "5671",
        "spi": false,
        "position_source": 0
      }
    },
    {
      "type": "Feature",
      "geometry": {
        "type": "Point",
        "coordinates": [
          6.1373,
          42.3998
        ]
      },
      "properties": {
        "icao24": "02a1a3",
        "callsign": "LBT3976",
        "origin_country": "Tunisia",
        "time_position": 1787442703,
        "last_contact": 1787442704,
        "baro_altitude": 10965.18,
        "on_ground": false,
        "velocity": 230.04,
        "true_track": 335.84,
        "vertical_rate": -0.33,
        "geo_altitude": 11529.06,
        "squawk": "1000",
        "spi": false,
        "position_source": 0
      }
    },
    {
      "type": "Feature",
      "geometry": {
        "type": "Point",
        "coordinates": [
          14.3097,
          39.3547
        ]
      },
      "properties": {
        "icao24": "02a1a7",
        "callsign": "LBT7762",
        "origin_country": "Tunisia",
        "time_position": 1787442702,
        "last_contact": 1787442702,
        "baro_altitude": 10972.8,
        "on_ground": false,
        "velocity": 239.63,
        "true_track": 36.8,
        "vertical_rate": 0,
        "geo_altitude": 11612.88,
        "squawk": "6142",
        "spi": false,
        "position_source": 0
      }
    },
    {
      "type": "Feature",
      "geometry": {
        "type": "Point",
        "coordinates": [
          15.9217,
          45.4877
        ]
      },
      "properties": {
        "icao24": "408213",
        "callsign": "EXS65BM",
        "origin_country": "United Kingdom",
        "time_position": 1787442703,
        "last_contact": 1787442703,
        "baro_altitude": 10965.18,
        "on_ground": false,
        "velocity": 213.07,
        "true_track": 308.53,
        "vertical_rate": 0,
        "geo_altitude": 11490.96,
        "squawk": "2057",
        "spi": false,
        "position_source": 0
      }
    },
    {
      "type": "Feature",
      "geometry": {
        "type": "Point",
        "coordinates": [
          10.1723,
          38.0945
        ]
      },
      "properties": {
        "icao24": "39e68a",
        "callsign": "AFR1384",
        "origin_country": "France",
        "time_position": 1787442549,
        "last_contact": 1787442651,
        "baro_altitude": 8458.2,
        "on_ground": false,
        "velocity": 225.04,
        "true_track": 167.46,
        "vertical_rate": -25.36,
        "geo_altitude": 8953.5,
        "squawk": "7635",
        "spi": false,
        "position_source": 0
      }
    },
    {
      "type": "Feature",
      "geometry": {
        "type": "Point",
        "coordinates": [
          15.6589,
          46.1375
        ]
      },
      "properties": {
        "icao24": "408262",
        "callsign": "EXS31ER",
        "origin_country": "United Kingdom",
        "time_position": 1787442703,
        "last_contact": 1787442703,
        "baro_altitude": 10980.42,
        "on_ground": false,
        "velocity": 207.34,
        "true_track": 300.57,
        "vertical_rate": 0,
        "geo_altitude": 11475.72,
        "squawk": "3242",
        "spi": false,
        "position_source": 0
      }
    },
    {
      "type": "Feature",
      "geometry": {
        "type": "Point",
        "coordinates": [
          10.0634,
          37.6042
        ]
      },
      "properties": {
        "icao24": "02a1ab",
        "callsign": "LBT3965",
        "origin_country": "Tunisia",
        "time_position": 1787442703,
        "last_contact": 1787442703,
        "baro_altitude": 11178.54,
        "on_ground": false,
        "velocity": 229.53,
        "true_track": 159.53,
        "vertical_rate": -4.88,
        "geo_altitude": 11849.1,
        "squawk": "1214",
        "spi": false,
        "position_source": 0
      }
    },
    {
      "type": "Feature",
      "geometry": {
        "type": "Point",
        "coordinates": [
          9.6929,
          38.9585
        ]
      },
      "properties": {
        "icao24": "02a1b4",
        "callsign": "LBT789",
        "origin_country": "Tunisia",
        "time_position": 1787442704,
        "last_contact": 1787442704,
        "baro_altitude": 10690.86,
        "on_ground": false,
        "velocity": 230.31,
        "true_track": 152.75,
        "vertical_rate": -4.88,
        "geo_altitude": 11330.94,
        "squawk": "1251",
        "spi": false,
        "position_source": 0
      }
    },
    {
      "type": "Feature",
      "geometry": {
        "type": "Point",
        "coordinates": [
          9.5566,
          38.5509
        ]
      },
      "properties": {
        "icao24": "02a1b0",
        "callsign": "LBT543",
        "origin_country": "Tunisia",
        "time_position": 1787442703,
        "last_contact": 1787442703,
        "baro_altitude": 11887.2,
        "on_ground": false,
        "velocity": 238.72,
        "true_track": 155.42,
        "vertical_rate": 0,
        "geo_altitude": 12550.14,
        "squawk": "7640",
        "spi": false,
        "position_source": 0
      }
    },
    {
      "type": "Feature",
      "geometry": {
        "type": "Point",
        "coordinates": [
          13.9388,
          47.628
        ]
      },
      "properties": {
        "icao24": "4080a4",
        "callsign": "EXS34DA",
        "origin_country": "United Kingdom",
        "time_position": 1787442703,
        "last_contact": 1787442704,
        "baro_altitude": 10972.8,
        "on_ground": false,
        "velocity": 198.99,
        "true_track": 314.48,
        "vertical_rate": 0,
        "geo_altitude": 11376.66,
        "squawk": "2066",
        "spi": false,
        "position_source": 0
      }
    },
    {
      "type": "Feature",
      "geometry": {
        "type": "Point",
        "coordinates": [
          17.07,
          44.8253
        ]
      },
      "properties": {
        "icao24": "4080df",
        "callsign": "EXS65LG",
        "origin_country": "United Kingdom",
        "time_position": 1787442704,
        "last_contact": 1787442704,
        "baro_altitude": 10972.8,
        "on_ground": false,
        "velocity": 217.11,
        "true_track": 309.42,
        "vertical_rate": 0,
        "geo_altitude": 11513.82,
        "squawk": "2032",
        "spi": false,
        "position_source": 0
      }
    },
    {
      "type": "Feature",
      "geometry": {
        "type": "Point",
        "coordinates": [
          16.0667,
          45.4114
        ]
      },
      "properties": {
        "icao24": "408032",
        "callsign": "EXS1QR",
        "origin_country": "United Kingdom",
        "time_position": 1787442703,
        "last_contact": 1787442703,
        "baro_altitude": 10363.2,
        "on_ground": false,
        "velocity": 214.52,
        "true_track": 308.57,
        "vertical_rate": -0.33,
        "geo_altitude": 10850.88,
        "squawk": "5372",
        "spi": false,
        "position_source": 0
      }
    },
    {
      "type": "Feature",
      "geometry": {
        "type": "Point",
        "coordinates": [
          11.8708,
          41.7136
        ]
      },
      "properties": {
        "icao24": "43ea87",
        "callsign": "MCNZI",
        "origin_country": "United Kingdom",
        "time_position": 1787442703,
        "last_contact": 1787442703,
        "baro_altitude": 12496.8,
        "on_ground": false,
        "velocity": 257.52,
        "true_track": 118,
        "vertical_rate": -0.33,
        "geo_altitude": 13083.54,
        "squawk": "1220",
        "spi": false,
        "position_source": 0
      }
    },
    {
      "type": "Feature",
      "geometry": {
        "type": "Point",
        "coordinates": [
          14.3867,
          47.4148
        ]
      },
      "properties": {
        "icao24": "440a8d",
        "callsign": "BCS516",
        "origin_country": "Austria",
        "time_position": 1787442703,
        "last_contact": 1787442703,
        "baro_altitude": 10668,
        "on_ground": false,
        "velocity": 268.85,
        "true_track": 147.34,
        "vertical_rate": 0,
        "geo_altitude": 11041.38,
        "squawk": "2242",
        "spi": false,
        "position_source": 0
      }
    },
    {
      "type": "Feature",
      "geometry": {
        "type": "Point",
        "coordinates": [
          15.893,
          47.5628
        ]
      },
      "properties": {
        "icao24": "4bab2d",
        "callsign": "THY3393",
        "origin_country": "Turkey",
        "time_position": 1787442703,
        "last_contact": 1787442704,
        "baro_altitude": 10668,
        "on_ground": false,
        "velocity": 262.31,
        "true_track": 124.94,
        "vertical_rate": 0,
        "geo_altitude": 11079.48,
        "squawk": "5402",
        "spi": false,
        "position_source": 0
      }
    },
    {
      "type": "Feature",
      "geometry": {
        "type": "Point",
        "coordinates": [
          8.7165,
          45.2908
        ]
      },
      "properties": {
        "icao24": "4ca961",
        "callsign": "NOS6149",
        "origin_country": "Ireland",
        "time_position": 1787442703,
        "last_contact": 1787442703,
        "baro_altitude": 1767.84,
        "on_ground": false,
        "velocity": 112.58,
        "true_track": 33.25,
        "vertical_rate": -2.6,
        "geo_altitude": 1912.62,
        "squawk": "5527",
        "spi": false,
        "position_source": 0
      }
    },
    {
      "type": "Feature",
      "geometry": {
        "type": "Point",
        "coordinates": [
          14.4956,
          35.8682
        ]
      },
      "properties": {
        "icao24": "4ca92b",
        "callsign": "RYR3864",
        "origin_country": "Ireland",
        "time_position": 1787442704,
        "last_contact": 1787442704,
        "baro_altitude": 152.4,
        "on_ground": false,
        "velocity": 72.96,
        "true_track": 234.18,
        "vertical_rate": -3.58,
        "geo_altitude": 220.98,
        "squawk": "3721",
        "spi": false,
        "position_source": 0
      }
    },
    {
      "type": "Feature",
      "geometry": {
        "type": "Point",
        "coordinates": [
          15.2772,
          46.7445
        ]
      },
      "properties": {
        "icao24": "486648",
        "callsign": "CND63ZG",
        "origin_country": "Kingdom of the Netherlands",
        "time_position": 1787442703,
        "last_contact": 1787442703,
        "baro_altitude": 10972.8,
        "on_ground": false,
        "velocity": 213.91,
        "true_track": 318.41,
        "vertical_rate": -0.33,
        "geo_altitude": 11422.38,
        "squawk": "5307",
        "spi": false,
        "position_source": 0
      }
    },
    {
      "type": "Feature",
      "geometry": {
        "type": "Point",
        "coordinates": [
          18.0668,
          47.7521
        ]
      },
      "properties": {
        "icao24": "4bcdef",
        "callsign": "SXS5FR",
        "origin_country": "Turkey",
        "time_position": 1787442703,
        "last_contact": 1787442703,
        "baro_altitude": 11887.2,
        "on_ground": false,
        "velocity": 234.46,
        "true_track": 145.37,
        "vertical_rate": 0,
        "geo_altitude": 12344.4,
        "squawk": "7635",
        "spi": false,
        "position_source": 0
      }
    },
    {
      "type": "Feature",
      "geometry": {
        "type": "Point",
        "coordinates": [
          16.0604,
          45.246
        ]
      },
      "properties": {
        "icao24": "4bcda1",
        "callsign": "SXS2GA",
        "origin_country": "Turkey",
        "time_position": 1787442703,
        "last_contact": 1787442703,
        "baro_altitude": 11277.6,
        "on_ground": false,
        "velocity": 251.13,
        "true_track": 136.83,
        "vertical_rate": 0,
        "geo_altitude": 11803.38,
        "squawk": "7641",
        "spi": false,
        "position_source": 0
      }
    },
    {
      "type": "Feature",
      "geometry": {
        "type": "Point",
        "coordinates": [
          6.7545,
          45.1253
        ]
      },
      "properties": {
        "icao24": "3c71a1",
        "callsign": "BCS080",
        "origin_country": "Germany",
        "time_position": 1787442703,
        "last_contact": 1787442703,
        "baro_altitude": 12192,
        "on_ground": false,
        "velocity": 238.12,
        "true_track": 351.68,
        "vertical_rate": 0,
        "geo_altitude": 12725.4,
        "squawk": "1000",
        "spi": false,
        "position_source": 0
      }
    },
    {
      "type": "Feature",
      "geometry": {
        "type": "Point",
        "coordinates": [
          11.7999,
          46.5697
        ]
      },
      "properties": {
        "icao24": "405f12",
        "callsign": "EZY47GE",
        "origin_country": "United Kingdom",
        "time_position": 1787442704,
        "last_contact": 1787442704,
        "baro_altitude": 10363.2,
        "on_ground": false,
        "velocity": 201.9,
        "true_track": 289.04,
        "vertical_rate": 0,
        "geo_altitude": 10812.78,
        "squawk": "5377",
        "spi": false,
        "position_source": 0
      }
    },
    {
      "type": "Feature",
      "geometry": {
        "type": "Point",
        "coordinates": [
          17.8886,
          46.9928
        ]
      },
      "properties": {
        "icao24": "4bccab",
        "callsign": "SXS6WN",
        "origin_country": "Turkey",
        "time_position": 1787442703,
        "last_contact": 1787442703,
        "baro_altitude": 11277.6,
        "on_ground": false,
        "velocity": 236.31,
        "true_track": 145.38,
        "vertical_rate": 0,
        "geo_altitude": 11742.42,
        "squawk": "7614",
        "spi": false,
        "position_source": 0
      }
    },
    {
      "type": "Feature",
      "geometry": {
        "type": "Point",
        "coordinates": [
          18.53,
          47.1344
        ]
      },
      "properties": {
        "icao24": "4bccb5",
        "callsign": "SXS4TF",
        "origin_country": "Turkey",
        "time_position": 1787442704,
        "last_contact": 1787442704,
        "baro_altitude": 9677.4,
        "on_ground": false,
        "velocity": 242.12,
        "true_track": 142.42,
        "vertical_rate": 9.43,
        "geo_altitude": 10088.88,
        "squawk": "4424",
        "spi": false,
        "position_source": 0
      }
    },
    {
      "type": "Feature",
      "geometry": {
        "type": "Point",
        "coordinates": [
          18.2015,
          46.3295
        ]
      },
      "properties": {
        "icao24": "4bce01",
        "callsign": "SXS4QP",
        "origin_country": "Turkey",
        "time_position": 1787442703,
        "last_contact": 1787442704,
        "baro_altitude": 11277.6,
        "on_ground": false,
        "velocity": 251.09,
        "true_track": 127.93,
        "vertical_rate": 0,
        "geo_altitude": 11765.28,
        "squawk": "6407",
        "spi": false,
        "position_source": 0
      }
    },
    {
      "type": "Feature",
      "geometry": {
        "type": "Point",
        "coordinates": [
          8.7213,
          45.6157
        ]
      },
      "properties": {
        "icao24": "4d010b",
        "callsign": "ICV762",
        "origin_country": "Luxembourg",
        "time_position": 1787442704,
        "last_contact": 1787442704,
        "baro_altitude": null,
        "on_ground": true,
        "velocity": 8.23,
        "true_track": 168.75,
        "vertical_rate": null,
        "geo_altitude": null,
        "squawk": "0337",
        "spi": false,
        "position_source": 0
      }
    },
    {
      "type": "Feature",
      "geometry": {
        "type": "Point",
        "coordinates": [
          17.3787,
          43.9884
        ]
      },
      "properties": {
        "icao24": "407667",
        "callsign": "EZY68ZN",
        "origin_country": "United Kingdom",
        "time_position": 1787442704,
        "last_contact": 1787442704,
        "baro_altitude": 10370.82,
        "on_ground": false,
        "velocity": 219.26,
        "true_track": 296.93,
        "vertical_rate": 0.33,
        "geo_altitude": 10911.84,
        "squawk": "2065",
        "spi": false,
        "position_source": 0
      }
    },
    {
      "type": "Feature",
      "geometry": {
        "type": "Point",
        "coordinates": [
          16.7088,
          43.7253
        ]
      },
      "properties": {
        "icao24": "40768c",
        "callsign": "EZY75PF",
        "origin_country": "United Kingdom",
        "time_position": 1787442703,
        "last_contact": 1787442704,
        "baro_altitude": 10355.58,
        "on_ground": false,
        "velocity": 216.79,
        "true_track": 306.9,
        "vertical_rate": 0,
        "geo_altitude": 10896.6,
        "squawk": "5607",
        "spi": false,
        "position_source": 0
      }
    },
    {
      "type": "Feature",
      "geometry": {
        "type": "Point",
        "coordinates": [
          11.6039,
          46.827
        ]
      },
      "properties": {
        "icao24": "4074b6",
        "callsign": "EZY12ET",
        "origin_country": "United Kingdom",
        "time_position": 1787442703,
        "last_contact": 1787442703,
        "baro_altitude": 11574.78,
        "on_ground": false,
        "velocity": 214.26,
        "true_track": 314.71,
        "vertical_rate": -0.33,
        "geo_altitude": 12031.98,
        "squawk": "3554",
        "spi": false,
        "position_source": 0
      }
    },
    {
      "type": "Feature",
      "geometry": {
        "type": "Point",
        "coordinates": [
          15.7313,
          41.18
        ]
      },
      "properties": {
        "icao24": "4cafd0",
        "callsign": "RYR2EC",
        "origin_country": "Ireland",
        "time_position": 1787442703,
        "last_contact": 1787442703,
        "baro_altitude": 7787.64,
        "on_ground": false,
        "velocity": 187.15,
        "true_track": 275.68,
        "vertical_rate": 13.33,
        "geo_altitude": 8237.22,
        "squawk": null,
        "spi": false,
        "position_source": 0
      }
    },
    {
      "type": "Feature",
      "geometry": {
        "type": "Point",
        "coordinates": [
          17.5829,
          44.6515
        ]
      },
      "properties": {
        "icao24": "010248",
        "callsign": "NIA8604",
        "origin_country": "Egypt",
        "time_position": 1787442703,
        "last_contact": 1787442703,
        "baro_altitude": 10066.02,
        "on_ground": false,
        "velocity": 249.38,
        "true_track": 144.57,
        "vertical_rate": 0,
        "geo_altitude": 10599.42,
        "squawk": "6031",
        "spi": false,
        "position_source": 0
      }
    },
    {
      "type": "Feature",
      "geometry": {
        "type": "Point",
        "coordinates": [
          18.6404,
          42.6439
        ]
      },
      "properties": {
        "icao24": "010266",
        "callsign": "MSC2918",
        "origin_country": "Egypt",
        "time_position": 1787442696,
        "last_contact": 1787442704,
        "baro_altitude": 10370.82,
        "on_ground": false,
        "velocity": 229.88,
        "true_track": 327.06,
        "vertical_rate": 0,
        "geo_altitude": 10934.7,
        "squawk": null,
        "spi": false,
        "position_source": 0
      }
    },
    {
      "type": "Feature",
      "geometry": {
        "type": "Point",
        "coordinates": [
          17.4781,
          47.5357
        ]
      },
      "properties": {
        "icao24": "010265",
        "callsign": "MSC2932",
        "origin_country": "Egypt",
        "time_position": 1787442703,
        "last_contact": 1787442703,
        "baro_altitude": 11590.02,
        "on_ground": false,
        "velocity": 216.31,
        "true_track": 320.4,
        "vertical_rate": 0,
        "geo_altitude": 12047.22,
        "squawk": "6157",
        "spi": false,
        "position_source": 0
      }
    },
    {
      "type": "Feature",
      "geometry": {
        "type": "Point",
        "coordinates": [
          17.2275,
          37.6659
        ]
      },
      "properties": {
        "icao24": "abd336",
        "callsign": "GTI583",
        "origin_country": "United States",
        "time_position": 1787442704,
        "last_contact": 1787442704,
        "baro_altitude": 10058.4,
        "on_ground": false,
        "velocity": 257.47,
        "true_track": 115.69,
        "vertical_rate": -0.33,
        "geo_altitude": 10675.62,
        "squawk": "1202",
        "spi": false,
        "position_source": 0
      }
    },
    {
      "type": "Feature",
      "geometry": {
        "type": "Point",
        "coordinates": [
          17.0724,
          45.7115
        ]
      },
      "properties": {
        "icao24": "010287",
        "callsign": "NMA750",
        "origin_country": "Egypt",
        "time_position": 1787442703,
        "last_contact": 1787442703,
        "baro_altitude": 10355.58,
        "on_ground": false,
        "velocity": 223.62,
        "true_track": 320.41,
        "vertical_rate": -0.33,
        "geo_altitude": 10835.64,
        "squawk": "2027",
        "spi": false,
        "position_source": 0
      }
    },
    {
      "type": "Feature",
      "geometry": {
        "type": "Point",
        "coordinates": [
          15.4017,
          45.7343
        ]
      },
      "properties": {
        "icao24": "407739",
        "callsign": "TOM66N",
        "origin_country": "United Kingdom",
        "time_position": 1787442703,
        "last_contact": 1787442703,
        "baro_altitude": 11582.4,
        "on_ground": false,
        "velocity": 225.22,
        "true_track": 327.69,
        "vertical_rate": 0.33,
        "geo_altitude": 12100.56,
        "squawk": "2074",
        "spi": false,
        "position_source": 0
      }
    },
    {
      "type": "Feature",
      "geometry": {
        "type": "Point",
        "coordinates": [
          8.7329,
          45.5942
        ]
      },
      "properties": {
        "icao24": "4d24b4",
        "callsign": "WMT42LP",
        "origin_country": "Malta",
        "time_position": 1787442703,
        "last_contact": 1787442703,
        "baro_altitude": 320.04,
        "on_ground": false,
        "velocity": 68.81,
        "true_track": 348.35,
        "vertical_rate": -3.25,
        "geo_altitude": 403.86,
        "squawk": "2606",
        "spi": false,
        "position_source": 0
      }
    },
    {
      "type": "Feature",
      "geometry": {
        "type": "Point",
        "coordinates": [
          11.7472,
          40.0179
        ]
      },
      "properties": {
        "icao24": "347601",
        "callsign": "VLG4CA",
        "origin_country": "Spain",
        "time_position": 1787442703,
        "last_contact": 1787442703,
        "baro_altitude": 9448.8,
        "on_ground": false,
        "velocity": 226.66,
        "true_track": 102.59,
        "vertical_rate": 0.33,
        "geo_altitude": 10043.16,
        "squawk": "1414",
        "spi": false,
        "position_source": 0
      }
    },
    {
      "type": "Feature",
      "geometry": {
        "type": "Point",
        "coordinates": [
          7.088,
          43.7925
        ]
      },
      "properties": {
        "icao24": "0101e0",
        "callsign": "MSR996",
        "origin_country": "Egypt",
        "time_position": 1787442703,
        "last_contact": 1787442703,
        "baro_altitude": 11269.98,
        "on_ground": false,
        "velocity": 269.29,
        "true_track": 122.6,
        "vertical_rate": -0.33,
        "geo_altitude": 11826.24,
        "squawk": "2205",
        "spi": false,
        "position_source": 0
      }
    },
    {
      "type": "Feature",
      "geometry": {
        "type": "Point",
        "coordinates": [
          16.0076,
          46.2138
        ]
      },
      "properties": {
        "icao24": "4075e0",
        "callsign": "EZY95YX",
        "origin_country": "United Kingdom",
        "time_position": 1787442703,
        "last_contact": 1787442703,
        "baro_altitude": 10355.58,
        "on_ground": false,
        "velocity": 216.82,
        "true_track": 315.77,
        "vertical_rate": 0,
        "geo_altitude": 10820.4,
        "squawk": "5331",
        "spi": false,
        "position_source": 0
      }
    },
    {
      "type": "Feature",
      "geometry": {
        "type": "Point",
        "coordinates": [
          13.8294,
          46.6309
        ]
      },
      "properties": {
        "icao24": "4075bb",
        "callsign": "EXS6MN",
        "origin_country": "United Kingdom",
        "time_position": 1787442703,
        "last_contact": 1787442703,
        "baro_altitude": 10972.8,
        "on_ground": false,
        "velocity": 203.99,
        "true_track": 308.34,
        "vertical_rate": 0,
        "geo_altitude": 11422.38,
        "squawk": "5636",
        "spi": false,
        "position_source": 0
      }
    },
    {
      "type": "Feature",
      "geometry": {
        "type": "Point",
        "coordinates": [
          18.8869,
          41.7342
        ]
      },
      "properties": {
        "icao24": "0101db",
        "callsign": "MSR982",
        "origin_country": "Egypt",
        "time_position": 1787442703,
        "last_contact": 1787442703,
        "baro_altitude": 11887.2,
        "on_ground": false,
        "velocity": 262.1,
        "true_track": 127.9,
        "vertical_rate": 0,
        "geo_altitude": 12496.8,
        "squawk": "0417",
        "spi": false,
        "position_source": 0
      }
    },
    {
      "type": "Feature",
      "geometry": {
        "type": "Point",
        "coordinates": [
          12.1969,
          44.8206
        ]
      },
      "properties": {
        "icao24": "4caeb0",
        "callsign": "NOS18JZ",
        "origin_country": "Ireland",
        "time_position": 1787442703,
        "last_contact": 1787442703,
        "baro_altitude": 7360.92,
        "on_ground": false,
        "velocity": 196.72,
        "true_track": 295.89,
        "vertical_rate": -5.2,
        "geo_altitude": 7757.16,
        "squawk": "6634",
        "spi": false,
        "position_source": 0
      }
    },
    {
      "type": "Feature",
      "geometry": {
        "type": "Point",
        "coordinates": [
          10.1486,
          47.7482
        ]
      },
      "properties": {
        "icao24": "4caee4",
        "callsign": "RYR9CB",
        "origin_country": "Ireland",
        "time_position": 1787442703,
        "last_contact": 1787442703,
        "baro_altitude": 11582.4,
        "on_ground": false,
        "velocity": 199.34,
        "true_track": 311.55,
        "vertical_rate": 0,
        "geo_altitude": 11986.26,
        "squawk": "3566",
        "spi": false,
        "position_source": 0
      }
    },
    {
      "type": "Feature",
      "geometry": {
        "type": "Point",
        "coordinates": [
          16.3205,
          43.3029
        ]
      },
      "properties": {
        "icao24": "4caecc",
        "callsign": "RYR70CR",
        "origin_country": "Ireland",
        "time_position": 1787442703,
        "last_contact": 1787442703,
        "baro_altitude": 11582.4,
        "on_ground": false,
        "velocity": 229.7,
        "true_track": 194.13,
        "vertical_rate": 0,
        "geo_altitude": 12169.14,
        "squawk": "1336",
        "spi": false,
        "position_source": 0
      }
    },
    {
      "type": "Feature",
      "geometry": {
        "type": "Point",
        "coordinates": [
          11.9856,
          47.5565
        ]
      },
      "properties": {
        "icao24": "4072dc",
        "callsign": "EXS37G",
        "origin_country": "United Kingdom",
        "time_position": 1787442704,
        "last_contact": 1787442704,
        "baro_altitude": 11582.4,
        "on_ground": false,
        "velocity": 201.56,
        "true_track": 307.22,
        "vertical_rate": 0,
        "geo_altitude": 12001.5,
        "squawk": "3127",
        "spi": false,
        "position_source": 0
      }
    },
    {
      "type": "Feature",
      "geometry": {
        "type": "Point",
        "coordinates": [
          18.0056,
          38.6699
        ]
      },
      "properties": {
        "icao24": "348609",
        "callsign": "AEA95GJ",
        "origin_country": "Spain",
        "time_position": 1787442703,
        "last_contact": 1787442703,
        "baro_altitude": 11277.6,
        "on_ground": false,
        "velocity": 246.09,
        "true_track": 100.72,
        "vertical_rate": 0,
        "geo_altitude": 11917.68,
        "squawk": "1225",
        "spi": false,
        "position_source": 0
      }
    },
    {
      "type": "Feature",
      "geometry": {
        "type": "Point",
        "coordinates": [
          15.5738,
          38.2137
        ]
      },
      "properties": {
        "icao24": "300664",
        "callsign": "IBBFI",
        "origin_country": "Italy",
        "time_position": 1787442703,
        "last_contact": 1787442703,
        "baro_altitude": 266.7,
        "on_ground": false,
        "velocity": 77.12,
        "true_track": 197.47,
        "vertical_rate": -0.98,
        "geo_altitude": 342.9,
        "squawk": null,
        "spi": false,
        "position_source": 0
      }
    },
    {
      "type": "Feature",
      "geometry": {
        "type": "Point",
        "coordinates": [
          16.095,
          41.2035
        ]
      },
      "properties": {
        "icao24": "4d23e1",
        "callsign": "CHZ312",
        "origin_country": "Malta",
        "time_position": 1787442703,
        "last_contact": 1787442703,
        "baro_altitude": 10668,
        "on_ground": false,
        "velocity": 249.9,
        "true_track": 129.65,
        "vertical_rate": 0,
        "geo_altitude": 11231.88,
        "squawk": "0663",
        "spi": false,
        "position_source": 0
      }
    },
    {
      "type": "Feature",
      "geometry": {
        "type": "Point",
        "coordinates": [
          12.4811,
          45.2903
        ]
      },
      "properties": {
        "icao24": "4072a4",
        "callsign": "TOM701",
        "origin_country": "United Kingdom",
        "time_position": 1787442703,
        "last_contact": 1787442703,
        "baro_altitude": 11582.4,
        "on_ground": false,
        "velocity": 210.64,
        "true_track": 304.85,
        "vertical_rate": 0,
        "geo_altitude": 12092.94,
        "squawk": "5536",
        "spi": false,
        "position_source": 0
      }
    },
    {
      "type": "Feature",
      "geometry": {
        "type": "Point",
        "coordinates": [
          11.7596,
          41.9145
        ]
      },
      "properties": {
        "icao24": "4d2448",
        "callsign": "WMT1917",
        "origin_country": "Malta",
        "time_position": 1787442703,
        "last_contact": 1787442704,
        "baro_altitude": 2781.3,
        "on_ground": false,
        "velocity": 157.01,
        "true_track": 72.46,
        "vertical_rate": -8.78,
        "geo_altitude": 3002.28,
        "squawk": "1441",
        "spi": false,
        "position_source": 0
      }
    },
    {
      "type": "Feature",
      "geometry": {
        "type": "Point",
        "coordinates": [
          14.4764,
          35.8584
        ]
      },
      "properties": {
        "icao24": "4cadc0",
        "callsign": "RYR9257",
        "origin_country": "Ireland",
        "time_position": 1787442703,
        "last_contact": 1787442703,
        "baro_altitude": null,
        "on_ground": true,
        "velocity": 0.51,
        "true_track": 132.19,
        "vertical_rate": null,
        "geo_altitude": null,
        "squawk": "4154",
        "spi": false,
        "position_source": 0
      }
    },
    {
      "type": "Feature",
      "geometry": {
        "type": "Point",
        "coordinates": [
          10.0533,
          45.3579
        ]
      },
      "properties": {
        "icao24": "4cadfd",
        "callsign": "RYR13LL",
        "origin_country": "Ireland",
        "time_position": 1787442703,
        "last_contact": 1787442703,
        "baro_altitude": 2446.02,
        "on_ground": false,
        "velocity": 146.26,
        "true_track": 336.14,
        "vertical_rate": -7.15,
        "geo_altitude": 2613.66,
        "squawk": "1000",
        "spi": false,
        "position_source": 0
      }
    },
    {
      "type": "Feature",
      "geometry": {
        "type": "Point",
        "coordinates": [
          13.3282,
          45.0271
        ]
      },
      "properties": {
        "icao24": "40622f",
        "callsign": "EZY2561",
        "origin_country": "United Kingdom",
        "time_position": 1787442704,
        "last_contact": 1787442704,
        "baro_altitude": 10858.5,
        "on_ground": false,
        "velocity": 263.87,
        "true_track": 99.43,
        "vertical_rate": 5.2,
        "geo_altitude": 11376.66,
        "squawk": "0405",
        "spi": false,
        "position_source": 0
      }
    },
    {
      "type": "Feature",
      "geometry": {
        "type": "Point",
        "coordinates": [
          8.4155,
          47.5514
        ]
      },
      "properties": {
        "icao24": "407512",
        "callsign": "TOM19E",
        "origin_country": "United Kingdom",
        "time_position": 1787442703,
        "last_contact": 1787442703,
        "baro_altitude": 12184.38,
        "on_ground": false,
        "velocity": 231.73,
        "true_track": 304.33,
        "vertical_rate": -0.33,
        "geo_altitude": 12588.24,
        "squawk": "7517",
        "spi": false,
        "position_source": 0
      }
    },
    {
      "type": "Feature",
      "geometry": {
        "type": "Point",
        "coordinates": [
          12.1403,
          40.8682
        ]
      },
      "properties": {
        "icao24": "4d2346",
        "callsign": "RYR13PK",
        "origin_country": "Malta",
        "time_position": 1787442703,
        "last_contact": 1787442704,
        "baro_altitude": 10363.2,
        "on_ground": false,
        "velocity": 238.44,
        "true_track": 345.63,
        "vertical_rate": 0,
        "geo_altitude": 10965.18,
        "squawk": null,
        "spi": false,
        "position_source": 0
      }
    },
    {
      "type": "Feature",
      "geometry": {
        "type": "Point",
        "coordinates": [
          14.4893,
          35.8509
        ]
      },
      "properties": {
        "icao24": "4cad2b",
        "callsign": "RYR56M",
        "origin_country": "Ireland",
        "time_position": 1787442605,
        "last_contact": 1787442605,
        "baro_altitude": null,
        "on_ground": true,
        "velocity": 3.86,
        "true_track": 45,
        "vertical_rate": null,
        "geo_altitude": null,
        "squawk": "0214",
        "spi": false,
        "position_source": 0
      }
    },
    {
      "type": "Feature",
      "geometry": {
        "type": "Point",
        "coordinates": [
          6.5701,
          45.351
        ]
      },
      "properties": {
        "icao24": "34714e",
        "callsign": "VOE2827",
        "origin_country": "Spain",
        "time_position": 1787442704,
        "last_contact": 1787442704,
        "baro_altitude": 6675.12,
        "on_ground": false,
        "velocity": 159.89,
        "true_track": 293.51,
        "vertical_rate": -8.78,
        "geo_altitude": 7056.12,
        "squawk": "1000",
        "spi": false,
        "position_source": 0
      }
    },
    {
      "type": "Feature",
      "geometry": {
        "type": "Point",
        "coordinates": [
          9.8614,
          45.664
        ]
      },
      "properties": {
        "icao24": "4d2257",
        "callsign": "RYR8AG",
        "origin_country": "Malta",
        "time_position": 1787442703,
        "last_contact": 1787442703,
        "baro_altitude": 11277.6,
        "on_ground": false,
        "velocity": 209.31,
        "true_track": 227.09,
        "vertical_rate": 0,
        "geo_altitude": 11765.28,
        "squawk": "1000",
        "spi": false,
        "position_source": 0
      }
    },
    {
      "type": "Feature",
      "geometry": {
        "type": "Point",
        "coordinates": [
          8.7181,
          45.633
        ]
      },
      "properties": {
        "icao24": "4d216a",
        "callsign": "WMT4JM",
        "origin_country": "Malta",
        "time_position": 1787442703,
        "last_contact": 1787442703,
        "baro_altitude": null,
        "on_ground": true,
        "velocity": 6.94,
        "true_track": 258.75,
        "vertical_rate": null,
        "geo_altitude": null,
        "squawk": "1000",
        "spi": false,
        "position_source": 0
      }
    },
    {
      "type": "Feature",
      "geometry": {
        "type": "Point",
        "coordinates": [
          14.0324,
          42.8283
        ]
      },
      "properties": {
        "icao24": "4cac8d",
        "callsign": "NOS6023",
        "origin_country": "Ireland",
        "time_position": 1787442703,
        "last_contact": 1787442703,
        "baro_altitude": 10972.8,
        "on_ground": false,
        "velocity": 220.49,
        "true_track": 311.5,
        "vertical_rate": 0,
        "geo_altitude": 11551.92,
        "squawk": "7742",
        "spi": false,
        "position_source": 0
      }
    },
    {
      "type": "Feature",
      "geometry": {
        "type": "Point",
        "coordinates": [
          14.4478,
          46.2984
        ]
      },
      "properties": {
        "icao24": "408352",
        "callsign": "EXS94VU",
        "origin_country": "United Kingdom",
        "time_position": 1787442704,
        "last_contact": 1787442704,
        "baro_altitude": 10972.8,
        "on_ground": false,
        "velocity": 208.77,
        "true_track": 307.49,
        "vertical_rate": 0,
        "geo_altitude": 11445.24,
        "squawk": "5371",
        "spi": false,
        "position_source": 0
      }
    },
    {
      "type": "Feature",
      "geometry": {
        "type": "Point",
        "coordinates": [
          15.2035,
          45.889
        ]
      },
      "properties": {
        "icao24": "40702e",
        "callsign": "EXS96PS",
        "origin_country": "United Kingdom",
        "time_position": 1787442703,
        "last_contact": 1787442703,
        "baro_altitude": 11582.4,
        "on_ground": false,
        "velocity": 210.35,
        "true_track": 308.05,
        "vertical_rate": 0,
        "geo_altitude": 12092.94,
        "squawk": "5633",
        "spi": false,
        "position_source": 0
      }
    },
    {
      "type": "Feature",
      "geometry": {
        "type": "Point",
        "coordinates": [
          8.7171,
          45.6283
        ]
      },
      "properties": {
        "icao24": "4d206c",
        "callsign": "WMT1RB",
        "origin_country": "Malta",
        "time_position": 1787442693,
        "last_contact": 1787442699,
        "baro_altitude": null,
        "on_ground": true,
        "velocity": 0,
        "true_track": 258.75,
        "vertical_rate": null,
        "geo_altitude": null,
        "squawk": "5517",
        "spi": false,
        "position_source": 0
      }
    },
    {
      "type": "Feature",
      "geometry": {
        "type": "Point",
        "coordinates": [
          11.4111,
          45.9472
        ]
      },
      "properties": {
        "icao24": "4081cf",
        "callsign": "WUK7PY",
        "origin_country": "United Kingdom",
        "time_position": 1787442703,
        "last_contact": 1787442703,
        "baro_altitude": 10972.8,
        "on_ground": false,
        "velocity": 210.27,
        "true_track": 301.9,
        "vertical_rate": 0,
        "geo_altitude": 11460.48,
        "squawk": "5302",
        "spi": false,
        "position_source": 0
      }
    },
    {
      "type": "Feature",
      "geometry": {
        "type": "Point",
        "coordinates": [
          17.1376,
          35.5009
        ]
      },
      "properties": {
        "icao24": "4d203a",
        "callsign": "KNE672",
        "origin_country": "Malta",
        "time_position": 1787442704,
        "last_contact": 1787442704,
        "baro_altitude": 11277.6,
        "on_ground": false,
        "velocity": 257.05,
        "true_track": 98.63,
        "vertical_rate": 0.33,
        "geo_altitude": 11971.02,
        "squawk": "7754",
        "spi": false,
        "position_source": 0
      }
    },
    {
      "type": "Feature",
      "geometry": {
        "type": "Point",
        "coordinates": [
          16.9128,
          42.9518
        ]
      },
      "properties": {
        "icao24": "4082cb",
        "callsign": "TOM5KY",
        "origin_country": "United Kingdom",
        "time_position": 1787442703,
        "last_contact": 1787442703,
        "baro_altitude": 11582.4,
        "on_ground": false,
        "velocity": 219.28,
        "true_track": 307.76,
        "vertical_rate": 0,
        "geo_altitude": 12176.76,
        "squawk": null,
        "spi": false,
        "position_source": 0
      }
    },
    {
      "type": "Feature",
      "geometry": {
        "type": "Point",
        "coordinates": [
          8.5664,
          47.4442
        ]
      },
      "properties": {
        "icao24": "4b17fd",
        "callsign": "SWR",
        "origin_country": "Switzerland",
        "time_position": 1787442687,
        "last_contact": 1787442688,
        "baro_altitude": null,
        "on_ground": true,
        "velocity": 0.06,
        "true_track": 244.69,
        "vertical_rate": null,
        "geo_altitude": null,
        "squawk": "2000",
        "spi": false,
        "position_source": 0
      }
    }
  ]
}