{
  "type": "FeatureCollection",
  "source": "opensky",
  "dataset": "aircraft_italy",
  "generated_at": "2026-05-20T22:55:35.527622+00:00",
  "opensky_time": 1779317723,
  "count": 128,
  "features": [
    {
      "type": "Feature",
      "geometry": {
        "type": "Point",
        "coordinates": [
          8.6901,
          45.239
        ]
      },
      "properties": {
        "icao24": "471eff",
        "callsign": "WMT3MA",
        "origin_country": "Hungary",
        "time_position": 1779317722,
        "last_contact": 1779317722,
        "baro_altitude": 1851.66,
        "on_ground": false,
        "velocity": 126.62,
        "true_track": 168.28,
        "vertical_rate": -2.6,
        "geo_altitude": 2042.16,
        "squawk": "7055",
        "spi": false,
        "position_source": 0
      }
    },
    {
      "type": "Feature",
      "geometry": {
        "type": "Point",
        "coordinates": [
          7.3994,
          43.6317
        ]
      },
      "properties": {
        "icao24": "801612",
        "callsign": "AIC106",
        "origin_country": "India",
        "time_position": 1779317722,
        "last_contact": 1779317722,
        "baro_altitude": 11887.2,
        "on_ground": false,
        "velocity": 268.3,
        "true_track": 122.47,
        "vertical_rate": 0,
        "geo_altitude": 12237.72,
        "squawk": "3365",
        "spi": false,
        "position_source": 0
      }
    },
    {
      "type": "Feature",
      "geometry": {
        "type": "Point",
        "coordinates": [
          17.6726,
          46.6337
        ]
      },
      "properties": {
        "icao24": "4bb4e3",
        "callsign": "MGH332",
        "origin_country": "Turkey",
        "time_position": 1779317722,
        "last_contact": 1779317722,
        "baro_altitude": 11277.6,
        "on_ground": false,
        "velocity": 235.08,
        "true_track": 128.42,
        "vertical_rate": 0.33,
        "geo_altitude": 11452.86,
        "squawk": "4523",
        "spi": false,
        "position_source": 0
      }
    },
    {
      "type": "Feature",
      "geometry": {
        "type": "Point",
        "coordinates": [
          12.7383,
          41.1012
        ]
      },
      "properties": {
        "icao24": "8015a5",
        "callsign": "AIC116",
        "origin_country": "India",
        "time_position": 1779317723,
        "last_contact": 1779317723,
        "baro_altitude": 10058.4,
        "on_ground": false,
        "velocity": 261.14,
        "true_track": 116.06,
        "vertical_rate": 0,
        "geo_altitude": 10332.72,
        "squawk": "4316",
        "spi": false,
        "position_source": 0
      }
    },
    {
      "type": "Feature",
      "geometry": {
        "type": "Point",
        "coordinates": [
          14.4594,
          39.5235
        ]
      },
      "properties": {
        "icao24": "738069",
        "callsign": "ELY392",
        "origin_country": "Israel",
        "time_position": 1779317722,
        "last_contact": 1779317722,
        "baro_altitude": 10668,
        "on_ground": false,
        "velocity": 248.55,
        "true_track": 104.38,
        "vertical_rate": 0,
        "geo_altitude": 10957.56,
        "squawk": "1416",
        "spi": false,
        "position_source": 0
      }
    },
    {
      "type": "Feature",
      "geometry": {
        "type": "Point",
        "coordinates": [
          14.0701,
          42.6154
        ]
      },
      "properties": {
        "icao24": "440065",
        "callsign": "EJU46TA",
        "origin_country": "Austria",
        "time_position": 1779317722,
        "last_contact": 1779317722,
        "baro_altitude": 11590.02,
        "on_ground": false,
        "velocity": 215.17,
        "true_track": 303.2,
        "vertical_rate": 0.33,
        "geo_altitude": 11841.48,
        "squawk": "1000",
        "spi": false,
        "position_source": 0
      }
    },
    {
      "type": "Feature",
      "geometry": {
        "type": "Point",
        "coordinates": [
          13.374,
          45.257
        ]
      },
      "properties": {
        "icao24": "738054",
        "callsign": "ELY326",
        "origin_country": "Israel",
        "time_position": 1779317722,
        "last_contact": 1779317722,
        "baro_altitude": 10058.4,
        "on_ground": false,
        "velocity": 243.77,
        "true_track": 121.27,
        "vertical_rate": 0,
        "geo_altitude": 10309.86,
        "squawk": "0654",
        "spi": false,
        "position_source": 0
      }
    },
    {
      "type": "Feature",
      "geometry": {
        "type": "Point",
        "coordinates": [
          15.2548,
          45.2075
        ]
      },
      "properties": {
        "icao24": "471d5f",
        "callsign": "WZZ1JS",
        "origin_country": "Hungary",
        "time_position": 1779317722,
        "last_contact": 1779317722,
        "baro_altitude": 11277.6,
        "on_ground": false,
        "velocity": 212.84,
        "true_track": 48.53,
        "vertical_rate": 0,
        "geo_altitude": 11506.2,
        "squawk": "1000",
        "spi": false,
        "position_source": 0
      }
    },
    {
      "type": "Feature",
      "geometry": {
        "type": "Point",
        "coordinates": [
          18.2017,
          40.985
        ]
      },
      "properties": {
        "icao24": "45213d",
        "callsign": "MSC2966",
        "origin_country": "Bulgaria",
        "time_position": 1779317722,
        "last_contact": 1779317723,
        "baro_altitude": 10355.58,
        "on_ground": false,
        "velocity": 222.65,
        "true_track": 323.08,
        "vertical_rate": 0,
        "geo_altitude": 10576.56,
        "squawk": null,
        "spi": false,
        "position_source": 0
      }
    },
    {
      "type": "Feature",
      "geometry": {
        "type": "Point",
        "coordinates": [
          9.2709,
          45.6538
        ]
      },
      "properties": {
        "icao24": "300a5c",
        "callsign": "LSI220",
        "origin_country": "Italy",
        "time_position": 1779317722,
        "last_contact": 1779317722,
        "baro_altitude": 3611.88,
        "on_ground": false,
        "velocity": 153.83,
        "true_track": 270.77,
        "vertical_rate": -6.18,
        "geo_altitude": 3840.48,
        "squawk": "2326",
        "spi": false,
        "position_source": 0
      }
    },
    {
      "type": "Feature",
      "geometry": {
        "type": "Point",
        "coordinates": [
          9.9956,
          43.4339
        ]
      },
      "properties": {
        "icao24": "440117",
        "callsign": "EJU39CR",
        "origin_country": "Austria",
        "time_position": 1779317722,
        "last_contact": 1779317722,
        "baro_altitude": 9144,
        "on_ground": false,
        "velocity": 181.7,
        "true_track": 327.84,
        "vertical_rate": 0,
        "geo_altitude": 9441.18,
        "squawk": "5445",
        "spi": false,
        "position_source": 0
      }
    },
    {
      "type": "Feature",
      "geometry": {
        "type": "Point",
        "coordinates": [
          16.6924,
          45.8071
        ]
      },
      "properties": {
        "icao24": "89620a",
        "callsign": "UAE232",
        "origin_country": "United Arab Emirates",
        "time_position": 1779317722,
        "last_contact": 1779317722,
        "baro_altitude": 10668,
        "on_ground": false,
        "velocity": 255.82,
        "true_track": 133.45,
        "vertical_rate": 0,
        "geo_altitude": 10866.12,
        "squawk": "2255",
        "spi": false,
        "position_source": 0
      }
    },
    {
      "type": "Feature",
      "geometry": {
        "type": "Point",
        "coordinates": [
          13.9668,
          45.3163
        ]
      },
      "properties": {
        "icao24": "7380c6",
        "callsign": "ELY318",
        "origin_country": "Israel",
        "time_position": 1779317722,
        "last_contact": 1779317722,
        "baro_altitude": 11887.2,
        "on_ground": false,
        "velocity": 264.22,
        "true_track": 133.26,
        "vertical_rate": 0,
        "geo_altitude": 12146.28,
        "squawk": "2272",
        "spi": false,
        "position_source": 0
      }
    },
    {
      "type": "Feature",
      "geometry": {
        "type": "Point",
        "coordinates": [
          14.9623,
          46.8995
        ]
      },
      "properties": {
        "icao24": "89639e",
        "callsign": "UAE5V",
        "origin_country": "United Arab Emirates",
        "time_position": 1779317723,
        "last_contact": 1779317723,
        "baro_altitude": 10668,
        "on_ground": false,
        "velocity": 264.8,
        "true_track": 132.09,
        "vertical_rate": 0.33,
        "geo_altitude": 10881.36,
        "squawk": "5211",
        "spi": false,
        "position_source": 0
      }
    },
    {
      "type": "Feature",
      "geometry": {
        "type": "Point",
        "coordinates": [
          11.6801,
          35.9967
        ]
      },
      "properties": {
        "icao24": "8963da",
        "callsign": "UAE194",
        "origin_country": "United Arab Emirates",
        "time_position": 1779317722,
        "last_contact": 1779317722,
        "baro_altitude": 10668,
        "on_ground": false,
        "velocity": 268.91,
        "true_track": 103.16,
        "vertical_rate": 0,
        "geo_altitude": 11071.86,
        "squawk": null,
        "spi": false,
        "position_source": 0
      }
    },
    {
      "type": "Feature",
      "geometry": {
        "type": "Point",
        "coordinates": [
          7.1725,
          39.7616
        ]
      },
      "properties": {
        "icao24": "4bb152",
        "callsign": "THY6437",
        "origin_country": "Turkey",
        "time_position": 1779317722,
        "last_contact": 1779317723,
        "baro_altitude": 10668,
        "on_ground": false,
        "velocity": 260.54,
        "true_track": 223.56,
        "vertical_rate": 0,
        "geo_altitude": 11079.48,
        "squawk": "7351",
        "spi": false,
        "position_source": 0
      }
    },
    {
      "type": "Feature",
      "geometry": {
        "type": "Point",
        "coordinates": [
          11.9049,
          47.0741
        ]
      },
      "properties": {
        "icao24": "3965a9",
        "callsign": "AFR274",
        "origin_country": "France",
        "time_position": 1779317723,
        "last_contact": 1779317723,
        "baro_altitude": 8839.2,
        "on_ground": false,
        "velocity": 262.02,
        "true_track": 105.84,
        "vertical_rate": 0,
        "geo_altitude": 9105.9,
        "squawk": "0660",
        "spi": false,
        "position_source": 0
      }
    },
    {
      "type": "Feature",
      "geometry": {
        "type": "Point",
        "coordinates": [
          8.7207,
          45.609
        ]
      },
      "properties": {
        "icao24": "4ac98a",
        "callsign": "BCS7AG",
        "origin_country": "Sweden",
        "time_position": 1779317639,
        "last_contact": 1779317639,
        "baro_altitude": null,
        "on_ground": true,
        "velocity": 1.54,
        "true_track": 258.75,
        "vertical_rate": null,
        "geo_altitude": null,
        "squawk": "1000",
        "spi": false,
        "position_source": 0
      }
    },
    {
      "type": "Feature",
      "geometry": {
        "type": "Point",
        "coordinates": [
          13.8426,
          46.8539
        ]
      },
      "properties": {
        "icao24": "4ac8da",
        "callsign": "TOM9CN",
        "origin_country": "Sweden",
        "time_position": 1779317722,
        "last_contact": 1779317722,
        "baro_altitude": 13106.4,
        "on_ground": false,
        "velocity": 239.43,
        "true_track": 306.53,
        "vertical_rate": -0.33,
        "geo_altitude": 13380.72,
        "squawk": "5502",
        "spi": false,
        "position_source": 0
      }
    },
    {
      "type": "Feature",
      "geometry": {
        "type": "Point",
        "coordinates": [
          12.3865,
          41.9476
        ]
      },
      "properties": {
        "icao24": "3009bd",
        "callsign": "ARES33",
        "origin_country": "Italy",
        "time_position": 1779317723,
        "last_contact": 1779317723,
        "baro_altitude": 403.86,
        "on_ground": false,
        "velocity": 62.15,
        "true_track": 323.41,
        "vertical_rate": 0.98,
        "geo_altitude": 533.4,
        "squawk": null,
        "spi": false,
        "position_source": 0
      }
    },
    {
      "type": "Feature",
      "geometry": {
        "type": "Point",
        "coordinates": [
          14.6928,
          44.8512
        ]
      },
      "properties": {
        "icao24": "406542",
        "callsign": "EZY79TV",
        "origin_country": "United Kingdom",
        "time_position": 1779317723,
        "last_contact": 1779317723,
        "baro_altitude": 10972.8,
        "on_ground": false,
        "velocity": 221.44,
        "true_track": 294.72,
        "vertical_rate": 0,
        "geo_altitude": 11201.4,
        "squawk": "5342",
        "spi": false,
        "position_source": 0
      }
    },
    {
      "type": "Feature",
      "geometry": {
        "type": "Point",
        "coordinates": [
          18.575,
          46.1079
        ]
      },
      "properties": {
        "icao24": "44cc46",
        "callsign": "BEL6LG",
        "origin_country": "Belgium",
        "time_position": 1779317723,
        "last_contact": 1779317723,
        "baro_altitude": 10972.8,
        "on_ground": false,
        "velocity": 231.13,
        "true_track": 310.03,
        "vertical_rate": 0,
        "geo_altitude": 11163.3,
        "squawk": "1733",
        "spi": false,
        "position_source": 0
      }
    },
    {
      "type": "Feature",
      "geometry": {
        "type": "Point",
        "coordinates": [
          18.1787,
          42.2203
        ]
      },
      "properties": {
        "icao24": "407837",
        "callsign": "EZY37LE",
        "origin_country": "United Kingdom",
        "time_position": 1779317722,
        "last_contact": 1779317723,
        "baro_altitude": 10972.8,
        "on_ground": false,
        "velocity": 221.75,
        "true_track": 312.46,
        "vertical_rate": 0,
        "geo_altitude": 11178.54,
        "squawk": null,
        "spi": false,
        "position_source": 0
      }
    },
    {
      "type": "Feature",
      "geometry": {
        "type": "Point",
        "coordinates": [
          13.8112,
          46.2521
        ]
      },
      "properties": {
        "icao24": "8964b2",
        "callsign": "UAE6",
        "origin_country": "United Arab Emirates",
        "time_position": 1779317722,
        "last_contact": 1779317722,
        "baro_altitude": 11277.6,
        "on_ground": false,
        "velocity": 258.85,
        "true_track": 132.66,
        "vertical_rate": -0.65,
        "geo_altitude": 11498.58,
        "squawk": "2263",
        "spi": false,
        "position_source": 0
      }
    },
    {
      "type": "Feature",
      "geometry": {
        "type": "Point",
        "coordinates": [
          16.6914,
          44.8893
        ]
      },
      "properties": {
        "icao24": "894098",
        "callsign": "GFA006",
        "origin_country": "Bahrain",
        "time_position": 1779317722,
        "last_contact": 1779317722,
        "baro_altitude": 11277.6,
        "on_ground": false,
        "velocity": 260.59,
        "true_track": 130.36,
        "vertical_rate": -0.33,
        "geo_altitude": 11490.96,
        "squawk": "2231",
        "spi": false,
        "position_source": 0
      }
    },
    {
      "type": "Feature",
      "geometry": {
        "type": "Point",
        "coordinates": [
          8.4552,
          44.3712
        ]
      },
      "properties": {
        "icao24": "394a0d",
        "callsign": "AFR672",
        "origin_country": "France",
        "time_position": 1779317722,
        "last_contact": 1779317722,
        "baro_altitude": 9448.8,
        "on_ground": false,
        "velocity": 273.76,
        "true_track": 130.27,
        "vertical_rate": 0,
        "geo_altitude": 9814.56,
        "squawk": "7665",
        "spi": false,
        "position_source": 0
      }
    },
    {
      "type": "Feature",
      "geometry": {
        "type": "Point",
        "coordinates": [
          17.7608,
          45.4749
        ]
      },
      "properties": {
        "icao24": "394a0b",
        "callsign": "AFR256",
        "origin_country": "France",
        "time_position": 1779317723,
        "last_contact": 1779317723,
        "baro_altitude": 9448.8,
        "on_ground": false,
        "velocity": 252.61,
        "true_track": 116.62,
        "vertical_rate": 0,
        "geo_altitude": 9669.78,
        "squawk": "0655",
        "spi": false,
        "position_source": 0
      }
    },
    {
      "type": "Feature",
      "geometry": {
        "type": "Point",
        "coordinates": [
          16.1614,
          39.8797
        ]
      },
      "properties": {
        "icao24": "040087",
        "callsign": "ETH553",
        "origin_country": "Ethiopia",
        "time_position": 1779317722,
        "last_contact": 1779317722,
        "baro_altitude": 11879.58,
        "on_ground": false,
        "velocity": 267.59,
        "true_track": 120.76,
        "vertical_rate": -0.33,
        "geo_altitude": 12153.9,
        "squawk": "4312",
        "spi": false,
        "position_source": 0
      }
    },
    {
      "type": "Feature",
      "geometry": {
        "type": "Point",
        "coordinates": [
          14.7528,
          45.8334
        ]
      },
      "properties": {
        "icao24": "06a2f5",
        "callsign": "QTR8V",
        "origin_country": "Qatar",
        "time_position": 1779317722,
        "last_contact": 1779317722,
        "baro_altitude": 11269.98,
        "on_ground": false,
        "velocity": 260.94,
        "true_track": 127.39,
        "vertical_rate": -0.65,
        "geo_altitude": 11513.82,
        "squawk": "5212",
        "spi": false,
        "position_source": 0
      }
    },
    {
      "type": "Feature",
      "geometry": {
        "type": "Point",
        "coordinates": [
          17.3673,
          40.2972
        ]
      },
      "properties": {
        "icao24": "040101",
        "callsign": "ETH737",
        "origin_country": "Ethiopia",
        "time_position": 1779317722,
        "last_contact": 1779317722,
        "baro_altitude": 11887.2,
        "on_ground": false,
        "velocity": 265.71,
        "true_track": 128,
        "vertical_rate": -0.33,
        "geo_altitude": 12153.9,
        "squawk": "0466",
        "spi": false,
        "position_source": 0
      }
    },
    {
      "type": "Feature",
      "geometry": {
        "type": "Point",
        "coordinates": [
          18.5542,
          47.0441
        ]
      },
      "properties": {
        "icao24": "4ba9c2",
        "callsign": "THY3EZ",
        "origin_country": "Turkey",
        "time_position": 1779317723,
        "last_contact": 1779317723,
        "baro_altitude": 12496.8,
        "on_ground": false,
        "velocity": 246.87,
        "true_track": 125.84,
        "vertical_rate": 0,
        "geo_altitude": 12733.02,
        "squawk": "1456",
        "spi": false,
        "position_source": 0
      }
    },
    {
      "type": "Feature",
      "geometry": {
        "type": "Point",
        "coordinates": [
          15.98,
          43.9367
        ]
      },
      "properties": {
        "icao24": "407fc2",
        "callsign": "WUK7402",
        "origin_country": "United Kingdom",
        "time_position": 1779317723,
        "last_contact": 1779317723,
        "baro_altitude": 11277.6,
        "on_ground": false,
        "velocity": 239.87,
        "true_track": 133,
        "vertical_rate": 0,
        "geo_altitude": 11506.2,
        "squawk": "0520",
        "spi": false,
        "position_source": 0
      }
    },
    {
      "type": "Feature",
      "geometry": {
        "type": "Point",
        "coordinates": [
          10.3143,
          40.6654
        ]
      },
      "properties": {
        "icao24": "49d1c6",
        "callsign": "EWG4PR",
        "origin_country": "Czech Republic",
        "time_position": 1779317722,
        "last_contact": 1779317723,
        "baro_altitude": 11277.6,
        "on_ground": false,
        "velocity": 244.88,
        "true_track": 180.48,
        "vertical_rate": 0,
        "geo_altitude": 11605.26,
        "squawk": "2537",
        "spi": false,
        "position_source": 0
      }
    },
    {
      "type": "Feature",
      "geometry": {
        "type": "Point",
        "coordinates": [
          16.8947,
          47.7472
        ]
      },
      "properties": {
        "icao24": "406d77",
        "callsign": "BAW15",
        "origin_country": "United Kingdom",
        "time_position": 1779317723,
        "last_contact": 1779317723,
        "baro_altitude": 10668,
        "on_ground": false,
        "velocity": 255.36,
        "true_track": 112.38,
        "vertical_rate": -0.33,
        "geo_altitude": 10858.5,
        "squawk": "2220",
        "spi": false,
        "position_source": 0
      }
    },
    {
      "type": "Feature",
      "geometry": {
        "type": "Point",
        "coordinates": [
          7.8812,
          47.726
        ]
      },
      "properties": {
        "icao24": "4b3304",
        "callsign": "RGA02",
        "origin_country": "Switzerland",
        "time_position": 1779317722,
        "last_contact": 1779317723,
        "baro_altitude": 1348.74,
        "on_ground": false,
        "velocity": 60.62,
        "true_track": 353.18,
        "vertical_rate": -0.65,
        "geo_altitude": 1531.62,
        "squawk": "6433",
        "spi": false,
        "position_source": 0
      }
    },
    {
      "type": "Feature",
      "geometry": {
        "type": "Point",
        "coordinates": [
          14.3674,
          40.4343
        ]
      },
      "properties": {
        "icao24": "49d365",
        "callsign": "ISR350",
        "origin_country": "Czech Republic",
        "time_position": 1779317722,
        "last_contact": 1779317722,
        "baro_altitude": 11277.6,
        "on_ground": false,
        "velocity": 248.47,
        "true_track": 116.57,
        "vertical_rate": 0,
        "geo_altitude": 11544.3,
        "squawk": null,
        "spi": false,
        "position_source": 0
      }
    },
    {
      "type": "Feature",
      "geometry": {
        "type": "Point",
        "coordinates": [
          10.2715,
          46.0994
        ]
      },
      "properties": {
        "icao24": "48e9f2",
        "callsign": "RYR916R",
        "origin_country": "Poland",
        "time_position": 1779317722,
        "last_contact": 1779317722,
        "baro_altitude": 5859.78,
        "on_ground": false,
        "velocity": 174.65,
        "true_track": 242.45,
        "vertical_rate": -8.78,
        "geo_altitude": 6118.86,
        "squawk": "1172",
        "spi": false,
        "position_source": 0
      }
    },
    {
      "type": "Feature",
      "geometry": {
        "type": "Point",
        "coordinates": [
          18.9688,
          46.8942
        ]
      },
      "properties": {
        "icao24": "49d38c",
        "callsign": "TVS86L",
        "origin_country": "Czech Republic",
        "time_position": 1779317722,
        "last_contact": 1779317722,
        "baro_altitude": 11277.6,
        "on_ground": false,
        "velocity": 233.95,
        "true_track": 144.67,
        "vertical_rate": 0,
        "geo_altitude": 11452.86,
        "squawk": "1422",
        "spi": false,
        "position_source": 0
      }
    },
    {
      "type": "Feature",
      "geometry": {
        "type": "Point",
        "coordinates": [
          10.215,
          42.2485
        ]
      },
      "properties": {
        "icao24": "040243",
        "callsign": "ETH501",
        "origin_country": "Ethiopia",
        "time_position": 1779317723,
        "last_contact": 1779317723,
        "baro_altitude": 11277.6,
        "on_ground": false,
        "velocity": 266.57,
        "true_track": 124.7,
        "vertical_rate": 0.65,
        "geo_altitude": 11590.02,
        "squawk": "4315",
        "spi": false,
        "position_source": 0
      }
    },
    {
      "type": "Feature",
      "geometry": {
        "type": "Point",
        "coordinates": [
          8.7264,
          45.6333
        ]
      },
      "properties": {
        "icao24": "31d7ab",
        "callsign": "MIKE2",
        "origin_country": "Italy",
        "time_position": 1779317452,
        "last_contact": 1779317452,
        "baro_altitude": null,
        "on_ground": true,
        "velocity": 9.26,
        "true_track": 348.75,
        "vertical_rate": null,
        "geo_altitude": null,
        "squawk": null,
        "spi": false,
        "position_source": 0
      }
    },
    {
      "type": "Feature",
      "geometry": {
        "type": "Point",
        "coordinates": [
          8.7215,
          45.6355
        ]
      },
      "properties": {
        "icao24": "31d7a6",
        "callsign": null,
        "origin_country": "Italy",
        "time_position": 1779317648,
        "last_contact": 1779317648,
        "baro_altitude": null,
        "on_ground": true,
        "velocity": 6.69,
        "true_track": 320.62,
        "vertical_rate": null,
        "geo_altitude": null,
        "squawk": null,
        "spi": false,
        "position_source": 0
      }
    },
    {
      "type": "Feature",
      "geometry": {
        "type": "Point",
        "coordinates": [
          16.837,
          47.6088
        ]
      },
      "properties": {
        "icao24": "406cd2",
        "callsign": "EZY75AG",
        "origin_country": "United Kingdom",
        "time_position": 1779317722,
        "last_contact": 1779317722,
        "baro_altitude": 11582.4,
        "on_ground": false,
        "velocity": 219.98,
        "true_track": 297.58,
        "vertical_rate": -0.33,
        "geo_altitude": 11795.76,
        "squawk": "3274",
        "spi": false,
        "position_source": 0
      }
    },
    {
      "type": "Feature",
      "geometry": {
        "type": "Point",
        "coordinates": [
          15.3043,
          44.6445
        ]
      },
      "properties": {
        "icao24": "407e61",
        "callsign": "EZY67TY",
        "origin_country": "United Kingdom",
        "time_position": 1779317723,
        "last_contact": 1779317723,
        "baro_altitude": 11582.4,
        "on_ground": false,
        "velocity": 225.76,
        "true_track": 295.22,
        "vertical_rate": 0,
        "geo_altitude": 11826.24,
        "squawk": "2001",
        "spi": false,
        "position_source": 0
      }
    },
    {
      "type": "Feature",
      "geometry": {
        "type": "Point",
        "coordinates": [
          10.0124,
          45.9483
        ]
      },
      "properties": {
        "icao24": "48c1a9",
        "callsign": "RYR84RP",
        "origin_country": "Poland",
        "time_position": 1779317723,
        "last_contact": 1779317723,
        "baro_altitude": 5173.98,
        "on_ground": false,
        "velocity": 194.26,
        "true_track": 217.14,
        "vertical_rate": 0,
        "geo_altitude": 5410.2,
        "squawk": "5541",
        "spi": false,
        "position_source": 0
      }
    },
    {
      "type": "Feature",
      "geometry": {
        "type": "Point",
        "coordinates": [
          12.9613,
          47.6829
        ]
      },
      "properties": {
        "icao24": "3949ed",
        "callsign": "AFR116",
        "origin_country": "France",
        "time_position": 1779317723,
        "last_contact": 1779317723,
        "baro_altitude": 10058.4,
        "on_ground": false,
        "velocity": 260.43,
        "true_track": 103.13,
        "vertical_rate": 0,
        "geo_altitude": 10302.24,
        "squawk": "0657",
        "spi": false,
        "position_source": 0
      }
    },
    {
      "type": "Feature",
      "geometry": {
        "type": "Point",
        "coordinates": [
          17.7054,
          43.3143
        ]
      },
      "properties": {
        "icao24": "48c2a9",
        "callsign": "RYR5976",
        "origin_country": "Poland",
        "time_position": 1779317464,
        "last_contact": 1779317464,
        "baro_altitude": 5516.88,
        "on_ground": false,
        "velocity": 188.56,
        "true_track": 186.74,
        "vertical_rate": -9.43,
        "geo_altitude": 5897.88,
        "squawk": "6015",
        "spi": false,
        "position_source": 0
      }
    },
    {
      "type": "Feature",
      "geometry": {
        "type": "Point",
        "coordinates": [
          8.7279,
          45.6394
        ]
      },
      "properties": {
        "icao24": "440469",
        "callsign": "EJU9055",
        "origin_country": "Austria",
        "time_position": 1779317700,
        "last_contact": 1779317700,
        "baro_altitude": null,
        "on_ground": true,
        "velocity": 10.8,
        "true_track": 348.75,
        "vertical_rate": null,
        "geo_altitude": null,
        "squawk": "1000",
        "spi": false,
        "position_source": 0
      }
    },
    {
      "type": "Feature",
      "geometry": {
        "type": "Point",
        "coordinates": [
          13.8652,
          47.2298
        ]
      },
      "properties": {
        "icao24": "06a1bc",
        "callsign": "QTR1V",
        "origin_country": "Qatar",
        "time_position": 1779317722,
        "last_contact": 1779317722,
        "baro_altitude": 10050.78,
        "on_ground": false,
        "velocity": 263.63,
        "true_track": 120.62,
        "vertical_rate": 0.33,
        "geo_altitude": 10287,
        "squawk": "5207",
        "spi": false,
        "position_source": 0
      }
    },
    {
      "type": "Feature",
      "geometry": {
        "type": "Point",
        "coordinates": [
          13.8756,
          37.8038
        ]
      },
      "properties": {
        "icao24": "06a1e7",
        "callsign": "QTR49J",
        "origin_country": "Qatar",
        "time_position": 1779317723,
        "last_contact": 1779317723,
        "baro_altitude": 10668,
        "on_ground": false,
        "velocity": 268.54,
        "true_track": 117.74,
        "vertical_rate": 0,
        "geo_altitude": 10988.04,
        "squawk": "1447",
        "spi": false,
        "position_source": 0
      }
    },
    {
      "type": "Feature",
      "geometry": {
        "type": "Point",
        "coordinates": [
          14.1707,
          45.1578
        ]
      },
      "properties": {
        "icao24": "46b8ad",
        "callsign": "AEE609",
        "origin_country": "Greece",
        "time_position": 1779317722,
        "last_contact": 1779317722,
        "baro_altitude": 11277.6,
        "on_ground": false,
        "velocity": 244.93,
        "true_track": 133.21,
        "vertical_rate": 0,
        "geo_altitude": 11544.3,
        "squawk": "0523",
        "spi": false,
        "position_source": 0
      }
    },
    {
      "type": "Feature",
      "geometry": {
        "type": "Point",
        "coordinates": [
          8.7251,
          45.6434
        ]
      },
      "properties": {
        "icao24": "4402e8",
        "callsign": "EJU73ZE",
        "origin_country": "Austria",
        "time_position": 1779317692,
        "last_contact": 1779317693,
        "baro_altitude": null,
        "on_ground": true,
        "velocity": 0,
        "true_track": 258.75,
        "vertical_rate": null,
        "geo_altitude": null,
        "squawk": "1000",
        "spi": false,
        "position_source": 0
      }
    },
    {
      "type": "Feature",
      "geometry": {
        "type": "Point",
        "coordinates": [
          9.3749,
          43.8291
        ]
      },
      "properties": {
        "icao24": "4b9c61",
        "callsign": "BBT411",
        "origin_country": "Turkey",
        "time_position": 1779317722,
        "last_contact": 1779317722,
        "baro_altitude": 10058.4,
        "on_ground": false,
        "velocity": 250.84,
        "true_track": 232.92,
        "vertical_rate": 0.33,
        "geo_altitude": 10378.44,
        "squawk": "7371",
        "spi": false,
        "position_source": 0
      }
    },
    {
      "type": "Feature",
      "geometry": {
        "type": "Point",
        "coordinates": [
          8.5653,
          47.4422
        ]
      },
      "properties": {
        "icao24": "4b1807",
        "callsign": "SWR",
        "origin_country": "Switzerland",
        "time_position": 1779317718,
        "last_contact": 1779317722,
        "baro_altitude": null,
        "on_ground": true,
        "velocity": 0,
        "true_track": 146.25,
        "vertical_rate": null,
        "geo_altitude": null,
        "squawk": null,
        "spi": false,
        "position_source": 0
      }
    },
    {
      "type": "Feature",
      "geometry": {
        "type": "Point",
        "coordinates": [
          8.5673,
          47.4442
        ]
      },
      "properties": {
        "icao24": "4b1809",
        "callsign": "HELLOZH",
        "origin_country": "Switzerland",
        "time_position": 1779317718,
        "last_contact": 1779317722,
        "baro_altitude": null,
        "on_ground": true,
        "velocity": 0.13,
        "true_track": 326.25,
        "vertical_rate": null,
        "geo_altitude": null,
        "squawk": "2000",
        "spi": false,
        "position_source": 0
      }
    },
    {
      "type": "Feature",
      "geometry": {
        "type": "Point",
        "coordinates": [
          8.5614,
          47.4416
        ]
      },
      "properties": {
        "icao24": "4b1802",
        "callsign": "SWR",
        "origin_country": "Switzerland",
        "time_position": 1779317721,
        "last_contact": 1779317721,
        "baro_altitude": null,
        "on_ground": true,
        "velocity": 0,
        "true_track": 244.69,
        "vertical_rate": null,
        "geo_altitude": null,
        "squawk": "2000",
        "spi": false,
        "position_source": 0
      }
    },
    {
      "type": "Feature",
      "geometry": {
        "type": "Point",
        "coordinates": [
          10.456,
          46.2198
        ]
      },
      "properties": {
        "icao24": "40812e",
        "callsign": "EZY96BE",
        "origin_country": "United Kingdom",
        "time_position": 1779317723,
        "last_contact": 1779317723,
        "baro_altitude": 11590.02,
        "on_ground": false,
        "velocity": 217.45,
        "true_track": 304.1,
        "vertical_rate": 0,
        "geo_altitude": 11879.58,
        "squawk": "7527",
        "spi": false,
        "position_source": 0
      }
    },
    {
      "type": "Feature",
      "geometry": {
        "type": "Point",
        "coordinates": [
          6.5547,
          47.5757
        ]
      },
      "properties": {
        "icao24": "3c5434",
        "callsign": "BCS8AA",
        "origin_country": "Germany",
        "time_position": 1779317723,
        "last_contact": 1779317723,
        "baro_altitude": 9745.98,
        "on_ground": false,
        "velocity": 208.41,
        "true_track": 344.83,
        "vertical_rate": 0,
        "geo_altitude": 10104.12,
        "squawk": "1000",
        "spi": false,
        "position_source": 0
      }
    },
    {
      "type": "Feature",
      "geometry": {
        "type": "Point",
        "coordinates": [
          13.7502,
          45.1133
        ]
      },
      "properties": {
        "icao24": "408064",
        "callsign": "WUK8YM",
        "origin_country": "United Kingdom",
        "time_position": 1779317723,
        "last_contact": 1779317723,
        "baro_altitude": 11582.4,
        "on_ground": false,
        "velocity": 220.21,
        "true_track": 299.38,
        "vertical_rate": 0,
        "geo_altitude": 11849.1,
        "squawk": "0502",
        "spi": false,
        "position_source": 0
      }
    },
    {
      "type": "Feature",
      "geometry": {
        "type": "Point",
        "coordinates": [
          15.3222,
          45.5654
        ]
      },
      "properties": {
        "icao24": "40804e",
        "callsign": "WUK962",
        "origin_country": "United Kingdom",
        "time_position": 1779317722,
        "last_contact": 1779317723,
        "baro_altitude": 10965.18,
        "on_ground": false,
        "velocity": 213.25,
        "true_track": 316.56,
        "vertical_rate": 0,
        "geo_altitude": 11186.16,
        "squawk": "0504",
        "spi": false,
        "position_source": 0
      }
    },
    {
      "type": "Feature",
      "geometry": {
        "type": "Point",
        "coordinates": [
          16.7428,
          45.3556
        ]
      },
      "properties": {
        "icao24": "408059",
        "callsign": "EXS42KH",
        "origin_country": "United Kingdom",
        "time_position": 1779317723,
        "last_contact": 1779317723,
        "baro_altitude": 10965.18,
        "on_ground": false,
        "velocity": 222.31,
        "true_track": 310.21,
        "vertical_rate": 0.33,
        "geo_altitude": 11163.3,
        "squawk": "5610",
        "spi": false,
        "position_source": 0
      }
    },
    {
      "type": "Feature",
      "geometry": {
        "type": "Point",
        "coordinates": [
          15.4479,
          42.9267
        ]
      },
      "properties": {
        "icao24": "02a1a7",
        "callsign": "LBT805",
        "origin_country": "Tunisia",
        "time_position": 1779317723,
        "last_contact": 1779317723,
        "baro_altitude": 11582.4,
        "on_ground": false,
        "velocity": 242.95,
        "true_track": 206.4,
        "vertical_rate": -0.33,
        "geo_altitude": 11826.24,
        "squawk": "6027",
        "spi": false,
        "position_source": 0
      }
    },
    {
      "type": "Feature",
      "geometry": {
        "type": "Point",
        "coordinates": [
          12.9099,
          47.0895
        ]
      },
      "properties": {
        "icao24": "408213",
        "callsign": "EXS43UB",
        "origin_country": "United Kingdom",
        "time_position": 1779317723,
        "last_contact": 1779317723,
        "baro_altitude": 10972.8,
        "on_ground": false,
        "velocity": 214.33,
        "true_track": 307.39,
        "vertical_rate": 0,
        "geo_altitude": 11231.88,
        "squawk": "0510",
        "spi": false,
        "position_source": 0
      }
    },
    {
      "type": "Feature",
      "geometry": {
        "type": "Point",
        "coordinates": [
          8.5404,
          47.48
        ]
      },
      "properties": {
        "icao24": "4b5d3d",
        "callsign": "GALA23",
        "origin_country": "Switzerland",
        "time_position": 1779317722,
        "last_contact": 1779317722,
        "baro_altitude": null,
        "on_ground": true,
        "velocity": 1.8,
        "true_track": 345.94,
        "vertical_rate": null,
        "geo_altitude": null,
        "squawk": null,
        "spi": false,
        "position_source": 0
      }
    },
    {
      "type": "Feature",
      "geometry": {
        "type": "Point",
        "coordinates": [
          8.7168,
          45.6254
        ]
      },
      "properties": {
        "icao24": "4951d1",
        "callsign": "TAP828",
        "origin_country": "Portugal",
        "time_position": 1779317601,
        "last_contact": 1779317601,
        "baro_altitude": null,
        "on_ground": true,
        "velocity": 0.51,
        "true_track": 168.75,
        "vertical_rate": null,
        "geo_altitude": null,
        "squawk": "1154",
        "spi": false,
        "position_source": 0
      }
    },
    {
      "type": "Feature",
      "geometry": {
        "type": "Point",
        "coordinates": [
          9.3611,
          45.4076
        ]
      },
      "properties": {
        "icao24": "4ca9a1",
        "callsign": "NOS3865",
        "origin_country": "Ireland",
        "time_position": 1779317722,
        "last_contact": 1779317722,
        "baro_altitude": 3055.62,
        "on_ground": false,
        "velocity": 140.34,
        "true_track": 8.22,
        "vertical_rate": -1.95,
        "geo_altitude": 3268.98,
        "squawk": "3520",
        "spi": false,
        "position_source": 0
      }
    },
    {
      "type": "Feature",
      "geometry": {
        "type": "Point",
        "coordinates": [
          6.9243,
          47.4116
        ]
      },
      "properties": {
        "icao24": "400664",
        "callsign": "DHK7017",
        "origin_country": "United Kingdom",
        "time_position": 1779317723,
        "last_contact": 1779317723,
        "baro_altitude": 11582.4,
        "on_ground": false,
        "velocity": 188.41,
        "true_track": 311.57,
        "vertical_rate": 0,
        "geo_altitude": 11894.82,
        "squawk": "7513",
        "spi": false,
        "position_source": 0
      }
    },
    {
      "type": "Feature",
      "geometry": {
        "type": "Point",
        "coordinates": [
          8.676,
          45.2961
        ]
      },
      "properties": {
        "icao24": "4ca97a",
        "callsign": "RYR2HX",
        "origin_country": "Ireland",
        "time_position": 1779317723,
        "last_contact": 1779317723,
        "baro_altitude": 2438.4,
        "on_ground": false,
        "velocity": 141.86,
        "true_track": 169.34,
        "vertical_rate": -0.33,
        "geo_altitude": 2636.52,
        "squawk": "1000",
        "spi": false,
        "position_source": 0
      }
    },
    {
      "type": "Feature",
      "geometry": {
        "type": "Point",
        "coordinates": [
          10.5567,
          44.294
        ]
      },
      "properties": {
        "icao24": "4ca8d6",
        "callsign": "RYR6128",
        "origin_country": "Ireland",
        "time_position": 1779317723,
        "last_contact": 1779317723,
        "baro_altitude": 3589.02,
        "on_ground": false,
        "velocity": 176.78,
        "true_track": 37.67,
        "vertical_rate": -13.66,
        "geo_altitude": 3817.62,
        "squawk": "1000",
        "spi": false,
        "position_source": 0
      }
    },
    {
      "type": "Feature",
      "geometry": {
        "type": "Point",
        "coordinates": [
          11.14,
          43.8042
        ]
      },
      "properties": {
        "icao24": "4ca8d5",
        "callsign": "RYR7RD",
        "origin_country": "Ireland",
        "time_position": 1779317722,
        "last_contact": 1779317722,
        "baro_altitude": 10088.88,
        "on_ground": false,
        "velocity": 217.22,
        "true_track": 329.55,
        "vertical_rate": -5.53,
        "geo_altitude": 10370.82,
        "squawk": "5437",
        "spi": false,
        "position_source": 0
      }
    },
    {
      "type": "Feature",
      "geometry": {
        "type": "Point",
        "coordinates": [
          10.9727,
          44.4147
        ]
      },
      "properties": {
        "icao24": "4ca907",
        "callsign": "MSA95S",
        "origin_country": "Ireland",
        "time_position": 1779317722,
        "last_contact": 1779317722,
        "baro_altitude": 8877.3,
        "on_ground": false,
        "velocity": 235.52,
        "true_track": 143.71,
        "vertical_rate": 9.43,
        "geo_altitude": 9098.28,
        "squawk": "1000",
        "spi": false,
        "position_source": 0
      }
    },
    {
      "type": "Feature",
      "geometry": {
        "type": "Point",
        "coordinates": [
          17.7131,
          41.3362
        ]
      },
      "properties": {
        "icao24": "770591",
        "callsign": "ALK504",
        "origin_country": "Sri Lanka",
        "time_position": 1779317723,
        "last_contact": 1779317723,
        "baro_altitude": 10668,
        "on_ground": false,
        "velocity": 252.98,
        "true_track": 146.7,
        "vertical_rate": 0,
        "geo_altitude": 10881.36,
        "squawk": "5231",
        "spi": false,
        "position_source": 0
      }
    },
    {
      "type": "Feature",
      "geometry": {
        "type": "Point",
        "coordinates": [
          14.7539,
          37.4403
        ]
      },
      "properties": {
        "icao24": "4ca84d",
        "callsign": "RYR737G",
        "origin_country": "Ireland",
        "time_position": 1779317618,
        "last_contact": 1779317705,
        "baro_altitude": 1440.18,
        "on_ground": false,
        "velocity": 94.14,
        "true_track": 84.04,
        "vertical_rate": -9.1,
        "geo_altitude": 1584.96,
        "squawk": "6436",
        "spi": false,
        "position_source": 0
      }
    },
    {
      "type": "Feature",
      "geometry": {
        "type": "Point",
        "coordinates": [
          9.5591,
          45.6952
        ]
      },
      "properties": {
        "icao24": "4ca84e",
        "callsign": "RYR32TE",
        "origin_country": "Ireland",
        "time_position": 1779317722,
        "last_contact": 1779317722,
        "baro_altitude": 822.96,
        "on_ground": false,
        "velocity": 90.47,
        "true_track": 104.83,
        "vertical_rate": -5.53,
        "geo_altitude": 990.6,
        "squawk": "7065",
        "spi": false,
        "position_source": 0
      }
    },
    {
      "type": "Feature",
      "geometry": {
        "type": "Point",
        "coordinates": [
          6.8661,
          46.4091
        ]
      },
      "properties": {
        "icao24": "4ca894",
        "callsign": "RYR4GA",
        "origin_country": "Ireland",
        "time_position": 1779317723,
        "last_contact": 1779317723,
        "baro_altitude": 11582.4,
        "on_ground": false,
        "velocity": 195.69,
        "true_track": 328.98,
        "vertical_rate": 0.33,
        "geo_altitude": 11932.92,
        "squawk": "5722",
        "spi": false,
        "position_source": 0
      }
    },
    {
      "type": "Feature",
      "geometry": {
        "type": "Point",
        "coordinates": [
          10.1148,
          45.0155
        ]
      },
      "properties": {
        "icao24": "4ca7b7",
        "callsign": "RYR13PK",
        "origin_country": "Ireland",
        "time_position": 1779317723,
        "last_contact": 1779317723,
        "baro_altitude": 4709.16,
        "on_ground": false,
        "velocity": 151.85,
        "true_track": 321.19,
        "vertical_rate": -0.33,
        "geo_altitude": 4930.14,
        "squawk": "5402",
        "spi": false,
        "position_source": 0
      }
    },
    {
      "type": "Feature",
      "geometry": {
        "type": "Point",
        "coordinates": [
          10.4133,
          45.1008
        ]
      },
      "properties": {
        "icao24": "4ca82b",
        "callsign": "MSA83E",
        "origin_country": "Ireland",
        "time_position": 1779317722,
        "last_contact": 1779317722,
        "baro_altitude": 4198.62,
        "on_ground": false,
        "velocity": 188.69,
        "true_track": 189.26,
        "vertical_rate": 17.23,
        "geo_altitude": 4396.74,
        "squawk": "6360",
        "spi": false,
        "position_source": 0
      }
    },
    {
      "type": "Feature",
      "geometry": {
        "type": "Point",
        "coordinates": [
          11.2954,
          43.9964
        ]
      },
      "properties": {
        "icao24": "4ca82c",
        "callsign": "MSA92C",
        "origin_country": "Ireland",
        "time_position": 1779317722,
        "last_contact": 1779317722,
        "baro_altitude": 10927.08,
        "on_ground": false,
        "velocity": 245.21,
        "true_track": 156.77,
        "vertical_rate": 2.6,
        "geo_altitude": 11186.16,
        "squawk": "6444",
        "spi": false,
        "position_source": 0
      }
    },
    {
      "type": "Feature",
      "geometry": {
        "type": "Point",
        "coordinates": [
          16.6952,
          42.7494
        ]
      },
      "properties": {
        "icao24": "4ca75f",
        "callsign": "RYR9MV",
        "origin_country": "Ireland",
        "time_position": 1779317722,
        "last_contact": 1779317722,
        "baro_altitude": 12192,
        "on_ground": false,
        "velocity": 224.11,
        "true_track": 300.33,
        "vertical_rate": 0,
        "geo_altitude": 12428.22,
        "squawk": null,
        "spi": false,
        "position_source": 0
      }
    },
    {
      "type": "Feature",
      "geometry": {
        "type": "Point",
        "coordinates": [
          13.9169,
          46.5274
        ]
      },
      "properties": {
        "icao24": "4853d1",
        "callsign": "TRA44B",
        "origin_country": "Kingdom of the Netherlands",
        "time_position": 1779317722,
        "last_contact": 1779317722,
        "baro_altitude": 11582.4,
        "on_ground": false,
        "velocity": 218.19,
        "true_track": 340.58,
        "vertical_rate": -0.65,
        "geo_altitude": 11818.62,
        "squawk": "1000",
        "spi": false,
        "position_source": 0
      }
    },
    {
      "type": "Feature",
      "geometry": {
        "type": "Point",
        "coordinates": [
          15.9383,
          46.8732
        ]
      },
      "properties": {
        "icao24": "4bce47",
        "callsign": "SXS4UQ",
        "origin_country": "Turkey",
        "time_position": 1779317722,
        "last_contact": 1779317722,
        "baro_altitude": 11582.4,
        "on_ground": false,
        "velocity": 218.88,
        "true_track": 322.16,
        "vertical_rate": -0.33,
        "geo_altitude": 11803.38,
        "squawk": "5347",
        "spi": false,
        "position_source": 0
      }
    },
    {
      "type": "Feature",
      "geometry": {
        "type": "Point",
        "coordinates": [
          18.6025,
          47.2573
        ]
      },
      "properties": {
        "icao24": "4bcdaa",
        "callsign": "SXS37U",
        "origin_country": "Turkey",
        "time_position": 1779317722,
        "last_contact": 1779317722,
        "baro_altitude": 10972.8,
        "on_ground": false,
        "velocity": 225.65,
        "true_track": 306.19,
        "vertical_rate": 0,
        "geo_altitude": 11163.3,
        "squawk": "5316",
        "spi": false,
        "position_source": 0
      }
    },
    {
      "type": "Feature",
      "geometry": {
        "type": "Point",
        "coordinates": [
          10.9207,
          46.4895
        ]
      },
      "properties": {
        "icao24": "405f13",
        "callsign": "EZY75UQ",
        "origin_country": "United Kingdom",
        "time_position": 1779317722,
        "last_contact": 1779317722,
        "baro_altitude": 11582.4,
        "on_ground": false,
        "velocity": 209.5,
        "true_track": 304.9,
        "vertical_rate": 0,
        "geo_altitude": 11856.72,
        "squawk": "2273",
        "spi": false,
        "position_source": 0
      }
    },
    {
      "type": "Feature",
      "geometry": {
        "type": "Point",
        "coordinates": [
          10.9396,
          44.6028
        ]
      },
      "properties": {
        "icao24": "4ca622",
        "callsign": "RYR1YW",
        "origin_country": "Ireland",
        "time_position": 1779317722,
        "last_contact": 1779317722,
        "baro_altitude": 1089.66,
        "on_ground": false,
        "velocity": 117.17,
        "true_track": 65.35,
        "vertical_rate": -4.23,
        "geo_altitude": 1249.68,
        "squawk": "1000",
        "spi": false,
        "position_source": 0
      }
    },
    {
      "type": "Feature",
      "geometry": {
        "type": "Point",
        "coordinates": [
          6.5975,
          40.7567
        ]
      },
      "properties": {
        "icao24": "4ca624",
        "callsign": "RYR8KY",
        "origin_country": "Ireland",
        "time_position": 1779317722,
        "last_contact": 1779317722,
        "baro_altitude": 11582.4,
        "on_ground": false,
        "velocity": 233.02,
        "true_track": 95.32,
        "vertical_rate": 0,
        "geo_altitude": 11986.26,
        "squawk": "1000",
        "spi": false,
        "position_source": 0
      }
    },
    {
      "type": "Feature",
      "geometry": {
        "type": "Point",
        "coordinates": [
          18.8333,
          46.0802
        ]
      },
      "properties": {
        "icao24": "4bce1a",
        "callsign": "SXS4TF",
        "origin_country": "Turkey",
        "time_position": 1779317723,
        "last_contact": 1779317723,
        "baro_altitude": 11887.2,
        "on_ground": false,
        "velocity": 237.23,
        "true_track": 136.23,
        "vertical_rate": -0.33,
        "geo_altitude": 12085.32,
        "squawk": "4413",
        "spi": false,
        "position_source": 0
      }
    },
    {
      "type": "Feature",
      "geometry": {
        "type": "Point",
        "coordinates": [
          8.481,
          46.4762
        ]
      },
      "properties": {
        "icao24": "407667",
        "callsign": "EZY85VF",
        "origin_country": "United Kingdom",
        "time_position": 1779317722,
        "last_contact": 1779317722,
        "baro_altitude": 10972.8,
        "on_ground": false,
        "velocity": 196.7,
        "true_track": 312.03,
        "vertical_rate": -0.33,
        "geo_altitude": 11300.46,
        "squawk": "7517",
        "spi": false,
        "position_source": 0
      }
    },
    {
      "type": "Feature",
      "geometry": {
        "type": "Point",
        "coordinates": [
          13.9413,
          46.8268
        ]
      },
      "properties": {
        "icao24": "40769a",
        "callsign": "TOM653",
        "origin_country": "United Kingdom",
        "time_position": 1779317722,
        "last_contact": 1779317722,
        "baro_altitude": 10972.8,
        "on_ground": false,
        "velocity": 218.46,
        "true_track": 304.25,
        "vertical_rate": 0,
        "geo_altitude": 11209.02,
        "squawk": "7307",
        "spi": false,
        "position_source": 0
      }
    },
    {
      "type": "Feature",
      "geometry": {
        "type": "Point",
        "coordinates": [
          14.999,
          46.9459
        ]
      },
      "properties": {
        "icao24": "407631",
        "callsign": "EXS11MG",
        "origin_country": "United Kingdom",
        "time_position": 1779317723,
        "last_contact": 1779317723,
        "baro_altitude": 10972.8,
        "on_ground": false,
        "velocity": 217.61,
        "true_track": 313.47,
        "vertical_rate": -0.33,
        "geo_altitude": 11193.78,
        "squawk": "1343",
        "spi": false,
        "position_source": 0
      }
    },
    {
      "type": "Feature",
      "geometry": {
        "type": "Point",
        "coordinates": [
          18.6271,
          45.1517
        ]
      },
      "properties": {
        "icao24": "4074b8",
        "callsign": "EZY18NM",
        "origin_country": "United Kingdom",
        "time_position": 1779317722,
        "last_contact": 1779317722,
        "baro_altitude": 11582.4,
        "on_ground": false,
        "velocity": 224.08,
        "true_track": 308.47,
        "vertical_rate": 0,
        "geo_altitude": 11788.14,
        "squawk": "5343",
        "spi": false,
        "position_source": 0
      }
    },
    {
      "type": "Feature",
      "geometry": {
        "type": "Point",
        "coordinates": [
          11.2125,
          44.5627
        ]
      },
      "properties": {
        "icao24": "4cafc3",
        "callsign": "RYR89VJ",
        "origin_country": "Ireland",
        "time_position": 1779317722,
        "last_contact": 1779317722,
        "baro_altitude": 251.46,
        "on_ground": false,
        "velocity": 85.82,
        "true_track": 116.72,
        "vertical_rate": -4.23,
        "geo_altitude": 396.24,
        "squawk": "2547",
        "spi": false,
        "position_source": 0
      }
    },
    {
      "type": "Feature",
      "geometry": {
        "type": "Point",
        "coordinates": [
          15.94,
          45.1589
        ]
      },
      "properties": {
        "icao24": "01024f",
        "callsign": "MSC2912",
        "origin_country": "Egypt",
        "time_position": 1779317722,
        "last_contact": 1779317723,
        "baro_altitude": 10980.42,
        "on_ground": false,
        "velocity": 219.72,
        "true_track": 315.38,
        "vertical_rate": 0,
        "geo_altitude": 11201.4,
        "squawk": "2054",
        "spi": false,
        "position_source": 0
      }
    },
    {
      "type": "Feature",
      "geometry": {
        "type": "Point",
        "coordinates": [
          13.6526,
          46.8915
        ]
      },
      "properties": {
        "icao24": "010264",
        "callsign": "MSC2916",
        "origin_country": "Egypt",
        "time_position": 1779317723,
        "last_contact": 1779317723,
        "baro_altitude": 10363.2,
        "on_ground": false,
        "velocity": 216.9,
        "true_track": 307.39,
        "vertical_rate": 0,
        "geo_altitude": 10614.66,
        "squawk": "2056",
        "spi": false,
        "position_source": 0
      }
    },
    {
      "type": "Feature",
      "geometry": {
        "type": "Point",
        "coordinates": [
          10.1233,
          47.4467
        ]
      },
      "properties": {
        "icao24": "010205",
        "callsign": "MSR780",
        "origin_country": "Egypt",
        "time_position": 1779317723,
        "last_contact": 1779317723,
        "baro_altitude": 10668,
        "on_ground": false,
        "velocity": 261.64,
        "true_track": 133.49,
        "vertical_rate": 0,
        "geo_altitude": 10942.32,
        "squawk": "5222",
        "spi": false,
        "position_source": 0
      }
    },
    {
      "type": "Feature",
      "geometry": {
        "type": "Point",
        "coordinates": [
          7.4946,
          40.0387
        ]
      },
      "properties": {
        "icao24": "4caeaf",
        "callsign": "NOS3271",
        "origin_country": "Ireland",
        "time_position": 1779317723,
        "last_contact": 1779317723,
        "baro_altitude": 11582.4,
        "on_ground": false,
        "velocity": 213.2,
        "true_track": 44.02,
        "vertical_rate": 0,
        "geo_altitude": 11978.64,
        "squawk": "4211",
        "spi": false,
        "position_source": 0
      }
    },
    {
      "type": "Feature",
      "geometry": {
        "type": "Point",
        "coordinates": [
          11.6681,
          37.2991
        ]
      },
      "properties": {
        "icao24": "4d23b8",
        "callsign": "DAH3018",
        "origin_country": "Malta",
        "time_position": 1779317722,
        "last_contact": 1779317722,
        "baro_altitude": 10668,
        "on_ground": false,
        "velocity": 243.33,
        "true_track": 68.81,
        "vertical_rate": 0,
        "geo_altitude": 11026.14,
        "squawk": null,
        "spi": false,
        "position_source": 0
      }
    },
    {
      "type": "Feature",
      "geometry": {
        "type": "Point",
        "coordinates": [
          6.501,
          46.807
        ]
      },
      "properties": {
        "icao24": "4cadf6",
        "callsign": "RYR4ZQ",
        "origin_country": "Ireland",
        "time_position": 1779317723,
        "last_contact": 1779317723,
        "baro_altitude": 10972.8,
        "on_ground": false,
        "velocity": 197.91,
        "true_track": 315.84,
        "vertical_rate": 0,
        "geo_altitude": 11330.94,
        "squawk": "5715",
        "spi": false,
        "position_source": 0
      }
    },
    {
      "type": "Feature",
      "geometry": {
        "type": "Point",
        "coordinates": [
          16.6397,
          43.2591
        ]
      },
      "properties": {
        "icao24": "40756a",
        "callsign": "EZY69ED",
        "origin_country": "United Kingdom",
        "time_position": 1779317723,
        "last_contact": 1779317723,
        "baro_altitude": 11574.78,
        "on_ground": false,
        "velocity": 220.54,
        "true_track": 311.31,
        "vertical_rate": 0,
        "geo_altitude": 11803.38,
        "squawk": "5506",
        "spi": false,
        "position_source": 0
      }
    },
    {
      "type": "Feature",
      "geometry": {
        "type": "Point",
        "coordinates": [
          12.413,
          45.7129
        ]
      },
      "properties": {
        "icao24": "407567",
        "callsign": "EZY21FJ",
        "origin_country": "United Kingdom",
        "time_position": 1779317722,
        "last_contact": 1779317722,
        "baro_altitude": 11590.02,
        "on_ground": false,
        "velocity": 220.66,
        "true_track": 301.17,
        "vertical_rate": 0,
        "geo_altitude": 11856.72,
        "squawk": "2203",
        "spi": false,
        "position_source": 0
      }
    },
    {
      "type": "Feature",
      "geometry": {
        "type": "Point",
        "coordinates": [
          14.4838,
          35.8524
        ]
      },
      "properties": {
        "icao24": "4cae90",
        "callsign": "RYR19YB",
        "origin_country": "Ireland",
        "time_position": 1779317723,
        "last_contact": 1779317723,
        "baro_altitude": null,
        "on_ground": true,
        "velocity": 13.89,
        "true_track": 135,
        "vertical_rate": null,
        "geo_altitude": null,
        "squawk": "5512",
        "spi": false,
        "position_source": 0
      }
    },
    {
      "type": "Feature",
      "geometry": {
        "type": "Point",
        "coordinates": [
          14.4891,
          35.8499
        ]
      },
      "properties": {
        "icao24": "4cae63",
        "callsign": "RYR3T",
        "origin_country": "Ireland",
        "time_position": 1779317723,
        "last_contact": 1779317723,
        "baro_altitude": null,
        "on_ground": true,
        "velocity": 4.12,
        "true_track": 104.06,
        "vertical_rate": null,
        "geo_altitude": null,
        "squawk": "4313",
        "spi": false,
        "position_source": 0
      }
    },
    {
      "type": "Feature",
      "geometry": {
        "type": "Point",
        "coordinates": [
          14.4661,
          35.8527
        ]
      },
      "properties": {
        "icao24": "4cae4c",
        "callsign": "RYR7XB",
        "origin_country": "Ireland",
        "time_position": 1779317723,
        "last_contact": 1779317723,
        "baro_altitude": null,
        "on_ground": true,
        "velocity": 12.86,
        "true_track": 53.44,
        "vertical_rate": null,
        "geo_altitude": null,
        "squawk": "1415",
        "spi": false,
        "position_source": 0
      }
    },
    {
      "type": "Feature",
      "geometry": {
        "type": "Point",
        "coordinates": [
          17.9999,
          41.0435
        ]
      },
      "properties": {
        "icao24": "471843",
        "callsign": "JSD109",
        "origin_country": "Hungary",
        "time_position": 1779317723,
        "last_contact": 1779317723,
        "baro_altitude": 12192,
        "on_ground": false,
        "velocity": 192.95,
        "true_track": 268.93,
        "vertical_rate": 0.65,
        "geo_altitude": 12367.26,
        "squawk": "2337",
        "spi": false,
        "position_source": 0
      }
    },
    {
      "type": "Feature",
      "geometry": {
        "type": "Point",
        "coordinates": [
          16.9011,
          43.0214
        ]
      },
      "properties": {
        "icao24": "4d2346",
        "callsign": "RYR74XG",
        "origin_country": "Malta",
        "time_position": 1779317722,
        "last_contact": 1779317723,
        "baro_altitude": 10668,
        "on_ground": false,
        "velocity": 239.46,
        "true_track": 166.71,
        "vertical_rate": 0.33,
        "geo_altitude": 10873.74,
        "squawk": "1000",
        "spi": false,
        "position_source": 0
      }
    },
    {
      "type": "Feature",
      "geometry": {
        "type": "Point",
        "coordinates": [
          15.1419,
          46.6029
        ]
      },
      "properties": {
        "icao24": "4d232c",
        "callsign": "CXI7PV",
        "origin_country": "Malta",
        "time_position": 1779317723,
        "last_contact": 1779317723,
        "baro_altitude": 11574.78,
        "on_ground": false,
        "velocity": 222.14,
        "true_track": 319.23,
        "vertical_rate": 0,
        "geo_altitude": 11788.14,
        "squawk": "2050",
        "spi": false,
        "position_source": 0
      }
    },
    {
      "type": "Feature",
      "geometry": {
        "type": "Point",
        "coordinates": [
          9.6499,
          45.6533
        ]
      },
      "properties": {
        "icao24": "4d2371",
        "callsign": "VJT779",
        "origin_country": "Malta",
        "time_position": 1779317722,
        "last_contact": 1779317722,
        "baro_altitude": 5532.12,
        "on_ground": false,
        "velocity": 188.8,
        "true_track": 270,
        "vertical_rate": -8.78,
        "geo_altitude": 5791.2,
        "squawk": "0560",
        "spi": false,
        "position_source": 0
      }
    },
    {
      "type": "Feature",
      "geometry": {
        "type": "Point",
        "coordinates": [
          7.2102,
          43.5629
        ]
      },
      "properties": {
        "icao24": "4d228a",
        "callsign": "RYR42GU",
        "origin_country": "Malta",
        "time_position": 1779317722,
        "last_contact": 1779317723,
        "baro_altitude": 3360.42,
        "on_ground": false,
        "velocity": 120.92,
        "true_track": 308.09,
        "vertical_rate": 18.53,
        "geo_altitude": 3573.78,
        "squawk": null,
        "spi": false,
        "position_source": 0
      }
    },
    {
      "type": "Feature",
      "geometry": {
        "type": "Point",
        "coordinates": [
          17.2923,
          44.8761
        ]
      },
      "properties": {
        "icao24": "4070ec",
        "callsign": "EXS8GN",
        "origin_country": "United Kingdom",
        "time_position": 1779317722,
        "last_contact": 1779317722,
        "baro_altitude": 11582.4,
        "on_ground": false,
        "velocity": 219.57,
        "true_track": 310.82,
        "vertical_rate": 0,
        "geo_altitude": 11788.14,
        "squawk": "5652",
        "spi": false,
        "position_source": 0
      }
    },
    {
      "type": "Feature",
      "geometry": {
        "type": "Point",
        "coordinates": [
          17.928,
          44.1601
        ]
      },
      "properties": {
        "icao24": "4070ef",
        "callsign": "EXS44T",
        "origin_country": "United Kingdom",
        "time_position": 1779317722,
        "last_contact": 1779317722,
        "baro_altitude": 10972.8,
        "on_ground": false,
        "velocity": 217.98,
        "true_track": 321.8,
        "vertical_rate": 0,
        "geo_altitude": 11170.92,
        "squawk": "5514",
        "spi": false,
        "position_source": 0
      }
    },
    {
      "type": "Feature",
      "geometry": {
        "type": "Point",
        "coordinates": [
          18.6323,
          46.082
        ]
      },
      "properties": {
        "icao24": "4070e5",
        "callsign": "EXS67E",
        "origin_country": "United Kingdom",
        "time_position": 1779317723,
        "last_contact": 1779317723,
        "baro_altitude": 11582.4,
        "on_ground": false,
        "velocity": 229.17,
        "true_track": 305.87,
        "vertical_rate": 0,
        "geo_altitude": 11772.9,
        "squawk": "5346",
        "spi": false,
        "position_source": 0
      }
    },
    {
      "type": "Feature",
      "geometry": {
        "type": "Point",
        "coordinates": [
          14.1365,
          39.1702
        ]
      },
      "properties": {
        "icao24": "4d21fc",
        "callsign": "RYR5AD",
        "origin_country": "Malta",
        "time_position": 1779317722,
        "last_contact": 1779317722,
        "baro_altitude": 10363.2,
        "on_ground": false,
        "velocity": 218.77,
        "true_track": 323.99,
        "vertical_rate": 0,
        "geo_altitude": 10629.9,
        "squawk": "5130",
        "spi": false,
        "position_source": 0
      }
    },
    {
      "type": "Feature",
      "geometry": {
        "type": "Point",
        "coordinates": [
          14.4108,
          42.6183
        ]
      },
      "properties": {
        "icao24": "4d21fd",
        "callsign": "RYR4NU",
        "origin_country": "Malta",
        "time_position": 1779317723,
        "last_contact": 1779317723,
        "baro_altitude": 1333.5,
        "on_ground": false,
        "velocity": 114.1,
        "true_track": 290.31,
        "vertical_rate": -2.93,
        "geo_altitude": 1485.9,
        "squawk": "7344",
        "spi": false,
        "position_source": 0
      }
    },
    {
      "type": "Feature",
      "geometry": {
        "type": "Point",
        "coordinates": [
          8.2467,
          46.6504
        ]
      },
      "properties": {
        "icao24": "4d20ff",
        "callsign": "WMT9GW",
        "origin_country": "Malta",
        "time_position": 1779317722,
        "last_contact": 1779317722,
        "baro_altitude": 10668,
        "on_ground": false,
        "velocity": 266.06,
        "true_track": 151.85,
        "vertical_rate": 0,
        "geo_altitude": 11018.52,
        "squawk": "0521",
        "spi": false,
        "position_source": 0
      }
    },
    {
      "type": "Feature",
      "geometry": {
        "type": "Point",
        "coordinates": [
          9.8207,
          45.2643
        ]
      },
      "properties": {
        "icao24": "4d2274",
        "callsign": "RYR465X",
        "origin_country": "Malta",
        "time_position": 1779317723,
        "last_contact": 1779317723,
        "baro_altitude": 4236.72,
        "on_ground": false,
        "velocity": 162.07,
        "true_track": 322.22,
        "vertical_rate": -9.43,
        "geo_altitude": 4472.94,
        "squawk": "7052",
        "spi": false,
        "position_source": 0
      }
    },
    {
      "type": "Feature",
      "geometry": {
        "type": "Point",
        "coordinates": [
          12.0372,
          41.424
        ]
      },
      "properties": {
        "icao24": "4d227d",
        "callsign": "RYR1705",
        "origin_country": "Malta",
        "time_position": 1779317723,
        "last_contact": 1779317723,
        "baro_altitude": 2499.36,
        "on_ground": false,
        "velocity": 138.55,
        "true_track": 69.34,
        "vertical_rate": -4.23,
        "geo_altitude": 2682.24,
        "squawk": "1000",
        "spi": false,
        "position_source": 0
      }
    },
    {
      "type": "Feature",
      "geometry": {
        "type": "Point",
        "coordinates": [
          10.0595,
          42.7369
        ]
      },
      "properties": {
        "icao24": "4d2257",
        "callsign": "RYR9KV",
        "origin_country": "Malta",
        "time_position": 1779317723,
        "last_contact": 1779317723,
        "baro_altitude": 6896.1,
        "on_ground": false,
        "velocity": 242.34,
        "true_track": 127.84,
        "vertical_rate": -3.58,
        "geo_altitude": 7162.8,
        "squawk": "1000",
        "spi": false,
        "position_source": 0
      }
    },
    {
      "type": "Feature",
      "geometry": {
        "type": "Point",
        "coordinates": [
          11.8251,
          43.6347
        ]
      },
      "properties": {
        "icao24": "4cabf8",
        "callsign": "MSA56B",
        "origin_country": "Ireland",
        "time_position": 1779317723,
        "last_contact": 1779317723,
        "baro_altitude": 11879.58,
        "on_ground": false,
        "velocity": 252.31,
        "true_track": 142.29,
        "vertical_rate": 0,
        "geo_altitude": 12169.14,
        "squawk": "1000",
        "spi": false,
        "position_source": 0
      }
    },
    {
      "type": "Feature",
      "geometry": {
        "type": "Point",
        "coordinates": [
          12.3118,
          47.108
        ]
      },
      "properties": {
        "icao24": "4d20d7",
        "callsign": "VJT842",
        "origin_country": "Malta",
        "time_position": 1779317723,
        "last_contact": 1779317723,
        "baro_altitude": 12496.8,
        "on_ground": false,
        "velocity": 264.34,
        "true_track": 126.13,
        "vertical_rate": 0.98,
        "geo_altitude": 12809.22,
        "squawk": "5260",
        "spi": false,
        "position_source": 0
      }
    },
    {
      "type": "Feature",
      "geometry": {
        "type": "Point",
        "coordinates": [
          6.8769,
          40.9587
        ]
      },
      "properties": {
        "icao24": "4d20c0",
        "callsign": "WMT511",
        "origin_country": "Malta",
        "time_position": 1779317722,
        "last_contact": 1779317723,
        "baro_altitude": 10972.8,
        "on_ground": false,
        "velocity": 229.43,
        "true_track": 79.14,
        "vertical_rate": 0,
        "geo_altitude": 11399.52,
        "squawk": "2217",
        "spi": false,
        "position_source": 0
      }
    },
    {
      "type": "Feature",
      "geometry": {
        "type": "Point",
        "coordinates": [
          13.7418,
          44.9179
        ]
      },
      "properties": {
        "icao24": "710124",
        "callsign": "SVA118",
        "origin_country": "Saudi Arabia",
        "time_position": 1779317722,
        "last_contact": 1779317723,
        "baro_altitude": 11879.58,
        "on_ground": false,
        "velocity": 268.17,
        "true_track": 138.27,
        "vertical_rate": 0,
        "geo_altitude": 12138.66,
        "squawk": "2270",
        "spi": false,
        "position_source": 0
      }
    },
    {
      "type": "Feature",
      "geometry": {
        "type": "Point",
        "coordinates": [
          13.7554,
          44.885
        ]
      },
      "properties": {
        "icao24": "4d206c",
        "callsign": "WMT6084",
        "origin_country": "Malta",
        "time_position": 1779317722,
        "last_contact": 1779317722,
        "baro_altitude": 6972.3,
        "on_ground": false,
        "velocity": 190.11,
        "true_track": 282.34,
        "vertical_rate": -7.48,
        "geo_altitude": 7231.38,
        "squawk": "6152",
        "spi": false,
        "position_source": 0
      }
    },
    {
      "type": "Feature",
      "geometry": {
        "type": "Point",
        "coordinates": [
          8.588,
          40.7759
        ]
      },
      "properties": {
        "icao24": "4d204b",
        "callsign": "WMT1917",
        "origin_country": "Malta",
        "time_position": 1779317722,
        "last_contact": 1779317722,
        "baro_altitude": 11582.4,
        "on_ground": false,
        "velocity": 227.27,
        "true_track": 68.49,
        "vertical_rate": 0,
        "geo_altitude": 11978.64,
        "squawk": "1441",
        "spi": false,
        "position_source": 0
      }
    },
    {
      "type": "Feature",
      "geometry": {
        "type": "Point",
        "coordinates": [
          10.2906,
          41.3141
        ]
      },
      "properties": {
        "icao24": "4d2067",
        "callsign": "WMT49BD",
        "origin_country": "Malta",
        "time_position": 1779317722,
        "last_contact": 1779317722,
        "baro_altitude": 9646.92,
        "on_ground": false,
        "velocity": 212.99,
        "true_track": 85.98,
        "vertical_rate": -9.43,
        "geo_altitude": 9951.72,
        "squawk": "1000",
        "spi": false,
        "position_source": 0
      }
    },
    {
      "type": "Feature",
      "geometry": {
        "type": "Point",
        "coordinates": [
          12.9018,
          45.2881
        ]
      },
      "properties": {
        "icao24": "39d2a1",
        "callsign": "AFR668",
        "origin_country": "France",
        "time_position": 1779317722,
        "last_contact": 1779317722,
        "baro_altitude": 11277.6,
        "on_ground": false,
        "velocity": 262.37,
        "true_track": 126.87,
        "vertical_rate": 0.33,
        "geo_altitude": 11506.2,
        "squawk": "7556",
        "spi": false,
        "position_source": 0
      }
    },
    {
      "type": "Feature",
      "geometry": {
        "type": "Point",
        "coordinates": [
          15.0984,
          46.2246
        ]
      },
      "properties": {
        "icao24": "39d2a3",
        "callsign": "AFR188",
        "origin_country": "France",
        "time_position": 1779317722,
        "last_contact": 1779317722,
        "baro_altitude": 10668,
        "on_ground": false,
        "velocity": 261.28,
        "true_track": 113.44,
        "vertical_rate": 0.33,
        "geo_altitude": 10873.74,
        "squawk": "0656",
        "spi": false,
        "position_source": 0
      }
    },
    {
      "type": "Feature",
      "geometry": {
        "type": "Point",
        "coordinates": [
          7.0817,
          40.5967
        ]
      },
      "properties": {
        "icao24": "4d203b",
        "callsign": "BBG253",
        "origin_country": "Malta",
        "time_position": 1779317723,
        "last_contact": 1779317723,
        "baro_altitude": 10363.2,
        "on_ground": false,
        "velocity": 247.82,
        "true_track": 98.84,
        "vertical_rate": 0,
        "geo_altitude": 10751.82,
        "squawk": "1421",
        "spi": false,
        "position_source": 0
      }
    },
    {
      "type": "Feature",
      "geometry": {
        "type": "Point",
        "coordinates": [
          16.909,
          46.2831
        ]
      },
      "properties": {
        "icao24": "4d200f",
        "callsign": "WZZ34SY",
        "origin_country": "Malta",
        "time_position": 1779317722,
        "last_contact": 1779317722,
        "baro_altitude": 10058.4,
        "on_ground": false,
        "velocity": 223.8,
        "true_track": 61.14,
        "vertical_rate": 0,
        "geo_altitude": 10264.14,
        "squawk": "1000",
        "spi": false,
        "position_source": 0
      }
    },
    {
      "type": "Feature",
      "geometry": {
        "type": "Point",
        "coordinates": [
          17.6909,
          47.2031
        ]
      },
      "properties": {
        "icao24": "4082cd",
        "callsign": "TOM7JH",
        "origin_country": "United Kingdom",
        "time_position": 1779317722,
        "last_contact": 1779317722,
        "baro_altitude": 10363.2,
        "on_ground": false,
        "velocity": 231,
        "true_track": 315.45,
        "vertical_rate": 0,
        "geo_altitude": 10561.32,
        "squawk": "6317",
        "spi": false,
        "position_source": 0
      }
    },
    {
      "type": "Feature",
      "geometry": {
        "type": "Point",
        "coordinates": [
          8.7178,
          45.6251
        ]
      },
      "properties": {
        "icao24": "4caa57",
        "callsign": "RYR6FG",
        "origin_country": "Ireland",
        "time_position": 1779317552,
        "last_contact": 1779317552,
        "baro_altitude": null,
        "on_ground": true,
        "velocity": 2.83,
        "true_track": 258.75,
        "vertical_rate": null,
        "geo_altitude": null,
        "squawk": "1000",
        "spi": false,
        "position_source": 0
      }
    }
  ]
}