{
  "type": "FeatureCollection",
  "source": "opensky",
  "dataset": "aircraft_italy",
  "generated_at": "2026-05-20T01:33:19.504896+00:00",
  "opensky_time": 1779240793,
  "count": 57,
  "features": [
    {
      "type": "Feature",
      "geometry": {
        "type": "Point",
        "coordinates": [
          16.361,
          39.1271
        ]
      },
      "properties": {
        "icao24": "46b82b",
        "callsign": "AEE727",
        "origin_country": "Greece",
        "time_position": 1779240792,
        "last_contact": 1779240792,
        "baro_altitude": 10668,
        "on_ground": false,
        "velocity": 251.36,
        "true_track": 105.43,
        "vertical_rate": 0,
        "geo_altitude": 10919.46,
        "squawk": "2210",
        "spi": false,
        "position_source": 0
      }
    },
    {
      "type": "Feature",
      "geometry": {
        "type": "Point",
        "coordinates": [
          11.0098,
          36.6617
        ]
      },
      "properties": {
        "icao24": "4bc843",
        "callsign": "PGT652",
        "origin_country": "Turkey",
        "time_position": 1779240792,
        "last_contact": 1779240792,
        "baro_altitude": 10668,
        "on_ground": false,
        "velocity": 250.83,
        "true_track": 95.89,
        "vertical_rate": 0,
        "geo_altitude": 11094.72,
        "squawk": null,
        "spi": false,
        "position_source": 0
      }
    },
    {
      "type": "Feature",
      "geometry": {
        "type": "Point",
        "coordinates": [
          6.7529,
          37.2365
        ]
      },
      "properties": {
        "icao24": "3c4a13",
        "callsign": "DLH577",
        "origin_country": "Germany",
        "time_position": 1779240651,
        "last_contact": 1779240652,
        "baro_altitude": 12192,
        "on_ground": false,
        "velocity": 243.18,
        "true_track": 7.17,
        "vertical_rate": -0.33,
        "geo_altitude": 12626.34,
        "squawk": null,
        "spi": false,
        "position_source": 0
      }
    },
    {
      "type": "Feature",
      "geometry": {
        "type": "Point",
        "coordinates": [
          7.1424,
          39.853
        ]
      },
      "properties": {
        "icao24": "3c15c1",
        "callsign": "OCN133",
        "origin_country": "Germany",
        "time_position": 1779240792,
        "last_contact": 1779240792,
        "baro_altitude": 12192,
        "on_ground": false,
        "velocity": 230.88,
        "true_track": 6.4,
        "vertical_rate": 0,
        "geo_altitude": 12573,
        "squawk": null,
        "spi": false,
        "position_source": 0
      }
    },
    {
      "type": "Feature",
      "geometry": {
        "type": "Point",
        "coordinates": [
          15.3059,
          38.6223
        ]
      },
      "properties": {
        "icao24": "452134",
        "callsign": "DAH3015",
        "origin_country": "Bulgaria",
        "time_position": 1779240792,
        "last_contact": 1779240792,
        "baro_altitude": 10363.2,
        "on_ground": false,
        "velocity": 225.61,
        "true_track": 255.2,
        "vertical_rate": -0.33,
        "geo_altitude": 10660.38,
        "squawk": "2311",
        "spi": false,
        "position_source": 0
      }
    },
    {
      "type": "Feature",
      "geometry": {
        "type": "Point",
        "coordinates": [
          16.6653,
          44.752
        ]
      },
      "properties": {
        "icao24": "300a44",
        "callsign": "LSI126",
        "origin_country": "Italy",
        "time_position": 1779240792,
        "last_contact": 1779240792,
        "baro_altitude": 10972.8,
        "on_ground": false,
        "velocity": 231.9,
        "true_track": 282.56,
        "vertical_rate": 0,
        "geo_altitude": 11155.68,
        "squawk": "2310",
        "spi": false,
        "position_source": 0
      }
    },
    {
      "type": "Feature",
      "geometry": {
        "type": "Point",
        "coordinates": [
          9.9531,
          46.7362
        ]
      },
      "properties": {
        "icao24": "8004e0",
        "callsign": "AIC188",
        "origin_country": "India",
        "time_position": 1779240792,
        "last_contact": 1779240792,
        "baro_altitude": 10668,
        "on_ground": false,
        "velocity": 269.65,
        "true_track": 116.03,
        "vertical_rate": 0,
        "geo_altitude": 10873.74,
        "squawk": "1165",
        "spi": false,
        "position_source": 0
      }
    },
    {
      "type": "Feature",
      "geometry": {
        "type": "Point",
        "coordinates": [
          17.0604,
          39.4734
        ]
      },
      "properties": {
        "icao24": "7380c2",
        "callsign": "ELY028",
        "origin_country": "Israel",
        "time_position": 1779240793,
        "last_contact": 1779240793,
        "baro_altitude": 11750.04,
        "on_ground": false,
        "velocity": 272.06,
        "true_track": 114.82,
        "vertical_rate": 5.53,
        "geo_altitude": 12001.5,
        "squawk": "4307",
        "spi": false,
        "position_source": 0
      }
    },
    {
      "type": "Feature",
      "geometry": {
        "type": "Point",
        "coordinates": [
          13.7781,
          40.9436
        ]
      },
      "properties": {
        "icao24": "7380c9",
        "callsign": "ELY018",
        "origin_country": "Israel",
        "time_position": 1779240792,
        "last_contact": 1779240792,
        "baro_altitude": 11277.6,
        "on_ground": false,
        "velocity": 267.88,
        "true_track": 119.32,
        "vertical_rate": -0.33,
        "geo_altitude": 11567.16,
        "squawk": "4302",
        "spi": false,
        "position_source": 0
      }
    },
    {
      "type": "Feature",
      "geometry": {
        "type": "Point",
        "coordinates": [
          17.2066,
          45.2623
        ]
      },
      "properties": {
        "icao24": "4bb189",
        "callsign": "THY9LC",
        "origin_country": "Turkey",
        "time_position": 1779240792,
        "last_contact": 1779240792,
        "baro_altitude": 11879.58,
        "on_ground": false,
        "velocity": 261.17,
        "true_track": 117.57,
        "vertical_rate": 0,
        "geo_altitude": 12062.46,
        "squawk": "2222",
        "spi": false,
        "position_source": 0
      }
    },
    {
      "type": "Feature",
      "geometry": {
        "type": "Point",
        "coordinates": [
          13.9484,
          40.865
        ]
      },
      "properties": {
        "icao24": "896463",
        "callsign": "ETD8MY",
        "origin_country": "United Arab Emirates",
        "time_position": 1779240792,
        "last_contact": 1779240792,
        "baro_altitude": 11887.2,
        "on_ground": false,
        "velocity": 270.43,
        "true_track": 119.39,
        "vertical_rate": 0,
        "geo_altitude": 12146.28,
        "squawk": "4305",
        "spi": false,
        "position_source": 0
      }
    },
    {
      "type": "Feature",
      "geometry": {
        "type": "Point",
        "coordinates": [
          16.9672,
          40.6149
        ]
      },
      "properties": {
        "icao24": "3a2e21",
        "callsign": "REU975",
        "origin_country": "France",
        "time_position": 1779240792,
        "last_contact": 1779240792,
        "baro_altitude": 12192,
        "on_ground": false,
        "velocity": 230.28,
        "true_track": 309.38,
        "vertical_rate": 0,
        "geo_altitude": 12420.6,
        "squawk": "2023",
        "spi": false,
        "position_source": 0
      }
    },
    {
      "type": "Feature",
      "geometry": {
        "type": "Point",
        "coordinates": [
          18.8542,
          39.3658
        ]
      },
      "properties": {
        "icao24": "3a2e22",
        "callsign": "REU973",
        "origin_country": "France",
        "time_position": 1779240792,
        "last_contact": 1779240792,
        "baro_altitude": 12192,
        "on_ground": false,
        "velocity": 231.73,
        "true_track": 309.41,
        "vertical_rate": 0,
        "geo_altitude": 12405.36,
        "squawk": "5531",
        "spi": false,
        "position_source": 0
      }
    },
    {
      "type": "Feature",
      "geometry": {
        "type": "Point",
        "coordinates": [
          18.3526,
          38.1767
        ]
      },
      "properties": {
        "icao24": "4bb067",
        "callsign": "THY3KA",
        "origin_country": "Turkey",
        "time_position": 1779240792,
        "last_contact": 1779240792,
        "baro_altitude": 11277.6,
        "on_ground": false,
        "velocity": 230.47,
        "true_track": 42.56,
        "vertical_rate": 0,
        "geo_altitude": 11498.58,
        "squawk": "3170",
        "spi": false,
        "position_source": 0
      }
    },
    {
      "type": "Feature",
      "geometry": {
        "type": "Point",
        "coordinates": [
          17.0369,
          37.2502
        ]
      },
      "properties": {
        "icao24": "4bb070",
        "callsign": "THY633",
        "origin_country": "Turkey",
        "time_position": 1779240792,
        "last_contact": 1779240792,
        "baro_altitude": 11887.2,
        "on_ground": false,
        "velocity": 243.25,
        "true_track": 50.15,
        "vertical_rate": 0,
        "geo_altitude": 12169.14,
        "squawk": "5307",
        "spi": false,
        "position_source": 0
      }
    },
    {
      "type": "Feature",
      "geometry": {
        "type": "Point",
        "coordinates": [
          6.8651,
          39.7889
        ]
      },
      "properties": {
        "icao24": "44ccc2",
        "callsign": "BEL8VB",
        "origin_country": "Belgium",
        "time_position": 1779240792,
        "last_contact": 1779240792,
        "baro_altitude": 11582.4,
        "on_ground": false,
        "velocity": 226.18,
        "true_track": 356.87,
        "vertical_rate": 0,
        "geo_altitude": 11971.02,
        "squawk": null,
        "spi": false,
        "position_source": 0
      }
    },
    {
      "type": "Feature",
      "geometry": {
        "type": "Point",
        "coordinates": [
          6.9619,
          38.9665
        ]
      },
      "properties": {
        "icao24": "44ccc3",
        "callsign": "BEL2LC",
        "origin_country": "Belgium",
        "time_position": 1779240792,
        "last_contact": 1779240792,
        "baro_altitude": 11582.4,
        "on_ground": false,
        "velocity": 225.89,
        "true_track": 358.83,
        "vertical_rate": 0,
        "geo_altitude": 11986.26,
        "squawk": null,
        "spi": false,
        "position_source": 0
      }
    },
    {
      "type": "Feature",
      "geometry": {
        "type": "Point",
        "coordinates": [
          14.5474,
          35.8974
        ]
      },
      "properties": {
        "icao24": "407908",
        "callsign": "VOR02",
        "origin_country": "United Kingdom",
        "time_position": 1779240791,
        "last_contact": 1779240792,
        "baro_altitude": 304.8,
        "on_ground": false,
        "velocity": 52.24,
        "true_track": 237.88,
        "vertical_rate": -0.98,
        "geo_altitude": 419.1,
        "squawk": "6565",
        "spi": false,
        "position_source": 0
      }
    },
    {
      "type": "Feature",
      "geometry": {
        "type": "Point",
        "coordinates": [
          14.2759,
          41.345
        ]
      },
      "properties": {
        "icao24": "040187",
        "callsign": "ETH574",
        "origin_country": "Ethiopia",
        "time_position": 1779240792,
        "last_contact": 1779240792,
        "baro_altitude": 11780.52,
        "on_ground": false,
        "velocity": 228.86,
        "true_track": 290.39,
        "vertical_rate": -8.78,
        "geo_altitude": 12039.6,
        "squawk": "2063",
        "spi": false,
        "position_source": 0
      }
    },
    {
      "type": "Feature",
      "geometry": {
        "type": "Point",
        "coordinates": [
          11.3085,
          36.5601
        ]
      },
      "properties": {
        "icao24": "04022a",
        "callsign": "ETH3295",
        "origin_country": "Ethiopia",
        "time_position": 1779240792,
        "last_contact": 1779240792,
        "baro_altitude": 10363.2,
        "on_ground": false,
        "velocity": 226.55,
        "true_track": 278.09,
        "vertical_rate": 0,
        "geo_altitude": 10767.06,
        "squawk": "6637",
        "spi": false,
        "position_source": 0
      }
    },
    {
      "type": "Feature",
      "geometry": {
        "type": "Point",
        "coordinates": [
          16.8248,
          40.6873
        ]
      },
      "properties": {
        "icao24": "040087",
        "callsign": "ETH552",
        "origin_country": "Ethiopia",
        "time_position": 1779240792,
        "last_contact": 1779240792,
        "baro_altitude": 12192,
        "on_ground": false,
        "velocity": 230.46,
        "true_track": 286.74,
        "vertical_rate": 0,
        "geo_altitude": 12412.98,
        "squawk": "2064",
        "spi": false,
        "position_source": 0
      }
    },
    {
      "type": "Feature",
      "geometry": {
        "type": "Point",
        "coordinates": [
          6.2134,
          38.3682
        ]
      },
      "properties": {
        "icao24": "4850e6",
        "callsign": "KLM588",
        "origin_country": "Kingdom of the Netherlands",
        "time_position": 1779240773,
        "last_contact": 1779240773,
        "baro_altitude": 11582.4,
        "on_ground": false,
        "velocity": 230.57,
        "true_track": 351.27,
        "vertical_rate": 0,
        "geo_altitude": 12001.5,
        "squawk": null,
        "spi": false,
        "position_source": 0
      }
    },
    {
      "type": "Feature",
      "geometry": {
        "type": "Point",
        "coordinates": [
          15.8451,
          45.1127
        ]
      },
      "properties": {
        "icao24": "407fc2",
        "callsign": "WUK26NJ",
        "origin_country": "United Kingdom",
        "time_position": 1779240792,
        "last_contact": 1779240792,
        "baro_altitude": 10972.8,
        "on_ground": false,
        "velocity": 211.81,
        "true_track": 316.77,
        "vertical_rate": 0,
        "geo_altitude": 11170.92,
        "squawk": "5601",
        "spi": false,
        "position_source": 0
      }
    },
    {
      "type": "Feature",
      "geometry": {
        "type": "Point",
        "coordinates": [
          15.9879,
          42.4611
        ]
      },
      "properties": {
        "icao24": "480c45",
        "callsign": "MMF24",
        "origin_country": "Kingdom of the Netherlands",
        "time_position": 1779240792,
        "last_contact": 1779240792,
        "baro_altitude": 7924.8,
        "on_ground": false,
        "velocity": 184.79,
        "true_track": 315.23,
        "vertical_rate": -0.33,
        "geo_altitude": 8138.16,
        "squawk": "3162",
        "spi": false,
        "position_source": 0
      }
    },
    {
      "type": "Feature",
      "geometry": {
        "type": "Point",
        "coordinates": [
          15.5943,
          40.9445
        ]
      },
      "properties": {
        "icao24": "040243",
        "callsign": "ETH500",
        "origin_country": "Ethiopia",
        "time_position": 1779240792,
        "last_contact": 1779240792,
        "baro_altitude": 12192,
        "on_ground": false,
        "velocity": 238.57,
        "true_track": 289.92,
        "vertical_rate": 0,
        "geo_altitude": 12435.84,
        "squawk": "2042",
        "spi": false,
        "position_source": 0
      }
    },
    {
      "type": "Feature",
      "geometry": {
        "type": "Point",
        "coordinates": [
          17.7554,
          37.7897
        ]
      },
      "properties": {
        "icao24": "4ba892",
        "callsign": "THY6406",
        "origin_country": "Turkey",
        "time_position": 1779240792,
        "last_contact": 1779240792,
        "baro_altitude": 11582.4,
        "on_ground": false,
        "velocity": 228.11,
        "true_track": 233.62,
        "vertical_rate": 0.33,
        "geo_altitude": 11856.72,
        "squawk": "3701",
        "spi": false,
        "position_source": 0
      }
    },
    {
      "type": "Feature",
      "geometry": {
        "type": "Point",
        "coordinates": [
          17.6072,
          47.5249
        ]
      },
      "properties": {
        "icao24": "7c8064",
        "callsign": "QFA219",
        "origin_country": "Australia",
        "time_position": 1779240792,
        "last_contact": 1779240792,
        "baro_altitude": 10965.18,
        "on_ground": false,
        "velocity": 222.61,
        "true_track": 290.99,
        "vertical_rate": 0,
        "geo_altitude": 11117.58,
        "squawk": "3221",
        "spi": false,
        "position_source": 0
      }
    },
    {
      "type": "Feature",
      "geometry": {
        "type": "Point",
        "coordinates": [
          8.547,
          44.2652
        ]
      },
      "properties": {
        "icao24": "3ce25a",
        "callsign": "BID21B",
        "origin_country": "Germany",
        "time_position": 1779240792,
        "last_contact": 1779240792,
        "baro_altitude": 1546.86,
        "on_ground": false,
        "velocity": 126.01,
        "true_track": 50.13,
        "vertical_rate": -1.3,
        "geo_altitude": 1699.26,
        "squawk": "4052",
        "spi": false,
        "position_source": 0
      }
    },
    {
      "type": "Feature",
      "geometry": {
        "type": "Point",
        "coordinates": [
          8.9984,
          45.9677
        ]
      },
      "properties": {
        "icao24": "45cf24",
        "callsign": "SRR6402",
        "origin_country": "Denmark",
        "time_position": 1779240792,
        "last_contact": 1779240792,
        "baro_altitude": 6248.4,
        "on_ground": false,
        "velocity": 204.96,
        "true_track": 120.3,
        "vertical_rate": -9.43,
        "geo_altitude": 6454.14,
        "squawk": "2557",
        "spi": false,
        "position_source": 0
      }
    },
    {
      "type": "Feature",
      "geometry": {
        "type": "Point",
        "coordinates": [
          14.079,
          39.625
        ]
      },
      "properties": {
        "icao24": "46b8ad",
        "callsign": "AEE713",
        "origin_country": "Greece",
        "time_position": 1779240792,
        "last_contact": 1779240792,
        "baro_altitude": 11894.82,
        "on_ground": false,
        "velocity": 253.66,
        "true_track": 104.21,
        "vertical_rate": 0,
        "geo_altitude": 12207.24,
        "squawk": "4315",
        "spi": false,
        "position_source": 0
      }
    },
    {
      "type": "Feature",
      "geometry": {
        "type": "Point",
        "coordinates": [
          17.058,
          36.4449
        ]
      },
      "properties": {
        "icao24": "06a140",
        "callsign": "QTR8095",
        "origin_country": "Qatar",
        "time_position": 1779240792,
        "last_contact": 1779240792,
        "baro_altitude": 12496.8,
        "on_ground": false,
        "velocity": 278.19,
        "true_track": 108.77,
        "vertical_rate": 0,
        "geo_altitude": 12801.6,
        "squawk": "4313",
        "spi": false,
        "position_source": 0
      }
    },
    {
      "type": "Feature",
      "geometry": {
        "type": "Point",
        "coordinates": [
          8.5651,
          47.4426
        ]
      },
      "properties": {
        "icao24": "4b1803",
        "callsign": "SWR",
        "origin_country": "Switzerland",
        "time_position": 1779240783,
        "last_contact": 1779240792,
        "baro_altitude": null,
        "on_ground": true,
        "velocity": 0.19,
        "true_track": 323.44,
        "vertical_rate": null,
        "geo_altitude": null,
        "squawk": "2000",
        "spi": false,
        "position_source": 0
      }
    },
    {
      "type": "Feature",
      "geometry": {
        "type": "Point",
        "coordinates": [
          8.5576,
          47.4535
        ]
      },
      "properties": {
        "icao24": "4b1805",
        "callsign": "SWR",
        "origin_country": "Switzerland",
        "time_position": 1779240575,
        "last_contact": 1779240575,
        "baro_altitude": null,
        "on_ground": true,
        "velocity": 0,
        "true_track": 5.62,
        "vertical_rate": null,
        "geo_altitude": null,
        "squawk": "2000",
        "spi": false,
        "position_source": 0
      }
    },
    {
      "type": "Feature",
      "geometry": {
        "type": "Point",
        "coordinates": [
          9.8551,
          41.3575
        ]
      },
      "properties": {
        "icao24": "3c6753",
        "callsign": "DLH1327",
        "origin_country": "Germany",
        "time_position": 1779240792,
        "last_contact": 1779240792,
        "baro_altitude": 11582.4,
        "on_ground": false,
        "velocity": 208.36,
        "true_track": 0.57,
        "vertical_rate": 0,
        "geo_altitude": 11910.06,
        "squawk": null,
        "spi": false,
        "position_source": 0
      }
    },
    {
      "type": "Feature",
      "geometry": {
        "type": "Point",
        "coordinates": [
          7.2729,
          40.6877
        ]
      },
      "properties": {
        "icao24": "3c656c",
        "callsign": "DLH595",
        "origin_country": "Germany",
        "time_position": 1779240792,
        "last_contact": 1779240792,
        "baro_altitude": 12192,
        "on_ground": false,
        "velocity": 227.75,
        "true_track": 6.35,
        "vertical_rate": 0,
        "geo_altitude": 12534.9,
        "squawk": "1000",
        "spi": false,
        "position_source": 0
      }
    },
    {
      "type": "Feature",
      "geometry": {
        "type": "Point",
        "coordinates": [
          12.5461,
          44.849
        ]
      },
      "properties": {
        "icao24": "40815b",
        "callsign": "EZY63MD",
        "origin_country": "United Kingdom",
        "time_position": 1779240792,
        "last_contact": 1779240792,
        "baro_altitude": 11590.02,
        "on_ground": false,
        "velocity": 210.3,
        "true_track": 313.81,
        "vertical_rate": 0,
        "geo_altitude": 11826.24,
        "squawk": "2015",
        "spi": false,
        "position_source": 0
      }
    },
    {
      "type": "Feature",
      "geometry": {
        "type": "Point",
        "coordinates": [
          8.5346,
          47.4832
        ]
      },
      "properties": {
        "icao24": "4b5d51",
        "callsign": "GALA51",
        "origin_country": "Switzerland",
        "time_position": 1779240792,
        "last_contact": 1779240792,
        "baro_altitude": null,
        "on_ground": true,
        "velocity": 3.09,
        "true_track": 87.19,
        "vertical_rate": null,
        "geo_altitude": null,
        "squawk": "2154",
        "spi": true,
        "position_source": 0
      }
    },
    {
      "type": "Feature",
      "geometry": {
        "type": "Point",
        "coordinates": [
          8.534,
          47.4836
        ]
      },
      "properties": {
        "icao24": "4b5d3d",
        "callsign": "GALA23",
        "origin_country": "Switzerland",
        "time_position": 1779240791,
        "last_contact": 1779240792,
        "baro_altitude": null,
        "on_ground": true,
        "velocity": 1.8,
        "true_track": 230.62,
        "vertical_rate": null,
        "geo_altitude": null,
        "squawk": null,
        "spi": false,
        "position_source": 0
      }
    },
    {
      "type": "Feature",
      "geometry": {
        "type": "Point",
        "coordinates": [
          18.6921,
          35.2842
        ]
      },
      "properties": {
        "icao24": "7105ac",
        "callsign": "SVA377",
        "origin_country": "Saudi Arabia",
        "time_position": 1779240792,
        "last_contact": 1779240792,
        "baro_altitude": 11582.4,
        "on_ground": false,
        "velocity": 214.82,
        "true_track": 279.37,
        "vertical_rate": -0.33,
        "geo_altitude": 11917.68,
        "squawk": "6636",
        "spi": false,
        "position_source": 0
      }
    },
    {
      "type": "Feature",
      "geometry": {
        "type": "Point",
        "coordinates": [
          8.5708,
          47.4582
        ]
      },
      "properties": {
        "icao24": "4b5c18",
        "callsign": "GUIDO13",
        "origin_country": "Switzerland",
        "time_position": 1779240792,
        "last_contact": 1779240792,
        "baro_altitude": null,
        "on_ground": true,
        "velocity": 4.89,
        "true_track": 84.38,
        "vertical_rate": null,
        "geo_altitude": null,
        "squawk": "7777",
        "spi": false,
        "position_source": 0
      }
    },
    {
      "type": "Feature",
      "geometry": {
        "type": "Point",
        "coordinates": [
          8.5532,
          47.4468
        ]
      },
      "properties": {
        "icao24": "4b5c27",
        "callsign": "EUGEN11",
        "origin_country": "Switzerland",
        "time_position": 1779240792,
        "last_contact": 1779240792,
        "baro_altitude": null,
        "on_ground": true,
        "velocity": 4.12,
        "true_track": 14.06,
        "vertical_rate": null,
        "geo_altitude": null,
        "squawk": null,
        "spi": false,
        "position_source": 0
      }
    },
    {
      "type": "Feature",
      "geometry": {
        "type": "Point",
        "coordinates": [
          12.5463,
          40.028
        ]
      },
      "properties": {
        "icao24": "4ca907",
        "callsign": "MSA976P",
        "origin_country": "Ireland",
        "time_position": 1779240792,
        "last_contact": 1779240792,
        "baro_altitude": 10363.2,
        "on_ground": false,
        "velocity": 199.63,
        "true_track": 342.45,
        "vertical_rate": 0,
        "geo_altitude": 10622.28,
        "squawk": null,
        "spi": false,
        "position_source": 0
      }
    },
    {
      "type": "Feature",
      "geometry": {
        "type": "Point",
        "coordinates": [
          15.2994,
          38.0271
        ]
      },
      "properties": {
        "icao24": "4ca82b",
        "callsign": "MSA9792",
        "origin_country": "Ireland",
        "time_position": 1779240792,
        "last_contact": 1779240792,
        "baro_altitude": 7955.28,
        "on_ground": false,
        "velocity": 208.9,
        "true_track": 333.06,
        "vertical_rate": 13,
        "geo_altitude": 8214.36,
        "squawk": "7406",
        "spi": false,
        "position_source": 0
      }
    },
    {
      "type": "Feature",
      "geometry": {
        "type": "Point",
        "coordinates": [
          18.8625,
          45.996
        ]
      },
      "properties": {
        "icao24": "4bcdd5",
        "callsign": "SXS75K",
        "origin_country": "Turkey",
        "time_position": 1779240791,
        "last_contact": 1779240792,
        "baro_altitude": 11277.6,
        "on_ground": false,
        "velocity": 240.68,
        "true_track": 137.51,
        "vertical_rate": 0,
        "geo_altitude": 11414.76,
        "squawk": "7636",
        "spi": false,
        "position_source": 0
      }
    },
    {
      "type": "Feature",
      "geometry": {
        "type": "Point",
        "coordinates": [
          15.1166,
          47.2211
        ]
      },
      "properties": {
        "icao24": "4bccb9",
        "callsign": "SXS2ZN",
        "origin_country": "Turkey",
        "time_position": 1779240792,
        "last_contact": 1779240792,
        "baro_altitude": 11277.6,
        "on_ground": false,
        "velocity": 241.2,
        "true_track": 135.78,
        "vertical_rate": 0,
        "geo_altitude": 11452.86,
        "squawk": "6403",
        "spi": false,
        "position_source": 0
      }
    },
    {
      "type": "Feature",
      "geometry": {
        "type": "Point",
        "coordinates": [
          14.7982,
          46.9876
        ]
      },
      "properties": {
        "icao24": "4bccae",
        "callsign": "SXS7KN",
        "origin_country": "Turkey",
        "time_position": 1779240792,
        "last_contact": 1779240792,
        "baro_altitude": 10668,
        "on_ground": false,
        "velocity": 244.09,
        "true_track": 135.26,
        "vertical_rate": 0,
        "geo_altitude": 10843.26,
        "squawk": "7644",
        "spi": false,
        "position_source": 0
      }
    },
    {
      "type": "Feature",
      "geometry": {
        "type": "Point",
        "coordinates": [
          16.6006,
          47.4427
        ]
      },
      "properties": {
        "icao24": "4bccad",
        "callsign": "SXS092",
        "origin_country": "Turkey",
        "time_position": 1779240792,
        "last_contact": 1779240792,
        "baro_altitude": 12192,
        "on_ground": false,
        "velocity": 222.9,
        "true_track": 298.99,
        "vertical_rate": 0.33,
        "geo_altitude": 12359.64,
        "squawk": "5346",
        "spi": false,
        "position_source": 0
      }
    },
    {
      "type": "Feature",
      "geometry": {
        "type": "Point",
        "coordinates": [
          8.7827,
          47.1072
        ]
      },
      "properties": {
        "icao24": "8940d1",
        "callsign": "DHX755",
        "origin_country": "Bahrain",
        "time_position": 1779240792,
        "last_contact": 1779240792,
        "baro_altitude": 9906,
        "on_ground": false,
        "velocity": 205.72,
        "true_track": 191.39,
        "vertical_rate": -4.88,
        "geo_altitude": 10096.5,
        "squawk": "1000",
        "spi": false,
        "position_source": 0
      }
    },
    {
      "type": "Feature",
      "geometry": {
        "type": "Point",
        "coordinates": [
          6.1478,
          36.4099
        ]
      },
      "properties": {
        "icao24": "717c97",
        "callsign": "KNE8422",
        "origin_country": "Saudi Arabia",
        "time_position": 1779240528,
        "last_contact": 1779240528,
        "baro_altitude": 10668,
        "on_ground": false,
        "velocity": 254.66,
        "true_track": 89.42,
        "vertical_rate": 0,
        "geo_altitude": 11125.2,
        "squawk": "6446",
        "spi": false,
        "position_source": 0
      }
    },
    {
      "type": "Feature",
      "geometry": {
        "type": "Point",
        "coordinates": [
          12.7076,
          36.4163
        ]
      },
      "properties": {
        "icao24": "010289",
        "callsign": "MSR986",
        "origin_country": "Egypt",
        "time_position": 1779240792,
        "last_contact": 1779240792,
        "baro_altitude": 11887.2,
        "on_ground": false,
        "velocity": 280.38,
        "true_track": 96.96,
        "vertical_rate": 0,
        "geo_altitude": 12252.96,
        "squawk": "1146",
        "spi": false,
        "position_source": 0
      }
    },
    {
      "type": "Feature",
      "geometry": {
        "type": "Point",
        "coordinates": [
          9.959,
          45.5995
        ]
      },
      "properties": {
        "icao24": "424c98",
        "callsign": "MABTE",
        "origin_country": "United Kingdom",
        "time_position": 1779240792,
        "last_contact": 1779240792,
        "baro_altitude": 1242.06,
        "on_ground": false,
        "velocity": 95.75,
        "true_track": 357.84,
        "vertical_rate": -5.85,
        "geo_altitude": 1363.98,
        "squawk": "4673",
        "spi": false,
        "position_source": 0
      }
    },
    {
      "type": "Feature",
      "geometry": {
        "type": "Point",
        "coordinates": [
          8.7319,
          45.6168
        ]
      },
      "properties": {
        "icao24": "348358",
        "callsign": "BCS8UM",
        "origin_country": "Spain",
        "time_position": 1779240791,
        "last_contact": 1779240791,
        "baro_altitude": null,
        "on_ground": true,
        "velocity": 13.89,
        "true_track": 348.75,
        "vertical_rate": null,
        "geo_altitude": null,
        "squawk": null,
        "spi": false,
        "position_source": 0
      }
    },
    {
      "type": "Feature",
      "geometry": {
        "type": "Point",
        "coordinates": [
          16.1043,
          45.9951
        ]
      },
      "properties": {
        "icao24": "4d232c",
        "callsign": "CXI7FR",
        "origin_country": "Malta",
        "time_position": 1779240792,
        "last_contact": 1779240792,
        "baro_altitude": 11277.6,
        "on_ground": false,
        "velocity": 249.72,
        "true_track": 145.49,
        "vertical_rate": 0,
        "geo_altitude": 11445.24,
        "squawk": "2644",
        "spi": false,
        "position_source": 0
      }
    },
    {
      "type": "Feature",
      "geometry": {
        "type": "Point",
        "coordinates": [
          7.9552,
          40.5063
        ]
      },
      "properties": {
        "icao24": "4691c5",
        "callsign": "AEE5RT",
        "origin_country": "Greece",
        "time_position": 1779240792,
        "last_contact": 1779240792,
        "baro_altitude": 10972.8,
        "on_ground": false,
        "velocity": 251.19,
        "true_track": 99.19,
        "vertical_rate": 0,
        "geo_altitude": 11346.18,
        "squawk": "1141",
        "spi": false,
        "position_source": 0
      }
    },
    {
      "type": "Feature",
      "geometry": {
        "type": "Point",
        "coordinates": [
          15.8563,
          38.0412
        ]
      },
      "properties": {
        "icao24": "4691c1",
        "callsign": "AEE715",
        "origin_country": "Greece",
        "time_position": 1779240792,
        "last_contact": 1779240792,
        "baro_altitude": 11262.36,
        "on_ground": false,
        "velocity": 243.46,
        "true_track": 78.05,
        "vertical_rate": 0,
        "geo_altitude": 11551.92,
        "squawk": "4501",
        "spi": false,
        "position_source": 0
      }
    },
    {
      "type": "Feature",
      "geometry": {
        "type": "Point",
        "coordinates": [
          18.8977,
          35.6398
        ]
      },
      "properties": {
        "icao24": "010154",
        "callsign": "MSR996",
        "origin_country": "Egypt",
        "time_position": 1779240781,
        "last_contact": 1779240783,
        "baro_altitude": 10668,
        "on_ground": false,
        "velocity": 290.39,
        "true_track": 100.51,
        "vertical_rate": 0,
        "geo_altitude": 10949.94,
        "squawk": "1153",
        "spi": false,
        "position_source": 0
      }
    },
    {
      "type": "Feature",
      "geometry": {
        "type": "Point",
        "coordinates": [
          8.564,
          47.4425
        ]
      },
      "properties": {
        "icao24": "4b17fe",
        "callsign": "SWR8KY",
        "origin_country": "Switzerland",
        "time_position": 1779240792,
        "last_contact": 1779240793,
        "baro_altitude": null,
        "on_ground": true,
        "velocity": 0,
        "true_track": 140.62,
        "vertical_rate": null,
        "geo_altitude": null,
        "squawk": null,
        "spi": false,
        "position_source": 0
      }
    }
  ]
}