{
  "type": "FeatureCollection",
  "source": "opensky",
  "dataset": "aircraft_italy",
  "generated_at": "2026-08-21T02:54:31.751768+00:00",
  "opensky_time": 1787280856,
  "count": 115,
  "features": [
    {
      "type": "Feature",
      "geometry": {
        "type": "Point",
        "coordinates": [
          10.3147,
          45.1629
        ]
      },
      "properties": {
        "icao24": "73806d",
        "callsign": "ELY388",
        "origin_country": "Israel",
        "time_position": 1787280855,
        "last_contact": 1787280855,
        "baro_altitude": 7795.26,
        "on_ground": false,
        "velocity": 248.2,
        "true_track": 110.13,
        "vertical_rate": 6.5,
        "geo_altitude": 8153.4,
        "squawk": "3752",
        "spi": false,
        "position_source": 0
      }
    },
    {
      "type": "Feature",
      "geometry": {
        "type": "Point",
        "coordinates": [
          13.8139,
          39.1942
        ]
      },
      "properties": {
        "icao24": "738061",
        "callsign": "ELY376",
        "origin_country": "Israel",
        "time_position": 1787280855,
        "last_contact": 1787280855,
        "baro_altitude": 10668,
        "on_ground": false,
        "velocity": 243.51,
        "true_track": 97.77,
        "vertical_rate": -0.33,
        "geo_altitude": 11292.84,
        "squawk": "1150",
        "spi": false,
        "position_source": 0
      }
    },
    {
      "type": "Feature",
      "geometry": {
        "type": "Point",
        "coordinates": [
          17.0116,
          44.9739
        ]
      },
      "properties": {
        "icao24": "3c4a03",
        "callsign": "DLH591",
        "origin_country": "Germany",
        "time_position": 1787280855,
        "last_contact": 1787280855,
        "baro_altitude": 11574.78,
        "on_ground": false,
        "velocity": 253.24,
        "true_track": 321.27,
        "vertical_rate": 0.33,
        "geo_altitude": 12199.62,
        "squawk": "6630",
        "spi": false,
        "position_source": 0
      }
    },
    {
      "type": "Feature",
      "geometry": {
        "type": "Point",
        "coordinates": [
          16.7665,
          45.4233
        ]
      },
      "properties": {
        "icao24": "452037",
        "callsign": "GPX24UL",
        "origin_country": "Bulgaria",
        "time_position": 1787280855,
        "last_contact": 1787280856,
        "baro_altitude": 10957.56,
        "on_ground": false,
        "velocity": 232.68,
        "true_track": 321.91,
        "vertical_rate": -0.33,
        "geo_altitude": null,
        "squawk": "1333",
        "spi": false,
        "position_source": 0
      }
    },
    {
      "type": "Feature",
      "geometry": {
        "type": "Point",
        "coordinates": [
          11.9635,
          42.7443
        ]
      },
      "properties": {
        "icao24": "a41cf8",
        "callsign": "UPS266",
        "origin_country": "United States",
        "time_position": 1787280855,
        "last_contact": 1787280855,
        "baro_altitude": 4625.34,
        "on_ground": false,
        "velocity": 192.46,
        "true_track": 178.62,
        "vertical_rate": -13.66,
        "geo_altitude": 4907.28,
        "squawk": "0122",
        "spi": false,
        "position_source": 0
      }
    },
    {
      "type": "Feature",
      "geometry": {
        "type": "Point",
        "coordinates": [
          13.8575,
          39.5783
        ]
      },
      "properties": {
        "icao24": "738055",
        "callsign": "ELY398",
        "origin_country": "Israel",
        "time_position": 1787280855,
        "last_contact": 1787280855,
        "baro_altitude": 10668,
        "on_ground": false,
        "velocity": 242.82,
        "true_track": 103.48,
        "vertical_rate": 0,
        "geo_altitude": 11300.46,
        "squawk": "1440",
        "spi": false,
        "position_source": 0
      }
    },
    {
      "type": "Feature",
      "geometry": {
        "type": "Point",
        "coordinates": [
          14.0496,
          46.5153
        ]
      },
      "properties": {
        "icao24": "738059",
        "callsign": "ELY314",
        "origin_country": "Israel",
        "time_position": 1787280855,
        "last_contact": 1787280855,
        "baro_altitude": 10668,
        "on_ground": false,
        "velocity": 232.37,
        "true_track": 127.99,
        "vertical_rate": -0.33,
        "geo_altitude": 11178.54,
        "squawk": "5243",
        "spi": false,
        "position_source": 0
      }
    },
    {
      "type": "Feature",
      "geometry": {
        "type": "Point",
        "coordinates": [
          18.6805,
          47.2938
        ]
      },
      "properties": {
        "icao24": "406947",
        "callsign": "BAW12",
        "origin_country": "United Kingdom",
        "time_position": 1787280855,
        "last_contact": 1787280855,
        "baro_altitude": 10972.8,
        "on_ground": false,
        "velocity": 228.26,
        "true_track": 293.79,
        "vertical_rate": 0,
        "geo_altitude": 11521.44,
        "squawk": "3236",
        "spi": false,
        "position_source": 0
      }
    },
    {
      "type": "Feature",
      "geometry": {
        "type": "Point",
        "coordinates": [
          10.3356,
          40.4581
        ]
      },
      "properties": {
        "icao24": "738101",
        "callsign": "ELY017",
        "origin_country": "Israel",
        "time_position": 1787280855,
        "last_contact": 1787280855,
        "baro_altitude": 11582.4,
        "on_ground": false,
        "velocity": 234.07,
        "true_track": 283.73,
        "vertical_rate": -0.33,
        "geo_altitude": 12207.24,
        "squawk": "5137",
        "spi": false,
        "position_source": 0
      }
    },
    {
      "type": "Feature",
      "geometry": {
        "type": "Point",
        "coordinates": [
          6.1776,
          39.6364
        ]
      },
      "properties": {
        "icao24": "4a3121",
        "callsign": "AIZ264",
        "origin_country": "Romania",
        "time_position": 1787280855,
        "last_contact": 1787280855,
        "baro_altitude": 9761.22,
        "on_ground": false,
        "velocity": 257.08,
        "true_track": 86.9,
        "vertical_rate": -0.33,
        "geo_altitude": 10256.52,
        "squawk": "1423",
        "spi": false,
        "position_source": 0
      }
    },
    {
      "type": "Feature",
      "geometry": {
        "type": "Point",
        "coordinates": [
          10.76,
          44.6785
        ]
      },
      "properties": {
        "icao24": "89616a",
        "callsign": "UAE4M",
        "origin_country": "United Arab Emirates",
        "time_position": 1787280855,
        "last_contact": 1787280856,
        "baro_altitude": 10668,
        "on_ground": false,
        "velocity": 265.08,
        "true_track": 105.3,
        "vertical_rate": 0,
        "geo_altitude": 11178.54,
        "squawk": "0436",
        "spi": false,
        "position_source": 0
      }
    },
    {
      "type": "Feature",
      "geometry": {
        "type": "Point",
        "coordinates": [
          9.249,
          42.6321
        ]
      },
      "properties": {
        "icao24": "452179",
        "callsign": "LBT3944",
        "origin_country": "Bulgaria",
        "time_position": 1787280855,
        "last_contact": 1787280855,
        "baro_altitude": 10431.78,
        "on_ground": false,
        "velocity": 242.48,
        "true_track": 338.99,
        "vertical_rate": 4.88,
        "geo_altitude": 10965.18,
        "squawk": null,
        "spi": false,
        "position_source": 0
      }
    },
    {
      "type": "Feature",
      "geometry": {
        "type": "Point",
        "coordinates": [
          7.9224,
          47.4634
        ]
      },
      "properties": {
        "icao24": "440118",
        "callsign": "TAY9VX",
        "origin_country": "Austria",
        "time_position": 1787280855,
        "last_contact": 1787280855,
        "baro_altitude": 11285.22,
        "on_ground": false,
        "velocity": 205.91,
        "true_track": 153.11,
        "vertical_rate": -0.33,
        "geo_altitude": 11658.6,
        "squawk": "1000",
        "spi": false,
        "position_source": 0
      }
    },
    {
      "type": "Feature",
      "geometry": {
        "type": "Point",
        "coordinates": [
          8.7253,
          45.6454
        ]
      },
      "properties": {
        "icao24": "440117",
        "callsign": "EJU685T",
        "origin_country": "Austria",
        "time_position": 1787280852,
        "last_contact": 1787280855,
        "baro_altitude": null,
        "on_ground": true,
        "velocity": 1.29,
        "true_track": 286.88,
        "vertical_rate": null,
        "geo_altitude": null,
        "squawk": null,
        "spi": false,
        "position_source": 0
      }
    },
    {
      "type": "Feature",
      "geometry": {
        "type": "Point",
        "coordinates": [
          8.7197,
          45.6157
        ]
      },
      "properties": {
        "icao24": "738209",
        "callsign": "ISR324",
        "origin_country": "Israel",
        "time_position": 1787280848,
        "last_contact": 1787280852,
        "baro_altitude": null,
        "on_ground": true,
        "velocity": 0,
        "true_track": 258.75,
        "vertical_rate": null,
        "geo_altitude": null,
        "squawk": "2000",
        "spi": false,
        "position_source": 0
      }
    },
    {
      "type": "Feature",
      "geometry": {
        "type": "Point",
        "coordinates": [
          13.1913,
          44.4444
        ]
      },
      "properties": {
        "icao24": "a4b0bb",
        "callsign": "DAL240",
        "origin_country": "United States",
        "time_position": 1787280855,
        "last_contact": 1787280856,
        "baro_altitude": 11887.2,
        "on_ground": false,
        "velocity": 225.29,
        "true_track": 128.23,
        "vertical_rate": 0.33,
        "geo_altitude": 12466.32,
        "squawk": "0510",
        "spi": false,
        "position_source": 0
      }
    },
    {
      "type": "Feature",
      "geometry": {
        "type": "Point",
        "coordinates": [
          16.7766,
          38.9855
        ]
      },
      "properties": {
        "icao24": "4c80b4",
        "callsign": "BBG253",
        "origin_country": "Cyprus",
        "time_position": 1787280856,
        "last_contact": 1787280856,
        "baro_altitude": 10668,
        "on_ground": false,
        "velocity": 228.96,
        "true_track": 104.44,
        "vertical_rate": 0,
        "geo_altitude": 11315.7,
        "squawk": "1411",
        "spi": false,
        "position_source": 0
      }
    },
    {
      "type": "Feature",
      "geometry": {
        "type": "Point",
        "coordinates": [
          16.8707,
          36.4985
        ]
      },
      "properties": {
        "icao24": "0200cb",
        "callsign": "RAM217",
        "origin_country": "Morocco",
        "time_position": 1787280856,
        "last_contact": 1787280856,
        "baro_altitude": 11582.4,
        "on_ground": false,
        "velocity": 250.89,
        "true_track": 292.67,
        "vertical_rate": 0,
        "geo_altitude": 12283.44,
        "squawk": "6621",
        "spi": false,
        "position_source": 0
      }
    },
    {
      "type": "Feature",
      "geometry": {
        "type": "Point",
        "coordinates": [
          16.2215,
          35.5926
        ]
      },
      "properties": {
        "icao24": "896451",
        "callsign": "UAE213",
        "origin_country": "United Arab Emirates",
        "time_position": 1787280856,
        "last_contact": 1787280856,
        "baro_altitude": 9753.6,
        "on_ground": false,
        "velocity": 249.91,
        "true_track": 278.05,
        "vertical_rate": 0,
        "geo_altitude": 10378.44,
        "squawk": "5533",
        "spi": false,
        "position_source": 0
      }
    },
    {
      "type": "Feature",
      "geometry": {
        "type": "Point",
        "coordinates": [
          14.4498,
          46.3367
        ]
      },
      "properties": {
        "icao24": "505a88",
        "callsign": "TVQ6716",
        "origin_country": "Slovakia",
        "time_position": 1787280855,
        "last_contact": 1787280855,
        "baro_altitude": 10668,
        "on_ground": false,
        "velocity": 201.89,
        "true_track": 224.9,
        "vertical_rate": 0.33,
        "geo_altitude": 11186.16,
        "squawk": "7101",
        "spi": false,
        "position_source": 0
      }
    },
    {
      "type": "Feature",
      "geometry": {
        "type": "Point",
        "coordinates": [
          14.2222,
          46.6218
        ]
      },
      "properties": {
        "icao24": "a03f48",
        "callsign": "FDX6238",
        "origin_country": "United States",
        "time_position": 1787280855,
        "last_contact": 1787280855,
        "baro_altitude": 11277.6,
        "on_ground": false,
        "velocity": 237.19,
        "true_track": 114.06,
        "vertical_rate": -0.33,
        "geo_altitude": 11811,
        "squawk": "0671",
        "spi": false,
        "position_source": 0
      }
    },
    {
      "type": "Feature",
      "geometry": {
        "type": "Point",
        "coordinates": [
          17.0133,
          38.1689
        ]
      },
      "properties": {
        "icao24": "43bea5",
        "callsign": "VPBTM",
        "origin_country": "United Kingdom",
        "time_position": 1787280855,
        "last_contact": 1787280855,
        "baro_altitude": 13106.4,
        "on_ground": false,
        "velocity": 251.72,
        "true_track": 294,
        "vertical_rate": 0,
        "geo_altitude": 13799.82,
        "squawk": null,
        "spi": false,
        "position_source": 0
      }
    },
    {
      "type": "Feature",
      "geometry": {
        "type": "Point",
        "coordinates": [
          17.7419,
          46.5564
        ]
      },
      "properties": {
        "icao24": "4b9907",
        "callsign": "FHY1366",
        "origin_country": "Turkey",
        "time_position": 1787280856,
        "last_contact": 1787280856,
        "baro_altitude": 10668,
        "on_ground": false,
        "velocity": 238.91,
        "true_track": 126.77,
        "vertical_rate": 0,
        "geo_altitude": 11216.64,
        "squawk": "7654",
        "spi": false,
        "position_source": 0
      }
    },
    {
      "type": "Feature",
      "geometry": {
        "type": "Point",
        "coordinates": [
          13.4501,
          46.7137
        ]
      },
      "properties": {
        "icao24": "8965f4",
        "callsign": "ETD16",
        "origin_country": "United Arab Emirates",
        "time_position": 1787280855,
        "last_contact": 1787280855,
        "baro_altitude": 11879.58,
        "on_ground": false,
        "velocity": 246.81,
        "true_track": 109.23,
        "vertical_rate": 0,
        "geo_altitude": 12390.12,
        "squawk": "5211",
        "spi": false,
        "position_source": 0
      }
    },
    {
      "type": "Feature",
      "geometry": {
        "type": "Point",
        "coordinates": [
          6.9337,
          41.1797
        ]
      },
      "properties": {
        "icao24": "44ccc8",
        "callsign": "BEL4KE",
        "origin_country": "Belgium",
        "time_position": 1787280856,
        "last_contact": 1787280856,
        "baro_altitude": 11582.4,
        "on_ground": false,
        "velocity": 258.38,
        "true_track": 358.17,
        "vertical_rate": 0,
        "geo_altitude": 12115.8,
        "squawk": "1000",
        "spi": false,
        "position_source": 0
      }
    },
    {
      "type": "Feature",
      "geometry": {
        "type": "Point",
        "coordinates": [
          6.9267,
          41.0593
        ]
      },
      "properties": {
        "icao24": "44ccc6",
        "callsign": "BEL3YG",
        "origin_country": "Belgium",
        "time_position": 1787280856,
        "last_contact": 1787280856,
        "baro_altitude": 10972.8,
        "on_ground": false,
        "velocity": 266.61,
        "true_track": 358.23,
        "vertical_rate": 0,
        "geo_altitude": 11506.2,
        "squawk": "1000",
        "spi": false,
        "position_source": 0
      }
    },
    {
      "type": "Feature",
      "geometry": {
        "type": "Point",
        "coordinates": [
          7.9596,
          41.443
        ]
      },
      "properties": {
        "icao24": "0201c1",
        "callsign": "RAM272C",
        "origin_country": "Morocco",
        "time_position": 1787280856,
        "last_contact": 1787280856,
        "baro_altitude": 10668,
        "on_ground": false,
        "velocity": 253.56,
        "true_track": 51.18,
        "vertical_rate": 0,
        "geo_altitude": 11216.64,
        "squawk": "1231",
        "spi": false,
        "position_source": 0
      }
    },
    {
      "type": "Feature",
      "geometry": {
        "type": "Point",
        "coordinates": [
          16.3965,
          40.793
        ]
      },
      "properties": {
        "icao24": "040172",
        "callsign": "ETH734",
        "origin_country": "Ethiopia",
        "time_position": 1787280855,
        "last_contact": 1787280855,
        "baro_altitude": 12192,
        "on_ground": false,
        "velocity": 245.32,
        "true_track": 305.96,
        "vertical_rate": 0,
        "geo_altitude": 12854.94,
        "squawk": "7324",
        "spi": false,
        "position_source": 0
      }
    },
    {
      "type": "Feature",
      "geometry": {
        "type": "Point",
        "coordinates": [
          13.6825,
          41.3377
        ]
      },
      "properties": {
        "icao24": "040123",
        "callsign": "ETH712",
        "origin_country": "Ethiopia",
        "time_position": 1787280855,
        "last_contact": 1787280855,
        "baro_altitude": 8023.86,
        "on_ground": false,
        "velocity": 187.15,
        "true_track": 300.02,
        "vertical_rate": -3.25,
        "geo_altitude": 8542.02,
        "squawk": "2212",
        "spi": true,
        "position_source": 0
      }
    },
    {
      "type": "Feature",
      "geometry": {
        "type": "Point",
        "coordinates": [
          15.9063,
          40.2801
        ]
      },
      "properties": {
        "icao24": "040131",
        "callsign": "ETH736",
        "origin_country": "Ethiopia",
        "time_position": 1787280855,
        "last_contact": 1787280856,
        "baro_altitude": 12192,
        "on_ground": false,
        "velocity": 249.26,
        "true_track": 305.59,
        "vertical_rate": 0,
        "geo_altitude": 12854.94,
        "squawk": "7724",
        "spi": false,
        "position_source": 0
      }
    },
    {
      "type": "Feature",
      "geometry": {
        "type": "Point",
        "coordinates": [
          18.9799,
          39.3055
        ]
      },
      "properties": {
        "icao24": "040132",
        "callsign": "ETH728",
        "origin_country": "Ethiopia",
        "time_position": 1787280856,
        "last_contact": 1787280856,
        "baro_altitude": 12192,
        "on_ground": false,
        "velocity": 254.91,
        "true_track": 309.92,
        "vertical_rate": 0,
        "geo_altitude": 12854.94,
        "squawk": "2055",
        "spi": false,
        "position_source": 0
      }
    },
    {
      "type": "Feature",
      "geometry": {
        "type": "Point",
        "coordinates": [
          8.3868,
          47.3449
        ]
      },
      "properties": {
        "icao24": "406f78",
        "callsign": "BAW34",
        "origin_country": "United Kingdom",
        "time_position": 1787280856,
        "last_contact": 1787280856,
        "baro_altitude": 13106.4,
        "on_ground": false,
        "velocity": 245.48,
        "true_track": 296.24,
        "vertical_rate": -0.33,
        "geo_altitude": 13540.74,
        "squawk": "7517",
        "spi": false,
        "position_source": 0
      }
    },
    {
      "type": "Feature",
      "geometry": {
        "type": "Point",
        "coordinates": [
          18.6297,
          45.3308
        ]
      },
      "properties": {
        "icao24": "394a03",
        "callsign": "AFR111",
        "origin_country": "France",
        "time_position": 1787280855,
        "last_contact": 1787280855,
        "baro_altitude": 10972.8,
        "on_ground": false,
        "velocity": 236.28,
        "true_track": 296.51,
        "vertical_rate": -0.33,
        "geo_altitude": 11574.78,
        "squawk": "3205",
        "spi": false,
        "position_source": 0
      }
    },
    {
      "type": "Feature",
      "geometry": {
        "type": "Point",
        "coordinates": [
          10.0775,
          45.8468
        ]
      },
      "properties": {
        "icao24": "49d563",
        "callsign": "TVS4147",
        "origin_country": "Czech Republic",
        "time_position": 1787280856,
        "last_contact": 1787280856,
        "baro_altitude": 11582.4,
        "on_ground": false,
        "velocity": 263.21,
        "true_track": 40.16,
        "vertical_rate": 0.33,
        "geo_altitude": 12062.46,
        "squawk": "0424",
        "spi": false,
        "position_source": 0
      }
    },
    {
      "type": "Feature",
      "geometry": {
        "type": "Point",
        "coordinates": [
          16.1102,
          42.9461
        ]
      },
      "properties": {
        "icao24": "04021d",
        "callsign": "ETH706",
        "origin_country": "Ethiopia",
        "time_position": 1787280856,
        "last_contact": 1787280856,
        "baro_altitude": 12192,
        "on_ground": false,
        "velocity": 253.07,
        "true_track": 320.03,
        "vertical_rate": -0.33,
        "geo_altitude": 12809.22,
        "squawk": "5513",
        "spi": false,
        "position_source": 0
      }
    },
    {
      "type": "Feature",
      "geometry": {
        "type": "Point",
        "coordinates": [
          16.8401,
          40.4731
        ]
      },
      "properties": {
        "icao24": "394a0b",
        "callsign": "AFR829",
        "origin_country": "France",
        "time_position": 1787280856,
        "last_contact": 1787280856,
        "baro_altitude": 10972.8,
        "on_ground": false,
        "velocity": 250.01,
        "true_track": 304.61,
        "vertical_rate": -0.33,
        "geo_altitude": 11635.74,
        "squawk": "1336",
        "spi": false,
        "position_source": 0
      }
    },
    {
      "type": "Feature",
      "geometry": {
        "type": "Point",
        "coordinates": [
          7.7876,
          47.3313
        ]
      },
      "properties": {
        "icao24": "3c70b5",
        "callsign": "BCS3LR",
        "origin_country": "Germany",
        "time_position": 1787280855,
        "last_contact": 1787280856,
        "baro_altitude": 11277.6,
        "on_ground": false,
        "velocity": 200.21,
        "true_track": 207.88,
        "vertical_rate": -0.33,
        "geo_altitude": 11658.6,
        "squawk": "1000",
        "spi": false,
        "position_source": 0
      }
    },
    {
      "type": "Feature",
      "geometry": {
        "type": "Point",
        "coordinates": [
          17.8669,
          40.558
        ]
      },
      "properties": {
        "icao24": "341446",
        "callsign": "BCS8UM",
        "origin_country": "Spain",
        "time_position": 1787280855,
        "last_contact": 1787280855,
        "baro_altitude": 10668,
        "on_ground": false,
        "velocity": 221.25,
        "true_track": 130.1,
        "vertical_rate": 0,
        "geo_altitude": 11315.7,
        "squawk": "0455",
        "spi": false,
        "position_source": 0
      }
    },
    {
      "type": "Feature",
      "geometry": {
        "type": "Point",
        "coordinates": [
          18.4388,
          44.0064
        ]
      },
      "properties": {
        "icao24": "06a2e7",
        "callsign": "QTR95W",
        "origin_country": "Qatar",
        "time_position": 1787280855,
        "last_contact": 1787280856,
        "baro_altitude": 10965.18,
        "on_ground": false,
        "velocity": 240.35,
        "true_track": 309.79,
        "vertical_rate": 0,
        "geo_altitude": 11590.02,
        "squawk": "2154",
        "spi": false,
        "position_source": 0
      }
    },
    {
      "type": "Feature",
      "geometry": {
        "type": "Point",
        "coordinates": [
          13.1163,
          37.722
        ]
      },
      "properties": {
        "icao24": "49d1cd",
        "callsign": "TVP7527",
        "origin_country": "Czech Republic",
        "time_position": 1787280856,
        "last_contact": 1787280856,
        "baro_altitude": 10972.8,
        "on_ground": false,
        "velocity": 233.17,
        "true_track": 19.59,
        "vertical_rate": 0,
        "geo_altitude": 11635.74,
        "squawk": "6174",
        "spi": false,
        "position_source": 0
      }
    },
    {
      "type": "Feature",
      "geometry": {
        "type": "Point",
        "coordinates": [
          18.9408,
          42.9951
        ]
      },
      "properties": {
        "icao24": "49d365",
        "callsign": "TVS2D3",
        "origin_country": "Czech Republic",
        "time_position": 1787280855,
        "last_contact": 1787280855,
        "baro_altitude": 10668,
        "on_ground": false,
        "velocity": 227.38,
        "true_track": 167.19,
        "vertical_rate": 0,
        "geo_altitude": 11277.6,
        "squawk": "7347",
        "spi": false,
        "position_source": 0
      }
    },
    {
      "type": "Feature",
      "geometry": {
        "type": "Point",
        "coordinates": [
          12.1923,
          45.3807
        ]
      },
      "properties": {
        "icao24": "a4972c",
        "callsign": "UPS260",
        "origin_country": "United States",
        "time_position": 1787280855,
        "last_contact": 1787280855,
        "baro_altitude": 922.02,
        "on_ground": false,
        "velocity": 93.99,
        "true_track": 41.89,
        "vertical_rate": -4.88,
        "geo_altitude": 990.6,
        "squawk": "2566",
        "spi": false,
        "position_source": 0
      }
    },
    {
      "type": "Feature",
      "geometry": {
        "type": "Point",
        "coordinates": [
          13.9466,
          46.3183
        ]
      },
      "properties": {
        "icao24": "49d00d",
        "callsign": "TVS2702",
        "origin_country": "Czech Republic",
        "time_position": 1787280855,
        "last_contact": 1787280856,
        "baro_altitude": 10668,
        "on_ground": false,
        "velocity": 202.61,
        "true_track": 214.13,
        "vertical_rate": -0.33,
        "geo_altitude": 11193.78,
        "squawk": "6011",
        "spi": false,
        "position_source": 0
      }
    },
    {
      "type": "Feature",
      "geometry": {
        "type": "Point",
        "coordinates": [
          16.9461,
          47.7595
        ]
      },
      "properties": {
        "icao24": "48c12b",
        "callsign": "RYR45ER",
        "origin_country": "Poland",
        "time_position": 1787280855,
        "last_contact": 1787280855,
        "baro_altitude": 3261.36,
        "on_ground": false,
        "velocity": 182.78,
        "true_track": 65.38,
        "vertical_rate": -9.1,
        "geo_altitude": 3421.38,
        "squawk": "1000",
        "spi": false,
        "position_source": 0
      }
    },
    {
      "type": "Feature",
      "geometry": {
        "type": "Point",
        "coordinates": [
          9.8636,
          45.6387
        ]
      },
      "properties": {
        "icao24": "45ce4d",
        "callsign": "SRR6498",
        "origin_country": "Denmark",
        "time_position": 1787280855,
        "last_contact": 1787280856,
        "baro_altitude": 853.44,
        "on_ground": false,
        "velocity": 92.22,
        "true_track": 285.2,
        "vertical_rate": -4.88,
        "geo_altitude": 899.16,
        "squawk": "2503",
        "spi": false,
        "position_source": 0
      }
    },
    {
      "type": "Feature",
      "geometry": {
        "type": "Point",
        "coordinates": [
          16.5054,
          45.8246
        ]
      },
      "properties": {
        "icao24": "4bb864",
        "callsign": "PGT15NN",
        "origin_country": "Turkey",
        "time_position": 1787280855,
        "last_contact": 1787280855,
        "baro_altitude": 10668,
        "on_ground": false,
        "velocity": 226.91,
        "true_track": 132.15,
        "vertical_rate": -0.33,
        "geo_altitude": 11231.88,
        "squawk": "7701",
        "spi": false,
        "position_source": 0
      }
    },
    {
      "type": "Feature",
      "geometry": {
        "type": "Point",
        "coordinates": [
          6.9944,
          39.408
        ]
      },
      "properties": {
        "icao24": "4cc54b",
        "callsign": "ABD2604",
        "origin_country": "Iceland",
        "time_position": 1787280855,
        "last_contact": 1787280855,
        "baro_altitude": 10972.8,
        "on_ground": false,
        "velocity": 273.77,
        "true_track": 358.6,
        "vertical_rate": 0,
        "geo_altitude": 11498.58,
        "squawk": "1000",
        "spi": false,
        "position_source": 0
      }
    },
    {
      "type": "Feature",
      "geometry": {
        "type": "Point",
        "coordinates": [
          6.2383,
          47.7988
        ]
      },
      "properties": {
        "icao24": "4cc481",
        "callsign": "ABD2615",
        "origin_country": "Iceland",
        "time_position": 1787280856,
        "last_contact": 1787280856,
        "baro_altitude": 9448.8,
        "on_ground": false,
        "velocity": 233.29,
        "true_track": 182.65,
        "vertical_rate": 0.33,
        "geo_altitude": 9753.6,
        "squawk": "0106",
        "spi": false,
        "position_source": 0
      }
    },
    {
      "type": "Feature",
      "geometry": {
        "type": "Point",
        "coordinates": [
          15.5479,
          44.1569
        ]
      },
      "properties": {
        "icao24": "06a138",
        "callsign": "QTR6T",
        "origin_country": "Qatar",
        "time_position": 1787280855,
        "last_contact": 1787280856,
        "baro_altitude": 10363.2,
        "on_ground": false,
        "velocity": 246.21,
        "true_track": 302.2,
        "vertical_rate": 0,
        "geo_altitude": 10934.7,
        "squawk": "5233",
        "spi": false,
        "position_source": 0
      }
    },
    {
      "type": "Feature",
      "geometry": {
        "type": "Point",
        "coordinates": [
          17.2584,
          44.6727
        ]
      },
      "properties": {
        "icao24": "06a146",
        "callsign": "QTR57W",
        "origin_country": "Qatar",
        "time_position": 1787280855,
        "last_contact": 1787280855,
        "baro_altitude": 11582.4,
        "on_ground": false,
        "velocity": 242.13,
        "true_track": 309.91,
        "vertical_rate": -0.33,
        "geo_altitude": 12207.24,
        "squawk": "5240",
        "spi": false,
        "position_source": 0
      }
    },
    {
      "type": "Feature",
      "geometry": {
        "type": "Point",
        "coordinates": [
          18.8226,
          43.254
        ]
      },
      "properties": {
        "icao24": "48c227",
        "callsign": "RYS7165",
        "origin_country": "Poland",
        "time_position": 1787280854,
        "last_contact": 1787280855,
        "baro_altitude": 11277.6,
        "on_ground": false,
        "velocity": 233.49,
        "true_track": 173.55,
        "vertical_rate": 0,
        "geo_altitude": 11910.06,
        "squawk": "6036",
        "spi": false,
        "position_source": 0
      }
    },
    {
      "type": "Feature",
      "geometry": {
        "type": "Point",
        "coordinates": [
          9.5277,
          43.6046
        ]
      },
      "properties": {
        "icao24": "80159f",
        "callsign": "AIC191",
        "origin_country": "India",
        "time_position": 1787280856,
        "last_contact": 1787280856,
        "baro_altitude": 9761.22,
        "on_ground": false,
        "velocity": 249.6,
        "true_track": 313.83,
        "vertical_rate": 0.33,
        "geo_altitude": 10256.52,
        "squawk": "0471",
        "spi": false,
        "position_source": 0
      }
    },
    {
      "type": "Feature",
      "geometry": {
        "type": "Point",
        "coordinates": [
          14.1,
          47.5206
        ]
      },
      "properties": {
        "icao24": "06a0ae",
        "callsign": "QTR88Y",
        "origin_country": "Qatar",
        "time_position": 1787280856,
        "last_contact": 1787280856,
        "baro_altitude": 12184.38,
        "on_ground": false,
        "velocity": 253.18,
        "true_track": 318.05,
        "vertical_rate": -0.33,
        "geo_altitude": 12679.68,
        "squawk": "1145",
        "spi": false,
        "position_source": 0
      }
    },
    {
      "type": "Feature",
      "geometry": {
        "type": "Point",
        "coordinates": [
          18.6609,
          46.6177
        ]
      },
      "properties": {
        "icao24": "4a2181",
        "callsign": "HLJ2GJ",
        "origin_country": "Romania",
        "time_position": 1787280855,
        "last_contact": 1787280856,
        "baro_altitude": 10668,
        "on_ground": false,
        "velocity": 208.35,
        "true_track": 319.51,
        "vertical_rate": 0.33,
        "geo_altitude": 11209.02,
        "squawk": "2654",
        "spi": false,
        "position_source": 0
      }
    },
    {
      "type": "Feature",
      "geometry": {
        "type": "Point",
        "coordinates": [
          8.5651,
          47.4417
        ]
      },
      "properties": {
        "icao24": "4b1805",
        "callsign": "SWR51D",
        "origin_country": "Switzerland",
        "time_position": 1787280847,
        "last_contact": 1787280855,
        "baro_altitude": 441.96,
        "on_ground": true,
        "velocity": 0,
        "true_track": 146.25,
        "vertical_rate": null,
        "geo_altitude": null,
        "squawk": "1000",
        "spi": false,
        "position_source": 0
      }
    },
    {
      "type": "Feature",
      "geometry": {
        "type": "Point",
        "coordinates": [
          18.7904,
          41.7485
        ]
      },
      "properties": {
        "icao24": "4b1807",
        "callsign": "SWR1845",
        "origin_country": "Switzerland",
        "time_position": 1787280855,
        "last_contact": 1787280855,
        "baro_altitude": 11582.4,
        "on_ground": false,
        "velocity": 228.81,
        "true_track": 315.09,
        "vertical_rate": 0,
        "geo_altitude": 12237.72,
        "squawk": "6622",
        "spi": false,
        "position_source": 0
      }
    },
    {
      "type": "Feature",
      "geometry": {
        "type": "Point",
        "coordinates": [
          8.5651,
          47.4418
        ]
      },
      "properties": {
        "icao24": "4b1802",
        "callsign": "SWR",
        "origin_country": "Switzerland",
        "time_position": 1787280791,
        "last_contact": 1787280791,
        "baro_altitude": null,
        "on_ground": true,
        "velocity": 0,
        "true_track": 143.44,
        "vertical_rate": null,
        "geo_altitude": null,
        "squawk": null,
        "spi": false,
        "position_source": 0
      }
    },
    {
      "type": "Feature",
      "geometry": {
        "type": "Point",
        "coordinates": [
          13.4442,
          45.8795
        ]
      },
      "properties": {
        "icao24": "408142",
        "callsign": "DHK528",
        "origin_country": "United Kingdom",
        "time_position": 1787280856,
        "last_contact": 1787280856,
        "baro_altitude": 10972.8,
        "on_ground": false,
        "velocity": 254.67,
        "true_track": 104.63,
        "vertical_rate": 0,
        "geo_altitude": 11475.72,
        "squawk": "0447",
        "spi": false,
        "position_source": 0
      }
    },
    {
      "type": "Feature",
      "geometry": {
        "type": "Point",
        "coordinates": [
          17.0008,
          43.0798
        ]
      },
      "properties": {
        "icao24": "4b187e",
        "callsign": "SWR155",
        "origin_country": "Switzerland",
        "time_position": 1787280854,
        "last_contact": 1787280855,
        "baro_altitude": 11582.4,
        "on_ground": false,
        "velocity": 231.82,
        "true_track": 313.29,
        "vertical_rate": 0,
        "geo_altitude": 12207.24,
        "squawk": "5526",
        "spi": false,
        "position_source": 0
      }
    },
    {
      "type": "Feature",
      "geometry": {
        "type": "Point",
        "coordinates": [
          9.7104,
          44.5406
        ]
      },
      "properties": {
        "icao24": "716ff7",
        "callsign": "SVA131",
        "origin_country": "Saudi Arabia",
        "time_position": 1787280856,
        "last_contact": 1787280856,
        "baro_altitude": 10980.42,
        "on_ground": false,
        "velocity": 225.46,
        "true_track": 307.86,
        "vertical_rate": 0.33,
        "geo_altitude": 11498.58,
        "squawk": "5515",
        "spi": false,
        "position_source": 0
      }
    },
    {
      "type": "Feature",
      "geometry": {
        "type": "Point",
        "coordinates": [
          13.2573,
          47.7283
        ]
      },
      "properties": {
        "icao24": "3c670d",
        "callsign": "DLH769",
        "origin_country": "Germany",
        "time_position": 1787280855,
        "last_contact": 1787280856,
        "baro_altitude": 6301.74,
        "on_ground": false,
        "velocity": 191.4,
        "true_track": 307.79,
        "vertical_rate": -9.1,
        "geo_altitude": 6568.44,
        "squawk": "2042",
        "spi": false,
        "position_source": 0
      }
    },
    {
      "type": "Feature",
      "geometry": {
        "type": "Point",
        "coordinates": [
          13.6273,
          44.9197
        ]
      },
      "properties": {
        "icao24": "408092",
        "callsign": "BAW64",
        "origin_country": "United Kingdom",
        "time_position": 1787280855,
        "last_contact": 1787280856,
        "baro_altitude": 11574.78,
        "on_ground": false,
        "velocity": 253.03,
        "true_track": 307.73,
        "vertical_rate": -0.65,
        "geo_altitude": 12153.9,
        "squawk": "2025",
        "spi": false,
        "position_source": 0
      }
    },
    {
      "type": "Feature",
      "geometry": {
        "type": "Point",
        "coordinates": [
          13.724,
          43.9491
        ]
      },
      "properties": {
        "icao24": "a4bf95",
        "callsign": "DAL202",
        "origin_country": "United States",
        "time_position": 1787280855,
        "last_contact": 1787280856,
        "baro_altitude": 11887.2,
        "on_ground": false,
        "velocity": 226.63,
        "true_track": 134.54,
        "vertical_rate": 0.33,
        "geo_altitude": 12496.8,
        "squawk": "0506",
        "spi": false,
        "position_source": 0
      }
    },
    {
      "type": "Feature",
      "geometry": {
        "type": "Point",
        "coordinates": [
          9.1581,
          47.5641
        ]
      },
      "properties": {
        "icao24": "3c656e",
        "callsign": "DLH595",
        "origin_country": "Germany",
        "time_position": 1787280855,
        "last_contact": 1787280855,
        "baro_altitude": 12192,
        "on_ground": false,
        "velocity": 264.82,
        "true_track": 3.12,
        "vertical_rate": 0,
        "geo_altitude": 12603.48,
        "squawk": "1000",
        "spi": false,
        "position_source": 0
      }
    },
    {
      "type": "Feature",
      "geometry": {
        "type": "Point",
        "coordinates": [
          12.881,
          36.4634
        ]
      },
      "properties": {
        "icao24": "02a1aa",
        "callsign": "DAH3031",
        "origin_country": "Tunisia",
        "time_position": 1787280855,
        "last_contact": 1787280855,
        "baro_altitude": 10980.42,
        "on_ground": false,
        "velocity": 222.5,
        "true_track": 272.78,
        "vertical_rate": -0.33,
        "geo_altitude": 11658.6,
        "squawk": "2350",
        "spi": false,
        "position_source": 0
      }
    },
    {
      "type": "Feature",
      "geometry": {
        "type": "Point",
        "coordinates": [
          12.1094,
          40.5992
        ]
      },
      "properties": {
        "icao24": "02a1b3",
        "callsign": "LBT7654",
        "origin_country": "Tunisia",
        "time_position": 1787280856,
        "last_contact": 1787280856,
        "baro_altitude": 10980.42,
        "on_ground": false,
        "velocity": 231.78,
        "true_track": 344.42,
        "vertical_rate": -0.33,
        "geo_altitude": 11597.64,
        "squawk": "6153",
        "spi": false,
        "position_source": 0
      }
    },
    {
      "type": "Feature",
      "geometry": {
        "type": "Point",
        "coordinates": [
          17.5991,
          42.6844
        ]
      },
      "properties": {
        "icao24": "4b15db",
        "callsign": "EDW76",
        "origin_country": "Switzerland",
        "time_position": 1787280854,
        "last_contact": 1787280855,
        "baro_altitude": 13106.4,
        "on_ground": false,
        "velocity": 242.67,
        "true_track": 314.06,
        "vertical_rate": 0.33,
        "geo_altitude": 13754.1,
        "squawk": "2067",
        "spi": false,
        "position_source": 0
      }
    },
    {
      "type": "Feature",
      "geometry": {
        "type": "Point",
        "coordinates": [
          13.19,
          44.4695
        ]
      },
      "properties": {
        "icao24": "39d303",
        "callsign": "TVF80ML",
        "origin_country": "France",
        "time_position": 1787280855,
        "last_contact": 1787280855,
        "baro_altitude": 11582.4,
        "on_ground": false,
        "velocity": 232.45,
        "true_track": 292.65,
        "vertical_rate": 0,
        "geo_altitude": 12153.9,
        "squawk": "5523",
        "spi": false,
        "position_source": 0
      }
    },
    {
      "type": "Feature",
      "geometry": {
        "type": "Point",
        "coordinates": [
          15.8105,
          44.8385
        ]
      },
      "properties": {
        "icao24": "39d304",
        "callsign": "TVF31LA",
        "origin_country": "France",
        "time_position": 1787280856,
        "last_contact": 1787280856,
        "baro_altitude": 11582.4,
        "on_ground": false,
        "velocity": 217.13,
        "true_track": 283.15,
        "vertical_rate": 0,
        "geo_altitude": 12169.14,
        "squawk": "3255",
        "spi": false,
        "position_source": 0
      }
    },
    {
      "type": "Feature",
      "geometry": {
        "type": "Point",
        "coordinates": [
          8.55,
          47.4463
        ]
      },
      "properties": {
        "icao24": "4b5d62",
        "callsign": "VIKTOR21",
        "origin_country": "Switzerland",
        "time_position": 1787280648,
        "last_contact": 1787280662,
        "baro_altitude": null,
        "on_ground": true,
        "velocity": 0.51,
        "true_track": 84.38,
        "vertical_rate": null,
        "geo_altitude": null,
        "squawk": null,
        "spi": false,
        "position_source": 0
      }
    },
    {
      "type": "Feature",
      "geometry": {
        "type": "Point",
        "coordinates": [
          8.5598,
          47.4566
        ]
      },
      "properties": {
        "icao24": "4b5d6f",
        "callsign": "VIKTOR33",
        "origin_country": "Switzerland",
        "time_position": 1787280855,
        "last_contact": 1787280855,
        "baro_altitude": null,
        "on_ground": true,
        "velocity": 4.37,
        "true_track": 275.62,
        "vertical_rate": null,
        "geo_altitude": null,
        "squawk": null,
        "spi": false,
        "position_source": 0
      }
    },
    {
      "type": "Feature",
      "geometry": {
        "type": "Point",
        "coordinates": [
          16.2797,
          39.2581
        ]
      },
      "properties": {
        "icao24": "4951d8",
        "callsign": "TAP901",
        "origin_country": "Portugal",
        "time_position": 1787280856,
        "last_contact": 1787280856,
        "baro_altitude": 10972.8,
        "on_ground": false,
        "velocity": 226.22,
        "true_track": 286.79,
        "vertical_rate": 0,
        "geo_altitude": 11628.12,
        "squawk": "2061",
        "spi": false,
        "position_source": 0
      }
    },
    {
      "type": "Feature",
      "geometry": {
        "type": "Point",
        "coordinates": [
          8.3711,
          44.3134
        ]
      },
      "properties": {
        "icao24": "440d91",
        "callsign": "TAY7FO",
        "origin_country": "Austria",
        "time_position": 1787280856,
        "last_contact": 1787280856,
        "baro_altitude": 12496.8,
        "on_ground": false,
        "velocity": 223.78,
        "true_track": 136.4,
        "vertical_rate": -0.33,
        "geo_altitude": 12992.1,
        "squawk": "1000",
        "spi": false,
        "position_source": 0
      }
    },
    {
      "type": "Feature",
      "geometry": {
        "type": "Point",
        "coordinates": [
          8.5556,
          47.447
        ]
      },
      "properties": {
        "icao24": "4b5c19",
        "callsign": "GUSTI1",
        "origin_country": "Switzerland",
        "time_position": 1787280855,
        "last_contact": 1787280855,
        "baro_altitude": null,
        "on_ground": true,
        "velocity": 13.89,
        "true_track": 154.69,
        "vertical_rate": null,
        "geo_altitude": null,
        "squawk": null,
        "spi": false,
        "position_source": 0
      }
    },
    {
      "type": "Feature",
      "geometry": {
        "type": "Point",
        "coordinates": [
          9.4373,
          47.758
        ]
      },
      "properties": {
        "icao24": "440bcb",
        "callsign": "BCS138",
        "origin_country": "Austria",
        "time_position": 1787280856,
        "last_contact": 1787280856,
        "baro_altitude": 10668,
        "on_ground": false,
        "velocity": 210.56,
        "true_track": 197.2,
        "vertical_rate": 0,
        "geo_altitude": 11056.62,
        "squawk": "1000",
        "spi": false,
        "position_source": 0
      }
    },
    {
      "type": "Feature",
      "geometry": {
        "type": "Point",
        "coordinates": [
          8.0276,
          46.684
        ]
      },
      "properties": {
        "icao24": "440bcf",
        "callsign": "BCS2219",
        "origin_country": "Austria",
        "time_position": 1787280855,
        "last_contact": 1787280856,
        "baro_altitude": 9197.34,
        "on_ground": false,
        "velocity": 214.23,
        "true_track": 152.39,
        "vertical_rate": -15.28,
        "geo_altitude": 9593.58,
        "squawk": "1147",
        "spi": false,
        "position_source": 0
      }
    },
    {
      "type": "Feature",
      "geometry": {
        "type": "Point",
        "coordinates": [
          8.5534,
          47.4453
        ]
      },
      "properties": {
        "icao24": "4b5c26",
        "callsign": "EUGEN5",
        "origin_country": "Switzerland",
        "time_position": 1787280855,
        "last_contact": 1787280855,
        "baro_altitude": null,
        "on_ground": true,
        "velocity": 9.77,
        "true_track": 247.5,
        "vertical_rate": null,
        "geo_altitude": null,
        "squawk": "7777",
        "spi": false,
        "position_source": 0
      }
    },
    {
      "type": "Feature",
      "geometry": {
        "type": "Point",
        "coordinates": [
          8.5586,
          47.4562
        ]
      },
      "properties": {
        "icao24": "4b5c68",
        "callsign": "URSULA4",
        "origin_country": "Switzerland",
        "time_position": 1787280837,
        "last_contact": 1787280846,
        "baro_altitude": null,
        "on_ground": true,
        "velocity": 0.06,
        "true_track": 286.88,
        "vertical_rate": null,
        "geo_altitude": null,
        "squawk": null,
        "spi": false,
        "position_source": 0
      }
    },
    {
      "type": "Feature",
      "geometry": {
        "type": "Point",
        "coordinates": [
          16.5512,
          43.6804
        ]
      },
      "properties": {
        "icao24": "70c0ee",
        "callsign": "OMA103",
        "origin_country": "Oman",
        "time_position": 1787280855,
        "last_contact": 1787280855,
        "baro_altitude": 11582.4,
        "on_ground": false,
        "velocity": 248.99,
        "true_track": 303.2,
        "vertical_rate": -0.33,
        "geo_altitude": 12214.86,
        "squawk": "2222",
        "spi": false,
        "position_source": 0
      }
    },
    {
      "type": "Feature",
      "geometry": {
        "type": "Point",
        "coordinates": [
          18.6551,
          47.3428
        ]
      },
      "properties": {
        "icao24": "3c7422",
        "callsign": "TUI7CX",
        "origin_country": "Germany",
        "time_position": 1787280855,
        "last_contact": 1787280856,
        "baro_altitude": 11277.6,
        "on_ground": false,
        "velocity": 240.51,
        "true_track": 133.7,
        "vertical_rate": 0,
        "geo_altitude": 11826.24,
        "squawk": "7613",
        "spi": false,
        "position_source": 0
      }
    },
    {
      "type": "Feature",
      "geometry": {
        "type": "Point",
        "coordinates": [
          8.5474,
          43.8372
        ]
      },
      "properties": {
        "icao24": "3e4ae2",
        "callsign": "DITOC",
        "origin_country": "Germany",
        "time_position": 1787280855,
        "last_contact": 1787280856,
        "baro_altitude": 12192,
        "on_ground": false,
        "velocity": 231.09,
        "true_track": 336.52,
        "vertical_rate": 0.33,
        "geo_altitude": 12710.16,
        "squawk": "1000",
        "spi": false,
        "position_source": 0
      }
    },
    {
      "type": "Feature",
      "geometry": {
        "type": "Point",
        "coordinates": [
          17.0952,
          46.8664
        ]
      },
      "properties": {
        "icao24": "4bcdec",
        "callsign": "SXS5TM",
        "origin_country": "Turkey",
        "time_position": 1787280855,
        "last_contact": 1787280856,
        "baro_altitude": 11277.6,
        "on_ground": false,
        "velocity": 222.59,
        "true_track": 125.78,
        "vertical_rate": 0.33,
        "geo_altitude": 11833.86,
        "squawk": "6424",
        "spi": false,
        "position_source": 0
      }
    },
    {
      "type": "Feature",
      "geometry": {
        "type": "Point",
        "coordinates": [
          18.859,
          46.7457
        ]
      },
      "properties": {
        "icao24": "4bcdea",
        "callsign": "SXS8ER",
        "origin_country": "Turkey",
        "time_position": 1787280855,
        "last_contact": 1787280856,
        "baro_altitude": 11582.4,
        "on_ground": false,
        "velocity": 229.57,
        "true_track": 340.63,
        "vertical_rate": 0,
        "geo_altitude": 12161.52,
        "squawk": "3252",
        "spi": false,
        "position_source": 0
      }
    },
    {
      "type": "Feature",
      "geometry": {
        "type": "Point",
        "coordinates": [
          15.6625,
          47.6256
        ]
      },
      "properties": {
        "icao24": "4bcdd4",
        "callsign": "SXS3BV",
        "origin_country": "Turkey",
        "time_position": 1787280855,
        "last_contact": 1787280855,
        "baro_altitude": 11277.6,
        "on_ground": false,
        "velocity": 222.89,
        "true_track": 125.89,
        "vertical_rate": 0.33,
        "geo_altitude": 11780.52,
        "squawk": "7655",
        "spi": false,
        "position_source": 0
      }
    },
    {
      "type": "Feature",
      "geometry": {
        "type": "Point",
        "coordinates": [
          17.7776,
          44.4374
        ]
      },
      "properties": {
        "icao24": "4002a4",
        "callsign": "VPCDL",
        "origin_country": "United Kingdom",
        "time_position": 1787280856,
        "last_contact": 1787280856,
        "baro_altitude": 14325.6,
        "on_ground": false,
        "velocity": 247.89,
        "true_track": 281.01,
        "vertical_rate": -0.65,
        "geo_altitude": 14973.3,
        "squawk": "5324",
        "spi": false,
        "position_source": 0
      }
    },
    {
      "type": "Feature",
      "geometry": {
        "type": "Point",
        "coordinates": [
          18.6996,
          46.6454
        ]
      },
      "properties": {
        "icao24": "4bcca9",
        "callsign": "SXS5QF",
        "origin_country": "Turkey",
        "time_position": 1787280855,
        "last_contact": 1787280855,
        "baro_altitude": 10972.8,
        "on_ground": false,
        "velocity": 215.39,
        "true_track": 288.52,
        "vertical_rate": 0,
        "geo_altitude": 11536.68,
        "squawk": "3266",
        "spi": false,
        "position_source": 0
      }
    },
    {
      "type": "Feature",
      "geometry": {
        "type": "Point",
        "coordinates": [
          16.4189,
          47.7293
        ]
      },
      "properties": {
        "icao24": "8880df",
        "callsign": "HVN37",
        "origin_country": "Viet Nam",
        "time_position": 1787280855,
        "last_contact": 1787280855,
        "baro_altitude": 12146.28,
        "on_ground": false,
        "velocity": 227,
        "true_track": 290.98,
        "vertical_rate": 4.55,
        "geo_altitude": 12672.06,
        "squawk": "1000",
        "spi": false,
        "position_source": 0
      }
    },
    {
      "type": "Feature",
      "geometry": {
        "type": "Point",
        "coordinates": [
          17.9048,
          43.3078
        ]
      },
      "properties": {
        "icao24": "49d67d",
        "callsign": "TVS7QV",
        "origin_country": "Czech Republic",
        "time_position": 1787280855,
        "last_contact": 1787280855,
        "baro_altitude": 11277.6,
        "on_ground": false,
        "velocity": 237.84,
        "true_track": 171.29,
        "vertical_rate": 0,
        "geo_altitude": 11910.06,
        "squawk": "7350",
        "spi": false,
        "position_source": 0
      }
    },
    {
      "type": "Feature",
      "geometry": {
        "type": "Point",
        "coordinates": [
          18.956,
          43.8456
        ]
      },
      "properties": {
        "icao24": "4bce0e",
        "callsign": "SXS4YR",
        "origin_country": "Turkey",
        "time_position": 1787280855,
        "last_contact": 1787280855,
        "baro_altitude": 10972.8,
        "on_ground": false,
        "velocity": 219.73,
        "true_track": 315.76,
        "vertical_rate": 0,
        "geo_altitude": 11590.02,
        "squawk": "6005",
        "spi": false,
        "position_source": 0
      }
    },
    {
      "type": "Feature",
      "geometry": {
        "type": "Point",
        "coordinates": [
          15.2852,
          46.4771
        ]
      },
      "properties": {
        "icao24": "4bce0b",
        "callsign": "SXS4UV",
        "origin_country": "Turkey",
        "time_position": 1787280855,
        "last_contact": 1787280855,
        "baro_altitude": 10972.8,
        "on_ground": false,
        "velocity": 231.34,
        "true_track": 319.51,
        "vertical_rate": 0,
        "geo_altitude": 11513.82,
        "squawk": "3257",
        "spi": false,
        "position_source": 0
      }
    },
    {
      "type": "Feature",
      "geometry": {
        "type": "Point",
        "coordinates": [
          7.5242,
          47.6073
        ]
      },
      "properties": {
        "icao24": "389dff",
        "callsign": "COBRA02",
        "origin_country": "France",
        "time_position": 1787280750,
        "last_contact": 1787280750,
        "baro_altitude": null,
        "on_ground": true,
        "velocity": 4.37,
        "true_track": 146.25,
        "vertical_rate": null,
        "geo_altitude": null,
        "squawk": null,
        "spi": false,
        "position_source": 0
      }
    },
    {
      "type": "Feature",
      "geometry": {
        "type": "Point",
        "coordinates": [
          17.1601,
          35.4696
        ]
      },
      "properties": {
        "icao24": "8966ce",
        "callsign": "ETD14P",
        "origin_country": "United Arab Emirates",
        "time_position": 1787280855,
        "last_contact": 1787280856,
        "baro_altitude": 10972.8,
        "on_ground": false,
        "velocity": 254,
        "true_track": 278.74,
        "vertical_rate": 0,
        "geo_altitude": 11620.5,
        "squawk": null,
        "spi": false,
        "position_source": 0
      }
    },
    {
      "type": "Feature",
      "geometry": {
        "type": "Point",
        "coordinates": [
          18.9441,
          42.4131
        ]
      },
      "properties": {
        "icao24": "01024f",
        "callsign": "MSC2913",
        "origin_country": "Egypt",
        "time_position": 1787280849,
        "last_contact": 1787280849,
        "baro_altitude": 11269.98,
        "on_ground": false,
        "velocity": 230.1,
        "true_track": 141.08,
        "vertical_rate": -0.33,
        "geo_altitude": 11932.92,
        "squawk": "2563",
        "spi": false,
        "position_source": 0
      }
    },
    {
      "type": "Feature",
      "geometry": {
        "type": "Point",
        "coordinates": [
          16.9318,
          41.6643
        ]
      },
      "properties": {
        "icao24": "01023a",
        "callsign": "MSC2910",
        "origin_country": "Egypt",
        "time_position": 1787280855,
        "last_contact": 1787280855,
        "baro_altitude": 10972.8,
        "on_ground": false,
        "velocity": 222.99,
        "true_track": 315.09,
        "vertical_rate": 0,
        "geo_altitude": 11628.12,
        "squawk": null,
        "spi": false,
        "position_source": 0
      }
    },
    {
      "type": "Feature",
      "geometry": {
        "type": "Point",
        "coordinates": [
          17.0643,
          45.1434
        ]
      },
      "properties": {
        "icao24": "010263",
        "callsign": "MSC2935",
        "origin_country": "Egypt",
        "time_position": 1787280855,
        "last_contact": 1787280855,
        "baro_altitude": 11269.98,
        "on_ground": false,
        "velocity": 235.72,
        "true_track": 146.93,
        "vertical_rate": 0.33,
        "geo_altitude": 11879.58,
        "squawk": "1135",
        "spi": false,
        "position_source": 0
      }
    },
    {
      "type": "Feature",
      "geometry": {
        "type": "Point",
        "coordinates": [
          15.8892,
          46.3868
        ]
      },
      "properties": {
        "icao24": "010265",
        "callsign": "MSC2933",
        "origin_country": "Egypt",
        "time_position": 1787280855,
        "last_contact": 1787280855,
        "baro_altitude": 11285.22,
        "on_ground": false,
        "velocity": 228.43,
        "true_track": 146.2,
        "vertical_rate": 0,
        "geo_altitude": 11856.72,
        "squawk": "1127",
        "spi": false,
        "position_source": 0
      }
    },
    {
      "type": "Feature",
      "geometry": {
        "type": "Point",
        "coordinates": [
          9.0189,
          45.9599
        ]
      },
      "properties": {
        "icao24": "39a208",
        "callsign": "FPO6LQ",
        "origin_country": "France",
        "time_position": 1787280855,
        "last_contact": 1787280855,
        "baro_altitude": 10058.4,
        "on_ground": false,
        "velocity": 226.82,
        "true_track": 141.91,
        "vertical_rate": 0,
        "geo_altitude": 10500.36,
        "squawk": "1000",
        "spi": false,
        "position_source": 0
      }
    },
    {
      "type": "Feature",
      "geometry": {
        "type": "Point",
        "coordinates": [
          9.6848,
          46.621
        ]
      },
      "properties": {
        "icao24": "39a202",
        "callsign": "FPO3JU",
        "origin_country": "France",
        "time_position": 1787280855,
        "last_contact": 1787280856,
        "baro_altitude": 10637.52,
        "on_ground": false,
        "velocity": 230.28,
        "true_track": 129.38,
        "vertical_rate": -5.2,
        "geo_altitude": 11064.24,
        "squawk": "1000",
        "spi": false,
        "position_source": 0
      }
    },
    {
      "type": "Feature",
      "geometry": {
        "type": "Point",
        "coordinates": [
          13.0141,
          45.2534
        ]
      },
      "properties": {
        "icao24": "40749a",
        "callsign": "BAW16",
        "origin_country": "United Kingdom",
        "time_position": 1787280856,
        "last_contact": 1787280856,
        "baro_altitude": 12184.38,
        "on_ground": false,
        "velocity": 256.38,
        "true_track": 308.32,
        "vertical_rate": -0.33,
        "geo_altitude": 12717.78,
        "squawk": "5525",
        "spi": false,
        "position_source": 0
      }
    },
    {
      "type": "Feature",
      "geometry": {
        "type": "Point",
        "coordinates": [
          8.4189,
          46.2098
        ]
      },
      "properties": {
        "icao24": "a071ec",
        "callsign": "FDX5168",
        "origin_country": "United States",
        "time_position": 1787280855,
        "last_contact": 1787280855,
        "baro_altitude": 6758.94,
        "on_ground": false,
        "velocity": 200.03,
        "true_track": 151.59,
        "vertical_rate": -4.88,
        "geo_altitude": 7040.88,
        "squawk": "1000",
        "spi": false,
        "position_source": 0
      }
    },
    {
      "type": "Feature",
      "geometry": {
        "type": "Point",
        "coordinates": [
          6.0018,
          46.6927
        ]
      },
      "properties": {
        "icao24": "347301",
        "callsign": "BCS1730",
        "origin_country": "Spain",
        "time_position": 1787280855,
        "last_contact": 1787280855,
        "baro_altitude": 7559.04,
        "on_ground": false,
        "velocity": 215.33,
        "true_track": 220.35,
        "vertical_rate": -7.15,
        "geo_altitude": 7840.98,
        "squawk": "1000",
        "spi": false,
        "position_source": 0
      }
    },
    {
      "type": "Feature",
      "geometry": {
        "type": "Point",
        "coordinates": [
          8.9627,
          38.6029
        ]
      },
      "properties": {
        "icao24": "4cae19",
        "callsign": "ITY853",
        "origin_country": "Ireland",
        "time_position": 1787280855,
        "last_contact": 1787280856,
        "baro_altitude": 10972.8,
        "on_ground": false,
        "velocity": 258.6,
        "true_track": 39.83,
        "vertical_rate": 0,
        "geo_altitude": 11605.26,
        "squawk": null,
        "spi": false,
        "position_source": 0
      }
    },
    {
      "type": "Feature",
      "geometry": {
        "type": "Point",
        "coordinates": [
          16.3943,
          44.6753
        ]
      },
      "properties": {
        "icao24": "4d232c",
        "callsign": "CXI6GB",
        "origin_country": "Malta",
        "time_position": 1787280854,
        "last_contact": 1787280855,
        "baro_altitude": 11277.6,
        "on_ground": false,
        "velocity": 229.17,
        "true_track": 139.55,
        "vertical_rate": 0.33,
        "geo_altitude": 11864.34,
        "squawk": "1332",
        "spi": false,
        "position_source": 0
      }
    },
    {
      "type": "Feature",
      "geometry": {
        "type": "Point",
        "coordinates": [
          16.7458,
          43.6729
        ]
      },
      "properties": {
        "icao24": "4d229d",
        "callsign": "CXI2D",
        "origin_country": "Malta",
        "time_position": 1787280856,
        "last_contact": 1787280856,
        "baro_altitude": 11277.6,
        "on_ground": false,
        "velocity": 240.1,
        "true_track": 134.31,
        "vertical_rate": 0,
        "geo_altitude": 11887.2,
        "squawk": "0516",
        "spi": false,
        "position_source": 0
      }
    },
    {
      "type": "Feature",
      "geometry": {
        "type": "Point",
        "coordinates": [
          16.6674,
          43.6471
        ]
      },
      "properties": {
        "icao24": "4c01f5",
        "callsign": "ASL9037",
        "origin_country": "Serbia",
        "time_position": 1787280854,
        "last_contact": 1787280855,
        "baro_altitude": 10668,
        "on_ground": false,
        "velocity": 235.85,
        "true_track": 60.75,
        "vertical_rate": 0,
        "geo_altitude": 11269.98,
        "squawk": "1211",
        "spi": false,
        "position_source": 0
      }
    },
    {
      "type": "Feature",
      "geometry": {
        "type": "Point",
        "coordinates": [
          13.9086,
          47.5452
        ]
      },
      "properties": {
        "icao24": "4d21b1",
        "callsign": "FHM5361",
        "origin_country": "Malta",
        "time_position": 1787280855,
        "last_contact": 1787280855,
        "baro_altitude": 11277.6,
        "on_ground": false,
        "velocity": 217.12,
        "true_track": 127.68,
        "vertical_rate": 0,
        "geo_altitude": 11765.28,
        "squawk": "6420",
        "spi": false,
        "position_source": 0
      }
    },
    {
      "type": "Feature",
      "geometry": {
        "type": "Point",
        "coordinates": [
          9.7878,
          41.0341
        ]
      },
      "properties": {
        "icao24": "4d227c",
        "callsign": "RYR7406",
        "origin_country": "Malta",
        "time_position": 1787280856,
        "last_contact": 1787280856,
        "baro_altitude": 11887.2,
        "on_ground": false,
        "velocity": 209.41,
        "true_track": 246.39,
        "vertical_rate": 0,
        "geo_altitude": 12481.56,
        "squawk": null,
        "spi": false,
        "position_source": 0
      }
    },
    {
      "type": "Feature",
      "geometry": {
        "type": "Point",
        "coordinates": [
          17.5261,
          42.0453
        ]
      },
      "properties": {
        "icao24": "39c428",
        "callsign": "AFR551",
        "origin_country": "France",
        "time_position": 1787280856,
        "last_contact": 1787280856,
        "baro_altitude": 11574.78,
        "on_ground": false,
        "velocity": 249.77,
        "true_track": 309.99,
        "vertical_rate": -0.33,
        "geo_altitude": 12237.72,
        "squawk": "2074",
        "spi": false,
        "position_source": 0
      }
    },
    {
      "type": "Feature",
      "geometry": {
        "type": "Point",
        "coordinates": [
          13.9358,
          47.5203
        ]
      },
      "properties": {
        "icao24": "01013d",
        "callsign": "MSR995",
        "origin_country": "Egypt",
        "time_position": 1787280856,
        "last_contact": 1787280856,
        "baro_altitude": 9753.6,
        "on_ground": false,
        "velocity": 246.19,
        "true_track": 319.15,
        "vertical_rate": 0,
        "geo_altitude": 10203.18,
        "squawk": "2056",
        "spi": false,
        "position_source": 0
      }
    },
    {
      "type": "Feature",
      "geometry": {
        "type": "Point",
        "coordinates": [
          16.6333,
          46.3194
        ]
      },
      "properties": {
        "icao24": "4d2153",
        "callsign": "CXI1P",
        "origin_country": "Malta",
        "time_position": 1787280855,
        "last_contact": 1787280856,
        "baro_altitude": 11277.6,
        "on_ground": false,
        "velocity": 220.41,
        "true_track": 139.54,
        "vertical_rate": 0.33,
        "geo_altitude": 11841.48,
        "squawk": "2652",
        "spi": false,
        "position_source": 0
      }
    },
    {
      "type": "Feature",
      "geometry": {
        "type": "Point",
        "coordinates": [
          9.9968,
          44.5207
        ]
      },
      "properties": {
        "icao24": "39e5c4",
        "callsign": "CRL911",
        "origin_country": "France",
        "time_position": 1787280855,
        "last_contact": 1787280856,
        "baro_altitude": 11582.4,
        "on_ground": false,
        "velocity": 230.9,
        "true_track": 310.75,
        "vertical_rate": -0.33,
        "geo_altitude": 12100.56,
        "squawk": "2034",
        "spi": false,
        "position_source": 0
      }
    },
    {
      "type": "Feature",
      "geometry": {
        "type": "Point",
        "coordinates": [
          15.9365,
          39.9858
        ]
      },
      "properties": {
        "icao24": "4d208e",
        "callsign": "WMT6191",
        "origin_country": "Malta",
        "time_position": 1787280856,
        "last_contact": 1787280856,
        "baro_altitude": 11277.6,
        "on_ground": false,
        "velocity": 232.48,
        "true_track": 120.59,
        "vertical_rate": 0,
        "geo_altitude": 11955.78,
        "squawk": null,
        "spi": false,
        "position_source": 0
      }
    },
    {
      "type": "Feature",
      "geometry": {
        "type": "Point",
        "coordinates": [
          17.8485,
          45.716
        ]
      },
      "properties": {
        "icao24": "4b191a",
        "callsign": "SWR139",
        "origin_country": "Switzerland",
        "time_position": 1787280855,
        "last_contact": 1787280855,
        "baro_altitude": 10363.2,
        "on_ground": false,
        "velocity": 234.01,
        "true_track": 287,
        "vertical_rate": 0,
        "geo_altitude": 10934.7,
        "squawk": "3204",
        "spi": false,
        "position_source": 0
      }
    },
    {
      "type": "Feature",
      "geometry": {
        "type": "Point",
        "coordinates": [
          6.4552,
          46.3968
        ]
      },
      "properties": {
        "icao24": "4d2014",
        "callsign": "EWG53L",
        "origin_country": "Malta",
        "time_position": 1787280856,
        "last_contact": 1787280856,
        "baro_altitude": 11269.98,
        "on_ground": false,
        "velocity": 205.43,
        "true_track": 276.18,
        "vertical_rate": 0,
        "geo_altitude": 11673.84,
        "squawk": "6673",
        "spi": false,
        "position_source": 0
      }
    },
    {
      "type": "Feature",
      "geometry": {
        "type": "Point",
        "coordinates": [
          7.0294,
          39.2237
        ]
      },
      "properties": {
        "icao24": "4b1903",
        "callsign": "SWR283",
        "origin_country": "Switzerland",
        "time_position": 1787280855,
        "last_contact": 1787280856,
        "baro_altitude": 11582.4,
        "on_ground": false,
        "velocity": 254.3,
        "true_track": 357.91,
        "vertical_rate": 0,
        "geo_altitude": 12138.66,
        "squawk": "4254",
        "spi": false,
        "position_source": 0
      }
    }
  ]
}