{
  "type": "FeatureCollection",
  "source": "opensky",
  "dataset": "aircraft_italy",
  "generated_at": "2026-08-21T23:54:48.770747+00:00",
  "opensky_time": 1787356485,
  "count": 157,
  "features": [
    {
      "type": "Feature",
      "geometry": {
        "type": "Point",
        "coordinates": [
          17.8179,
          42.8516
        ]
      },
      "properties": {
        "icao24": "471f9f",
        "callsign": "WMT286",
        "origin_country": "Hungary",
        "time_position": 1787356482,
        "last_contact": 1787356483,
        "baro_altitude": 10058.4,
        "on_ground": false,
        "velocity": 232.67,
        "true_track": 128.9,
        "vertical_rate": 0,
        "geo_altitude": 10622.28,
        "squawk": "7706",
        "spi": false,
        "position_source": 0
      }
    },
    {
      "type": "Feature",
      "geometry": {
        "type": "Point",
        "coordinates": [
          7.4229,
          39.6286
        ]
      },
      "properties": {
        "icao24": "4520a1",
        "callsign": "AIZ261",
        "origin_country": "Bulgaria",
        "time_position": 1787356485,
        "last_contact": 1787356485,
        "baro_altitude": 12192,
        "on_ground": false,
        "velocity": 222.24,
        "true_track": 269.73,
        "vertical_rate": 0,
        "geo_altitude": 12824.46,
        "squawk": "2227",
        "spi": false,
        "position_source": 0
      }
    },
    {
      "type": "Feature",
      "geometry": {
        "type": "Point",
        "coordinates": [
          18.1491,
          41.6087
        ]
      },
      "properties": {
        "icao24": "505ceb",
        "callsign": "TOM2YE",
        "origin_country": "Slovakia",
        "time_position": 1787356453,
        "last_contact": 1787356460,
        "baro_altitude": 10363.2,
        "on_ground": false,
        "velocity": 228.54,
        "true_track": 316.64,
        "vertical_rate": -0.33,
        "geo_altitude": 10927.08,
        "squawk": null,
        "spi": false,
        "position_source": 0
      }
    },
    {
      "type": "Feature",
      "geometry": {
        "type": "Point",
        "coordinates": [
          8.671,
          44.9021
        ]
      },
      "properties": {
        "icao24": "440389",
        "callsign": "EJU3608",
        "origin_country": "Austria",
        "time_position": 1787356485,
        "last_contact": 1787356485,
        "baro_altitude": 4267.2,
        "on_ground": false,
        "velocity": 173.98,
        "true_track": 329.04,
        "vertical_rate": -14.63,
        "geo_altitude": 4442.46,
        "squawk": "1000",
        "spi": false,
        "position_source": 0
      }
    },
    {
      "type": "Feature",
      "geometry": {
        "type": "Point",
        "coordinates": [
          7.5916,
          43.7146
        ]
      },
      "properties": {
        "icao24": "4401e9",
        "callsign": "EJU72TV",
        "origin_country": "Austria",
        "time_position": 1787356485,
        "last_contact": 1787356485,
        "baro_altitude": 9418.32,
        "on_ground": false,
        "velocity": 259.13,
        "true_track": 46.77,
        "vertical_rate": -5.2,
        "geo_altitude": 9898.38,
        "squawk": "1000",
        "spi": false,
        "position_source": 0
      }
    },
    {
      "type": "Feature",
      "geometry": {
        "type": "Point",
        "coordinates": [
          11.5725,
          45.2537
        ]
      },
      "properties": {
        "icao24": "4521bd",
        "callsign": "EGT453",
        "origin_country": "Bulgaria",
        "time_position": 1787356484,
        "last_contact": 1787356485,
        "baro_altitude": 7002.78,
        "on_ground": false,
        "velocity": 178.81,
        "true_track": 103.48,
        "vertical_rate": 10.08,
        "geo_altitude": 7338.06,
        "squawk": "0272",
        "spi": false,
        "position_source": 0
      }
    },
    {
      "type": "Feature",
      "geometry": {
        "type": "Point",
        "coordinates": [
          12.2165,
          41.6208
        ]
      },
      "properties": {
        "icao24": "801859",
        "callsign": "AIC188",
        "origin_country": "India",
        "time_position": 1787356485,
        "last_contact": 1787356485,
        "baro_altitude": 11269.98,
        "on_ground": false,
        "velocity": 264.74,
        "true_track": 118.56,
        "vertical_rate": 0,
        "geo_altitude": 11879.58,
        "squawk": "2216",
        "spi": false,
        "position_source": 0
      }
    },
    {
      "type": "Feature",
      "geometry": {
        "type": "Point",
        "coordinates": [
          14.2222,
          45.593
        ]
      },
      "properties": {
        "icao24": "471d69",
        "callsign": "WZZ6579",
        "origin_country": "Hungary",
        "time_position": 1787356485,
        "last_contact": 1787356485,
        "baro_altitude": 10668,
        "on_ground": false,
        "velocity": 260.82,
        "true_track": 90,
        "vertical_rate": 0.33,
        "geo_altitude": 11140.44,
        "squawk": "0471",
        "spi": false,
        "position_source": 0
      }
    },
    {
      "type": "Feature",
      "geometry": {
        "type": "Point",
        "coordinates": [
          13.0887,
          47.02
        ]
      },
      "properties": {
        "icao24": "406900",
        "callsign": "EXS7KE",
        "origin_country": "United Kingdom",
        "time_position": 1787356485,
        "last_contact": 1787356485,
        "baro_altitude": 11590.02,
        "on_ground": false,
        "velocity": 221.54,
        "true_track": 307.64,
        "vertical_rate": 0,
        "geo_altitude": 12001.5,
        "squawk": "5320",
        "spi": false,
        "position_source": 0
      }
    },
    {
      "type": "Feature",
      "geometry": {
        "type": "Point",
        "coordinates": [
          7.8843,
          42.9576
        ]
      },
      "properties": {
        "icao24": "39dd49",
        "callsign": "CCM49LK",
        "origin_country": "France",
        "time_position": 1787356485,
        "last_contact": 1787356485,
        "baro_altitude": 6614.16,
        "on_ground": false,
        "velocity": 268.13,
        "true_track": 107.53,
        "vertical_rate": -1.3,
        "geo_altitude": 6979.92,
        "squawk": "1000",
        "spi": false,
        "position_source": 0
      }
    },
    {
      "type": "Feature",
      "geometry": {
        "type": "Point",
        "coordinates": [
          8.7214,
          41.8721
        ]
      },
      "properties": {
        "icao24": "39dd45",
        "callsign": "CCM55FH",
        "origin_country": "France",
        "time_position": 1787356478,
        "last_contact": 1787356478,
        "baro_altitude": 419.1,
        "on_ground": false,
        "velocity": 81.93,
        "true_track": 97.21,
        "vertical_rate": -3.58,
        "geo_altitude": 495.3,
        "squawk": "1000",
        "spi": false,
        "position_source": 0
      }
    },
    {
      "type": "Feature",
      "geometry": {
        "type": "Point",
        "coordinates": [
          18.7355,
          39.2484
        ]
      },
      "properties": {
        "icao24": "452165",
        "callsign": "DAH3014",
        "origin_country": "Bulgaria",
        "time_position": 1787356483,
        "last_contact": 1787356485,
        "baro_altitude": 10668,
        "on_ground": false,
        "velocity": 233.41,
        "true_track": 77.53,
        "vertical_rate": 0,
        "geo_altitude": 11262.36,
        "squawk": "1237",
        "spi": false,
        "position_source": 0
      }
    },
    {
      "type": "Feature",
      "geometry": {
        "type": "Point",
        "coordinates": [
          11.9235,
          45.3673
        ]
      },
      "properties": {
        "icao24": "440195",
        "callsign": "EJU68VV",
        "origin_country": "Austria",
        "time_position": 1787356485,
        "last_contact": 1787356485,
        "baro_altitude": 10363.2,
        "on_ground": false,
        "velocity": 195.43,
        "true_track": 280.93,
        "vertical_rate": -0.33,
        "geo_altitude": 10820.4,
        "squawk": "2014",
        "spi": false,
        "position_source": 0
      }
    },
    {
      "type": "Feature",
      "geometry": {
        "type": "Point",
        "coordinates": [
          13.8138,
          41.8002
        ]
      },
      "properties": {
        "icao24": "471dad",
        "callsign": "WMT4RQ",
        "origin_country": "Hungary",
        "time_position": 1787356485,
        "last_contact": 1787356485,
        "baro_altitude": 10972.8,
        "on_ground": false,
        "velocity": 245.8,
        "true_track": 77.8,
        "vertical_rate": 0,
        "geo_altitude": 11567.16,
        "squawk": "1265",
        "spi": false,
        "position_source": 0
      }
    },
    {
      "type": "Feature",
      "geometry": {
        "type": "Point",
        "coordinates": [
          17.089,
          47.4462
        ]
      },
      "properties": {
        "icao24": "4bb2a3",
        "callsign": "TKJ3MQ",
        "origin_country": "Turkey",
        "time_position": 1787356485,
        "last_contact": 1787356485,
        "baro_altitude": 10050.78,
        "on_ground": false,
        "velocity": 248.11,
        "true_track": 118.21,
        "vertical_rate": 0,
        "geo_altitude": 10492.74,
        "squawk": "1154",
        "spi": false,
        "position_source": 0
      }
    },
    {
      "type": "Feature",
      "geometry": {
        "type": "Point",
        "coordinates": [
          11.8477,
          39.8685
        ]
      },
      "properties": {
        "icao24": "4bb264",
        "callsign": "THY5LY",
        "origin_country": "Turkey",
        "time_position": 1787356485,
        "last_contact": 1787356485,
        "baro_altitude": 10668,
        "on_ground": false,
        "velocity": 235.8,
        "true_track": 82.1,
        "vertical_rate": 0,
        "geo_altitude": 11277.6,
        "squawk": "1221",
        "spi": false,
        "position_source": 0
      }
    },
    {
      "type": "Feature",
      "geometry": {
        "type": "Point",
        "coordinates": [
          16.2011,
          38.7533
        ]
      },
      "properties": {
        "icao24": "4bb26d",
        "callsign": "THY658",
        "origin_country": "Turkey",
        "time_position": 1787356485,
        "last_contact": 1787356485,
        "baro_altitude": 10050.78,
        "on_ground": false,
        "velocity": 247.94,
        "true_track": 75.21,
        "vertical_rate": 0,
        "geo_altitude": 10637.52,
        "squawk": "6165",
        "spi": false,
        "position_source": 0
      }
    },
    {
      "type": "Feature",
      "geometry": {
        "type": "Point",
        "coordinates": [
          12.4132,
          47.2011
        ]
      },
      "properties": {
        "icao24": "896311",
        "callsign": "UAE59T",
        "origin_country": "United Arab Emirates",
        "time_position": 1787356484,
        "last_contact": 1787356485,
        "baro_altitude": 10058.4,
        "on_ground": false,
        "velocity": 289.79,
        "true_track": 124,
        "vertical_rate": 0,
        "geo_altitude": 10370.82,
        "squawk": "7502",
        "spi": false,
        "position_source": 0
      }
    },
    {
      "type": "Feature",
      "geometry": {
        "type": "Point",
        "coordinates": [
          6.5716,
          47.6886
        ]
      },
      "properties": {
        "icao24": "4bb144",
        "callsign": "THY4",
        "origin_country": "Turkey",
        "time_position": 1787356485,
        "last_contact": 1787356485,
        "baro_altitude": 10668,
        "on_ground": false,
        "velocity": 299.37,
        "true_track": 109.37,
        "vertical_rate": 0,
        "geo_altitude": 10919.46,
        "squawk": "1145",
        "spi": false,
        "position_source": 0
      }
    },
    {
      "type": "Feature",
      "geometry": {
        "type": "Point",
        "coordinates": [
          17.1465,
          45.856
        ]
      },
      "properties": {
        "icao24": "4bb193",
        "callsign": "THY4RN",
        "origin_country": "Turkey",
        "time_position": 1787356484,
        "last_contact": 1787356485,
        "baro_altitude": 11887.2,
        "on_ground": false,
        "velocity": 256.39,
        "true_track": 121.04,
        "vertical_rate": -0.33,
        "geo_altitude": 12397.74,
        "squawk": "5205",
        "spi": false,
        "position_source": 0
      }
    },
    {
      "type": "Feature",
      "geometry": {
        "type": "Point",
        "coordinates": [
          9.972,
          44.8256
        ]
      },
      "properties": {
        "icao24": "4bb18e",
        "callsign": "THY41J",
        "origin_country": "Turkey",
        "time_position": 1787356485,
        "last_contact": 1787356485,
        "baro_altitude": 11879.58,
        "on_ground": false,
        "velocity": 280.25,
        "true_track": 96.75,
        "vertical_rate": -0.33,
        "geo_altitude": 12336.78,
        "squawk": "0463",
        "spi": false,
        "position_source": 0
      }
    },
    {
      "type": "Feature",
      "geometry": {
        "type": "Point",
        "coordinates": [
          6.3262,
          46.1988
        ]
      },
      "properties": {
        "icao24": "020092",
        "callsign": "RAM220M",
        "origin_country": "Morocco",
        "time_position": 1787356485,
        "last_contact": 1787356485,
        "baro_altitude": 10226.04,
        "on_ground": false,
        "velocity": 256.53,
        "true_track": 43.62,
        "vertical_rate": -5.2,
        "geo_altitude": 10576.56,
        "squawk": "2332",
        "spi": false,
        "position_source": 0
      }
    },
    {
      "type": "Feature",
      "geometry": {
        "type": "Point",
        "coordinates": [
          15.6046,
          46.2876
        ]
      },
      "properties": {
        "icao24": "896459",
        "callsign": "UAE28Y",
        "origin_country": "United Arab Emirates",
        "time_position": 1787356485,
        "last_contact": 1787356485,
        "baro_altitude": 10058.4,
        "on_ground": false,
        "velocity": 281.65,
        "true_track": 121.86,
        "vertical_rate": 0,
        "geo_altitude": 10492.74,
        "squawk": "1166",
        "spi": false,
        "position_source": 0
      }
    },
    {
      "type": "Feature",
      "geometry": {
        "type": "Point",
        "coordinates": [
          15.5958,
          46.5611
        ]
      },
      "properties": {
        "icao24": "4bb02b",
        "callsign": "TKJ9CT",
        "origin_country": "Turkey",
        "time_position": 1787356485,
        "last_contact": 1787356485,
        "baro_altitude": 11277.6,
        "on_ground": false,
        "velocity": 221.67,
        "true_track": 133.03,
        "vertical_rate": 0,
        "geo_altitude": 11742.42,
        "squawk": "1156",
        "spi": false,
        "position_source": 0
      }
    },
    {
      "type": "Feature",
      "geometry": {
        "type": "Point",
        "coordinates": [
          14.9575,
          46.8699
        ]
      },
      "properties": {
        "icao24": "4077bb",
        "callsign": "EXS78FG",
        "origin_country": "United Kingdom",
        "time_position": 1787356485,
        "last_contact": 1787356485,
        "baro_altitude": 10972.8,
        "on_ground": false,
        "velocity": 215.91,
        "true_track": 312.59,
        "vertical_rate": 0,
        "geo_altitude": 11414.76,
        "squawk": "2047",
        "spi": false,
        "position_source": 0
      }
    },
    {
      "type": "Feature",
      "geometry": {
        "type": "Point",
        "coordinates": [
          18.3226,
          41.0557
        ]
      },
      "properties": {
        "icao24": "a69177",
        "callsign": "EJM522",
        "origin_country": "United States",
        "time_position": 1787356483,
        "last_contact": 1787356485,
        "baro_altitude": 13716,
        "on_ground": false,
        "velocity": 259.64,
        "true_track": 288.72,
        "vertical_rate": -0.33,
        "geo_altitude": 14371.32,
        "squawk": "3210",
        "spi": false,
        "position_source": 0
      }
    },
    {
      "type": "Feature",
      "geometry": {
        "type": "Point",
        "coordinates": [
          13.2031,
          41.1595
        ]
      },
      "properties": {
        "icao24": "3009bc",
        "callsign": "ARES44",
        "origin_country": "Italy",
        "time_position": 1787356484,
        "last_contact": 1787356485,
        "baro_altitude": 464.82,
        "on_ground": false,
        "velocity": 66.04,
        "true_track": 154.63,
        "vertical_rate": -0.33,
        "geo_altitude": 541.02,
        "squawk": null,
        "spi": false,
        "position_source": 0
      }
    },
    {
      "type": "Feature",
      "geometry": {
        "type": "Point",
        "coordinates": [
          15.9958,
          46.7133
        ]
      },
      "properties": {
        "icao24": "4b9910",
        "callsign": "FHY1204",
        "origin_country": "Turkey",
        "time_position": 1787356485,
        "last_contact": 1787356485,
        "baro_altitude": 10675.62,
        "on_ground": false,
        "velocity": 232.19,
        "true_track": 139.85,
        "vertical_rate": 0,
        "geo_altitude": 11140.44,
        "squawk": "4516",
        "spi": false,
        "position_source": 0
      }
    },
    {
      "type": "Feature",
      "geometry": {
        "type": "Point",
        "coordinates": [
          17.0969,
          45.5509
        ]
      },
      "properties": {
        "icao24": "4b990b",
        "callsign": "FHY1362",
        "origin_country": "Turkey",
        "time_position": 1787356485,
        "last_contact": 1787356485,
        "baro_altitude": 10668,
        "on_ground": false,
        "velocity": 230.42,
        "true_track": 132.92,
        "vertical_rate": 0.33,
        "geo_altitude": 11170.92,
        "squawk": "7663",
        "spi": false,
        "position_source": 0
      }
    },
    {
      "type": "Feature",
      "geometry": {
        "type": "Point",
        "coordinates": [
          17.4546,
          47.1841
        ]
      },
      "properties": {
        "icao24": "4076ed",
        "callsign": "EXS24Y",
        "origin_country": "United Kingdom",
        "time_position": 1787356485,
        "last_contact": 1787356485,
        "baro_altitude": 10972.8,
        "on_ground": false,
        "velocity": 230.66,
        "true_track": 318.35,
        "vertical_rate": 0.33,
        "geo_altitude": 11445.24,
        "squawk": "6003",
        "spi": false,
        "position_source": 0
      }
    },
    {
      "type": "Feature",
      "geometry": {
        "type": "Point",
        "coordinates": [
          18.9521,
          43.9411
        ]
      },
      "properties": {
        "icao24": "4076da",
        "callsign": "EXS86FT",
        "origin_country": "United Kingdom",
        "time_position": 1787356485,
        "last_contact": 1787356485,
        "baro_altitude": 10972.8,
        "on_ground": false,
        "velocity": 229.75,
        "true_track": 317.45,
        "vertical_rate": 0.33,
        "geo_altitude": 11536.68,
        "squawk": "5365",
        "spi": false,
        "position_source": 0
      }
    },
    {
      "type": "Feature",
      "geometry": {
        "type": "Point",
        "coordinates": [
          6.2663,
          44.8502
        ]
      },
      "properties": {
        "icao24": "407914",
        "callsign": "EXS85BH",
        "origin_country": "United Kingdom",
        "time_position": 1787356485,
        "last_contact": 1787356485,
        "baro_altitude": 10972.8,
        "on_ground": false,
        "velocity": 214.33,
        "true_track": 327.15,
        "vertical_rate": 0,
        "geo_altitude": 11460.48,
        "squawk": "4003",
        "spi": false,
        "position_source": 0
      }
    },
    {
      "type": "Feature",
      "geometry": {
        "type": "Point",
        "coordinates": [
          14.6743,
          39.7704
        ]
      },
      "properties": {
        "icao24": "040124",
        "callsign": "ETH575",
        "origin_country": "Ethiopia",
        "time_position": 1787356485,
        "last_contact": 1787356485,
        "baro_altitude": 11887.2,
        "on_ground": false,
        "velocity": 258.31,
        "true_track": 128.13,
        "vertical_rate": -0.33,
        "geo_altitude": 12504.42,
        "squawk": "1150",
        "spi": false,
        "position_source": 0
      }
    },
    {
      "type": "Feature",
      "geometry": {
        "type": "Point",
        "coordinates": [
          9.6455,
          45.0343
        ]
      },
      "properties": {
        "icao24": "4ca56a",
        "callsign": "RYR1YJ",
        "origin_country": "Ireland",
        "time_position": 1787356485,
        "last_contact": 1787356485,
        "baro_altitude": 4777.74,
        "on_ground": false,
        "velocity": 191.92,
        "true_track": 32.97,
        "vertical_rate": -8.78,
        "geo_altitude": 4975.86,
        "squawk": "1000",
        "spi": false,
        "position_source": 0
      }
    },
    {
      "type": "Feature",
      "geometry": {
        "type": "Point",
        "coordinates": [
          16.7373,
          38.4821
        ]
      },
      "properties": {
        "icao24": "04004a",
        "callsign": "ETH519",
        "origin_country": "Ethiopia",
        "time_position": 1787356485,
        "last_contact": 1787356485,
        "baro_altitude": 11887.2,
        "on_ground": false,
        "velocity": 252.22,
        "true_track": 129.37,
        "vertical_rate": 0,
        "geo_altitude": 12519.66,
        "squawk": "2204",
        "spi": false,
        "position_source": 0
      }
    },
    {
      "type": "Feature",
      "geometry": {
        "type": "Point",
        "coordinates": [
          17.995,
          46.761
        ]
      },
      "properties": {
        "icao24": "49d421",
        "callsign": "TVS5NR",
        "origin_country": "Czech Republic",
        "time_position": 1787356485,
        "last_contact": 1787356485,
        "baro_altitude": 10668,
        "on_ground": false,
        "velocity": 233.32,
        "true_track": 141.72,
        "vertical_rate": 0,
        "geo_altitude": 11155.68,
        "squawk": "4522",
        "spi": false,
        "position_source": 0
      }
    },
    {
      "type": "Feature",
      "geometry": {
        "type": "Point",
        "coordinates": [
          9.1538,
          46.7699
        ]
      },
      "properties": {
        "icao24": "49d369",
        "callsign": "TVS53B",
        "origin_country": "Czech Republic",
        "time_position": 1787356485,
        "last_contact": 1787356485,
        "baro_altitude": 10363.2,
        "on_ground": false,
        "velocity": 275.76,
        "true_track": 72.07,
        "vertical_rate": 0,
        "geo_altitude": 10683.24,
        "squawk": "1000",
        "spi": false,
        "position_source": 0
      }
    },
    {
      "type": "Feature",
      "geometry": {
        "type": "Point",
        "coordinates": [
          18.1147,
          44.5908
        ]
      },
      "properties": {
        "icao24": "407eeb",
        "callsign": "EXS13EV",
        "origin_country": "United Kingdom",
        "time_position": 1787356485,
        "last_contact": 1787356485,
        "baro_altitude": 10988.04,
        "on_ground": false,
        "velocity": 231.12,
        "true_track": 316.89,
        "vertical_rate": 0.65,
        "geo_altitude": 11544.3,
        "squawk": "2644",
        "spi": false,
        "position_source": 0
      }
    },
    {
      "type": "Feature",
      "geometry": {
        "type": "Point",
        "coordinates": [
          15.4749,
          47.7781
        ]
      },
      "properties": {
        "icao24": "503e61",
        "callsign": "CAI2E",
        "origin_country": "Lithuania",
        "time_position": 1787356485,
        "last_contact": 1787356485,
        "baro_altitude": 10980.42,
        "on_ground": false,
        "velocity": 218.71,
        "true_track": 300.85,
        "vertical_rate": -0.65,
        "geo_altitude": 11376.66,
        "squawk": "2654",
        "spi": false,
        "position_source": 0
      }
    },
    {
      "type": "Feature",
      "geometry": {
        "type": "Point",
        "coordinates": [
          17.5063,
          39.259
        ]
      },
      "properties": {
        "icao24": "040240",
        "callsign": "ETH501",
        "origin_country": "Ethiopia",
        "time_position": 1787356485,
        "last_contact": 1787356485,
        "baro_altitude": 11277.6,
        "on_ground": false,
        "velocity": 257.22,
        "true_track": 122.01,
        "vertical_rate": 0,
        "geo_altitude": 11871.96,
        "squawk": "4317",
        "spi": false,
        "position_source": 0
      }
    },
    {
      "type": "Feature",
      "geometry": {
        "type": "Point",
        "coordinates": [
          17.9655,
          35.929
        ]
      },
      "properties": {
        "icao24": "744828",
        "callsign": "RJA553",
        "origin_country": "Jordan",
        "time_position": 1787356485,
        "last_contact": 1787356485,
        "baro_altitude": 11574.78,
        "on_ground": false,
        "velocity": 219.21,
        "true_track": 277.96,
        "vertical_rate": 0,
        "geo_altitude": 12230.1,
        "squawk": "0257",
        "spi": false,
        "position_source": 0
      }
    },
    {
      "type": "Feature",
      "geometry": {
        "type": "Point",
        "coordinates": [
          9.723,
          45.5858
        ]
      },
      "properties": {
        "icao24": "4ca27b",
        "callsign": "RYR63TC",
        "origin_country": "Ireland",
        "time_position": 1787356484,
        "last_contact": 1787356485,
        "baro_altitude": 1341.12,
        "on_ground": false,
        "velocity": 114.45,
        "true_track": 228.64,
        "vertical_rate": 5.2,
        "geo_altitude": 1394.46,
        "squawk": "3745",
        "spi": false,
        "position_source": 0
      }
    },
    {
      "type": "Feature",
      "geometry": {
        "type": "Point",
        "coordinates": [
          10.2438,
          45.5571
        ]
      },
      "properties": {
        "icao24": "71c391",
        "callsign": "KAL922",
        "origin_country": "Republic of Korea",
        "time_position": 1787356485,
        "last_contact": 1787356485,
        "baro_altitude": 10965.18,
        "on_ground": false,
        "velocity": 288.45,
        "true_track": 78.79,
        "vertical_rate": 0.33,
        "geo_altitude": 11391.9,
        "squawk": "0402",
        "spi": false,
        "position_source": 0
      }
    },
    {
      "type": "Feature",
      "geometry": {
        "type": "Point",
        "coordinates": [
          17.9242,
          44.9749
        ]
      },
      "properties": {
        "icao24": "407e71",
        "callsign": "EXS74LT",
        "origin_country": "United Kingdom",
        "time_position": 1787356485,
        "last_contact": 1787356485,
        "baro_altitude": 10972.8,
        "on_ground": false,
        "velocity": 224.82,
        "true_track": 315.56,
        "vertical_rate": 0,
        "geo_altitude": 11506.2,
        "squawk": "5307",
        "spi": false,
        "position_source": 0
      }
    },
    {
      "type": "Feature",
      "geometry": {
        "type": "Point",
        "coordinates": [
          6.8234,
          47.3295
        ]
      },
      "properties": {
        "icao24": "440612",
        "callsign": "EJU3976",
        "origin_country": "Austria",
        "time_position": 1787356485,
        "last_contact": 1787356485,
        "baro_altitude": 10652.76,
        "on_ground": false,
        "velocity": 259.05,
        "true_track": 136.13,
        "vertical_rate": 0.33,
        "geo_altitude": 10927.08,
        "squawk": "1171",
        "spi": false,
        "position_source": 0
      }
    },
    {
      "type": "Feature",
      "geometry": {
        "type": "Point",
        "coordinates": [
          14.6754,
          41.458
        ]
      },
      "properties": {
        "icao24": "48c1a9",
        "callsign": "RYR761H",
        "origin_country": "Poland",
        "time_position": 1787356485,
        "last_contact": 1787356485,
        "baro_altitude": 9067.8,
        "on_ground": false,
        "velocity": 246.19,
        "true_track": 119.14,
        "vertical_rate": -5.2,
        "geo_altitude": 9601.2,
        "squawk": "5446",
        "spi": false,
        "position_source": 0
      }
    },
    {
      "type": "Feature",
      "geometry": {
        "type": "Point",
        "coordinates": [
          14.1114,
          47.3908
        ]
      },
      "properties": {
        "icao24": "49d00d",
        "callsign": "TVS2783",
        "origin_country": "Czech Republic",
        "time_position": 1787356485,
        "last_contact": 1787356485,
        "baro_altitude": 10355.58,
        "on_ground": false,
        "velocity": 234.6,
        "true_track": 5.41,
        "vertical_rate": 0.33,
        "geo_altitude": 10721.34,
        "squawk": "6157",
        "spi": false,
        "position_source": 0
      }
    },
    {
      "type": "Feature",
      "geometry": {
        "type": "Point",
        "coordinates": [
          11.2211,
          47.0379
        ]
      },
      "properties": {
        "icao24": "406ac4",
        "callsign": "EXS56UV",
        "origin_country": "United Kingdom",
        "time_position": 1787356485,
        "last_contact": 1787356485,
        "baro_altitude": 10363.2,
        "on_ground": false,
        "velocity": 195.74,
        "true_track": 313.94,
        "vertical_rate": 0.33,
        "geo_altitude": 10706.1,
        "squawk": "5374",
        "spi": false,
        "position_source": 0
      }
    },
    {
      "type": "Feature",
      "geometry": {
        "type": "Point",
        "coordinates": [
          18.5558,
          47.1267
        ]
      },
      "properties": {
        "icao24": "48c125",
        "callsign": "RYR1744",
        "origin_country": "Poland",
        "time_position": 1787356485,
        "last_contact": 1787356485,
        "baro_altitude": 7787.64,
        "on_ground": false,
        "velocity": 239.31,
        "true_track": 332.33,
        "vertical_rate": -13.33,
        "geo_altitude": 8168.64,
        "squawk": "4504",
        "spi": false,
        "position_source": 0
      }
    },
    {
      "type": "Feature",
      "geometry": {
        "type": "Point",
        "coordinates": [
          17.0019,
          43.5702
        ]
      },
      "properties": {
        "icao24": "440425",
        "callsign": "EJU36JL",
        "origin_country": "Austria",
        "time_position": 1787356485,
        "last_contact": 1787356485,
        "baro_altitude": 10363.2,
        "on_ground": false,
        "velocity": 225.54,
        "true_track": 301.95,
        "vertical_rate": 0,
        "geo_altitude": 10904.22,
        "squawk": "2074",
        "spi": false,
        "position_source": 0
      }
    },
    {
      "type": "Feature",
      "geometry": {
        "type": "Point",
        "coordinates": [
          12.5087,
          41.573
        ]
      },
      "properties": {
        "icao24": "4402f1",
        "callsign": "EJU95WM",
        "origin_country": "Austria",
        "time_position": 1787356485,
        "last_contact": 1787356485,
        "baro_altitude": 10363.2,
        "on_ground": false,
        "velocity": 223.4,
        "true_track": 313.88,
        "vertical_rate": 0,
        "geo_altitude": 10949.94,
        "squawk": null,
        "spi": false,
        "position_source": 0
      }
    },
    {
      "type": "Feature",
      "geometry": {
        "type": "Point",
        "coordinates": [
          6.6141,
          43.1906
        ]
      },
      "properties": {
        "icao24": "504e72",
        "callsign": "FIA5812",
        "origin_country": "Republic of Moldova",
        "time_position": 1787356485,
        "last_contact": 1787356485,
        "baro_altitude": 10363.2,
        "on_ground": false,
        "velocity": 258.34,
        "true_track": 50.41,
        "vertical_rate": 0,
        "geo_altitude": 10881.36,
        "squawk": "1163",
        "spi": false,
        "position_source": 0
      }
    },
    {
      "type": "Feature",
      "geometry": {
        "type": "Point",
        "coordinates": [
          17.4191,
          47.5241
        ]
      },
      "properties": {
        "icao24": "504e86",
        "callsign": "TVS6EH",
        "origin_country": "Republic of Moldova",
        "time_position": 1787356485,
        "last_contact": 1787356485,
        "baro_altitude": 10629.9,
        "on_ground": false,
        "velocity": 230.86,
        "true_track": 326.45,
        "vertical_rate": -4.88,
        "geo_altitude": 11102.34,
        "squawk": "7743",
        "spi": false,
        "position_source": 0
      }
    },
    {
      "type": "Feature",
      "geometry": {
        "type": "Point",
        "coordinates": [
          15.0129,
          45.5641
        ]
      },
      "properties": {
        "icao24": "407d5c",
        "callsign": "WUK8YM",
        "origin_country": "United Kingdom",
        "time_position": 1787356485,
        "last_contact": 1787356485,
        "baro_altitude": 10355.58,
        "on_ground": false,
        "velocity": 210.26,
        "true_track": 315.4,
        "vertical_rate": 0,
        "geo_altitude": 10850.88,
        "squawk": "1351",
        "spi": false,
        "position_source": 0
      }
    },
    {
      "type": "Feature",
      "geometry": {
        "type": "Point",
        "coordinates": [
          9.7117,
          45.1192
        ]
      },
      "properties": {
        "icao24": "48e87f",
        "callsign": "ENT1364",
        "origin_country": "Poland",
        "time_position": 1787356485,
        "last_contact": 1787356485,
        "baro_altitude": 10972.8,
        "on_ground": false,
        "velocity": 267.24,
        "true_track": 50.7,
        "vertical_rate": 0,
        "geo_altitude": 11407.14,
        "squawk": "1000",
        "spi": false,
        "position_source": 0
      }
    },
    {
      "type": "Feature",
      "geometry": {
        "type": "Point",
        "coordinates": [
          18.85,
          42.087
        ]
      },
      "properties": {
        "icao24": "48c228",
        "callsign": "RYR79WD",
        "origin_country": "Poland",
        "time_position": 1787356189,
        "last_contact": 1787356194,
        "baro_altitude": 8328.66,
        "on_ground": false,
        "velocity": 223.31,
        "true_track": 131.92,
        "vertical_rate": -4.88,
        "geo_altitude": 8831.58,
        "squawk": "3746",
        "spi": false,
        "position_source": 0
      }
    },
    {
      "type": "Feature",
      "geometry": {
        "type": "Point",
        "coordinates": [
          13.62,
          43.9386
        ]
      },
      "properties": {
        "icao24": "48cb15",
        "callsign": "TVS2869",
        "origin_country": "Poland",
        "time_position": 1787356485,
        "last_contact": 1787356485,
        "baro_altitude": 10972.8,
        "on_ground": false,
        "velocity": 229.96,
        "true_track": 9.4,
        "vertical_rate": 0,
        "geo_altitude": 11475.72,
        "squawk": "6173",
        "spi": false,
        "position_source": 0
      }
    },
    {
      "type": "Feature",
      "geometry": {
        "type": "Point",
        "coordinates": [
          6.8467,
          46.185
        ]
      },
      "properties": {
        "icao24": "3c5421",
        "callsign": "BCS465",
        "origin_country": "Germany",
        "time_position": 1787356485,
        "last_contact": 1787356485,
        "baro_altitude": 10980.42,
        "on_ground": false,
        "velocity": 207.88,
        "true_track": 309.68,
        "vertical_rate": 0,
        "geo_altitude": 11376.66,
        "squawk": "5744",
        "spi": false,
        "position_source": 0
      }
    },
    {
      "type": "Feature",
      "geometry": {
        "type": "Point",
        "coordinates": [
          7.874,
          47.6381
        ]
      },
      "properties": {
        "icao24": "408053",
        "callsign": "EZY17EG",
        "origin_country": "United Kingdom",
        "time_position": 1787356485,
        "last_contact": 1787356485,
        "baro_altitude": 10965.18,
        "on_ground": false,
        "velocity": 186.94,
        "true_track": 310.09,
        "vertical_rate": 0,
        "geo_altitude": 11239.5,
        "squawk": "7517",
        "spi": false,
        "position_source": 0
      }
    },
    {
      "type": "Feature",
      "geometry": {
        "type": "Point",
        "coordinates": [
          8.3204,
          45.1663
        ]
      },
      "properties": {
        "icao24": "3c542f",
        "callsign": "BCS37R",
        "origin_country": "Germany",
        "time_position": 1787356485,
        "last_contact": 1787356485,
        "baro_altitude": 3086.1,
        "on_ground": false,
        "velocity": 149.93,
        "true_track": 37.89,
        "vertical_rate": -6.5,
        "geo_altitude": 3230.88,
        "squawk": "1000",
        "spi": false,
        "position_source": 0
      }
    },
    {
      "type": "Feature",
      "geometry": {
        "type": "Point",
        "coordinates": [
          10.3029,
          38.5991
        ]
      },
      "properties": {
        "icao24": "02a1a4",
        "callsign": "LBT635",
        "origin_country": "Tunisia",
        "time_position": 1787356485,
        "last_contact": 1787356485,
        "baro_altitude": 10492.74,
        "on_ground": false,
        "velocity": 231.56,
        "true_track": 181.27,
        "vertical_rate": -11.38,
        "geo_altitude": 11193.78,
        "squawk": "0430",
        "spi": false,
        "position_source": 0
      }
    },
    {
      "type": "Feature",
      "geometry": {
        "type": "Point",
        "coordinates": [
          10.7823,
          35.7647
        ]
      },
      "properties": {
        "icao24": "02a1a1",
        "callsign": "LBT7235",
        "origin_country": "Tunisia",
        "time_position": 1787356275,
        "last_contact": 1787356277,
        "baro_altitude": 60.96,
        "on_ground": false,
        "velocity": 65.09,
        "true_track": 253,
        "vertical_rate": -2.6,
        "geo_altitude": 121.92,
        "squawk": "4154",
        "spi": false,
        "position_source": 0
      }
    },
    {
      "type": "Feature",
      "geometry": {
        "type": "Point",
        "coordinates": [
          18.8676,
          42.2932
        ]
      },
      "properties": {
        "icao24": "02a1a2",
        "callsign": "LBT7116",
        "origin_country": "Tunisia",
        "time_position": 1787356483,
        "last_contact": 1787356485,
        "baro_altitude": 10972.8,
        "on_ground": false,
        "velocity": 235.77,
        "true_track": 19.5,
        "vertical_rate": 0,
        "geo_altitude": 11544.3,
        "squawk": "6174",
        "spi": false,
        "position_source": 0
      }
    },
    {
      "type": "Feature",
      "geometry": {
        "type": "Point",
        "coordinates": [
          10.3555,
          37.1204
        ]
      },
      "properties": {
        "icao24": "02a1a9",
        "callsign": "LBT779",
        "origin_country": "Tunisia",
        "time_position": 1787356322,
        "last_contact": 1787356323,
        "baro_altitude": 8442.96,
        "on_ground": false,
        "velocity": 234.24,
        "true_track": 157.94,
        "vertical_rate": -12.03,
        "geo_altitude": 8999.22,
        "squawk": "7656",
        "spi": false,
        "position_source": 0
      }
    },
    {
      "type": "Feature",
      "geometry": {
        "type": "Point",
        "coordinates": [
          10.3547,
          36.8087
        ]
      },
      "properties": {
        "icao24": "02a1a8",
        "callsign": "LBT599",
        "origin_country": "Tunisia",
        "time_position": 1787356482,
        "last_contact": 1787356483,
        "baro_altitude": 533.4,
        "on_ground": false,
        "velocity": 89.91,
        "true_track": 292.9,
        "vertical_rate": -4.88,
        "geo_altitude": 632.46,
        "squawk": "1225",
        "spi": false,
        "position_source": 0
      }
    },
    {
      "type": "Feature",
      "geometry": {
        "type": "Point",
        "coordinates": [
          14.1917,
          47.4749
        ]
      },
      "properties": {
        "icao24": "40820e",
        "callsign": "EXS56HW",
        "origin_country": "United Kingdom",
        "time_position": 1787356484,
        "last_contact": 1787356485,
        "baro_altitude": 10972.8,
        "on_ground": false,
        "velocity": 227.16,
        "true_track": 312.8,
        "vertical_rate": -0.33,
        "geo_altitude": 11369.04,
        "squawk": "5324",
        "spi": false,
        "position_source": 0
      }
    },
    {
      "type": "Feature",
      "geometry": {
        "type": "Point",
        "coordinates": [
          7.7863,
          42.2883
        ]
      },
      "properties": {
        "icao24": "02a1ae",
        "callsign": "LBT3952",
        "origin_country": "Tunisia",
        "time_position": 1787356485,
        "last_contact": 1787356485,
        "baro_altitude": 9753.6,
        "on_ground": false,
        "velocity": 229.15,
        "true_track": 326.63,
        "vertical_rate": 0.33,
        "geo_altitude": 10256.52,
        "squawk": "1000",
        "spi": false,
        "position_source": 0
      }
    },
    {
      "type": "Feature",
      "geometry": {
        "type": "Point",
        "coordinates": [
          10.2304,
          38.6524
        ]
      },
      "properties": {
        "icao24": "02a1ac",
        "callsign": "LBT397",
        "origin_country": "Tunisia",
        "time_position": 1787356483,
        "last_contact": 1787356484,
        "baro_altitude": 9486.9,
        "on_ground": false,
        "velocity": 242.93,
        "true_track": 175.87,
        "vertical_rate": -4.88,
        "geo_altitude": 10088.88,
        "squawk": "0451",
        "spi": false,
        "position_source": 0
      }
    },
    {
      "type": "Feature",
      "geometry": {
        "type": "Point",
        "coordinates": [
          8.9934,
          39.7323
        ]
      },
      "properties": {
        "icao24": "02a1b0",
        "callsign": "LBT719",
        "origin_country": "Tunisia",
        "time_position": 1787356485,
        "last_contact": 1787356485,
        "baro_altitude": 11269.98,
        "on_ground": false,
        "velocity": 235.48,
        "true_track": 148.67,
        "vertical_rate": 0,
        "geo_altitude": 11902.44,
        "squawk": "0207",
        "spi": false,
        "position_source": 0
      }
    },
    {
      "type": "Feature",
      "geometry": {
        "type": "Point",
        "coordinates": [
          12.5124,
          46.3643
        ]
      },
      "properties": {
        "icao24": "408184",
        "callsign": "EZY21FJ",
        "origin_country": "United Kingdom",
        "time_position": 1787356485,
        "last_contact": 1787356485,
        "baro_altitude": 10363.2,
        "on_ground": false,
        "velocity": 194.62,
        "true_track": 303.35,
        "vertical_rate": -0.33,
        "geo_altitude": 10767.06,
        "squawk": "0254",
        "spi": false,
        "position_source": 0
      }
    },
    {
      "type": "Feature",
      "geometry": {
        "type": "Point",
        "coordinates": [
          12.1652,
          40.7952
        ]
      },
      "properties": {
        "icao24": "ac3f7f",
        "callsign": "N889CJ",
        "origin_country": "United States",
        "time_position": 1787356485,
        "last_contact": 1787356485,
        "baro_altitude": 13716,
        "on_ground": false,
        "velocity": 256.19,
        "true_track": 90,
        "vertical_rate": -0.33,
        "geo_altitude": 14371.32,
        "squawk": "2213",
        "spi": false,
        "position_source": 0
      }
    },
    {
      "type": "Feature",
      "geometry": {
        "type": "Point",
        "coordinates": [
          8.69,
          45.2447
        ]
      },
      "properties": {
        "icao24": "4951ca",
        "callsign": "TAP828",
        "origin_country": "Portugal",
        "time_position": 1787356485,
        "last_contact": 1787356485,
        "baro_altitude": 2758.44,
        "on_ground": false,
        "velocity": 131.26,
        "true_track": 168.47,
        "vertical_rate": -2.28,
        "geo_altitude": 2887.98,
        "squawk": "1000",
        "spi": false,
        "position_source": 0
      }
    },
    {
      "type": "Feature",
      "geometry": {
        "type": "Point",
        "coordinates": [
          18.2515,
          38.8824
        ]
      },
      "properties": {
        "icao24": "4951d5",
        "callsign": "TAP900",
        "origin_country": "Portugal",
        "time_position": 1787356484,
        "last_contact": 1787356485,
        "baro_altitude": 11277.6,
        "on_ground": false,
        "velocity": 235.84,
        "true_track": 104.92,
        "vertical_rate": 0,
        "geo_altitude": 11871.96,
        "squawk": "2276",
        "spi": false,
        "position_source": 0
      }
    },
    {
      "type": "Feature",
      "geometry": {
        "type": "Point",
        "coordinates": [
          16.802,
          44.9797
        ]
      },
      "properties": {
        "icao24": "408032",
        "callsign": "EXS15QY",
        "origin_country": "United Kingdom",
        "time_position": 1787356485,
        "last_contact": 1787356485,
        "baro_altitude": 10972.8,
        "on_ground": false,
        "velocity": 227.38,
        "true_track": 309.31,
        "vertical_rate": 0,
        "geo_altitude": 11506.2,
        "squawk": "2223",
        "spi": false,
        "position_source": 0
      }
    },
    {
      "type": "Feature",
      "geometry": {
        "type": "Point",
        "coordinates": [
          7.5153,
          45.8118
        ]
      },
      "properties": {
        "icao24": "440bc2",
        "callsign": "BCS19U",
        "origin_country": "Austria",
        "time_position": 1787356485,
        "last_contact": 1787356485,
        "baro_altitude": 9860.28,
        "on_ground": false,
        "velocity": 206.03,
        "true_track": 309.73,
        "vertical_rate": 7.48,
        "geo_altitude": 10241.28,
        "squawk": "5720",
        "spi": false,
        "position_source": 0
      }
    },
    {
      "type": "Feature",
      "geometry": {
        "type": "Point",
        "coordinates": [
          17.5977,
          41.5977
        ]
      },
      "properties": {
        "icao24": "4ca8e7",
        "callsign": "RYR49RQ",
        "origin_country": "Ireland",
        "time_position": 1787356485,
        "last_contact": 1787356485,
        "baro_altitude": 11590.02,
        "on_ground": false,
        "velocity": 233.19,
        "true_track": 294.64,
        "vertical_rate": 0.65,
        "geo_altitude": 12169.14,
        "squawk": null,
        "spi": false,
        "position_source": 0
      }
    },
    {
      "type": "Feature",
      "geometry": {
        "type": "Point",
        "coordinates": [
          18.1477,
          44.374
        ]
      },
      "properties": {
        "icao24": "4baa8d",
        "callsign": "THY3450",
        "origin_country": "Turkey",
        "time_position": 1787356484,
        "last_contact": 1787356484,
        "baro_altitude": 11277.6,
        "on_ground": false,
        "velocity": 236.24,
        "true_track": 126.32,
        "vertical_rate": 0,
        "geo_altitude": 11856.72,
        "squawk": "4165",
        "spi": false,
        "position_source": 0
      }
    },
    {
      "type": "Feature",
      "geometry": {
        "type": "Point",
        "coordinates": [
          10.3374,
          42.1319
        ]
      },
      "properties": {
        "icao24": "4ca84b",
        "callsign": "RYR85FH",
        "origin_country": "Ireland",
        "time_position": 1787356485,
        "last_contact": 1787356485,
        "baro_altitude": 10363.2,
        "on_ground": false,
        "velocity": 233.21,
        "true_track": 21.07,
        "vertical_rate": 0,
        "geo_altitude": 10919.46,
        "squawk": "5453",
        "spi": false,
        "position_source": 0
      }
    },
    {
      "type": "Feature",
      "geometry": {
        "type": "Point",
        "coordinates": [
          11.1298,
          44.7865
        ]
      },
      "properties": {
        "icao24": "4ca84e",
        "callsign": "RYR709E",
        "origin_country": "Ireland",
        "time_position": 1787356485,
        "last_contact": 1787356485,
        "baro_altitude": 1699.26,
        "on_ground": false,
        "velocity": 136.9,
        "true_track": 181.72,
        "vertical_rate": -6.18,
        "geo_altitude": 1790.7,
        "squawk": "2221",
        "spi": false,
        "position_source": 0
      }
    },
    {
      "type": "Feature",
      "geometry": {
        "type": "Point",
        "coordinates": [
          13.4332,
          38.4927
        ]
      },
      "properties": {
        "icao24": "4ca7b5",
        "callsign": "RYR38DU",
        "origin_country": "Ireland",
        "time_position": 1787356449,
        "last_contact": 1787356484,
        "baro_altitude": 1775.46,
        "on_ground": false,
        "velocity": 143.39,
        "true_track": 195.18,
        "vertical_rate": -5.85,
        "geo_altitude": 1927.86,
        "squawk": "1000",
        "spi": false,
        "position_source": 0
      }
    },
    {
      "type": "Feature",
      "geometry": {
        "type": "Point",
        "coordinates": [
          16.5868,
          47.5732
        ]
      },
      "properties": {
        "icao24": "4bbd0f",
        "callsign": "TKJ5138",
        "origin_country": "Turkey",
        "time_position": 1787356485,
        "last_contact": 1787356485,
        "baro_altitude": 10668,
        "on_ground": false,
        "velocity": 234.9,
        "true_track": 116.96,
        "vertical_rate": 0,
        "geo_altitude": 11102.34,
        "squawk": "6425",
        "spi": false,
        "position_source": 0
      }
    },
    {
      "type": "Feature",
      "geometry": {
        "type": "Point",
        "coordinates": [
          9.7278,
          45.664
        ]
      },
      "properties": {
        "icao24": "4ca6fc",
        "callsign": null,
        "origin_country": "Ireland",
        "time_position": 1787356485,
        "last_contact": 1787356485,
        "baro_altitude": 373.38,
        "on_ground": false,
        "velocity": 88.48,
        "true_track": 105.17,
        "vertical_rate": 14.63,
        "geo_altitude": 373.38,
        "squawk": "3757",
        "spi": false,
        "position_source": 0
      }
    },
    {
      "type": "Feature",
      "geometry": {
        "type": "Point",
        "coordinates": [
          12.6248,
          39.0721
        ]
      },
      "properties": {
        "icao24": "4ca801",
        "callsign": "RYR8TU",
        "origin_country": "Ireland",
        "time_position": 1787356485,
        "last_contact": 1787356485,
        "baro_altitude": 7673.34,
        "on_ground": false,
        "velocity": 215.12,
        "true_track": 346.73,
        "vertical_rate": 9.1,
        "geo_altitude": 8168.64,
        "squawk": "1000",
        "spi": false,
        "position_source": 0
      }
    },
    {
      "type": "Feature",
      "geometry": {
        "type": "Point",
        "coordinates": [
          11.5918,
          42.3163
        ]
      },
      "properties": {
        "icao24": "4ca82b",
        "callsign": "MSA976P",
        "origin_country": "Ireland",
        "time_position": 1787356485,
        "last_contact": 1787356485,
        "baro_altitude": 12192,
        "on_ground": false,
        "velocity": 228.02,
        "true_track": 339.81,
        "vertical_rate": 0,
        "geo_altitude": 12778.74,
        "squawk": "1000",
        "spi": false,
        "position_source": 0
      }
    },
    {
      "type": "Feature",
      "geometry": {
        "type": "Point",
        "coordinates": [
          15.8963,
          46.1996
        ]
      },
      "properties": {
        "icao24": "4bcdf9",
        "callsign": "SXS2GA",
        "origin_country": "Turkey",
        "time_position": 1787356485,
        "last_contact": 1787356485,
        "baro_altitude": 11887.2,
        "on_ground": false,
        "velocity": 230.62,
        "true_track": 131.84,
        "vertical_rate": 0,
        "geo_altitude": 12367.26,
        "squawk": "7704",
        "spi": false,
        "position_source": 0
      }
    },
    {
      "type": "Feature",
      "geometry": {
        "type": "Point",
        "coordinates": [
          13.5167,
          46.7787
        ]
      },
      "properties": {
        "icao24": "405e23",
        "callsign": "TOM675",
        "origin_country": "United Kingdom",
        "time_position": 1787356485,
        "last_contact": 1787356485,
        "baro_altitude": 10972.8,
        "on_ground": false,
        "velocity": 206.02,
        "true_track": 307.9,
        "vertical_rate": -0.33,
        "geo_altitude": 11361.42,
        "squawk": "5347",
        "spi": false,
        "position_source": 0
      }
    },
    {
      "type": "Feature",
      "geometry": {
        "type": "Point",
        "coordinates": [
          9.7304,
          45.6358
        ]
      },
      "properties": {
        "icao24": "4ca6a6",
        "callsign": "RYR52TC",
        "origin_country": "Ireland",
        "time_position": 1787356485,
        "last_contact": 1787356485,
        "baro_altitude": 3276.6,
        "on_ground": false,
        "velocity": 142.19,
        "true_track": 156.77,
        "vertical_rate": -8.13,
        "geo_altitude": 3413.76,
        "squawk": "0535",
        "spi": false,
        "position_source": 0
      }
    },
    {
      "type": "Feature",
      "geometry": {
        "type": "Point",
        "coordinates": [
          16.8727,
          45.3178
        ]
      },
      "properties": {
        "icao24": "4bcdb2",
        "callsign": "SXS2BQ",
        "origin_country": "Turkey",
        "time_position": 1787356485,
        "last_contact": 1787356485,
        "baro_altitude": 11879.58,
        "on_ground": false,
        "velocity": 231.4,
        "true_track": 129.32,
        "vertical_rate": 0.33,
        "geo_altitude": 12428.22,
        "squawk": "1175",
        "spi": false,
        "position_source": 0
      }
    },
    {
      "type": "Feature",
      "geometry": {
        "type": "Point",
        "coordinates": [
          13.2038,
          47.7126
        ]
      },
      "properties": {
        "icao24": "4bcdb6",
        "callsign": "SXS619",
        "origin_country": "Turkey",
        "time_position": 1787356485,
        "last_contact": 1787356485,
        "baro_altitude": 10668,
        "on_ground": false,
        "velocity": 249.65,
        "true_track": 129.4,
        "vertical_rate": -0.33,
        "geo_altitude": 10980.42,
        "squawk": "7715",
        "spi": false,
        "position_source": 0
      }
    },
    {
      "type": "Feature",
      "geometry": {
        "type": "Point",
        "coordinates": [
          10.1672,
          45.3466
        ]
      },
      "properties": {
        "icao24": "4ca646",
        "callsign": "RYR3399",
        "origin_country": "Ireland",
        "time_position": 1787356485,
        "last_contact": 1787356485,
        "baro_altitude": 1844.04,
        "on_ground": false,
        "velocity": 119.37,
        "true_track": 269.01,
        "vertical_rate": 0,
        "geo_altitude": 1935.48,
        "squawk": "1000",
        "spi": false,
        "position_source": 0
      }
    },
    {
      "type": "Feature",
      "geometry": {
        "type": "Point",
        "coordinates": [
          15.5831,
          44.1468
        ]
      },
      "properties": {
        "icao24": "405f11",
        "callsign": "EZY58DK",
        "origin_country": "United Kingdom",
        "time_position": 1787356485,
        "last_contact": 1787356485,
        "baro_altitude": 10972.8,
        "on_ground": false,
        "velocity": 221.65,
        "true_track": 310.01,
        "vertical_rate": 0.65,
        "geo_altitude": 11506.2,
        "squawk": "2042",
        "spi": false,
        "position_source": 0
      }
    },
    {
      "type": "Feature",
      "geometry": {
        "type": "Point",
        "coordinates": [
          14.7829,
          42.3852
        ]
      },
      "properties": {
        "icao24": "47340e",
        "callsign": "TVL5437",
        "origin_country": "Hungary",
        "time_position": 1787356485,
        "last_contact": 1787356485,
        "baro_altitude": 10363.2,
        "on_ground": false,
        "velocity": 230.17,
        "true_track": 24.85,
        "vertical_rate": 0,
        "geo_altitude": 10919.46,
        "squawk": "6166",
        "spi": false,
        "position_source": 0
      }
    },
    {
      "type": "Feature",
      "geometry": {
        "type": "Point",
        "coordinates": [
          8.3688,
          40.6419
        ]
      },
      "properties": {
        "icao24": "4bcced",
        "callsign": "THY6633",
        "origin_country": "Turkey",
        "time_position": 1787356485,
        "last_contact": 1787356485,
        "baro_altitude": 10363.2,
        "on_ground": false,
        "velocity": 248.49,
        "true_track": 83.58,
        "vertical_rate": 0,
        "geo_altitude": 10934.7,
        "squawk": "0205",
        "spi": false,
        "position_source": 0
      }
    },
    {
      "type": "Feature",
      "geometry": {
        "type": "Point",
        "coordinates": [
          15.2997,
          40.7451
        ]
      },
      "properties": {
        "icao24": "4bce0a",
        "callsign": "SXS5UK",
        "origin_country": "Turkey",
        "time_position": 1787356484,
        "last_contact": 1787356485,
        "baro_altitude": 11887.2,
        "on_ground": false,
        "velocity": 232.66,
        "true_track": 91.9,
        "vertical_rate": -0.33,
        "geo_altitude": 12496.8,
        "squawk": "4306",
        "spi": false,
        "position_source": 0
      }
    },
    {
      "type": "Feature",
      "geometry": {
        "type": "Point",
        "coordinates": [
          16.3466,
          45.8137
        ]
      },
      "properties": {
        "icao24": "4bce19",
        "callsign": "SXS2NB",
        "origin_country": "Turkey",
        "time_position": 1787356485,
        "last_contact": 1787356485,
        "baro_altitude": 11887.2,
        "on_ground": false,
        "velocity": 236.6,
        "true_track": 131.21,
        "vertical_rate": 0,
        "geo_altitude": 12397.74,
        "squawk": "7662",
        "spi": false,
        "position_source": 0
      }
    },
    {
      "type": "Feature",
      "geometry": {
        "type": "Point",
        "coordinates": [
          7.5311,
          47.5967
        ]
      },
      "properties": {
        "icao24": "3869ff",
        "callsign": "TECH37",
        "origin_country": "France",
        "time_position": 1787356481,
        "last_contact": 1787356481,
        "baro_altitude": null,
        "on_ground": true,
        "velocity": 1.29,
        "true_track": 154.69,
        "vertical_rate": null,
        "geo_altitude": null,
        "squawk": null,
        "spi": false,
        "position_source": 0
      }
    },
    {
      "type": "Feature",
      "geometry": {
        "type": "Point",
        "coordinates": [
          7.5327,
          47.5972
        ]
      },
      "properties": {
        "icao24": "389dff",
        "callsign": "COBRA02",
        "origin_country": "France",
        "time_position": 1787356322,
        "last_contact": 1787356322,
        "baro_altitude": null,
        "on_ground": true,
        "velocity": 7.46,
        "true_track": 154.69,
        "vertical_rate": null,
        "geo_altitude": null,
        "squawk": null,
        "spi": false,
        "position_source": 0
      }
    },
    {
      "type": "Feature",
      "geometry": {
        "type": "Point",
        "coordinates": [
          14.6541,
          40.6993
        ]
      },
      "properties": {
        "icao24": "4cafcb",
        "callsign": "MSA9725",
        "origin_country": "Ireland",
        "time_position": 1787356484,
        "last_contact": 1787356485,
        "baro_altitude": 10949.94,
        "on_ground": false,
        "velocity": 210.71,
        "true_track": 328.17,
        "vertical_rate": 0,
        "geo_altitude": 11513.82,
        "squawk": null,
        "spi": false,
        "position_source": 0
      }
    },
    {
      "type": "Feature",
      "geometry": {
        "type": "Point",
        "coordinates": [
          13.8435,
          42.4247
        ]
      },
      "properties": {
        "icao24": "010246",
        "callsign": "MSR716",
        "origin_country": "Egypt",
        "time_position": 1787356485,
        "last_contact": 1787356485,
        "baro_altitude": 10683.24,
        "on_ground": false,
        "velocity": 252.8,
        "true_track": 126.89,
        "vertical_rate": -0.33,
        "geo_altitude": 11247.12,
        "squawk": "0474",
        "spi": false,
        "position_source": 0
      }
    },
    {
      "type": "Feature",
      "geometry": {
        "type": "Point",
        "coordinates": [
          12.8705,
          40.8194
        ]
      },
      "properties": {
        "icao24": "010283",
        "callsign": "MSR948",
        "origin_country": "Egypt",
        "time_position": 1787356485,
        "last_contact": 1787356485,
        "baro_altitude": 12496.8,
        "on_ground": false,
        "velocity": 264.53,
        "true_track": 126.94,
        "vertical_rate": 0,
        "geo_altitude": 13083.54,
        "squawk": "2244",
        "spi": false,
        "position_source": 0
      }
    },
    {
      "type": "Feature",
      "geometry": {
        "type": "Point",
        "coordinates": [
          13.3024,
          43.6766
        ]
      },
      "properties": {
        "icao24": "3007e6",
        "callsign": "ICARO02",
        "origin_country": "Italy",
        "time_position": 1787356354,
        "last_contact": 1787356354,
        "baro_altitude": 464.82,
        "on_ground": false,
        "velocity": 68.12,
        "true_track": 126.09,
        "vertical_rate": 0,
        "geo_altitude": 518.16,
        "squawk": null,
        "spi": false,
        "position_source": 0
      }
    },
    {
      "type": "Feature",
      "geometry": {
        "type": "Point",
        "coordinates": [
          15.3411,
          35.7138
        ]
      },
      "properties": {
        "icao24": "010268",
        "callsign": "MSR3903",
        "origin_country": "Egypt",
        "time_position": 1787356485,
        "last_contact": 1787356485,
        "baro_altitude": 11277.6,
        "on_ground": false,
        "velocity": 249.12,
        "true_track": 97.59,
        "vertical_rate": 0,
        "geo_altitude": 11925.3,
        "squawk": "4101",
        "spi": false,
        "position_source": 0
      }
    },
    {
      "type": "Feature",
      "geometry": {
        "type": "Point",
        "coordinates": [
          14.0992,
          41.5341
        ]
      },
      "properties": {
        "icao24": "346317",
        "callsign": "LAV1206",
        "origin_country": "Spain",
        "time_position": 1787356485,
        "last_contact": 1787356485,
        "baro_altitude": 11879.58,
        "on_ground": false,
        "velocity": 234.24,
        "true_track": 152.53,
        "vertical_rate": 0,
        "geo_altitude": 12489.18,
        "squawk": "7435",
        "spi": false,
        "position_source": 0
      }
    },
    {
      "type": "Feature",
      "geometry": {
        "type": "Point",
        "coordinates": [
          14.1828,
          46.3512
        ]
      },
      "properties": {
        "icao24": "40773b",
        "callsign": "TOM11J",
        "origin_country": "United Kingdom",
        "time_position": 1787356485,
        "last_contact": 1787356485,
        "baro_altitude": 10363.2,
        "on_ground": false,
        "velocity": 206.17,
        "true_track": 309.33,
        "vertical_rate": 0.33,
        "geo_altitude": 10805.16,
        "squawk": "2057",
        "spi": false,
        "position_source": 0
      }
    },
    {
      "type": "Feature",
      "geometry": {
        "type": "Point",
        "coordinates": [
          11.4933,
          41.5894
        ]
      },
      "properties": {
        "icao24": "010289",
        "callsign": "MSR986",
        "origin_country": "Egypt",
        "time_position": 1787356485,
        "last_contact": 1787356485,
        "baro_altitude": 11887.2,
        "on_ground": false,
        "velocity": 260.45,
        "true_track": 125.92,
        "vertical_rate": 0,
        "geo_altitude": 12458.7,
        "squawk": "2225",
        "spi": false,
        "position_source": 0
      }
    },
    {
      "type": "Feature",
      "geometry": {
        "type": "Point",
        "coordinates": [
          15.5821,
          43.9211
        ]
      },
      "properties": {
        "icao24": "40772e",
        "callsign": "EZY72WY",
        "origin_country": "United Kingdom",
        "time_position": 1787356485,
        "last_contact": 1787356485,
        "baro_altitude": 10972.8,
        "on_ground": false,
        "velocity": 225.09,
        "true_track": 310.64,
        "vertical_rate": 0,
        "geo_altitude": 11529.06,
        "squawk": "0503",
        "spi": false,
        "position_source": 0
      }
    },
    {
      "type": "Feature",
      "geometry": {
        "type": "Point",
        "coordinates": [
          10.5409,
          41.3539
        ]
      },
      "properties": {
        "icao24": "4d24ae",
        "callsign": "WMT1488",
        "origin_country": "Malta",
        "time_position": 1787356485,
        "last_contact": 1787356485,
        "baro_altitude": 9608.82,
        "on_ground": false,
        "velocity": 256.57,
        "true_track": 70.8,
        "vertical_rate": -22.43,
        "geo_altitude": 10187.94,
        "squawk": "1000",
        "spi": false,
        "position_source": 0
      }
    },
    {
      "type": "Feature",
      "geometry": {
        "type": "Point",
        "coordinates": [
          8.7141,
          45.6301
        ]
      },
      "properties": {
        "icao24": "4d24b1",
        "callsign": "WMT5PL",
        "origin_country": "Malta",
        "time_position": 1787356444,
        "last_contact": 1787356448,
        "baro_altitude": null,
        "on_ground": true,
        "velocity": 0,
        "true_track": 11.25,
        "vertical_rate": null,
        "geo_altitude": null,
        "squawk": "1000",
        "spi": false,
        "position_source": 0
      }
    },
    {
      "type": "Feature",
      "geometry": {
        "type": "Point",
        "coordinates": [
          14.6704,
          36.1102
        ]
      },
      "properties": {
        "icao24": "0101db",
        "callsign": "MSR981",
        "origin_country": "Egypt",
        "time_position": 1787356485,
        "last_contact": 1787356485,
        "baro_altitude": 10355.58,
        "on_ground": false,
        "velocity": 232.28,
        "true_track": 280.46,
        "vertical_rate": -0.33,
        "geo_altitude": 10965.18,
        "squawk": "2023",
        "spi": false,
        "position_source": 0
      }
    },
    {
      "type": "Feature",
      "geometry": {
        "type": "Point",
        "coordinates": [
          9.3847,
          44.4532
        ]
      },
      "properties": {
        "icao24": "300990",
        "callsign": "LSI220",
        "origin_country": "Italy",
        "time_position": 1787356485,
        "last_contact": 1787356485,
        "baro_altitude": 1249.68,
        "on_ground": false,
        "velocity": 133.38,
        "true_track": 320.48,
        "vertical_rate": -0.98,
        "geo_altitude": 2209.8,
        "squawk": "2335",
        "spi": false,
        "position_source": 0
      }
    },
    {
      "type": "Feature",
      "geometry": {
        "type": "Point",
        "coordinates": [
          12.5365,
          44.7363
        ]
      },
      "properties": {
        "icao24": "4d2516",
        "callsign": "SWU1941",
        "origin_country": "Malta",
        "time_position": 1787356485,
        "last_contact": 1787356485,
        "baro_altitude": 7315.2,
        "on_ground": false,
        "velocity": 149.39,
        "true_track": 289.93,
        "vertical_rate": -0.65,
        "geo_altitude": 7696.2,
        "squawk": "2635",
        "spi": false,
        "position_source": 0
      }
    },
    {
      "type": "Feature",
      "geometry": {
        "type": "Point",
        "coordinates": [
          18.2166,
          40.6713
        ]
      },
      "properties": {
        "icao24": "4d2518",
        "callsign": "RYR9YL",
        "origin_country": "Malta",
        "time_position": 1787356484,
        "last_contact": 1787356485,
        "baro_altitude": 10447.02,
        "on_ground": false,
        "velocity": 232.05,
        "true_track": 307.89,
        "vertical_rate": 6.18,
        "geo_altitude": 11018.52,
        "squawk": null,
        "spi": false,
        "position_source": 0
      }
    },
    {
      "type": "Feature",
      "geometry": {
        "type": "Point",
        "coordinates": [
          18.3077,
          42.1836
        ]
      },
      "properties": {
        "icao24": "4d2534",
        "callsign": "WMT5DR",
        "origin_country": "Malta",
        "time_position": 1787356368,
        "last_contact": 1787356376,
        "baro_altitude": 8282.94,
        "on_ground": false,
        "velocity": 208.99,
        "true_track": 118.21,
        "vertical_rate": -9.43,
        "geo_altitude": 8793.48,
        "squawk": "0236",
        "spi": false,
        "position_source": 0
      }
    },
    {
      "type": "Feature",
      "geometry": {
        "type": "Point",
        "coordinates": [
          18.1358,
          46.7289
        ]
      },
      "properties": {
        "icao24": "4d2532",
        "callsign": "WZZ1JS",
        "origin_country": "Malta",
        "time_position": 1787356485,
        "last_contact": 1787356485,
        "baro_altitude": 6195.06,
        "on_ground": false,
        "velocity": 217.67,
        "true_track": 59.62,
        "vertical_rate": -8.13,
        "geo_altitude": 6507.48,
        "squawk": "1000",
        "spi": false,
        "position_source": 0
      }
    },
    {
      "type": "Feature",
      "geometry": {
        "type": "Point",
        "coordinates": [
          9.2357,
          40.9866
        ]
      },
      "properties": {
        "icao24": "347256",
        "callsign": "VOE1GD",
        "origin_country": "Spain",
        "time_position": 1787356216,
        "last_contact": 1787356220,
        "baro_altitude": 2811.78,
        "on_ground": false,
        "velocity": 187.18,
        "true_track": 67.03,
        "vertical_rate": -12.35,
        "geo_altitude": 3032.76,
        "squawk": "5476",
        "spi": false,
        "position_source": 0
      }
    },
    {
      "type": "Feature",
      "geometry": {
        "type": "Point",
        "coordinates": [
          8.731,
          45.601
        ]
      },
      "properties": {
        "icao24": "347302",
        "callsign": "BCS7AG",
        "origin_country": "Spain",
        "time_position": 1787356484,
        "last_contact": 1787356485,
        "baro_altitude": 304.8,
        "on_ground": false,
        "velocity": 72.34,
        "true_track": 348.93,
        "vertical_rate": -2.93,
        "geo_altitude": 350.52,
        "squawk": "1000",
        "spi": false,
        "position_source": 0
      }
    },
    {
      "type": "Feature",
      "geometry": {
        "type": "Point",
        "coordinates": [
          11.5689,
          45.8743
        ]
      },
      "properties": {
        "icao24": "4d2402",
        "callsign": "WZZ61TX",
        "origin_country": "Malta",
        "time_position": 1787356485,
        "last_contact": 1787356485,
        "baro_altitude": 10363.2,
        "on_ground": false,
        "velocity": 258.41,
        "true_track": 40.32,
        "vertical_rate": 0.33,
        "geo_altitude": 10789.92,
        "squawk": "1000",
        "spi": false,
        "position_source": 0
      }
    },
    {
      "type": "Feature",
      "geometry": {
        "type": "Point",
        "coordinates": [
          11.9802,
          46.6929
        ]
      },
      "properties": {
        "icao24": "4d241a",
        "callsign": "WZZ933H",
        "origin_country": "Malta",
        "time_position": 1787356485,
        "last_contact": 1787356485,
        "baro_altitude": 10668,
        "on_ground": false,
        "velocity": 269.38,
        "true_track": 47.17,
        "vertical_rate": 0,
        "geo_altitude": 11049,
        "squawk": "1000",
        "spi": false,
        "position_source": 0
      }
    },
    {
      "type": "Feature",
      "geometry": {
        "type": "Point",
        "coordinates": [
          12.2576,
          41.8553
        ]
      },
      "properties": {
        "icao24": "4d242d",
        "callsign": "WMT715",
        "origin_country": "Malta",
        "time_position": 1787356344,
        "last_contact": 1787356344,
        "baro_altitude": 76.2,
        "on_ground": false,
        "velocity": 68.5,
        "true_track": 162.52,
        "vertical_rate": -3.58,
        "geo_altitude": 144.78,
        "squawk": "1000",
        "spi": false,
        "position_source": 0
      }
    },
    {
      "type": "Feature",
      "geometry": {
        "type": "Point",
        "coordinates": [
          10.1238,
          45.3351
        ]
      },
      "properties": {
        "icao24": "4cadb8",
        "callsign": "RYR4HB",
        "origin_country": "Ireland",
        "time_position": 1787356485,
        "last_contact": 1787356485,
        "baro_altitude": 3482.34,
        "on_ground": false,
        "velocity": 147.96,
        "true_track": 56.2,
        "vertical_rate": -5.2,
        "geo_altitude": 3634.74,
        "squawk": "2030",
        "spi": false,
        "position_source": 0
      }
    },
    {
      "type": "Feature",
      "geometry": {
        "type": "Point",
        "coordinates": [
          11.0031,
          40.071
        ]
      },
      "properties": {
        "icao24": "4d2475",
        "callsign": "BBG251",
        "origin_country": "Malta",
        "time_position": 1787356484,
        "last_contact": 1787356484,
        "baro_altitude": 10058.4,
        "on_ground": false,
        "velocity": 250.81,
        "true_track": 101.36,
        "vertical_rate": 0,
        "geo_altitude": 10652.76,
        "squawk": "1241",
        "spi": false,
        "position_source": 0
      }
    },
    {
      "type": "Feature",
      "geometry": {
        "type": "Point",
        "coordinates": [
          11.3491,
          44.3539
        ]
      },
      "properties": {
        "icao24": "346043",
        "callsign": "VOE1EE",
        "origin_country": "Spain",
        "time_position": 1787356485,
        "last_contact": 1787356485,
        "baro_altitude": 9159.24,
        "on_ground": false,
        "velocity": 219.31,
        "true_track": 170.96,
        "vertical_rate": 10.08,
        "geo_altitude": 9608.82,
        "squawk": "7427",
        "spi": false,
        "position_source": 0
      }
    },
    {
      "type": "Feature",
      "geometry": {
        "type": "Point",
        "coordinates": [
          9.0773,
          45.458
        ]
      },
      "properties": {
        "icao24": "4cae49",
        "callsign": "RYR135Z",
        "origin_country": "Ireland",
        "time_position": 1787356485,
        "last_contact": 1787356485,
        "baro_altitude": 10668,
        "on_ground": false,
        "velocity": 243.18,
        "true_track": 149.91,
        "vertical_rate": 0.33,
        "geo_altitude": 11087.1,
        "squawk": "0514",
        "spi": false,
        "position_source": 0
      }
    },
    {
      "type": "Feature",
      "geometry": {
        "type": "Point",
        "coordinates": [
          14.4929,
          35.8482
        ]
      },
      "properties": {
        "icao24": "4cae98",
        "callsign": "RYR83CM",
        "origin_country": "Ireland",
        "time_position": 1787356203,
        "last_contact": 1787356203,
        "baro_altitude": null,
        "on_ground": true,
        "velocity": 0.06,
        "true_track": 225,
        "vertical_rate": null,
        "geo_altitude": null,
        "squawk": "1222",
        "spi": false,
        "position_source": 0
      }
    },
    {
      "type": "Feature",
      "geometry": {
        "type": "Point",
        "coordinates": [
          9.4616,
          40.8021
        ]
      },
      "properties": {
        "icao24": "4d22b2",
        "callsign": "RYR29ZN",
        "origin_country": "Malta",
        "time_position": 1787356485,
        "last_contact": 1787356485,
        "baro_altitude": 11285.22,
        "on_ground": false,
        "velocity": 214.96,
        "true_track": 248.96,
        "vertical_rate": 0,
        "geo_altitude": 11894.82,
        "squawk": "4132",
        "spi": false,
        "position_source": 0
      }
    },
    {
      "type": "Feature",
      "geometry": {
        "type": "Point",
        "coordinates": [
          7.5999,
          44.5131
        ]
      },
      "properties": {
        "icao24": "4d22bb",
        "callsign": "RYR89KM",
        "origin_country": "Malta",
        "time_position": 1787356485,
        "last_contact": 1787356485,
        "baro_altitude": 11231.88,
        "on_ground": false,
        "velocity": 196.14,
        "true_track": 228.83,
        "vertical_rate": 4.88,
        "geo_altitude": 11711.94,
        "squawk": "1000",
        "spi": false,
        "position_source": 0
      }
    },
    {
      "type": "Feature",
      "geometry": {
        "type": "Point",
        "coordinates": [
          10.4438,
          45.8547
        ]
      },
      "properties": {
        "icao24": "4d22c3",
        "callsign": "RYR56HH",
        "origin_country": "Malta",
        "time_position": 1787356485,
        "last_contact": 1787356485,
        "baro_altitude": 7673.34,
        "on_ground": false,
        "velocity": 251.72,
        "true_track": 66,
        "vertical_rate": 7.15,
        "geo_altitude": 8001,
        "squawk": "1000",
        "spi": false,
        "position_source": 0
      }
    },
    {
      "type": "Feature",
      "geometry": {
        "type": "Point",
        "coordinates": [
          12.3995,
          39.7484
        ]
      },
      "properties": {
        "icao24": "4cacdf",
        "callsign": "RYR2Z",
        "origin_country": "Ireland",
        "time_position": 1787356485,
        "last_contact": 1787356485,
        "baro_altitude": 10568.94,
        "on_ground": false,
        "velocity": 224.11,
        "true_track": 346.73,
        "vertical_rate": 8.45,
        "geo_altitude": 11155.68,
        "squawk": null,
        "spi": false,
        "position_source": 0
      }
    },
    {
      "type": "Feature",
      "geometry": {
        "type": "Point",
        "coordinates": [
          8.4379,
          39.9199
        ]
      },
      "properties": {
        "icao24": "4d2362",
        "callsign": "MLM005",
        "origin_country": "Malta",
        "time_position": 1787356485,
        "last_contact": 1787356485,
        "baro_altitude": 12496.8,
        "on_ground": false,
        "velocity": 197.49,
        "true_track": 277.03,
        "vertical_rate": 0,
        "geo_altitude": 13136.88,
        "squawk": "2051",
        "spi": false,
        "position_source": 0
      }
    },
    {
      "type": "Feature",
      "geometry": {
        "type": "Point",
        "coordinates": [
          10.1514,
          45.3523
        ]
      },
      "properties": {
        "icao24": "4cad10",
        "callsign": "RYR2NJ",
        "origin_country": "Ireland",
        "time_position": 1787356485,
        "last_contact": 1787356485,
        "baro_altitude": 2438.4,
        "on_ground": false,
        "velocity": 133.87,
        "true_track": 45,
        "vertical_rate": 0.33,
        "geo_altitude": 2552.7,
        "squawk": "2226",
        "spi": false,
        "position_source": 0
      }
    },
    {
      "type": "Feature",
      "geometry": {
        "type": "Point",
        "coordinates": [
          8.7804,
          45.4218
        ]
      },
      "properties": {
        "icao24": "4d20ff",
        "callsign": "WMT9SK",
        "origin_country": "Malta",
        "time_position": 1787356485,
        "last_contact": 1787356485,
        "baro_altitude": 1272.54,
        "on_ground": false,
        "velocity": 106.75,
        "true_track": 349.45,
        "vertical_rate": -0.65,
        "geo_altitude": 1348.74,
        "squawk": "5201",
        "spi": false,
        "position_source": 0
      }
    },
    {
      "type": "Feature",
      "geometry": {
        "type": "Point",
        "coordinates": [
          6.0805,
          47.252
        ]
      },
      "properties": {
        "icao24": "4d222d",
        "callsign": "RYR95HJ",
        "origin_country": "Malta",
        "time_position": 1787356485,
        "last_contact": 1787356485,
        "baro_altitude": 10972.8,
        "on_ground": false,
        "velocity": 233.06,
        "true_track": 0.76,
        "vertical_rate": 0.33,
        "geo_altitude": 11262.36,
        "squawk": "5505",
        "spi": false,
        "position_source": 0
      }
    },
    {
      "type": "Feature",
      "geometry": {
        "type": "Point",
        "coordinates": [
          16.9434,
          40.9021
        ]
      },
      "properties": {
        "icao24": "4d226b",
        "callsign": "RYR83VW",
        "origin_country": "Malta",
        "time_position": 1787356485,
        "last_contact": 1787356485,
        "baro_altitude": 7277.1,
        "on_ground": false,
        "velocity": 226.3,
        "true_track": 280.88,
        "vertical_rate": 8.13,
        "geo_altitude": 7719.06,
        "squawk": null,
        "spi": false,
        "position_source": 0
      }
    },
    {
      "type": "Feature",
      "geometry": {
        "type": "Point",
        "coordinates": [
          10.2805,
          43.4951
        ]
      },
      "properties": {
        "icao24": "4d226e",
        "callsign": "RYR54BY",
        "origin_country": "Malta",
        "time_position": 1787356475,
        "last_contact": 1787356475,
        "baro_altitude": 1287.78,
        "on_ground": false,
        "velocity": 110.58,
        "true_track": 336.42,
        "vertical_rate": -8.45,
        "geo_altitude": 1501.14,
        "squawk": "7057",
        "spi": false,
        "position_source": 0
      }
    },
    {
      "type": "Feature",
      "geometry": {
        "type": "Point",
        "coordinates": [
          12.7901,
          40.1421
        ]
      },
      "properties": {
        "icao24": "4d226a",
        "callsign": "RYR4901",
        "origin_country": "Malta",
        "time_position": 1787356485,
        "last_contact": 1787356485,
        "baro_altitude": 9753.6,
        "on_ground": false,
        "velocity": 221.18,
        "true_track": 352.25,
        "vertical_rate": 0,
        "geo_altitude": 10325.1,
        "squawk": null,
        "spi": false,
        "position_source": 0
      }
    },
    {
      "type": "Feature",
      "geometry": {
        "type": "Point",
        "coordinates": [
          13.6646,
          42.59
        ]
      },
      "properties": {
        "icao24": "4d216a",
        "callsign": "WMT3C",
        "origin_country": "Malta",
        "time_position": 1787356484,
        "last_contact": 1787356485,
        "baro_altitude": 10363.2,
        "on_ground": false,
        "velocity": 213.61,
        "true_track": 307.37,
        "vertical_rate": 0.33,
        "geo_altitude": 10904.22,
        "squawk": "2020",
        "spi": false,
        "position_source": 0
      }
    },
    {
      "type": "Feature",
      "geometry": {
        "type": "Point",
        "coordinates": [
          12.7802,
          41.8081
        ]
      },
      "properties": {
        "icao24": "4cac23",
        "callsign": "RYR7RD",
        "origin_country": "Ireland",
        "time_position": 1787356485,
        "last_contact": 1787356485,
        "baro_altitude": 9753.6,
        "on_ground": false,
        "velocity": 221.23,
        "true_track": 330.16,
        "vertical_rate": 0,
        "geo_altitude": 10309.86,
        "squawk": null,
        "spi": false,
        "position_source": 0
      }
    },
    {
      "type": "Feature",
      "geometry": {
        "type": "Point",
        "coordinates": [
          7.7449,
          42.3453
        ]
      },
      "properties": {
        "icao24": "4d20c0",
        "callsign": "WZZ2498",
        "origin_country": "Malta",
        "time_position": 1787356485,
        "last_contact": 1787356485,
        "baro_altitude": 10972.8,
        "on_ground": false,
        "velocity": 243.55,
        "true_track": 36.41,
        "vertical_rate": 0,
        "geo_altitude": 11551.92,
        "squawk": "1000",
        "spi": false,
        "position_source": 0
      }
    },
    {
      "type": "Feature",
      "geometry": {
        "type": "Point",
        "coordinates": [
          6.9889,
          44.3906
        ]
      },
      "properties": {
        "icao24": "4cac63",
        "callsign": "ABR420",
        "origin_country": "Ireland",
        "time_position": 1787356484,
        "last_contact": 1787356485,
        "baro_altitude": 10058.4,
        "on_ground": false,
        "velocity": 203.32,
        "true_track": 228.28,
        "vertical_rate": 0,
        "geo_altitude": 10538.46,
        "squawk": "1000",
        "spi": false,
        "position_source": 0
      }
    },
    {
      "type": "Feature",
      "geometry": {
        "type": "Point",
        "coordinates": [
          16.0425,
          40.8136
        ]
      },
      "properties": {
        "icao24": "4d20bd",
        "callsign": "WMT2507",
        "origin_country": "Malta",
        "time_position": 1787356485,
        "last_contact": 1787356485,
        "baro_altitude": 10965.18,
        "on_ground": false,
        "velocity": 228.58,
        "true_track": 287.82,
        "vertical_rate": 0.33,
        "geo_altitude": 11567.16,
        "squawk": "5507",
        "spi": false,
        "position_source": 0
      }
    },
    {
      "type": "Feature",
      "geometry": {
        "type": "Point",
        "coordinates": [
          12.9603,
          44.4817
        ]
      },
      "properties": {
        "icao24": "4d20bc",
        "callsign": "WMT6084",
        "origin_country": "Malta",
        "time_position": 1787356485,
        "last_contact": 1787356485,
        "baro_altitude": 6446.52,
        "on_ground": false,
        "velocity": 163.02,
        "true_track": 321.79,
        "vertical_rate": -4.55,
        "geo_altitude": 6781.8,
        "squawk": "5523",
        "spi": false,
        "position_source": 0
      }
    },
    {
      "type": "Feature",
      "geometry": {
        "type": "Point",
        "coordinates": [
          18.312,
          44.0759
        ]
      },
      "properties": {
        "icao24": "408346",
        "callsign": "EXS87ET",
        "origin_country": "United Kingdom",
        "time_position": 1787356484,
        "last_contact": 1787356485,
        "baro_altitude": 10972.8,
        "on_ground": false,
        "velocity": 232.79,
        "true_track": 310.52,
        "vertical_rate": 0,
        "geo_altitude": 11544.3,
        "squawk": "2004",
        "spi": false,
        "position_source": 0
      }
    },
    {
      "type": "Feature",
      "geometry": {
        "type": "Point",
        "coordinates": [
          17.9298,
          44.737
        ]
      },
      "properties": {
        "icao24": "40832b",
        "callsign": "TOM2MW",
        "origin_country": "United Kingdom",
        "time_position": 1787356484,
        "last_contact": 1787356485,
        "baro_altitude": 10972.8,
        "on_ground": false,
        "velocity": 229.27,
        "true_track": 316.64,
        "vertical_rate": 0.33,
        "geo_altitude": 11529.06,
        "squawk": "5516",
        "spi": false,
        "position_source": 0
      }
    },
    {
      "type": "Feature",
      "geometry": {
        "type": "Point",
        "coordinates": [
          9.647,
          46.888
        ]
      },
      "properties": {
        "icao24": "40838a",
        "callsign": "EZY73HP",
        "origin_country": "United Kingdom",
        "time_position": 1787356485,
        "last_contact": 1787356485,
        "baro_altitude": 10972.8,
        "on_ground": false,
        "velocity": 192.45,
        "true_track": 305.64,
        "vertical_rate": 0.33,
        "geo_altitude": 11308.08,
        "squawk": "2751",
        "spi": false,
        "position_source": 0
      }
    },
    {
      "type": "Feature",
      "geometry": {
        "type": "Point",
        "coordinates": [
          12.2337,
          43.0738
        ]
      },
      "properties": {
        "icao24": "01013d",
        "callsign": "MSR996",
        "origin_country": "Egypt",
        "time_position": 1787356485,
        "last_contact": 1787356485,
        "baro_altitude": 10668,
        "on_ground": false,
        "velocity": 274.84,
        "true_track": 120.36,
        "vertical_rate": 0,
        "geo_altitude": 11216.64,
        "squawk": "2217",
        "spi": false,
        "position_source": 0
      }
    },
    {
      "type": "Feature",
      "geometry": {
        "type": "Point",
        "coordinates": [
          16.5296,
          38.0606
        ]
      },
      "properties": {
        "icao24": "710125",
        "callsign": "SVA7170",
        "origin_country": "Saudi Arabia",
        "time_position": 1787356485,
        "last_contact": 1787356485,
        "baro_altitude": 10058.4,
        "on_ground": false,
        "velocity": 253.66,
        "true_track": 136.73,
        "vertical_rate": 0,
        "geo_altitude": 10629.9,
        "squawk": "0661",
        "spi": false,
        "position_source": 0
      }
    },
    {
      "type": "Feature",
      "geometry": {
        "type": "Point",
        "coordinates": [
          18.6542,
          47.1983
        ]
      },
      "properties": {
        "icao24": "4081cf",
        "callsign": "WUK597",
        "origin_country": "United Kingdom",
        "time_position": 1787356485,
        "last_contact": 1787356485,
        "baro_altitude": 10363.2,
        "on_ground": false,
        "velocity": 236.82,
        "true_track": 305.45,
        "vertical_rate": -0.33,
        "geo_altitude": 10850.88,
        "squawk": "3235",
        "spi": false,
        "position_source": 0
      }
    },
    {
      "type": "Feature",
      "geometry": {
        "type": "Point",
        "coordinates": [
          14.1279,
          47.2974
        ]
      },
      "properties": {
        "icao24": "40717a",
        "callsign": "EXS32MC",
        "origin_country": "United Kingdom",
        "time_position": 1787356485,
        "last_contact": 1787356485,
        "baro_altitude": 11582.4,
        "on_ground": false,
        "velocity": 222.63,
        "true_track": 308.43,
        "vertical_rate": -0.65,
        "geo_altitude": 11978.64,
        "squawk": "6622",
        "spi": false,
        "position_source": 0
      }
    },
    {
      "type": "Feature",
      "geometry": {
        "type": "Point",
        "coordinates": [
          18.6008,
          46.2065
        ]
      },
      "properties": {
        "icao24": "407176",
        "callsign": "EXS1BV",
        "origin_country": "United Kingdom",
        "time_position": 1787356485,
        "last_contact": 1787356485,
        "baro_altitude": 10972.8,
        "on_ground": false,
        "velocity": 229.68,
        "true_track": 320,
        "vertical_rate": 0.33,
        "geo_altitude": 11490.96,
        "squawk": "2232",
        "spi": false,
        "position_source": 0
      }
    },
    {
      "type": "Feature",
      "geometry": {
        "type": "Point",
        "coordinates": [
          8.7383,
          40.6696
        ]
      },
      "properties": {
        "icao24": "4d2038",
        "callsign": "KMM455",
        "origin_country": "Malta",
        "time_position": 1787356485,
        "last_contact": 1787356485,
        "baro_altitude": 11285.22,
        "on_ground": false,
        "velocity": 235.78,
        "true_track": 138.45,
        "vertical_rate": 0,
        "geo_altitude": 11902.44,
        "squawk": "4312",
        "spi": false,
        "position_source": 0
      }
    },
    {
      "type": "Feature",
      "geometry": {
        "type": "Point",
        "coordinates": [
          11.754,
          36.0384
        ]
      },
      "properties": {
        "icao24": "4d203a",
        "callsign": "KNE661",
        "origin_country": "Malta",
        "time_position": 1787356485,
        "last_contact": 1787356485,
        "baro_altitude": 11582.4,
        "on_ground": false,
        "velocity": 232.09,
        "true_track": 278.67,
        "vertical_rate": 0,
        "geo_altitude": 12260.58,
        "squawk": "7732",
        "spi": false,
        "position_source": 0
      }
    },
    {
      "type": "Feature",
      "geometry": {
        "type": "Point",
        "coordinates": [
          6.2364,
          40.785
        ]
      },
      "properties": {
        "icao24": "4b906c",
        "callsign": "PGT1562",
        "origin_country": "Turkey",
        "time_position": 1787356485,
        "last_contact": 1787356485,
        "baro_altitude": 10972.8,
        "on_ground": false,
        "velocity": 240.75,
        "true_track": 95.27,
        "vertical_rate": 0,
        "geo_altitude": 11582.4,
        "squawk": "1143",
        "spi": false,
        "position_source": 0
      }
    },
    {
      "type": "Feature",
      "geometry": {
        "type": "Point",
        "coordinates": [
          17.8826,
          45.5516
        ]
      },
      "properties": {
        "icao24": "4b9068",
        "callsign": "PGT7316",
        "origin_country": "Turkey",
        "time_position": 1787356485,
        "last_contact": 1787356485,
        "baro_altitude": 11277.6,
        "on_ground": false,
        "velocity": 235.73,
        "true_track": 124.42,
        "vertical_rate": 0,
        "geo_altitude": 11826.24,
        "squawk": "2253",
        "spi": false,
        "position_source": 0
      }
    },
    {
      "type": "Feature",
      "geometry": {
        "type": "Point",
        "coordinates": [
          13.3,
          46.0782
        ]
      },
      "properties": {
        "icao24": "4082ab",
        "callsign": "EZY52DQ",
        "origin_country": "United Kingdom",
        "time_position": 1787356485,
        "last_contact": 1787356485,
        "baro_altitude": 10363.2,
        "on_ground": false,
        "velocity": 202.59,
        "true_track": 301.71,
        "vertical_rate": 0,
        "geo_altitude": 10805.16,
        "squawk": "5334",
        "spi": false,
        "position_source": 0
      }
    },
    {
      "type": "Feature",
      "geometry": {
        "type": "Point",
        "coordinates": [
          8.5609,
          47.4424
        ]
      },
      "properties": {
        "icao24": "4b17e3",
        "callsign": "SWR1AM",
        "origin_country": "Switzerland",
        "time_position": 1787356465,
        "last_contact": 1787356465,
        "baro_altitude": null,
        "on_ground": true,
        "velocity": 0,
        "true_track": 244.69,
        "vertical_rate": null,
        "geo_altitude": null,
        "squawk": "2000",
        "spi": false,
        "position_source": 0
      }
    },
    {
      "type": "Feature",
      "geometry": {
        "type": "Point",
        "coordinates": [
          8.5674,
          47.4453
        ]
      },
      "properties": {
        "icao24": "4b17fb",
        "callsign": "SWR",
        "origin_country": "Switzerland",
        "time_position": 1787356484,
        "last_contact": 1787356485,
        "baro_altitude": null,
        "on_ground": true,
        "velocity": null,
        "true_track": 64.69,
        "vertical_rate": null,
        "geo_altitude": null,
        "squawk": "2000",
        "spi": false,
        "position_source": 0
      }
    },
    {
      "type": "Feature",
      "geometry": {
        "type": "Point",
        "coordinates": [
          8.7494,
          45.5343
        ]
      },
      "properties": {
        "icao24": "4caa58",
        "callsign": "RYR9DB",
        "origin_country": "Ireland",
        "time_position": 1787356485,
        "last_contact": 1787356485,
        "baro_altitude": 701.04,
        "on_ground": false,
        "velocity": 93.23,
        "true_track": 349.19,
        "vertical_rate": -4.55,
        "geo_altitude": 769.62,
        "squawk": "1000",
        "spi": false,
        "position_source": 0
      }
    }
  ]
}