{
  "type": "FeatureCollection",
  "source": "opensky",
  "dataset": "aircraft_italy",
  "generated_at": "2026-08-10T23:43:53.808153+00:00",
  "opensky_time": 1786405418,
  "count": 120,
  "features": [
    {
      "type": "Feature",
      "geometry": {
        "type": "Point",
        "coordinates": [
          10.9299,
          39.8538
        ]
      },
      "properties": {
        "icao24": "801666",
        "callsign": "AIC11E",
        "origin_country": "India",
        "time_position": 1786405417,
        "last_contact": 1786405418,
        "baro_altitude": 11582.4,
        "on_ground": false,
        "velocity": 266.05,
        "true_track": 111.55,
        "vertical_rate": 0,
        "geo_altitude": 12275.82,
        "squawk": "1414",
        "spi": false,
        "position_source": 0
      }
    },
    {
      "type": "Feature",
      "geometry": {
        "type": "Point",
        "coordinates": [
          8.9229,
          42.4081
        ]
      },
      "properties": {
        "icao24": "4400eb",
        "callsign": "EJU54MD",
        "origin_country": "Austria",
        "time_position": 1786405417,
        "last_contact": 1786405417,
        "baro_altitude": 9761.22,
        "on_ground": false,
        "velocity": 235.18,
        "true_track": 1.5,
        "vertical_rate": 0,
        "geo_altitude": 10370.82,
        "squawk": "1000",
        "spi": false,
        "position_source": 0
      }
    },
    {
      "type": "Feature",
      "geometry": {
        "type": "Point",
        "coordinates": [
          8.2283,
          40.9157
        ]
      },
      "properties": {
        "icao24": "471fae",
        "callsign": "WMT9706",
        "origin_country": "Hungary",
        "time_position": 1786405418,
        "last_contact": 1786405418,
        "baro_altitude": 10980.42,
        "on_ground": false,
        "velocity": 245.78,
        "true_track": 73.46,
        "vertical_rate": 0,
        "geo_altitude": 11643.36,
        "squawk": "1000",
        "spi": false,
        "position_source": 0
      }
    },
    {
      "type": "Feature",
      "geometry": {
        "type": "Point",
        "coordinates": [
          18.7159,
          45.2313
        ]
      },
      "properties": {
        "icao24": "4bb4e7",
        "callsign": "MGH102",
        "origin_country": "Turkey",
        "time_position": 1786405418,
        "last_contact": 1786405418,
        "baro_altitude": 11887.2,
        "on_ground": false,
        "velocity": 259.43,
        "true_track": 125.8,
        "vertical_rate": 0,
        "geo_altitude": 12527.28,
        "squawk": "6437",
        "spi": false,
        "position_source": 0
      }
    },
    {
      "type": "Feature",
      "geometry": {
        "type": "Point",
        "coordinates": [
          12.2608,
          42.09
        ]
      },
      "properties": {
        "icao24": "8015a5",
        "callsign": "AIC191",
        "origin_country": "India",
        "time_position": 1786405417,
        "last_contact": 1786405418,
        "baro_altitude": 1379.22,
        "on_ground": false,
        "velocity": 102.51,
        "true_track": 278.66,
        "vertical_rate": -4.88,
        "geo_altitude": 1546.86,
        "squawk": "2056",
        "spi": false,
        "position_source": 0
      }
    },
    {
      "type": "Feature",
      "geometry": {
        "type": "Point",
        "coordinates": [
          18.4482,
          46.9858
        ]
      },
      "properties": {
        "icao24": "4bc85a",
        "callsign": "PGT37Z",
        "origin_country": "Turkey",
        "time_position": 1786405418,
        "last_contact": 1786405418,
        "baro_altitude": 10965.18,
        "on_ground": false,
        "velocity": 212.27,
        "true_track": 300.92,
        "vertical_rate": 0,
        "geo_altitude": 11536.68,
        "squawk": "5366",
        "spi": false,
        "position_source": 0
      }
    },
    {
      "type": "Feature",
      "geometry": {
        "type": "Point",
        "coordinates": [
          13.4174,
          39.7473
        ]
      },
      "properties": {
        "icao24": "73806e",
        "callsign": "ELY392",
        "origin_country": "Israel",
        "time_position": 1786405417,
        "last_contact": 1786405417,
        "baro_altitude": 10668,
        "on_ground": false,
        "velocity": 249.17,
        "true_track": 103.98,
        "vertical_rate": 0,
        "geo_altitude": 11323.32,
        "squawk": "1420",
        "spi": false,
        "position_source": 0
      }
    },
    {
      "type": "Feature",
      "geometry": {
        "type": "Point",
        "coordinates": [
          14.3638,
          46.3434
        ]
      },
      "properties": {
        "icao24": "738061",
        "callsign": "ELY314",
        "origin_country": "Israel",
        "time_position": 1786405417,
        "last_contact": 1786405418,
        "baro_altitude": 10668,
        "on_ground": false,
        "velocity": 241.76,
        "true_track": 128.26,
        "vertical_rate": 0,
        "geo_altitude": 11224.26,
        "squawk": "5204",
        "spi": false,
        "position_source": 0
      }
    },
    {
      "type": "Feature",
      "geometry": {
        "type": "Point",
        "coordinates": [
          18.8591,
          43.5426
        ]
      },
      "properties": {
        "icao24": "738071",
        "callsign": "ELY318",
        "origin_country": "Israel",
        "time_position": 1786405418,
        "last_contact": 1786405418,
        "baro_altitude": 11887.2,
        "on_ground": false,
        "velocity": 256.36,
        "true_track": 132.4,
        "vertical_rate": 0,
        "geo_altitude": 12580.62,
        "squawk": "7572",
        "spi": false,
        "position_source": 0
      }
    },
    {
      "type": "Feature",
      "geometry": {
        "type": "Point",
        "coordinates": [
          8.6033,
          45.3425
        ]
      },
      "properties": {
        "icao24": "440057",
        "callsign": "EJU3602",
        "origin_country": "Austria",
        "time_position": 1786405418,
        "last_contact": 1786405418,
        "baro_altitude": 2232.66,
        "on_ground": false,
        "velocity": 127.64,
        "true_track": 79.55,
        "vertical_rate": -5.53,
        "geo_altitude": 2453.64,
        "squawk": "1000",
        "spi": false,
        "position_source": 0
      }
    },
    {
      "type": "Feature",
      "geometry": {
        "type": "Point",
        "coordinates": [
          11.8823,
          39.3782
        ]
      },
      "properties": {
        "icao24": "738059",
        "callsign": "ELY376",
        "origin_country": "Israel",
        "time_position": 1786405417,
        "last_contact": 1786405418,
        "baro_altitude": 10972.8,
        "on_ground": false,
        "velocity": 244.91,
        "true_track": 96.51,
        "vertical_rate": 0,
        "geo_altitude": 11658.6,
        "squawk": "1173",
        "spi": false,
        "position_source": 0
      }
    },
    {
      "type": "Feature",
      "geometry": {
        "type": "Point",
        "coordinates": [
          18.2889,
          45.1116
        ]
      },
      "properties": {
        "icao24": "471d6f",
        "callsign": "WZZ9198",
        "origin_country": "Hungary",
        "time_position": 1786405417,
        "last_contact": 1786405418,
        "baro_altitude": 7962.9,
        "on_ground": false,
        "velocity": 231,
        "true_track": 96.65,
        "vertical_rate": -11.7,
        "geo_altitude": 8450.58,
        "squawk": "0450",
        "spi": false,
        "position_source": 0
      }
    },
    {
      "type": "Feature",
      "geometry": {
        "type": "Point",
        "coordinates": [
          12.4581,
          38.0309
        ]
      },
      "properties": {
        "icao24": "452165",
        "callsign": "DAH3018",
        "origin_country": "Bulgaria",
        "time_position": 1786405417,
        "last_contact": 1786405417,
        "baro_altitude": 10675.62,
        "on_ground": false,
        "velocity": 247.18,
        "true_track": 74.05,
        "vertical_rate": 0,
        "geo_altitude": 11376.66,
        "squawk": "4311",
        "spi": false,
        "position_source": 0
      }
    },
    {
      "type": "Feature",
      "geometry": {
        "type": "Point",
        "coordinates": [
          14.3824,
          44.022
        ]
      },
      "properties": {
        "icao24": "440198",
        "callsign": "EJU3704",
        "origin_country": "Austria",
        "time_position": 1786405417,
        "last_contact": 1786405417,
        "baro_altitude": 10972.8,
        "on_ground": false,
        "velocity": 229.92,
        "true_track": 301.27,
        "vertical_rate": 0,
        "geo_altitude": 11605.26,
        "squawk": "2001",
        "spi": false,
        "position_source": 0
      }
    },
    {
      "type": "Feature",
      "geometry": {
        "type": "Point",
        "coordinates": [
          8.7711,
          43.477
        ]
      },
      "properties": {
        "icao24": "452119",
        "callsign": "AMQ169",
        "origin_country": "Bulgaria",
        "time_position": 1786405418,
        "last_contact": 1786405418,
        "baro_altitude": 10972.8,
        "on_ground": false,
        "velocity": 249.77,
        "true_track": 39.99,
        "vertical_rate": -0.33,
        "geo_altitude": 11559.54,
        "squawk": "1000",
        "spi": false,
        "position_source": 0
      }
    },
    {
      "type": "Feature",
      "geometry": {
        "type": "Point",
        "coordinates": [
          7.0465,
          41.6123
        ]
      },
      "properties": {
        "icao24": "440128",
        "callsign": "EJU73ZE",
        "origin_country": "Austria",
        "time_position": 1786405418,
        "last_contact": 1786405418,
        "baro_altitude": 11338.56,
        "on_ground": false,
        "velocity": 236.64,
        "true_track": 53.13,
        "vertical_rate": -7.15,
        "geo_altitude": 12001.5,
        "squawk": "1417",
        "spi": false,
        "position_source": 0
      }
    },
    {
      "type": "Feature",
      "geometry": {
        "type": "Point",
        "coordinates": [
          8.7261,
          45.6392
        ]
      },
      "properties": {
        "icao24": "300a5c",
        "callsign": "LSI220",
        "origin_country": "Italy",
        "time_position": 1786405418,
        "last_contact": 1786405418,
        "baro_altitude": null,
        "on_ground": true,
        "velocity": 5.92,
        "true_track": 250.31,
        "vertical_rate": null,
        "geo_altitude": null,
        "squawk": "2322",
        "spi": false,
        "position_source": 0
      }
    },
    {
      "type": "Feature",
      "geometry": {
        "type": "Point",
        "coordinates": [
          16.0372,
          39.2728
        ]
      },
      "properties": {
        "icao24": "7380c0",
        "callsign": "ELY017",
        "origin_country": "Israel",
        "time_position": 1786405417,
        "last_contact": 1786405417,
        "baro_altitude": 10355.58,
        "on_ground": false,
        "velocity": 248.15,
        "true_track": 287.12,
        "vertical_rate": -0.33,
        "geo_altitude": 11033.76,
        "squawk": "0476",
        "spi": false,
        "position_source": 0
      }
    },
    {
      "type": "Feature",
      "geometry": {
        "type": "Point",
        "coordinates": [
          8.7196,
          45.626
        ]
      },
      "properties": {
        "icao24": "345614",
        "callsign": null,
        "origin_country": "Spain",
        "time_position": 1786405399,
        "last_contact": 1786405405,
        "baro_altitude": null,
        "on_ground": true,
        "velocity": 0,
        "true_track": 78.75,
        "vertical_rate": null,
        "geo_altitude": null,
        "squawk": "1000",
        "spi": false,
        "position_source": 0
      }
    },
    {
      "type": "Feature",
      "geometry": {
        "type": "Point",
        "coordinates": [
          9.8152,
          45.6477
        ]
      },
      "properties": {
        "icao24": "020175",
        "callsign": "MAC455",
        "origin_country": "Morocco",
        "time_position": 1786405418,
        "last_contact": 1786405418,
        "baro_altitude": 586.74,
        "on_ground": false,
        "velocity": 75.49,
        "true_track": 284.6,
        "vertical_rate": -3.9,
        "geo_altitude": 685.8,
        "squawk": "1000",
        "spi": false,
        "position_source": 0
      }
    },
    {
      "type": "Feature",
      "geometry": {
        "type": "Point",
        "coordinates": [
          12.8434,
          46.8946
        ]
      },
      "properties": {
        "icao24": "8005eb",
        "callsign": "AIC132",
        "origin_country": "India",
        "time_position": 1786405418,
        "last_contact": 1786405418,
        "baro_altitude": 11277.6,
        "on_ground": false,
        "velocity": 259.78,
        "true_track": 129.62,
        "vertical_rate": -0.33,
        "geo_altitude": 11864.34,
        "squawk": "7536",
        "spi": false,
        "position_source": 0
      }
    },
    {
      "type": "Feature",
      "geometry": {
        "type": "Point",
        "coordinates": [
          18.7526,
          47.4359
        ]
      },
      "properties": {
        "icao24": "780a96",
        "callsign": "CPA254",
        "origin_country": "China",
        "time_position": 1786405417,
        "last_contact": 1786405418,
        "baro_altitude": 9448.8,
        "on_ground": false,
        "velocity": 263.85,
        "true_track": 110.31,
        "vertical_rate": 0,
        "geo_altitude": 9966.96,
        "squawk": "4701",
        "spi": false,
        "position_source": 0
      }
    },
    {
      "type": "Feature",
      "geometry": {
        "type": "Point",
        "coordinates": [
          11.044,
          45.8348
        ]
      },
      "properties": {
        "icao24": "489227",
        "callsign": "ENT4DG",
        "origin_country": "Poland",
        "time_position": 1786405418,
        "last_contact": 1786405418,
        "baro_altitude": 11582.4,
        "on_ground": false,
        "velocity": 239.37,
        "true_track": 50.49,
        "vertical_rate": 0,
        "geo_altitude": 12153.9,
        "squawk": "1000",
        "spi": false,
        "position_source": 0
      }
    },
    {
      "type": "Feature",
      "geometry": {
        "type": "Point",
        "coordinates": [
          13.682,
          45.1622
        ]
      },
      "properties": {
        "icao24": "4067f0",
        "callsign": "TOM619",
        "origin_country": "United Kingdom",
        "time_position": 1786405418,
        "last_contact": 1786405418,
        "baro_altitude": 11582.4,
        "on_ground": false,
        "velocity": 224.16,
        "true_track": 303.11,
        "vertical_rate": 0,
        "geo_altitude": 12192,
        "squawk": "5364",
        "spi": false,
        "position_source": 0
      }
    },
    {
      "type": "Feature",
      "geometry": {
        "type": "Point",
        "coordinates": [
          11.5809,
          47.2537
        ]
      },
      "properties": {
        "icao24": "4bb199",
        "callsign": "THY41J",
        "origin_country": "Turkey",
        "time_position": 1786405417,
        "last_contact": 1786405417,
        "baro_altitude": 12496.8,
        "on_ground": false,
        "velocity": 264.74,
        "true_track": 101.09,
        "vertical_rate": 0,
        "geo_altitude": 13075.92,
        "squawk": "2357",
        "spi": false,
        "position_source": 0
      }
    },
    {
      "type": "Feature",
      "geometry": {
        "type": "Point",
        "coordinates": [
          18.6533,
          46.043
        ]
      },
      "properties": {
        "icao24": "4bb195",
        "callsign": "THY4RN",
        "origin_country": "Turkey",
        "time_position": 1786405417,
        "last_contact": 1786405417,
        "baro_altitude": 11887.2,
        "on_ground": false,
        "velocity": 259.96,
        "true_track": 119.91,
        "vertical_rate": 0,
        "geo_altitude": 12512.04,
        "squawk": "5213",
        "spi": false,
        "position_source": 0
      }
    },
    {
      "type": "Feature",
      "geometry": {
        "type": "Point",
        "coordinates": [
          7.3668,
          43.5982
        ]
      },
      "properties": {
        "icao24": "020095",
        "callsign": "RAM220M",
        "origin_country": "Morocco",
        "time_position": 1786405418,
        "last_contact": 1786405418,
        "baro_altitude": 10972.8,
        "on_ground": false,
        "velocity": 254.53,
        "true_track": 51.65,
        "vertical_rate": 0.33,
        "geo_altitude": 11544.3,
        "squawk": "1411",
        "spi": false,
        "position_source": 0
      }
    },
    {
      "type": "Feature",
      "geometry": {
        "type": "Point",
        "coordinates": [
          13.4309,
          47.7966
        ]
      },
      "properties": {
        "icao24": "4bb027",
        "callsign": "TKJ9CT",
        "origin_country": "Turkey",
        "time_position": 1786405417,
        "last_contact": 1786405418,
        "baro_altitude": 11269.98,
        "on_ground": false,
        "velocity": 235.98,
        "true_track": 130.85,
        "vertical_rate": 0,
        "geo_altitude": 11833.86,
        "squawk": "4612",
        "spi": false,
        "position_source": 0
      }
    },
    {
      "type": "Feature",
      "geometry": {
        "type": "Point",
        "coordinates": [
          13.7134,
          39.6782
        ]
      },
      "properties": {
        "icao24": "4c808c",
        "callsign": "BBG251",
        "origin_country": "Cyprus",
        "time_position": 1786405418,
        "last_contact": 1786405418,
        "baro_altitude": 10050.78,
        "on_ground": false,
        "velocity": 247.67,
        "true_track": 104.07,
        "vertical_rate": -0.33,
        "geo_altitude": 10668,
        "squawk": "1424",
        "spi": false,
        "position_source": 0
      }
    },
    {
      "type": "Feature",
      "geometry": {
        "type": "Point",
        "coordinates": [
          6.9229,
          43.8241
        ]
      },
      "properties": {
        "icao24": "345249",
        "callsign": "VLG55RF",
        "origin_country": "Spain",
        "time_position": 1786405417,
        "last_contact": 1786405418,
        "baro_altitude": 9441.18,
        "on_ground": false,
        "velocity": 214.19,
        "true_track": 243.31,
        "vertical_rate": 0,
        "geo_altitude": 9974.58,
        "squawk": "1000",
        "spi": false,
        "position_source": 0
      }
    },
    {
      "type": "Feature",
      "geometry": {
        "type": "Point",
        "coordinates": [
          15.7836,
          45.2173
        ]
      },
      "properties": {
        "icao24": "407914",
        "callsign": "EXS6MN",
        "origin_country": "United Kingdom",
        "time_position": 1786405417,
        "last_contact": 1786405417,
        "baro_altitude": 11582.4,
        "on_ground": false,
        "velocity": 220.94,
        "true_track": 313.02,
        "vertical_rate": 0,
        "geo_altitude": 12222.48,
        "squawk": "0501",
        "spi": false,
        "position_source": 0
      }
    },
    {
      "type": "Feature",
      "geometry": {
        "type": "Point",
        "coordinates": [
          17.4653,
          35.6944
        ]
      },
      "properties": {
        "icao24": "040190",
        "callsign": "ETH741",
        "origin_country": "Ethiopia",
        "time_position": 1786405417,
        "last_contact": 1786405418,
        "baro_altitude": 10668,
        "on_ground": false,
        "velocity": 271,
        "true_track": 101.61,
        "vertical_rate": 0,
        "geo_altitude": 11399.52,
        "squawk": "4104",
        "spi": false,
        "position_source": 0
      }
    },
    {
      "type": "Feature",
      "geometry": {
        "type": "Point",
        "coordinates": [
          14.4609,
          42.899
        ]
      },
      "properties": {
        "icao24": "4ca4f4",
        "callsign": "RYR3DE",
        "origin_country": "Ireland",
        "time_position": 1786405418,
        "last_contact": 1786405418,
        "baro_altitude": 11887.2,
        "on_ground": false,
        "velocity": 241.31,
        "true_track": 125.89,
        "vertical_rate": 0,
        "geo_altitude": 12542.52,
        "squawk": "7436",
        "spi": false,
        "position_source": 0
      }
    },
    {
      "type": "Feature",
      "geometry": {
        "type": "Point",
        "coordinates": [
          11.9916,
          38.9522
        ]
      },
      "properties": {
        "icao24": "4ca569",
        "callsign": "RYR4KF",
        "origin_country": "Ireland",
        "time_position": 1786405418,
        "last_contact": 1786405418,
        "baro_altitude": 5928.36,
        "on_ground": false,
        "velocity": 236.1,
        "true_track": 166.9,
        "vertical_rate": -15.93,
        "geo_altitude": 6370.32,
        "squawk": "7437",
        "spi": false,
        "position_source": 0
      }
    },
    {
      "type": "Feature",
      "geometry": {
        "type": "Point",
        "coordinates": [
          8.952,
          45.3414
        ]
      },
      "properties": {
        "icao24": "341446",
        "callsign": "BCS136",
        "origin_country": "Spain",
        "time_position": 1786405417,
        "last_contact": 1786405418,
        "baro_altitude": 1661.16,
        "on_ground": false,
        "velocity": 124.7,
        "true_track": 169.06,
        "vertical_rate": -7.15,
        "geo_altitude": 1844.04,
        "squawk": "1000",
        "spi": false,
        "position_source": 0
      }
    },
    {
      "type": "Feature",
      "geometry": {
        "type": "Point",
        "coordinates": [
          13.9043,
          38.7931
        ]
      },
      "properties": {
        "icao24": "040049",
        "callsign": "ETH519",
        "origin_country": "Ethiopia",
        "time_position": 1786405417,
        "last_contact": 1786405417,
        "baro_altitude": 11879.58,
        "on_ground": false,
        "velocity": 266.09,
        "true_track": 112.75,
        "vertical_rate": -0.33,
        "geo_altitude": 12641.58,
        "squawk": "1250",
        "spi": false,
        "position_source": 0
      }
    },
    {
      "type": "Feature",
      "geometry": {
        "type": "Point",
        "coordinates": [
          15.9702,
          39.0185
        ]
      },
      "properties": {
        "icao24": "49d421",
        "callsign": "TVS2721",
        "origin_country": "Czech Republic",
        "time_position": 1786405404,
        "last_contact": 1786405418,
        "baro_altitude": 2011.68,
        "on_ground": false,
        "velocity": 141.9,
        "true_track": 313.82,
        "vertical_rate": 11.38,
        "geo_altitude": 2194.56,
        "squawk": null,
        "spi": false,
        "position_source": 0
      }
    },
    {
      "type": "Feature",
      "geometry": {
        "type": "Point",
        "coordinates": [
          15.63,
          38.6779
        ]
      },
      "properties": {
        "icao24": "4ba9a9",
        "callsign": "THY658",
        "origin_country": "Turkey",
        "time_position": 1786405417,
        "last_contact": 1786405418,
        "baro_altitude": 10668,
        "on_ground": false,
        "velocity": 250.54,
        "true_track": 75.74,
        "vertical_rate": 0,
        "geo_altitude": 11369.04,
        "squawk": "6161",
        "spi": false,
        "position_source": 0
      }
    },
    {
      "type": "Feature",
      "geometry": {
        "type": "Point",
        "coordinates": [
          10.3906,
          41.4794
        ]
      },
      "properties": {
        "icao24": "49d1c6",
        "callsign": "EWG4PR",
        "origin_country": "Czech Republic",
        "time_position": 1786405416,
        "last_contact": 1786405417,
        "baro_altitude": 10668,
        "on_ground": false,
        "velocity": 225.4,
        "true_track": 181.44,
        "vertical_rate": 0,
        "geo_altitude": 11292.84,
        "squawk": "2536",
        "spi": false,
        "position_source": 0
      }
    },
    {
      "type": "Feature",
      "geometry": {
        "type": "Point",
        "coordinates": [
          16.7437,
          43.7419
        ]
      },
      "properties": {
        "icao24": "406d6f",
        "callsign": "TOM9YC",
        "origin_country": "United Kingdom",
        "time_position": 1786405417,
        "last_contact": 1786405418,
        "baro_altitude": 13098.78,
        "on_ground": false,
        "velocity": 236.29,
        "true_track": 303.27,
        "vertical_rate": 0,
        "geo_altitude": 13799.82,
        "squawk": "5352",
        "spi": false,
        "position_source": 0
      }
    },
    {
      "type": "Feature",
      "geometry": {
        "type": "Point",
        "coordinates": [
          18.7425,
          46.8343
        ]
      },
      "properties": {
        "icao24": "4b8e03",
        "callsign": "PGT69QK",
        "origin_country": "Turkey",
        "time_position": 1786405417,
        "last_contact": 1786405418,
        "baro_altitude": 11582.4,
        "on_ground": false,
        "velocity": 213.06,
        "true_track": 295.76,
        "vertical_rate": 0,
        "geo_altitude": 12169.14,
        "squawk": "5331",
        "spi": false,
        "position_source": 0
      }
    },
    {
      "type": "Feature",
      "geometry": {
        "type": "Point",
        "coordinates": [
          16.5738,
          35.8188
        ]
      },
      "properties": {
        "icao24": "040242",
        "callsign": "ETH501",
        "origin_country": "Ethiopia",
        "time_position": 1786405417,
        "last_contact": 1786405418,
        "baro_altitude": 11887.2,
        "on_ground": false,
        "velocity": 265.05,
        "true_track": 100.85,
        "vertical_rate": 0,
        "geo_altitude": 12694.92,
        "squawk": "4105",
        "spi": false,
        "position_source": 0
      }
    },
    {
      "type": "Feature",
      "geometry": {
        "type": "Point",
        "coordinates": [
          18.8091,
          47.7215
        ]
      },
      "properties": {
        "icao24": "50801b",
        "callsign": "ADB3138",
        "origin_country": "Ukraine",
        "time_position": 1786405417,
        "last_contact": 1786405417,
        "baro_altitude": 4975.86,
        "on_ground": false,
        "velocity": 182.61,
        "true_track": 134.77,
        "vertical_rate": 4.23,
        "geo_altitude": 5303.52,
        "squawk": "4407",
        "spi": false,
        "position_source": 0
      }
    },
    {
      "type": "Feature",
      "geometry": {
        "type": "Point",
        "coordinates": [
          8.7217,
          45.6254
        ]
      },
      "properties": {
        "icao24": "31d7a6",
        "callsign": "ECHO10",
        "origin_country": "Italy",
        "time_position": 1786405408,
        "last_contact": 1786405408,
        "baro_altitude": null,
        "on_ground": true,
        "velocity": 12.35,
        "true_track": 165.94,
        "vertical_rate": null,
        "geo_altitude": null,
        "squawk": null,
        "spi": false,
        "position_source": 0
      }
    },
    {
      "type": "Feature",
      "geometry": {
        "type": "Point",
        "coordinates": [
          13.4935,
          46.8884
        ]
      },
      "properties": {
        "icao24": "407ff4",
        "callsign": "WUK451",
        "origin_country": "United Kingdom",
        "time_position": 1786405417,
        "last_contact": 1786405417,
        "baro_altitude": 10965.18,
        "on_ground": false,
        "velocity": 219.69,
        "true_track": 307.67,
        "vertical_rate": 0,
        "geo_altitude": 11544.3,
        "squawk": "2035",
        "spi": false,
        "position_source": 0
      }
    },
    {
      "type": "Feature",
      "geometry": {
        "type": "Point",
        "coordinates": [
          18.435,
          44.0234
        ]
      },
      "properties": {
        "icao24": "406caa",
        "callsign": "EXS36UM",
        "origin_country": "United Kingdom",
        "time_position": 1786405416,
        "last_contact": 1786405418,
        "baro_altitude": 10972.8,
        "on_ground": false,
        "velocity": 220.8,
        "true_track": 310.37,
        "vertical_rate": 0,
        "geo_altitude": 11597.64,
        "squawk": "2235",
        "spi": false,
        "position_source": 0
      }
    },
    {
      "type": "Feature",
      "geometry": {
        "type": "Point",
        "coordinates": [
          9.7035,
          46.9367
        ]
      },
      "properties": {
        "icao24": "407e46",
        "callsign": "EXS49TA",
        "origin_country": "United Kingdom",
        "time_position": 1786405418,
        "last_contact": 1786405418,
        "baro_altitude": 10972.8,
        "on_ground": false,
        "velocity": 225.05,
        "true_track": 304.85,
        "vertical_rate": 0,
        "geo_altitude": 11513.82,
        "squawk": "2745",
        "spi": false,
        "position_source": 0
      }
    },
    {
      "type": "Feature",
      "geometry": {
        "type": "Point",
        "coordinates": [
          8.2299,
          47.4358
        ]
      },
      "properties": {
        "icao24": "4b4419",
        "callsign": "LAS1",
        "origin_country": "Switzerland",
        "time_position": 1786405417,
        "last_contact": 1786405417,
        "baro_altitude": 487.68,
        "on_ground": false,
        "velocity": 44.03,
        "true_track": 210.16,
        "vertical_rate": 0.33,
        "geo_altitude": 617.22,
        "squawk": null,
        "spi": false,
        "position_source": 0
      }
    },
    {
      "type": "Feature",
      "geometry": {
        "type": "Point",
        "coordinates": [
          8.8437,
          47.0205
        ]
      },
      "properties": {
        "icao24": "407f7a",
        "callsign": "EZY87AK",
        "origin_country": "United Kingdom",
        "time_position": 1786405417,
        "last_contact": 1786405417,
        "baro_altitude": 11597.64,
        "on_ground": false,
        "velocity": 227.67,
        "true_track": 305.34,
        "vertical_rate": -0.33,
        "geo_altitude": 12169.14,
        "squawk": "7523",
        "spi": false,
        "position_source": 0
      }
    },
    {
      "type": "Feature",
      "geometry": {
        "type": "Point",
        "coordinates": [
          7.531,
          47.5868
        ]
      },
      "properties": {
        "icao24": "38afff",
        "callsign": "NEVE4",
        "origin_country": "France",
        "time_position": 1786405418,
        "last_contact": 1786405418,
        "baro_altitude": null,
        "on_ground": true,
        "velocity": 8.75,
        "true_track": 334.69,
        "vertical_rate": null,
        "geo_altitude": null,
        "squawk": null,
        "spi": false,
        "position_source": 0
      }
    },
    {
      "type": "Feature",
      "geometry": {
        "type": "Point",
        "coordinates": [
          14.5844,
          40.8192
        ]
      },
      "properties": {
        "icao24": "4bda8a",
        "callsign": "TCVTJ",
        "origin_country": "Turkey",
        "time_position": 1786405417,
        "last_contact": 1786405418,
        "baro_altitude": 12496.8,
        "on_ground": false,
        "velocity": 230.83,
        "true_track": 274.99,
        "vertical_rate": 0.33,
        "geo_altitude": 13258.8,
        "squawk": "2303",
        "spi": false,
        "position_source": 0
      }
    },
    {
      "type": "Feature",
      "geometry": {
        "type": "Point",
        "coordinates": [
          9.8482,
          45.6343
        ]
      },
      "properties": {
        "icao24": "a9c52e",
        "callsign": "NCR842",
        "origin_country": "United States",
        "time_position": 1786405417,
        "last_contact": 1786405417,
        "baro_altitude": 6362.7,
        "on_ground": false,
        "velocity": 195.58,
        "true_track": 277.41,
        "vertical_rate": -11.05,
        "geo_altitude": 6758.94,
        "squawk": "2076",
        "spi": false,
        "position_source": 0
      }
    },
    {
      "type": "Feature",
      "geometry": {
        "type": "Point",
        "coordinates": [
          17.3554,
          47.4989
        ]
      },
      "properties": {
        "icao24": "45ab53",
        "callsign": "JTD560",
        "origin_country": "Denmark",
        "time_position": 1786405418,
        "last_contact": 1786405418,
        "baro_altitude": 11582.4,
        "on_ground": false,
        "velocity": 213.51,
        "true_track": 323.82,
        "vertical_rate": 0.33,
        "geo_altitude": 12131.04,
        "squawk": "1742",
        "spi": false,
        "position_source": 0
      }
    },
    {
      "type": "Feature",
      "geometry": {
        "type": "Point",
        "coordinates": [
          12.1426,
          45.7282
        ]
      },
      "properties": {
        "icao24": "407ac1",
        "callsign": "TOM1TK",
        "origin_country": "United Kingdom",
        "time_position": 1786405417,
        "last_contact": 1786405418,
        "baro_altitude": 11582.4,
        "on_ground": false,
        "velocity": 222.55,
        "true_track": 306.45,
        "vertical_rate": 0,
        "geo_altitude": 12176.76,
        "squawk": "6624",
        "spi": false,
        "position_source": 0
      }
    },
    {
      "type": "Feature",
      "geometry": {
        "type": "Point",
        "coordinates": [
          13.18,
          46.7232
        ]
      },
      "properties": {
        "icao24": "06a1ed",
        "callsign": "QTR8172",
        "origin_country": "Qatar",
        "time_position": 1786405417,
        "last_contact": 1786405417,
        "baro_altitude": 10363.2,
        "on_ground": false,
        "velocity": 240.27,
        "true_track": 312.74,
        "vertical_rate": 0,
        "geo_altitude": 10911.84,
        "squawk": "2031",
        "spi": false,
        "position_source": 0
      }
    },
    {
      "type": "Feature",
      "geometry": {
        "type": "Point",
        "coordinates": [
          17.1872,
          40.6713
        ]
      },
      "properties": {
        "icao24": "06a1ea",
        "callsign": "QTR8264",
        "origin_country": "Qatar",
        "time_position": 1786405418,
        "last_contact": 1786405418,
        "baro_altitude": 13106.4,
        "on_ground": false,
        "velocity": 260.53,
        "true_track": 92.38,
        "vertical_rate": 0,
        "geo_altitude": 13876.02,
        "squawk": "1452",
        "spi": false,
        "position_source": 0
      }
    },
    {
      "type": "Feature",
      "geometry": {
        "type": "Point",
        "coordinates": [
          17.9766,
          43.1136
        ]
      },
      "properties": {
        "icao24": "46b8b3",
        "callsign": "AEE609",
        "origin_country": "Greece",
        "time_position": 1786405417,
        "last_contact": 1786405418,
        "baro_altitude": 11269.98,
        "on_ground": false,
        "velocity": 236.22,
        "true_track": 138.71,
        "vertical_rate": -0.33,
        "geo_altitude": 11940.54,
        "squawk": "5263",
        "spi": false,
        "position_source": 0
      }
    },
    {
      "type": "Feature",
      "geometry": {
        "type": "Point",
        "coordinates": [
          12.1045,
          47.5189
        ]
      },
      "properties": {
        "icao24": "406a63",
        "callsign": "EXS37G",
        "origin_country": "United Kingdom",
        "time_position": 1786405417,
        "last_contact": 1786405418,
        "baro_altitude": 11582.4,
        "on_ground": false,
        "velocity": 222.76,
        "true_track": 307.4,
        "vertical_rate": 0,
        "geo_altitude": 12138.66,
        "squawk": "3540",
        "spi": false,
        "position_source": 0
      }
    },
    {
      "type": "Feature",
      "geometry": {
        "type": "Point",
        "coordinates": [
          15.1369,
          38.3995
        ]
      },
      "properties": {
        "icao24": "80159e",
        "callsign": "AIC44K",
        "origin_country": "India",
        "time_position": 1786405417,
        "last_contact": 1786405417,
        "baro_altitude": 10058.4,
        "on_ground": false,
        "velocity": 261.43,
        "true_track": 113.79,
        "vertical_rate": 0,
        "geo_altitude": 10713.72,
        "squawk": "1446",
        "spi": false,
        "position_source": 0
      }
    },
    {
      "type": "Feature",
      "geometry": {
        "type": "Point",
        "coordinates": [
          8.8411,
          45.2236
        ]
      },
      "properties": {
        "icao24": "06a0e8",
        "callsign": "QTR1P",
        "origin_country": "Qatar",
        "time_position": 1786405418,
        "last_contact": 1786405418,
        "baro_altitude": 1196.34,
        "on_ground": false,
        "velocity": 103.77,
        "true_track": 9.42,
        "vertical_rate": 0,
        "geo_altitude": 1333.5,
        "squawk": "6623",
        "spi": false,
        "position_source": 0
      }
    },
    {
      "type": "Feature",
      "geometry": {
        "type": "Point",
        "coordinates": [
          16.8499,
          44.1613
        ]
      },
      "properties": {
        "icao24": "40812e",
        "callsign": "EZY75AG",
        "origin_country": "United Kingdom",
        "time_position": 1786405418,
        "last_contact": 1786405418,
        "baro_altitude": 10972.8,
        "on_ground": false,
        "velocity": 219.63,
        "true_track": 310.63,
        "vertical_rate": 0,
        "geo_altitude": 11597.64,
        "squawk": "5344",
        "spi": false,
        "position_source": 0
      }
    },
    {
      "type": "Feature",
      "geometry": {
        "type": "Point",
        "coordinates": [
          18.5397,
          39.121
        ]
      },
      "properties": {
        "icao24": "02a1a9",
        "callsign": "LBT691",
        "origin_country": "Tunisia",
        "time_position": 1786405418,
        "last_contact": 1786405418,
        "baro_altitude": 10972.8,
        "on_ground": false,
        "velocity": 223.41,
        "true_track": 244.2,
        "vertical_rate": 0,
        "geo_altitude": 11666.22,
        "squawk": "2353",
        "spi": false,
        "position_source": 0
      }
    },
    {
      "type": "Feature",
      "geometry": {
        "type": "Point",
        "coordinates": [
          13.9655,
          46.5114
        ]
      },
      "properties": {
        "icao24": "40823c",
        "callsign": "EXS85BE",
        "origin_country": "United Kingdom",
        "time_position": 1786405418,
        "last_contact": 1786405418,
        "baro_altitude": 10972.8,
        "on_ground": false,
        "velocity": 221.99,
        "true_track": 308.22,
        "vertical_rate": 0,
        "geo_altitude": 11559.54,
        "squawk": "1362",
        "spi": false,
        "position_source": 0
      }
    },
    {
      "type": "Feature",
      "geometry": {
        "type": "Point",
        "coordinates": [
          14.913,
          46.0215
        ]
      },
      "properties": {
        "icao24": "40823d",
        "callsign": "EXS59WJ",
        "origin_country": "United Kingdom",
        "time_position": 1786405417,
        "last_contact": 1786405418,
        "baro_altitude": 10355.58,
        "on_ground": false,
        "velocity": 220.87,
        "true_track": 308.28,
        "vertical_rate": 0.33,
        "geo_altitude": 10934.7,
        "squawk": "1362",
        "spi": false,
        "position_source": 0
      }
    },
    {
      "type": "Feature",
      "geometry": {
        "type": "Point",
        "coordinates": [
          11.2729,
          36.0809
        ]
      },
      "properties": {
        "icao24": "0a008a",
        "callsign": "DAH4661",
        "origin_country": "Algeria",
        "time_position": 1786405418,
        "last_contact": 1786405418,
        "baro_altitude": 10972.8,
        "on_ground": false,
        "velocity": 237.77,
        "true_track": 278.59,
        "vertical_rate": 0,
        "geo_altitude": 11696.7,
        "squawk": "7737",
        "spi": false,
        "position_source": 0
      }
    },
    {
      "type": "Feature",
      "geometry": {
        "type": "Point",
        "coordinates": [
          10.2408,
          36.9018
        ]
      },
      "properties": {
        "icao24": "02a1ab",
        "callsign": "LBT553",
        "origin_country": "Tunisia",
        "time_position": 1786405237,
        "last_contact": 1786405237,
        "baro_altitude": 190.5,
        "on_ground": false,
        "velocity": 66.29,
        "true_track": 192.09,
        "vertical_rate": -3.25,
        "geo_altitude": 274.32,
        "squawk": "3736",
        "spi": false,
        "position_source": 0
      }
    },
    {
      "type": "Feature",
      "geometry": {
        "type": "Point",
        "coordinates": [
          14.1829,
          45.923
        ]
      },
      "properties": {
        "icao24": "4080df",
        "callsign": "EXS75EV",
        "origin_country": "United Kingdom",
        "time_position": 1786405417,
        "last_contact": 1786405418,
        "baro_altitude": 10965.18,
        "on_ground": false,
        "velocity": 224.38,
        "true_track": 317.97,
        "vertical_rate": 0.33,
        "geo_altitude": 11551.92,
        "squawk": "2050",
        "spi": false,
        "position_source": 0
      }
    },
    {
      "type": "Feature",
      "geometry": {
        "type": "Point",
        "coordinates": [
          13.8585,
          47.6404
        ]
      },
      "properties": {
        "icao24": "40815b",
        "callsign": "EZY38CZ",
        "origin_country": "United Kingdom",
        "time_position": 1786405418,
        "last_contact": 1786405418,
        "baro_altitude": 10988.04,
        "on_ground": false,
        "velocity": 232.38,
        "true_track": 320.39,
        "vertical_rate": 0.33,
        "geo_altitude": 11551.92,
        "squawk": "5505",
        "spi": false,
        "position_source": 0
      }
    },
    {
      "type": "Feature",
      "geometry": {
        "type": "Point",
        "coordinates": [
          8.8088,
          45.3568
        ]
      },
      "properties": {
        "icao24": "440c31",
        "callsign": "EJU52FH",
        "origin_country": "Austria",
        "time_position": 1786405418,
        "last_contact": 1786405418,
        "baro_altitude": 1196.34,
        "on_ground": false,
        "velocity": 99.68,
        "true_track": 348.69,
        "vertical_rate": 0,
        "geo_altitude": 1333.5,
        "squawk": "1000",
        "spi": false,
        "position_source": 0
      }
    },
    {
      "type": "Feature",
      "geometry": {
        "type": "Point",
        "coordinates": [
          11.3953,
          47.7892
        ]
      },
      "properties": {
        "icao24": "408027",
        "callsign": "TOM5KE",
        "origin_country": "United Kingdom",
        "time_position": 1786405417,
        "last_contact": 1786405418,
        "baro_altitude": 11582.4,
        "on_ground": false,
        "velocity": 221.73,
        "true_track": 307.27,
        "vertical_rate": 0.33,
        "geo_altitude": 12123.42,
        "squawk": "1104",
        "spi": false,
        "position_source": 0
      }
    },
    {
      "type": "Feature",
      "geometry": {
        "type": "Point",
        "coordinates": [
          11.2713,
          44.5418
        ]
      },
      "properties": {
        "icao24": "4ca9a1",
        "callsign": "NOS1446",
        "origin_country": "Ireland",
        "time_position": 1786405257,
        "last_contact": 1786405257,
        "baro_altitude": 53.34,
        "on_ground": false,
        "velocity": 78.91,
        "true_track": 116.73,
        "vertical_rate": -3.9,
        "geo_altitude": 121.92,
        "squawk": "1000",
        "spi": false,
        "position_source": 0
      }
    },
    {
      "type": "Feature",
      "geometry": {
        "type": "Point",
        "coordinates": [
          14.2521,
          42.0691
        ]
      },
      "properties": {
        "icao24": "4ca84c",
        "callsign": "RYR9159",
        "origin_country": "Ireland",
        "time_position": 1786405417,
        "last_contact": 1786405417,
        "baro_altitude": 11277.6,
        "on_ground": false,
        "velocity": 232.71,
        "true_track": 156.55,
        "vertical_rate": 0,
        "geo_altitude": 11940.54,
        "squawk": "1000",
        "spi": false,
        "position_source": 0
      }
    },
    {
      "type": "Feature",
      "geometry": {
        "type": "Point",
        "coordinates": [
          10.1238,
          44.4091
        ]
      },
      "properties": {
        "icao24": "4ca84a",
        "callsign": "RYR63FB",
        "origin_country": "Ireland",
        "time_position": 1786405417,
        "last_contact": 1786405417,
        "baro_altitude": 5440.68,
        "on_ground": false,
        "velocity": 220.34,
        "true_track": 92.14,
        "vertical_rate": -12.35,
        "geo_altitude": 5821.68,
        "squawk": "1000",
        "spi": false,
        "position_source": 0
      }
    },
    {
      "type": "Feature",
      "geometry": {
        "type": "Point",
        "coordinates": [
          9.7232,
          45.6648
        ]
      },
      "properties": {
        "icao24": "4ca852",
        "callsign": "RYR49HY",
        "origin_country": "Ireland",
        "time_position": 1786405275,
        "last_contact": 1786405275,
        "baro_altitude": 220.98,
        "on_ground": false,
        "velocity": 78.51,
        "true_track": 285.58,
        "vertical_rate": -3.25,
        "geo_altitude": 297.18,
        "squawk": "1000",
        "spi": false,
        "position_source": 0
      }
    },
    {
      "type": "Feature",
      "geometry": {
        "type": "Point",
        "coordinates": [
          10.4099,
          44.4473
        ]
      },
      "properties": {
        "icao24": "4ca82c",
        "callsign": "MSA61P",
        "origin_country": "Ireland",
        "time_position": 1786405417,
        "last_contact": 1786405418,
        "baro_altitude": 8298.18,
        "on_ground": false,
        "velocity": 225.33,
        "true_track": 179.61,
        "vertical_rate": 9.75,
        "geo_altitude": 8770.62,
        "squawk": "6434",
        "spi": false,
        "position_source": 0
      }
    },
    {
      "type": "Feature",
      "geometry": {
        "type": "Point",
        "coordinates": [
          12.223,
          41.9334
        ]
      },
      "properties": {
        "icao24": "4ca758",
        "callsign": "ITY8012",
        "origin_country": "Ireland",
        "time_position": 1786405417,
        "last_contact": 1786405417,
        "baro_altitude": 586.74,
        "on_ground": false,
        "velocity": 126.42,
        "true_track": 146.96,
        "vertical_rate": -1.63,
        "geo_altitude": 701.04,
        "squawk": "1000",
        "spi": false,
        "position_source": 0
      }
    },
    {
      "type": "Feature",
      "geometry": {
        "type": "Point",
        "coordinates": [
          18.4513,
          46.3244
        ]
      },
      "properties": {
        "icao24": "4bcdf0",
        "callsign": "SXS4ZH",
        "origin_country": "Turkey",
        "time_position": 1786405418,
        "last_contact": 1786405418,
        "baro_altitude": 11277.6,
        "on_ground": false,
        "velocity": 240.1,
        "true_track": 139.52,
        "vertical_rate": 0,
        "geo_altitude": 11871.96,
        "squawk": "7101",
        "spi": false,
        "position_source": 0
      }
    },
    {
      "type": "Feature",
      "geometry": {
        "type": "Point",
        "coordinates": [
          12.7175,
          38.416
        ]
      },
      "properties": {
        "icao24": "4ca769",
        "callsign": "RYR8FP",
        "origin_country": "Ireland",
        "time_position": 1786405346,
        "last_contact": 1786405346,
        "baro_altitude": 2400.3,
        "on_ground": false,
        "velocity": 150.85,
        "true_track": 156.06,
        "vertical_rate": -7.15,
        "geo_altitude": 2651.76,
        "squawk": "7430",
        "spi": false,
        "position_source": 0
      }
    },
    {
      "type": "Feature",
      "geometry": {
        "type": "Point",
        "coordinates": [
          15.0515,
          47.6159
        ]
      },
      "properties": {
        "icao24": "4bcde2",
        "callsign": "SXS3XA",
        "origin_country": "Turkey",
        "time_position": 1786405417,
        "last_contact": 1786405418,
        "baro_altitude": 11582.4,
        "on_ground": false,
        "velocity": 218.07,
        "true_track": 319.02,
        "vertical_rate": 0,
        "geo_altitude": 12138.66,
        "squawk": "3214",
        "spi": false,
        "position_source": 0
      }
    },
    {
      "type": "Feature",
      "geometry": {
        "type": "Point",
        "coordinates": [
          18.0891,
          44.6801
        ]
      },
      "properties": {
        "icao24": "4bcde1",
        "callsign": "SXS2BQ",
        "origin_country": "Turkey",
        "time_position": 1786405417,
        "last_contact": 1786405417,
        "baro_altitude": 11277.6,
        "on_ground": false,
        "velocity": 238.65,
        "true_track": 131.77,
        "vertical_rate": -0.33,
        "geo_altitude": 11887.2,
        "squawk": "2274",
        "spi": false,
        "position_source": 0
      }
    },
    {
      "type": "Feature",
      "geometry": {
        "type": "Point",
        "coordinates": [
          12.8255,
          45.3596
        ]
      },
      "properties": {
        "icao24": "405e23",
        "callsign": "TOM285",
        "origin_country": "United Kingdom",
        "time_position": 1786405417,
        "last_contact": 1786405417,
        "baro_altitude": 11582.4,
        "on_ground": false,
        "velocity": 226.56,
        "true_track": 307.16,
        "vertical_rate": 0,
        "geo_altitude": 12169.14,
        "squawk": "5524",
        "spi": false,
        "position_source": 0
      }
    },
    {
      "type": "Feature",
      "geometry": {
        "type": "Point",
        "coordinates": [
          10.1633,
          37.8833
        ]
      },
      "properties": {
        "icao24": "02a263",
        "callsign": "TAR725",
        "origin_country": "Tunisia",
        "time_position": 1786405418,
        "last_contact": 1786405418,
        "baro_altitude": 5059.68,
        "on_ground": false,
        "velocity": 224.52,
        "true_track": 173.95,
        "vertical_rate": -14.31,
        "geo_altitude": 5516.88,
        "squawk": "7651",
        "spi": false,
        "position_source": 0
      }
    },
    {
      "type": "Feature",
      "geometry": {
        "type": "Point",
        "coordinates": [
          18.8302,
          46.0178
        ]
      },
      "properties": {
        "icao24": "4bcda5",
        "callsign": "SXS14E",
        "origin_country": "Turkey",
        "time_position": 1786405417,
        "last_contact": 1786405417,
        "baro_altitude": 11277.6,
        "on_ground": false,
        "velocity": 245.93,
        "true_track": 141.28,
        "vertical_rate": 0,
        "geo_altitude": 11871.96,
        "squawk": "7663",
        "spi": false,
        "position_source": 0
      }
    },
    {
      "type": "Feature",
      "geometry": {
        "type": "Point",
        "coordinates": [
          18.5731,
          44.3952
        ]
      },
      "properties": {
        "icao24": "4bcdb6",
        "callsign": "SXS6XD",
        "origin_country": "Turkey",
        "time_position": 1786405417,
        "last_contact": 1786405417,
        "baro_altitude": 11887.2,
        "on_ground": false,
        "velocity": 240.37,
        "true_track": 132.22,
        "vertical_rate": 0,
        "geo_altitude": 12534.9,
        "squawk": "6434",
        "spi": false,
        "position_source": 0
      }
    },
    {
      "type": "Feature",
      "geometry": {
        "type": "Point",
        "coordinates": [
          10.3838,
          45.386
        ]
      },
      "properties": {
        "icao24": "4d010a",
        "callsign": "ICV9261",
        "origin_country": "Luxembourg",
        "time_position": 1786405418,
        "last_contact": 1786405418,
        "baro_altitude": 7216.14,
        "on_ground": false,
        "velocity": 242.77,
        "true_track": 100.5,
        "vertical_rate": 6.5,
        "geo_altitude": 7635.24,
        "squawk": "0433",
        "spi": false,
        "position_source": 0
      }
    },
    {
      "type": "Feature",
      "geometry": {
        "type": "Point",
        "coordinates": [
          8.7723,
          45.4894
        ]
      },
      "properties": {
        "icao24": "4d010d",
        "callsign": "ICV42U",
        "origin_country": "Luxembourg",
        "time_position": 1786405418,
        "last_contact": 1786405418,
        "baro_altitude": 914.4,
        "on_ground": false,
        "velocity": 95.25,
        "true_track": 349.42,
        "vertical_rate": -4.88,
        "geo_altitude": 1028.7,
        "squawk": "2306",
        "spi": false,
        "position_source": 0
      }
    },
    {
      "type": "Feature",
      "geometry": {
        "type": "Point",
        "coordinates": [
          10.6316,
          45.9217
        ]
      },
      "properties": {
        "icao24": "424cbf",
        "callsign": "MACOR",
        "origin_country": "United Kingdom",
        "time_position": 1786405418,
        "last_contact": 1786405418,
        "baro_altitude": 8770.62,
        "on_ground": false,
        "velocity": 225.72,
        "true_track": 56.06,
        "vertical_rate": 12.68,
        "geo_altitude": 9288.78,
        "squawk": "1000",
        "spi": false,
        "position_source": 0
      }
    },
    {
      "type": "Feature",
      "geometry": {
        "type": "Point",
        "coordinates": [
          10.0987,
          47.73
        ]
      },
      "properties": {
        "icao24": "40768c",
        "callsign": "EZY75PF",
        "origin_country": "United Kingdom",
        "time_position": 1786405418,
        "last_contact": 1786405418,
        "baro_altitude": 10965.18,
        "on_ground": false,
        "velocity": 230.43,
        "true_track": 321.8,
        "vertical_rate": 0,
        "geo_altitude": 11506.2,
        "squawk": "1106",
        "spi": false,
        "position_source": 0
      }
    },
    {
      "type": "Feature",
      "geometry": {
        "type": "Point",
        "coordinates": [
          10.264,
          43.4632
        ]
      },
      "properties": {
        "icao24": "4cafca",
        "callsign": "MSA83E",
        "origin_country": "Ireland",
        "time_position": 1786405418,
        "last_contact": 1786405418,
        "baro_altitude": 10058.4,
        "on_ground": false,
        "velocity": 221.83,
        "true_track": 188,
        "vertical_rate": 0,
        "geo_altitude": 10591.8,
        "squawk": "6311",
        "spi": false,
        "position_source": 0
      }
    },
    {
      "type": "Feature",
      "geometry": {
        "type": "Point",
        "coordinates": [
          14.9325,
          40.2591
        ]
      },
      "properties": {
        "icao24": "4cafcb",
        "callsign": "MSA95S",
        "origin_country": "Ireland",
        "time_position": 1786405417,
        "last_contact": 1786405418,
        "baro_altitude": 9342.12,
        "on_ground": false,
        "velocity": 241.58,
        "true_track": 145.5,
        "vertical_rate": -4.88,
        "geo_altitude": 9906,
        "squawk": "1000",
        "spi": false,
        "position_source": 0
      }
    },
    {
      "type": "Feature",
      "geometry": {
        "type": "Point",
        "coordinates": [
          15.0416,
          39.4068
        ]
      },
      "properties": {
        "icao24": "4bd1fa",
        "callsign": "TCTOZ",
        "origin_country": "Turkey",
        "time_position": 1786405418,
        "last_contact": 1786405418,
        "baro_altitude": 12496.8,
        "on_ground": false,
        "velocity": 246.95,
        "true_track": 104.85,
        "vertical_rate": 0.33,
        "geo_altitude": 13266.42,
        "squawk": "1226",
        "spi": false,
        "position_source": 0
      }
    },
    {
      "type": "Feature",
      "geometry": {
        "type": "Point",
        "coordinates": [
          12.5482,
          38.9114
        ]
      },
      "properties": {
        "icao24": "4d24ea",
        "callsign": "RYR7269",
        "origin_country": "Malta",
        "time_position": 1786405418,
        "last_contact": 1786405418,
        "baro_altitude": 11277.6,
        "on_ground": false,
        "velocity": 240.88,
        "true_track": 153.76,
        "vertical_rate": 0,
        "geo_altitude": 12009.12,
        "squawk": "0505",
        "spi": false,
        "position_source": 0
      }
    },
    {
      "type": "Feature",
      "geometry": {
        "type": "Point",
        "coordinates": [
          9.5181,
          40.9022
        ]
      },
      "properties": {
        "icao24": "347256",
        "callsign": "VOE2EF",
        "origin_country": "Spain",
        "time_position": 1786405170,
        "last_contact": 1786405170,
        "baro_altitude": null,
        "on_ground": true,
        "velocity": 5.92,
        "true_track": 320.62,
        "vertical_rate": null,
        "geo_altitude": null,
        "squawk": null,
        "spi": false,
        "position_source": 0
      }
    },
    {
      "type": "Feature",
      "geometry": {
        "type": "Point",
        "coordinates": [
          6.8104,
          45.1335
        ]
      },
      "properties": {
        "icao24": "4d2406",
        "callsign": "EWG60W",
        "origin_country": "Malta",
        "time_position": 1786405418,
        "last_contact": 1786405418,
        "baro_altitude": 11582.4,
        "on_ground": false,
        "velocity": 236.02,
        "true_track": 23.1,
        "vertical_rate": 0.33,
        "geo_altitude": 12146.28,
        "squawk": "5310",
        "spi": false,
        "position_source": 0
      }
    },
    {
      "type": "Feature",
      "geometry": {
        "type": "Point",
        "coordinates": [
          9.4779,
          43.2317
        ]
      },
      "properties": {
        "icao24": "4cadf6",
        "callsign": "RYR77RN",
        "origin_country": "Ireland",
        "time_position": 1786405418,
        "last_contact": 1786405418,
        "baro_altitude": 11582.4,
        "on_ground": false,
        "velocity": 234,
        "true_track": 329.77,
        "vertical_rate": 0,
        "geo_altitude": 12199.62,
        "squawk": "6577",
        "spi": false,
        "position_source": 0
      }
    },
    {
      "type": "Feature",
      "geometry": {
        "type": "Point",
        "coordinates": [
          14.6364,
          37.7689
        ]
      },
      "properties": {
        "icao24": "4cae00",
        "callsign": "RYR1SK",
        "origin_country": "Ireland",
        "time_position": 1786405417,
        "last_contact": 1786405417,
        "baro_altitude": 10652.76,
        "on_ground": false,
        "velocity": 237.21,
        "true_track": 192.02,
        "vertical_rate": -4.88,
        "geo_altitude": 11384.28,
        "squawk": "7340",
        "spi": false,
        "position_source": 0
      }
    },
    {
      "type": "Feature",
      "geometry": {
        "type": "Point",
        "coordinates": [
          8.1223,
          47.3142
        ]
      },
      "properties": {
        "icao24": "4caca2",
        "callsign": "ABR177",
        "origin_country": "Ireland",
        "time_position": 1786405418,
        "last_contact": 1786405418,
        "baro_altitude": 6096,
        "on_ground": false,
        "velocity": 135.86,
        "true_track": 331.01,
        "vertical_rate": -0.33,
        "geo_altitude": 6446.52,
        "squawk": "1000",
        "spi": false,
        "position_source": 0
      }
    },
    {
      "type": "Feature",
      "geometry": {
        "type": "Point",
        "coordinates": [
          18.4625,
          44.3455
        ]
      },
      "properties": {
        "icao24": "4070e2",
        "callsign": "EXS35MT",
        "origin_country": "United Kingdom",
        "time_position": 1786405418,
        "last_contact": 1786405418,
        "baro_altitude": 10972.8,
        "on_ground": false,
        "velocity": 216.88,
        "true_track": 313.46,
        "vertical_rate": 0,
        "geo_altitude": 11582.4,
        "squawk": "5365",
        "spi": false,
        "position_source": 0
      }
    },
    {
      "type": "Feature",
      "geometry": {
        "type": "Point",
        "coordinates": [
          15.0937,
          39.914
        ]
      },
      "properties": {
        "icao24": "4d21e9",
        "callsign": "RYR465X",
        "origin_country": "Malta",
        "time_position": 1786405417,
        "last_contact": 1786405417,
        "baro_altitude": 9357.36,
        "on_ground": false,
        "velocity": 228.73,
        "true_track": 322.77,
        "vertical_rate": 7.15,
        "geo_altitude": 9951.72,
        "squawk": null,
        "spi": false,
        "position_source": 0
      }
    },
    {
      "type": "Feature",
      "geometry": {
        "type": "Point",
        "coordinates": [
          7.491,
          46.8009
        ]
      },
      "properties": {
        "icao24": "4d225d",
        "callsign": "RYR829U",
        "origin_country": "Malta",
        "time_position": 1786405417,
        "last_contact": 1786405418,
        "baro_altitude": 11582.4,
        "on_ground": false,
        "velocity": 229.44,
        "true_track": 242.06,
        "vertical_rate": 0,
        "geo_altitude": 12131.04,
        "squawk": "1000",
        "spi": false,
        "position_source": 0
      }
    },
    {
      "type": "Feature",
      "geometry": {
        "type": "Point",
        "coordinates": [
          11.2379,
          42.7986
        ]
      },
      "properties": {
        "icao24": "4cabf8",
        "callsign": "MSA92C",
        "origin_country": "Ireland",
        "time_position": 1786405417,
        "last_contact": 1786405418,
        "baro_altitude": 10668,
        "on_ground": false,
        "velocity": 227.09,
        "true_track": 166.37,
        "vertical_rate": 0,
        "geo_altitude": 11277.6,
        "squawk": "1000",
        "spi": false,
        "position_source": 0
      }
    },
    {
      "type": "Feature",
      "geometry": {
        "type": "Point",
        "coordinates": [
          18.6998,
          45.2203
        ]
      },
      "properties": {
        "icao24": "71002c",
        "callsign": "SVA118",
        "origin_country": "Saudi Arabia",
        "time_position": 1786405417,
        "last_contact": 1786405417,
        "baro_altitude": 11277.6,
        "on_ground": false,
        "velocity": 268.43,
        "true_track": 118.63,
        "vertical_rate": -0.33,
        "geo_altitude": 11894.82,
        "squawk": "2242",
        "spi": false,
        "position_source": 0
      }
    },
    {
      "type": "Feature",
      "geometry": {
        "type": "Point",
        "coordinates": [
          8.7463,
          45.5842
        ]
      },
      "properties": {
        "icao24": "4d20f4",
        "callsign": "WMT4JM",
        "origin_country": "Malta",
        "time_position": 1786405418,
        "last_contact": 1786405418,
        "baro_altitude": 381,
        "on_ground": false,
        "velocity": 68.71,
        "true_track": 348.77,
        "vertical_rate": -3.58,
        "geo_altitude": 464.82,
        "squawk": "1000",
        "spi": false,
        "position_source": 0
      }
    },
    {
      "type": "Feature",
      "geometry": {
        "type": "Point",
        "coordinates": [
          9.4969,
          41.0106
        ]
      },
      "properties": {
        "icao24": "4d20f3",
        "callsign": "WMT1488",
        "origin_country": "Malta",
        "time_position": 1786405417,
        "last_contact": 1786405417,
        "baro_altitude": 10744.2,
        "on_ground": false,
        "velocity": 254.59,
        "true_track": 68.05,
        "vertical_rate": -4.23,
        "geo_altitude": 11391.9,
        "squawk": "1000",
        "spi": false,
        "position_source": 0
      }
    },
    {
      "type": "Feature",
      "geometry": {
        "type": "Point",
        "coordinates": [
          12.2657,
          41.8048
        ]
      },
      "properties": {
        "icao24": "4d20bf",
        "callsign": "WMT511",
        "origin_country": "Malta",
        "time_position": 1786405354,
        "last_contact": 1786405354,
        "baro_altitude": null,
        "on_ground": true,
        "velocity": 9.26,
        "true_track": 250.31,
        "vertical_rate": null,
        "geo_altitude": null,
        "squawk": "1000",
        "spi": false,
        "position_source": 0
      }
    },
    {
      "type": "Feature",
      "geometry": {
        "type": "Point",
        "coordinates": [
          14.6229,
          46.5703
        ]
      },
      "properties": {
        "icao24": "4d20bc",
        "callsign": "WZZ1UN",
        "origin_country": "Malta",
        "time_position": 1786405417,
        "last_contact": 1786405418,
        "baro_altitude": 11262.36,
        "on_ground": false,
        "velocity": 239.89,
        "true_track": 132.83,
        "vertical_rate": 0,
        "geo_altitude": 11849.1,
        "squawk": "7715",
        "spi": false,
        "position_source": 0
      }
    },
    {
      "type": "Feature",
      "geometry": {
        "type": "Point",
        "coordinates": [
          17.6315,
          44.0238
        ]
      },
      "properties": {
        "icao24": "408352",
        "callsign": "EXS96PS",
        "origin_country": "United Kingdom",
        "time_position": 1786405411,
        "last_contact": 1786405415,
        "baro_altitude": 10965.18,
        "on_ground": false,
        "velocity": 219.72,
        "true_track": 315.19,
        "vertical_rate": 0,
        "geo_altitude": 11590.02,
        "squawk": "5211",
        "spi": false,
        "position_source": 0
      }
    },
    {
      "type": "Feature",
      "geometry": {
        "type": "Point",
        "coordinates": [
          15.7289,
          44.5139
        ]
      },
      "properties": {
        "icao24": "40838a",
        "callsign": "EZY26XM",
        "origin_country": "United Kingdom",
        "time_position": 1786405418,
        "last_contact": 1786405418,
        "baro_altitude": 10965.18,
        "on_ground": false,
        "velocity": 225.76,
        "true_track": 295.22,
        "vertical_rate": 0.33,
        "geo_altitude": 11582.4,
        "squawk": "5346",
        "spi": false,
        "position_source": 0
      }
    },
    {
      "type": "Feature",
      "geometry": {
        "type": "Point",
        "coordinates": [
          15.242,
          44.427
        ]
      },
      "properties": {
        "icao24": "408329",
        "callsign": "TOM8XC",
        "origin_country": "United Kingdom",
        "time_position": 1786405417,
        "last_contact": 1786405418,
        "baro_altitude": 11582.4,
        "on_ground": false,
        "velocity": 224.58,
        "true_track": 303.51,
        "vertical_rate": 0,
        "geo_altitude": 12230.1,
        "squawk": "0502",
        "spi": false,
        "position_source": 0
      }
    },
    {
      "type": "Feature",
      "geometry": {
        "type": "Point",
        "coordinates": [
          8.6997,
          43.9832
        ]
      },
      "properties": {
        "icao24": "4d213e",
        "callsign": "WMT4493",
        "origin_country": "Malta",
        "time_position": 1786405417,
        "last_contact": 1786405418,
        "baro_altitude": 10363.2,
        "on_ground": false,
        "velocity": 248.31,
        "true_track": 74.01,
        "vertical_rate": 0.33,
        "geo_altitude": 10934.7,
        "squawk": "1000",
        "spi": false,
        "position_source": 0
      }
    },
    {
      "type": "Feature",
      "geometry": {
        "type": "Point",
        "coordinates": [
          12.2476,
          45.8304
        ]
      },
      "properties": {
        "icao24": "4081aa",
        "callsign": "EXS47K",
        "origin_country": "United Kingdom",
        "time_position": 1786405417,
        "last_contact": 1786405417,
        "baro_altitude": 10972.8,
        "on_ground": false,
        "velocity": 223.08,
        "true_track": 306.18,
        "vertical_rate": 0.33,
        "geo_altitude": 11559.54,
        "squawk": "0237",
        "spi": false,
        "position_source": 0
      }
    },
    {
      "type": "Feature",
      "geometry": {
        "type": "Point",
        "coordinates": [
          12.2651,
          41.8374
        ]
      },
      "properties": {
        "icao24": "4d204b",
        "callsign": "WMT9059",
        "origin_country": "Malta",
        "time_position": 1786405400,
        "last_contact": 1786405400,
        "baro_altitude": -22.86,
        "on_ground": false,
        "velocity": 79.88,
        "true_track": 162.38,
        "vertical_rate": -3.9,
        "geo_altitude": 114.3,
        "squawk": "2054",
        "spi": false,
        "position_source": 0
      }
    },
    {
      "type": "Feature",
      "geometry": {
        "type": "Point",
        "coordinates": [
          8.9183,
          45.4654
        ]
      },
      "properties": {
        "icao24": "aac71d",
        "callsign": "CKS221",
        "origin_country": "United States",
        "time_position": 1786405417,
        "last_contact": 1786405418,
        "baro_altitude": 2438.4,
        "on_ground": false,
        "velocity": 140.54,
        "true_track": 168.81,
        "vertical_rate": -10.73,
        "geo_altitude": 2667,
        "squawk": "2206",
        "spi": false,
        "position_source": 0
      }
    },
    {
      "type": "Feature",
      "geometry": {
        "type": "Point",
        "coordinates": [
          12.3413,
          45.4969
        ]
      },
      "properties": {
        "icao24": "4d208f",
        "callsign": "WMT6084",
        "origin_country": "Malta",
        "time_position": 1786405322,
        "last_contact": 1786405322,
        "baro_altitude": -15.24,
        "on_ground": false,
        "velocity": 67.76,
        "true_track": 41.92,
        "vertical_rate": -0.33,
        "geo_altitude": 53.34,
        "squawk": "2045",
        "spi": false,
        "position_source": 0
      }
    },
    {
      "type": "Feature",
      "geometry": {
        "type": "Point",
        "coordinates": [
          12.4009,
          39.3562
        ]
      },
      "properties": {
        "icao24": "4cab4f",
        "callsign": "GJI55H",
        "origin_country": "Ireland",
        "time_position": 1786405418,
        "last_contact": 1786405418,
        "baro_altitude": 13716,
        "on_ground": false,
        "velocity": 228.69,
        "true_track": 277.24,
        "vertical_rate": 0,
        "geo_altitude": 14538.96,
        "squawk": "2010",
        "spi": false,
        "position_source": 0
      }
    },
    {
      "type": "Feature",
      "geometry": {
        "type": "Point",
        "coordinates": [
          14.6115,
          45.631
        ]
      },
      "properties": {
        "icao24": "40717d",
        "callsign": "EXS1470",
        "origin_country": "United Kingdom",
        "time_position": 1786405417,
        "last_contact": 1786405417,
        "baro_altitude": 10972.8,
        "on_ground": false,
        "velocity": 222.04,
        "true_track": 320.08,
        "vertical_rate": 0,
        "geo_altitude": 11559.54,
        "squawk": "5502",
        "spi": false,
        "position_source": 0
      }
    },
    {
      "type": "Feature",
      "geometry": {
        "type": "Point",
        "coordinates": [
          13.1642,
          37.9833
        ]
      },
      "properties": {
        "icao24": "4d2035",
        "callsign": "KMM455",
        "origin_country": "Malta",
        "time_position": 1786405418,
        "last_contact": 1786405418,
        "baro_altitude": 11285.22,
        "on_ground": false,
        "velocity": 229.53,
        "true_track": 155.5,
        "vertical_rate": 0,
        "geo_altitude": 12039.6,
        "squawk": "3743",
        "spi": false,
        "position_source": 0
      }
    },
    {
      "type": "Feature",
      "geometry": {
        "type": "Point",
        "coordinates": [
          17.9822,
          42.6999
        ]
      },
      "properties": {
        "icao24": "4d201f",
        "callsign": "WMT286",
        "origin_country": "Malta",
        "time_position": 1786405417,
        "last_contact": 1786405417,
        "baro_altitude": 8831.58,
        "on_ground": false,
        "velocity": 206.43,
        "true_track": 132.68,
        "vertical_rate": -8.45,
        "geo_altitude": 9395.46,
        "squawk": "6433",
        "spi": false,
        "position_source": 0
      }
    },
    {
      "type": "Feature",
      "geometry": {
        "type": "Point",
        "coordinates": [
          11.9866,
          45.3773
        ]
      },
      "properties": {
        "icao24": "4d203d",
        "callsign": "CHZ112",
        "origin_country": "Malta",
        "time_position": 1786405418,
        "last_contact": 1786405418,
        "baro_altitude": 10668,
        "on_ground": false,
        "velocity": 244.7,
        "true_track": 140.12,
        "vertical_rate": 0,
        "geo_altitude": 11186.16,
        "squawk": "0233",
        "spi": false,
        "position_source": 0
      }
    },
    {
      "type": "Feature",
      "geometry": {
        "type": "Point",
        "coordinates": [
          7.0348,
          45.4071
        ]
      },
      "properties": {
        "icao24": "4d2013",
        "callsign": "EWG8PR",
        "origin_country": "Malta",
        "time_position": 1786405418,
        "last_contact": 1786405418,
        "baro_altitude": 10988.04,
        "on_ground": false,
        "velocity": 231.95,
        "true_track": 21.33,
        "vertical_rate": 0,
        "geo_altitude": 11559.54,
        "squawk": "5510",
        "spi": false,
        "position_source": 0
      }
    }
  ]
}