{
  "type": "FeatureCollection",
  "source": "opensky",
  "dataset": "aircraft_italy",
  "generated_at": "2026-08-10T02:55:50.544415+00:00",
  "opensky_time": 1786330549,
  "count": 101,
  "features": [
    {
      "type": "Feature",
      "geometry": {
        "type": "Point",
        "coordinates": [
          12.272,
          41.8131
        ]
      },
      "properties": {
        "icao24": "a48850",
        "callsign": "UPS266",
        "origin_country": "United States",
        "time_position": 1786330452,
        "last_contact": 1786330452,
        "baro_altitude": null,
        "on_ground": true,
        "velocity": 12.86,
        "true_track": 163.12,
        "vertical_rate": null,
        "geo_altitude": null,
        "squawk": "2506",
        "spi": false,
        "position_source": 0
      }
    },
    {
      "type": "Feature",
      "geometry": {
        "type": "Point",
        "coordinates": [
          13.3924,
          45.3418
        ]
      },
      "properties": {
        "icao24": "39de41",
        "callsign": "TVF51EN",
        "origin_country": "France",
        "time_position": 1786330548,
        "last_contact": 1786330548,
        "baro_altitude": 11574.78,
        "on_ground": false,
        "velocity": 214.11,
        "true_track": 278.15,
        "vertical_rate": 0,
        "geo_altitude": 12199.62,
        "squawk": "3255",
        "spi": false,
        "position_source": 0
      }
    },
    {
      "type": "Feature",
      "geometry": {
        "type": "Point",
        "coordinates": [
          18.074,
          43.5798
        ]
      },
      "properties": {
        "icao24": "4521b2",
        "callsign": "GPX9RE",
        "origin_country": "Bulgaria",
        "time_position": 1786330547,
        "last_contact": 1786330548,
        "baro_altitude": 10050.78,
        "on_ground": false,
        "velocity": 238.79,
        "true_track": 140.86,
        "vertical_rate": 0,
        "geo_altitude": null,
        "squawk": "2556",
        "spi": false,
        "position_source": 0
      }
    },
    {
      "type": "Feature",
      "geometry": {
        "type": "Point",
        "coordinates": [
          16.2497,
          47.3329
        ]
      },
      "properties": {
        "icao24": "4bc88c",
        "callsign": "PGT90ET",
        "origin_country": "Turkey",
        "time_position": 1786330548,
        "last_contact": 1786330549,
        "baro_altitude": 11285.22,
        "on_ground": false,
        "velocity": 252.51,
        "true_track": 126.22,
        "vertical_rate": 0,
        "geo_altitude": 11864.34,
        "squawk": "6412",
        "spi": false,
        "position_source": 0
      }
    },
    {
      "type": "Feature",
      "geometry": {
        "type": "Point",
        "coordinates": [
          18.8716,
          45.5052
        ]
      },
      "properties": {
        "icao24": "4bb564",
        "callsign": "CAI76GG",
        "origin_country": "Turkey",
        "time_position": 1786330548,
        "last_contact": 1786330548,
        "baro_altitude": 11277.6,
        "on_ground": false,
        "velocity": 250.71,
        "true_track": 130.42,
        "vertical_rate": 0,
        "geo_altitude": 11894.82,
        "squawk": "7707",
        "spi": false,
        "position_source": 0
      }
    },
    {
      "type": "Feature",
      "geometry": {
        "type": "Point",
        "coordinates": [
          7.1641,
          39.9457
        ]
      },
      "properties": {
        "icao24": "3c4a10",
        "callsign": "DLH569",
        "origin_country": "Germany",
        "time_position": 1786330548,
        "last_contact": 1786330548,
        "baro_altitude": 12192,
        "on_ground": false,
        "velocity": 266.56,
        "true_track": 6.32,
        "vertical_rate": -0.33,
        "geo_altitude": 12900.66,
        "squawk": null,
        "spi": false,
        "position_source": 0
      }
    },
    {
      "type": "Feature",
      "geometry": {
        "type": "Point",
        "coordinates": [
          16.7744,
          45.1864
        ]
      },
      "properties": {
        "icao24": "3c4a04",
        "callsign": "DLH591",
        "origin_country": "Germany",
        "time_position": 1786330548,
        "last_contact": 1786330548,
        "baro_altitude": 11574.78,
        "on_ground": false,
        "velocity": 245.13,
        "true_track": 321.13,
        "vertical_rate": 0,
        "geo_altitude": 12214.86,
        "squawk": "5521",
        "spi": false,
        "position_source": 0
      }
    },
    {
      "type": "Feature",
      "geometry": {
        "type": "Point",
        "coordinates": [
          17.9846,
          40.5417
        ]
      },
      "properties": {
        "icao24": "896187",
        "callsign": "UAE3MX",
        "origin_country": "United Arab Emirates",
        "time_position": 1786330549,
        "last_contact": 1786330549,
        "baro_altitude": 10363.2,
        "on_ground": false,
        "velocity": 248.41,
        "true_track": 303.85,
        "vertical_rate": 0,
        "geo_altitude": 11003.28,
        "squawk": "2057",
        "spi": false,
        "position_source": 0
      }
    },
    {
      "type": "Feature",
      "geometry": {
        "type": "Point",
        "coordinates": [
          7.5292,
          47.5963
        ]
      },
      "properties": {
        "icao24": "3849ff",
        "callsign": "M02",
        "origin_country": "France",
        "time_position": 1786330547,
        "last_contact": 1786330547,
        "baro_altitude": null,
        "on_ground": true,
        "velocity": 5.14,
        "true_track": 160.31,
        "vertical_rate": null,
        "geo_altitude": null,
        "squawk": null,
        "spi": false,
        "position_source": 0
      }
    },
    {
      "type": "Feature",
      "geometry": {
        "type": "Point",
        "coordinates": [
          10.4368,
          36.0775
        ]
      },
      "properties": {
        "icao24": "4892c1",
        "callsign": "ENT4017",
        "origin_country": "Poland",
        "time_position": 1786330532,
        "last_contact": 1786330532,
        "baro_altitude": null,
        "on_ground": true,
        "velocity": 13.89,
        "true_track": 90,
        "vertical_rate": null,
        "geo_altitude": null,
        "squawk": "2265",
        "spi": false,
        "position_source": 0
      }
    },
    {
      "type": "Feature",
      "geometry": {
        "type": "Point",
        "coordinates": [
          16.9855,
          41.2614
        ]
      },
      "properties": {
        "icao24": "50018a",
        "callsign": "T7ELL",
        "origin_country": "San Marino",
        "time_position": 1786330549,
        "last_contact": 1786330549,
        "baro_altitude": 12192,
        "on_ground": false,
        "velocity": 248.43,
        "true_track": 303,
        "vertical_rate": 0,
        "geo_altitude": 12969.24,
        "squawk": "5515",
        "spi": false,
        "position_source": 0
      }
    },
    {
      "type": "Feature",
      "geometry": {
        "type": "Point",
        "coordinates": [
          17.9858,
          47.6244
        ]
      },
      "properties": {
        "icao24": "780a67",
        "callsign": "CPA255",
        "origin_country": "China",
        "time_position": 1786330548,
        "last_contact": 1786330549,
        "baro_altitude": 10972.8,
        "on_ground": false,
        "velocity": 227.32,
        "true_track": 289.71,
        "vertical_rate": 0,
        "geo_altitude": 11529.06,
        "squawk": "3275",
        "spi": false,
        "position_source": 0
      }
    },
    {
      "type": "Feature",
      "geometry": {
        "type": "Point",
        "coordinates": [
          18.5394,
          38.8548
        ]
      },
      "properties": {
        "icao24": "346691",
        "callsign": "VLG448P",
        "origin_country": "Spain",
        "time_position": 1786330548,
        "last_contact": 1786330548,
        "baro_altitude": 10972.8,
        "on_ground": false,
        "velocity": 223.08,
        "true_track": 287.31,
        "vertical_rate": -0.33,
        "geo_altitude": 11658.6,
        "squawk": "2070",
        "spi": false,
        "position_source": 0
      }
    },
    {
      "type": "Feature",
      "geometry": {
        "type": "Point",
        "coordinates": [
          18.2913,
          35.5548
        ]
      },
      "properties": {
        "icao24": "896451",
        "callsign": "UAE213",
        "origin_country": "United Arab Emirates",
        "time_position": 1786330549,
        "last_contact": 1786330549,
        "baro_altitude": 9753.6,
        "on_ground": false,
        "velocity": 243.07,
        "true_track": 282.09,
        "vertical_rate": 0,
        "geo_altitude": 10401.3,
        "squawk": null,
        "spi": false,
        "position_source": 0
      }
    },
    {
      "type": "Feature",
      "geometry": {
        "type": "Point",
        "coordinates": [
          16.8945,
          35.789
        ]
      },
      "properties": {
        "icao24": "896464",
        "callsign": "ETD7LG",
        "origin_country": "United Arab Emirates",
        "time_position": 1786330549,
        "last_contact": 1786330549,
        "baro_altitude": 10965.18,
        "on_ground": false,
        "velocity": 241.94,
        "true_track": 281.41,
        "vertical_rate": 0,
        "geo_altitude": 11711.94,
        "squawk": "2003",
        "spi": false,
        "position_source": 0
      }
    },
    {
      "type": "Feature",
      "geometry": {
        "type": "Point",
        "coordinates": [
          6.4122,
          46.4264
        ]
      },
      "properties": {
        "icao24": "3a2e21",
        "callsign": "REU973",
        "origin_country": "France",
        "time_position": 1786330548,
        "last_contact": 1786330548,
        "baro_altitude": 12184.38,
        "on_ground": false,
        "velocity": 243.65,
        "true_track": 309.77,
        "vertical_rate": 0,
        "geo_altitude": 12740.64,
        "squawk": "1000",
        "spi": false,
        "position_source": 0
      }
    },
    {
      "type": "Feature",
      "geometry": {
        "type": "Point",
        "coordinates": [
          12.7078,
          41.6983
        ]
      },
      "properties": {
        "icao24": "3009bc",
        "callsign": "ARES44",
        "origin_country": "Italy",
        "time_position": 1786330548,
        "last_contact": 1786330549,
        "baro_altitude": 815.34,
        "on_ground": false,
        "velocity": 69.86,
        "true_track": 136.19,
        "vertical_rate": 0,
        "geo_altitude": 922.02,
        "squawk": null,
        "spi": false,
        "position_source": 0
      }
    },
    {
      "type": "Feature",
      "geometry": {
        "type": "Point",
        "coordinates": [
          18.4353,
          47.4518
        ]
      },
      "properties": {
        "icao24": "4076e8",
        "callsign": "BAW32",
        "origin_country": "United Kingdom",
        "time_position": 1786330549,
        "last_contact": 1786330549,
        "baro_altitude": 11582.4,
        "on_ground": false,
        "velocity": 239.6,
        "true_track": 293.54,
        "vertical_rate": 0,
        "geo_altitude": 12153.9,
        "squawk": "5366",
        "spi": false,
        "position_source": 0
      }
    },
    {
      "type": "Feature",
      "geometry": {
        "type": "Point",
        "coordinates": [
          6.8131,
          43.9786
        ]
      },
      "properties": {
        "icao24": "44ccc3",
        "callsign": "BEL38K",
        "origin_country": "Belgium",
        "time_position": 1786330548,
        "last_contact": 1786330549,
        "baro_altitude": 12192,
        "on_ground": false,
        "velocity": 255.33,
        "true_track": 357.92,
        "vertical_rate": 0,
        "geo_altitude": 12801.6,
        "squawk": "1000",
        "spi": false,
        "position_source": 0
      }
    },
    {
      "type": "Feature",
      "geometry": {
        "type": "Point",
        "coordinates": [
          6.22,
          42.5799
        ]
      },
      "properties": {
        "icao24": "44ccd8",
        "callsign": "BEL28A",
        "origin_country": "Belgium",
        "time_position": 1786330548,
        "last_contact": 1786330548,
        "baro_altitude": 12192,
        "on_ground": false,
        "velocity": 250.45,
        "true_track": 10.29,
        "vertical_rate": 0,
        "geo_altitude": 12748.26,
        "squawk": "1000",
        "spi": false,
        "position_source": 0
      }
    },
    {
      "type": "Feature",
      "geometry": {
        "type": "Point",
        "coordinates": [
          14.5306,
          37.8257
        ]
      },
      "properties": {
        "icao24": "0201c1",
        "callsign": "RAM272C",
        "origin_country": "Morocco",
        "time_position": 1786330548,
        "last_contact": 1786330548,
        "baro_altitude": 11277.6,
        "on_ground": false,
        "velocity": 242.66,
        "true_track": 112.43,
        "vertical_rate": 0,
        "geo_altitude": 12001.5,
        "squawk": "0205",
        "spi": false,
        "position_source": 0
      }
    },
    {
      "type": "Feature",
      "geometry": {
        "type": "Point",
        "coordinates": [
          16.6629,
          35.5421
        ]
      },
      "properties": {
        "icao24": "89408e",
        "callsign": "GFA143",
        "origin_country": "Bahrain",
        "time_position": 1786330549,
        "last_contact": 1786330549,
        "baro_altitude": 11582.4,
        "on_ground": false,
        "velocity": 236.52,
        "true_track": 278.25,
        "vertical_rate": 0,
        "geo_altitude": 12367.26,
        "squawk": null,
        "spi": false,
        "position_source": 0
      }
    },
    {
      "type": "Feature",
      "geometry": {
        "type": "Point",
        "coordinates": [
          11.1492,
          43.3795
        ]
      },
      "properties": {
        "icao24": "040171",
        "callsign": "ETH736",
        "origin_country": "Ethiopia",
        "time_position": 1786330548,
        "last_contact": 1786330549,
        "baro_altitude": 12192,
        "on_ground": false,
        "velocity": 247,
        "true_track": 314.75,
        "vertical_rate": -0.33,
        "geo_altitude": 12839.7,
        "squawk": "5534",
        "spi": false,
        "position_source": 0
      }
    },
    {
      "type": "Feature",
      "geometry": {
        "type": "Point",
        "coordinates": [
          13.8569,
          41.2623
        ]
      },
      "properties": {
        "icao24": "04014d",
        "callsign": "ETH712",
        "origin_country": "Ethiopia",
        "time_position": 1786330549,
        "last_contact": 1786330549,
        "baro_altitude": 9464.04,
        "on_ground": false,
        "velocity": 218.23,
        "true_track": 302.19,
        "vertical_rate": -17.56,
        "geo_altitude": 9997.44,
        "squawk": "6630",
        "spi": false,
        "position_source": 0
      }
    },
    {
      "type": "Feature",
      "geometry": {
        "type": "Point",
        "coordinates": [
          18.4768,
          41.1324
        ]
      },
      "properties": {
        "icao24": "49d3d6",
        "callsign": "TVL5006",
        "origin_country": "Czech Republic",
        "time_position": 1786330548,
        "last_contact": 1786330549,
        "baro_altitude": 10668,
        "on_ground": false,
        "velocity": 246.02,
        "true_track": 167.56,
        "vertical_rate": 0,
        "geo_altitude": 11315.7,
        "squawk": "5613",
        "spi": false,
        "position_source": 0
      }
    },
    {
      "type": "Feature",
      "geometry": {
        "type": "Point",
        "coordinates": [
          14.9763,
          41.9239
        ]
      },
      "properties": {
        "icao24": "040132",
        "callsign": "ETH728",
        "origin_country": "Ethiopia",
        "time_position": 1786330548,
        "last_contact": 1786330548,
        "baro_altitude": 12192,
        "on_ground": false,
        "velocity": 246.1,
        "true_track": 309.15,
        "vertical_rate": 0,
        "geo_altitude": 12793.98,
        "squawk": "2045",
        "spi": false,
        "position_source": 0
      }
    },
    {
      "type": "Feature",
      "geometry": {
        "type": "Point",
        "coordinates": [
          10.2459,
          46.2686
        ]
      },
      "properties": {
        "icao24": "a4f5f0",
        "callsign": "DAL240",
        "origin_country": "United States",
        "time_position": 1786330548,
        "last_contact": 1786330548,
        "baro_altitude": 11887.2,
        "on_ground": false,
        "velocity": 249.51,
        "true_track": 132.08,
        "vertical_rate": 0,
        "geo_altitude": 12466.32,
        "squawk": "2252",
        "spi": false,
        "position_source": 0
      }
    },
    {
      "type": "Feature",
      "geometry": {
        "type": "Point",
        "coordinates": [
          14.3707,
          44.0936
        ]
      },
      "properties": {
        "icao24": "04004b",
        "callsign": "ETH718",
        "origin_country": "Ethiopia",
        "time_position": 1786330549,
        "last_contact": 1786330549,
        "baro_altitude": 12184.38,
        "on_ground": false,
        "velocity": 241.91,
        "true_track": 314.74,
        "vertical_rate": 0,
        "geo_altitude": 12862.56,
        "squawk": "7736",
        "spi": false,
        "position_source": 0
      }
    },
    {
      "type": "Feature",
      "geometry": {
        "type": "Point",
        "coordinates": [
          11.8678,
          45.9319
        ]
      },
      "properties": {
        "icao24": "406d79",
        "callsign": "BAW16",
        "origin_country": "United Kingdom",
        "time_position": 1786330548,
        "last_contact": 1786330548,
        "baro_altitude": 12184.38,
        "on_ground": false,
        "velocity": 241.76,
        "true_track": 309.04,
        "vertical_rate": -0.33,
        "geo_altitude": 12801.6,
        "squawk": "2002",
        "spi": false,
        "position_source": 0
      }
    },
    {
      "type": "Feature",
      "geometry": {
        "type": "Point",
        "coordinates": [
          17.0389,
          44.9819
        ]
      },
      "properties": {
        "icao24": "49d327",
        "callsign": "TVS2736",
        "origin_country": "Czech Republic",
        "time_position": 1786330548,
        "last_contact": 1786330548,
        "baro_altitude": 10668,
        "on_ground": false,
        "velocity": 231.45,
        "true_track": 156,
        "vertical_rate": 0,
        "geo_altitude": 11269.98,
        "squawk": "0505",
        "spi": false,
        "position_source": 0
      }
    },
    {
      "type": "Feature",
      "geometry": {
        "type": "Point",
        "coordinates": [
          8.72,
          45.6399
        ]
      },
      "properties": {
        "icao24": "31d7b1",
        "callsign": "MIKE1",
        "origin_country": "Italy",
        "time_position": 1786330548,
        "last_contact": 1786330548,
        "baro_altitude": null,
        "on_ground": true,
        "velocity": 3.6,
        "true_track": 239.06,
        "vertical_rate": null,
        "geo_altitude": null,
        "squawk": null,
        "spi": false,
        "position_source": 0
      }
    },
    {
      "type": "Feature",
      "geometry": {
        "type": "Point",
        "coordinates": [
          14.0254,
          42.6012
        ]
      },
      "properties": {
        "icao24": "39ceb0",
        "callsign": "TVF54TC",
        "origin_country": "France",
        "time_position": 1786330548,
        "last_contact": 1786330549,
        "baro_altitude": 11582.4,
        "on_ground": false,
        "velocity": 221.23,
        "true_track": 302.17,
        "vertical_rate": 0.33,
        "geo_altitude": 12260.58,
        "squawk": "2010",
        "spi": false,
        "position_source": 0
      }
    },
    {
      "type": "Feature",
      "geometry": {
        "type": "Point",
        "coordinates": [
          17.3221,
          41.8596
        ]
      },
      "properties": {
        "icao24": "39cf10",
        "callsign": "AFR829",
        "origin_country": "France",
        "time_position": 1786330548,
        "last_contact": 1786330548,
        "baro_altitude": 11582.4,
        "on_ground": false,
        "velocity": 248.9,
        "true_track": 321.38,
        "vertical_rate": 0,
        "geo_altitude": 12260.58,
        "squawk": "6621",
        "spi": false,
        "position_source": 0
      }
    },
    {
      "type": "Feature",
      "geometry": {
        "type": "Point",
        "coordinates": [
          16.5551,
          45.9985
        ]
      },
      "properties": {
        "icao24": "49d00d",
        "callsign": "TVS3QS",
        "origin_country": "Czech Republic",
        "time_position": 1786330549,
        "last_contact": 1786330549,
        "baro_altitude": 11277.6,
        "on_ground": false,
        "velocity": 235.82,
        "true_track": 157.01,
        "vertical_rate": 0,
        "geo_altitude": 11894.82,
        "squawk": "0514",
        "spi": false,
        "position_source": 0
      }
    },
    {
      "type": "Feature",
      "geometry": {
        "type": "Point",
        "coordinates": [
          18.5432,
          44.5219
        ]
      },
      "properties": {
        "icao24": "4bb841",
        "callsign": "PGT15NN",
        "origin_country": "Turkey",
        "time_position": 1786330548,
        "last_contact": 1786330548,
        "baro_altitude": 11277.6,
        "on_ground": false,
        "velocity": 248.47,
        "true_track": 134.41,
        "vertical_rate": 0,
        "geo_altitude": 11917.68,
        "squawk": "7703",
        "spi": false,
        "position_source": 0
      }
    },
    {
      "type": "Feature",
      "geometry": {
        "type": "Point",
        "coordinates": [
          10.6449,
          44.6671
        ]
      },
      "properties": {
        "icao24": "45ce4d",
        "callsign": "SRR6498",
        "origin_country": "Denmark",
        "time_position": 1786330549,
        "last_contact": 1786330549,
        "baro_altitude": 2255.52,
        "on_ground": false,
        "velocity": 147.92,
        "true_track": 99,
        "vertical_rate": -13.98,
        "geo_altitude": 2438.4,
        "squawk": "7461",
        "spi": false,
        "position_source": 0
      }
    },
    {
      "type": "Feature",
      "geometry": {
        "type": "Point",
        "coordinates": [
          7.1552,
          43.9948
        ]
      },
      "properties": {
        "icao24": "80159e",
        "callsign": "AIC191",
        "origin_country": "India",
        "time_position": 1786330548,
        "last_contact": 1786330548,
        "baro_altitude": 10363.2,
        "on_ground": false,
        "velocity": 239.01,
        "true_track": 304.48,
        "vertical_rate": 0,
        "geo_altitude": 10927.08,
        "squawk": "4033",
        "spi": false,
        "position_source": 0
      }
    },
    {
      "type": "Feature",
      "geometry": {
        "type": "Point",
        "coordinates": [
          18.8039,
          46.5015
        ]
      },
      "properties": {
        "icao24": "4a2183",
        "callsign": "HLJ3HJ",
        "origin_country": "Romania",
        "time_position": 1786330548,
        "last_contact": 1786330548,
        "baro_altitude": 10972.8,
        "on_ground": false,
        "velocity": 220.47,
        "true_track": 319.73,
        "vertical_rate": -0.33,
        "geo_altitude": 11559.54,
        "squawk": "1000",
        "spi": false,
        "position_source": 0
      }
    },
    {
      "type": "Feature",
      "geometry": {
        "type": "Point",
        "coordinates": [
          17.3373,
          39.12
        ]
      },
      "properties": {
        "icao24": "4952c5",
        "callsign": "TAP901",
        "origin_country": "Portugal",
        "time_position": 1786330548,
        "last_contact": 1786330548,
        "baro_altitude": 10972.8,
        "on_ground": false,
        "velocity": 229.32,
        "true_track": 286.69,
        "vertical_rate": 0,
        "geo_altitude": 11666.22,
        "squawk": "2162",
        "spi": false,
        "position_source": 0
      }
    },
    {
      "type": "Feature",
      "geometry": {
        "type": "Point",
        "coordinates": [
          13.0512,
          43.0102
        ]
      },
      "properties": {
        "icao24": "716ffc",
        "callsign": "SVA131",
        "origin_country": "Saudi Arabia",
        "time_position": 1786330548,
        "last_contact": 1786330549,
        "baro_altitude": 9753.6,
        "on_ground": false,
        "velocity": 224.93,
        "true_track": 306.16,
        "vertical_rate": 0,
        "geo_altitude": 10347.96,
        "squawk": "5527",
        "spi": false,
        "position_source": 0
      }
    },
    {
      "type": "Feature",
      "geometry": {
        "type": "Point",
        "coordinates": [
          17.7,
          42.6028
        ]
      },
      "properties": {
        "icao24": "4b1880",
        "callsign": "SWR155",
        "origin_country": "Switzerland",
        "time_position": 1786330549,
        "last_contact": 1786330549,
        "baro_altitude": 11582.4,
        "on_ground": false,
        "velocity": 226.69,
        "true_track": 313.62,
        "vertical_rate": 0,
        "geo_altitude": 12268.2,
        "squawk": "4314",
        "spi": false,
        "position_source": 0
      }
    },
    {
      "type": "Feature",
      "geometry": {
        "type": "Point",
        "coordinates": [
          14.3412,
          47.6373
        ]
      },
      "properties": {
        "icao24": "3c65d0",
        "callsign": "DLH1743",
        "origin_country": "Germany",
        "time_position": 1786330549,
        "last_contact": 1786330549,
        "baro_altitude": 8816.34,
        "on_ground": false,
        "velocity": 232.15,
        "true_track": 295.88,
        "vertical_rate": -8.45,
        "geo_altitude": 9311.64,
        "squawk": "3220",
        "spi": false,
        "position_source": 0
      }
    },
    {
      "type": "Feature",
      "geometry": {
        "type": "Point",
        "coordinates": [
          7.3295,
          46.2979
        ]
      },
      "properties": {
        "icao24": "3c65e2",
        "callsign": "DLH1331",
        "origin_country": "Germany",
        "time_position": 1786330548,
        "last_contact": 1786330548,
        "baro_altitude": 10965.18,
        "on_ground": false,
        "velocity": 246.09,
        "true_track": 20.18,
        "vertical_rate": 0.33,
        "geo_altitude": 11506.2,
        "squawk": "1000",
        "spi": false,
        "position_source": 0
      }
    },
    {
      "type": "Feature",
      "geometry": {
        "type": "Point",
        "coordinates": [
          17.5641,
          37.8535
        ]
      },
      "properties": {
        "icao24": "716ff8",
        "callsign": "RXI531",
        "origin_country": "Saudi Arabia",
        "time_position": 1786330548,
        "last_contact": 1786330548,
        "baro_altitude": 12192,
        "on_ground": false,
        "velocity": 238.39,
        "true_track": 292.86,
        "vertical_rate": -0.33,
        "geo_altitude": 12976.86,
        "squawk": "2014",
        "spi": false,
        "position_source": 0
      }
    },
    {
      "type": "Feature",
      "geometry": {
        "type": "Point",
        "coordinates": [
          9.0801,
          45.1732
        ]
      },
      "properties": {
        "icao24": "3c542e",
        "callsign": "BCS48D",
        "origin_country": "Germany",
        "time_position": 1786330548,
        "last_contact": 1786330548,
        "baro_altitude": 5730.24,
        "on_ground": false,
        "velocity": 207.52,
        "true_track": 144.89,
        "vertical_rate": 10.73,
        "geo_altitude": 6065.52,
        "squawk": "1000",
        "spi": false,
        "position_source": 0
      }
    },
    {
      "type": "Feature",
      "geometry": {
        "type": "Point",
        "coordinates": [
          14.6745,
          47.6234
        ]
      },
      "properties": {
        "icao24": "3c670d",
        "callsign": "DLH773",
        "origin_country": "Germany",
        "time_position": 1786330549,
        "last_contact": 1786330549,
        "baro_altitude": 10332.72,
        "on_ground": false,
        "velocity": 229.37,
        "true_track": 292.14,
        "vertical_rate": -10.08,
        "geo_altitude": 10911.84,
        "squawk": "1000",
        "spi": false,
        "position_source": 0
      }
    },
    {
      "type": "Feature",
      "geometry": {
        "type": "Point",
        "coordinates": [
          18.9482,
          47.191
        ]
      },
      "properties": {
        "icao24": "7c4927",
        "callsign": "QFA1",
        "origin_country": "Australia",
        "time_position": 1786330548,
        "last_contact": 1786330549,
        "baro_altitude": 11582.4,
        "on_ground": false,
        "velocity": 231.36,
        "true_track": 293.32,
        "vertical_rate": -0.33,
        "geo_altitude": 12161.52,
        "squawk": "2652",
        "spi": false,
        "position_source": 0
      }
    },
    {
      "type": "Feature",
      "geometry": {
        "type": "Point",
        "coordinates": [
          14.2663,
          41.5429
        ]
      },
      "properties": {
        "icao24": "02a1a3",
        "callsign": "LBT7416",
        "origin_country": "Tunisia",
        "time_position": 1786330548,
        "last_contact": 1786330548,
        "baro_altitude": 10972.8,
        "on_ground": false,
        "velocity": 245.19,
        "true_track": 24.41,
        "vertical_rate": 0,
        "geo_altitude": 11628.12,
        "squawk": "6132",
        "spi": false,
        "position_source": 0
      }
    },
    {
      "type": "Feature",
      "geometry": {
        "type": "Point",
        "coordinates": [
          11.1078,
          35.8962
        ]
      },
      "properties": {
        "icao24": "02a1a2",
        "callsign": "LBT7535",
        "origin_country": "Tunisia",
        "time_position": 1786330545,
        "last_contact": 1786330545,
        "baro_altitude": 1074.42,
        "on_ground": false,
        "velocity": 136.03,
        "true_track": 230.83,
        "vertical_rate": -2.6,
        "geo_altitude": 1196.34,
        "squawk": "4336",
        "spi": false,
        "position_source": 0
      }
    },
    {
      "type": "Feature",
      "geometry": {
        "type": "Point",
        "coordinates": [
          16.1562,
          45.601
        ]
      },
      "properties": {
        "icao24": "3c64a4",
        "callsign": "DLH691",
        "origin_country": "Germany",
        "time_position": 1786330548,
        "last_contact": 1786330548,
        "baro_altitude": 10370.82,
        "on_ground": false,
        "velocity": 225.89,
        "true_track": 327.18,
        "vertical_rate": 0,
        "geo_altitude": 10957.56,
        "squawk": "6631",
        "spi": false,
        "position_source": 0
      }
    },
    {
      "type": "Feature",
      "geometry": {
        "type": "Point",
        "coordinates": [
          14.0505,
          37.6923
        ]
      },
      "properties": {
        "icao24": "02a1ae",
        "callsign": "LBT7261",
        "origin_country": "Tunisia",
        "time_position": 1786330549,
        "last_contact": 1786330549,
        "baro_altitude": 10668,
        "on_ground": false,
        "velocity": 227.55,
        "true_track": 209.23,
        "vertical_rate": 0,
        "geo_altitude": 11315.7,
        "squawk": "6007",
        "spi": false,
        "position_source": 0
      }
    },
    {
      "type": "Feature",
      "geometry": {
        "type": "Point",
        "coordinates": [
          8.5059,
          36.834
        ]
      },
      "properties": {
        "icao24": "02a1aa",
        "callsign": "DAH3031",
        "origin_country": "Tunisia",
        "time_position": 1786330236,
        "last_contact": 1786330237,
        "baro_altitude": 10972.8,
        "on_ground": false,
        "velocity": 225.75,
        "true_track": 275.23,
        "vertical_rate": 0.33,
        "geo_altitude": 11673.84,
        "squawk": "2324",
        "spi": false,
        "position_source": 0
      }
    },
    {
      "type": "Feature",
      "geometry": {
        "type": "Point",
        "coordinates": [
          15.2524,
          43.1806
        ]
      },
      "properties": {
        "icao24": "494101",
        "callsign": "NJE218A",
        "origin_country": "Portugal",
        "time_position": 1786330548,
        "last_contact": 1786330549,
        "baro_altitude": 11887.2,
        "on_ground": false,
        "velocity": 204.35,
        "true_track": 142.47,
        "vertical_rate": 0,
        "geo_altitude": 12573,
        "squawk": "6015",
        "spi": false,
        "position_source": 0
      }
    },
    {
      "type": "Feature",
      "geometry": {
        "type": "Point",
        "coordinates": [
          8.55,
          47.4464
        ]
      },
      "properties": {
        "icao24": "4b5d62",
        "callsign": "VIKTOR21",
        "origin_country": "Switzerland",
        "time_position": 1786330201,
        "last_contact": 1786330270,
        "baro_altitude": null,
        "on_ground": true,
        "velocity": 1.29,
        "true_track": 70.31,
        "vertical_rate": null,
        "geo_altitude": null,
        "squawk": null,
        "spi": false,
        "position_source": 0
      }
    },
    {
      "type": "Feature",
      "geometry": {
        "type": "Point",
        "coordinates": [
          8.5561,
          47.4519
        ]
      },
      "properties": {
        "icao24": "4b5d6f",
        "callsign": "VIKTOR33",
        "origin_country": "Switzerland",
        "time_position": 1786330548,
        "last_contact": 1786330548,
        "baro_altitude": null,
        "on_ground": true,
        "velocity": 3.86,
        "true_track": 337.5,
        "vertical_rate": null,
        "geo_altitude": null,
        "squawk": null,
        "spi": false,
        "position_source": 0
      }
    },
    {
      "type": "Feature",
      "geometry": {
        "type": "Point",
        "coordinates": [
          16.2636,
          44.7174
        ]
      },
      "properties": {
        "icao24": "392ae9",
        "callsign": "AFR1391",
        "origin_country": "France",
        "time_position": 1786330548,
        "last_contact": 1786330548,
        "baro_altitude": 10363.2,
        "on_ground": false,
        "velocity": 219.35,
        "true_track": 284.39,
        "vertical_rate": 0,
        "geo_altitude": 10965.18,
        "squawk": "3246",
        "spi": false,
        "position_source": 0
      }
    },
    {
      "type": "Feature",
      "geometry": {
        "type": "Point",
        "coordinates": [
          14.1726,
          44.6214
        ]
      },
      "properties": {
        "icao24": "4007f1",
        "callsign": "BAW2064",
        "origin_country": "United Kingdom",
        "time_position": 1786330549,
        "last_contact": 1786330549,
        "baro_altitude": 10972.8,
        "on_ground": false,
        "velocity": 222.89,
        "true_track": 307.87,
        "vertical_rate": 0,
        "geo_altitude": 11574.78,
        "squawk": "2054",
        "spi": false,
        "position_source": 0
      }
    },
    {
      "type": "Feature",
      "geometry": {
        "type": "Point",
        "coordinates": [
          12.4981,
          44.2124
        ]
      },
      "properties": {
        "icao24": "440bcb",
        "callsign": "BCS7824",
        "origin_country": "Austria",
        "time_position": 1786330548,
        "last_contact": 1786330548,
        "baro_altitude": 5219.7,
        "on_ground": false,
        "velocity": 198.33,
        "true_track": 117.16,
        "vertical_rate": -11.38,
        "geo_altitude": 5562.6,
        "squawk": "1000",
        "spi": false,
        "position_source": 0
      }
    },
    {
      "type": "Feature",
      "geometry": {
        "type": "Point",
        "coordinates": [
          8.5741,
          47.4534
        ]
      },
      "properties": {
        "icao24": "4b5c2b",
        "callsign": "VIKTOR27",
        "origin_country": "Switzerland",
        "time_position": 1786330543,
        "last_contact": 1786330545,
        "baro_altitude": null,
        "on_ground": true,
        "velocity": 0.06,
        "true_track": 50.62,
        "vertical_rate": null,
        "geo_altitude": null,
        "squawk": null,
        "spi": false,
        "position_source": 0
      }
    },
    {
      "type": "Feature",
      "geometry": {
        "type": "Point",
        "coordinates": [
          8.5604,
          47.4644
        ]
      },
      "properties": {
        "icao24": "4b5c1a",
        "callsign": "GUSTI2",
        "origin_country": "Switzerland",
        "time_position": 1786330548,
        "last_contact": 1786330548,
        "baro_altitude": null,
        "on_ground": true,
        "velocity": 16.98,
        "true_track": 315,
        "vertical_rate": null,
        "geo_altitude": null,
        "squawk": "6377",
        "spi": false,
        "position_source": 0
      }
    },
    {
      "type": "Feature",
      "geometry": {
        "type": "Point",
        "coordinates": [
          8.5415,
          47.4684
        ]
      },
      "properties": {
        "icao24": "4b5c1b",
        "callsign": "URSULA8",
        "origin_country": "Switzerland",
        "time_position": 1786330547,
        "last_contact": 1786330549,
        "baro_altitude": null,
        "on_ground": true,
        "velocity": 0,
        "true_track": 351.56,
        "vertical_rate": null,
        "geo_altitude": null,
        "squawk": null,
        "spi": false,
        "position_source": 0
      }
    },
    {
      "type": "Feature",
      "geometry": {
        "type": "Point",
        "coordinates": [
          8.5474,
          47.4631
        ]
      },
      "properties": {
        "icao24": "4b5c27",
        "callsign": "EUGEN11",
        "origin_country": "Switzerland",
        "time_position": 1786330548,
        "last_contact": 1786330548,
        "baro_altitude": null,
        "on_ground": true,
        "velocity": 1.8,
        "true_track": 2.81,
        "vertical_rate": null,
        "geo_altitude": null,
        "squawk": null,
        "spi": false,
        "position_source": 0
      }
    },
    {
      "type": "Feature",
      "geometry": {
        "type": "Point",
        "coordinates": [
          16.6297,
          47.2553
        ]
      },
      "properties": {
        "icao24": "440bc8",
        "callsign": "BCS9008",
        "origin_country": "Austria",
        "time_position": 1786330548,
        "last_contact": 1786330548,
        "baro_altitude": 11887.2,
        "on_ground": false,
        "velocity": 239.19,
        "true_track": 129.06,
        "vertical_rate": 0,
        "geo_altitude": 12443.46,
        "squawk": "4536",
        "spi": false,
        "position_source": 0
      }
    },
    {
      "type": "Feature",
      "geometry": {
        "type": "Point",
        "coordinates": [
          10.1166,
          44.7397
        ]
      },
      "properties": {
        "icao24": "70c122",
        "callsign": "OMA143",
        "origin_country": "Oman",
        "time_position": 1786330548,
        "last_contact": 1786330548,
        "baro_altitude": 7109.46,
        "on_ground": false,
        "velocity": 241.49,
        "true_track": 307.38,
        "vertical_rate": -14.63,
        "geo_altitude": 7551.42,
        "squawk": "2242",
        "spi": false,
        "position_source": 0
      }
    },
    {
      "type": "Feature",
      "geometry": {
        "type": "Point",
        "coordinates": [
          18.0703,
          47.5778
        ]
      },
      "properties": {
        "icao24": "4baa61",
        "callsign": "THY3172",
        "origin_country": "Turkey",
        "time_position": 1786329157,
        "last_contact": 1786330547,
        "baro_altitude": 10050.78,
        "on_ground": false,
        "velocity": 915.86,
        "true_track": 181.03,
        "vertical_rate": 0,
        "geo_altitude": 10530.84,
        "squawk": "2661",
        "spi": false,
        "position_source": 0
      }
    },
    {
      "type": "Feature",
      "geometry": {
        "type": "Point",
        "coordinates": [
          17.4128,
          47.3798
        ]
      },
      "properties": {
        "icao24": "4bcdee",
        "callsign": "SXS2RJ",
        "origin_country": "Turkey",
        "time_position": 1786330548,
        "last_contact": 1786330548,
        "baro_altitude": 11269.98,
        "on_ground": false,
        "velocity": 240.06,
        "true_track": 143.89,
        "vertical_rate": 0,
        "geo_altitude": 11833.86,
        "squawk": "7607",
        "spi": false,
        "position_source": 0
      }
    },
    {
      "type": "Feature",
      "geometry": {
        "type": "Point",
        "coordinates": [
          18.7784,
          47.1346
        ]
      },
      "properties": {
        "icao24": "888124",
        "callsign": "HVN19",
        "origin_country": "Viet Nam",
        "time_position": 1786330549,
        "last_contact": 1786330549,
        "baro_altitude": 12192,
        "on_ground": false,
        "velocity": 226.8,
        "true_track": 294.24,
        "vertical_rate": 0,
        "geo_altitude": 12778.74,
        "squawk": "1000",
        "spi": false,
        "position_source": 0
      }
    },
    {
      "type": "Feature",
      "geometry": {
        "type": "Point",
        "coordinates": [
          15.2736,
          47.1566
        ]
      },
      "properties": {
        "icao24": "4bce43",
        "callsign": "SXS4UV",
        "origin_country": "Turkey",
        "time_position": 1786330548,
        "last_contact": 1786330549,
        "baro_altitude": 11582.4,
        "on_ground": false,
        "velocity": 219.35,
        "true_track": 315.1,
        "vertical_rate": 0,
        "geo_altitude": 12161.52,
        "squawk": "3264",
        "spi": false,
        "position_source": 0
      }
    },
    {
      "type": "Feature",
      "geometry": {
        "type": "Point",
        "coordinates": [
          17.9199,
          44.9355
        ]
      },
      "properties": {
        "icao24": "4bcda5",
        "callsign": "SXS3BV",
        "origin_country": "Turkey",
        "time_position": 1786330548,
        "last_contact": 1786330549,
        "baro_altitude": 11887.2,
        "on_ground": false,
        "velocity": 253.25,
        "true_track": 133.68,
        "vertical_rate": 0,
        "geo_altitude": 12527.28,
        "squawk": "7643",
        "spi": false,
        "position_source": 0
      }
    },
    {
      "type": "Feature",
      "geometry": {
        "type": "Point",
        "coordinates": [
          18.6619,
          46.198
        ]
      },
      "properties": {
        "icao24": "4bccae",
        "callsign": "SXS84K",
        "origin_country": "Turkey",
        "time_position": 1786330549,
        "last_contact": 1786330549,
        "baro_altitude": 11887.2,
        "on_ground": false,
        "velocity": 242.21,
        "true_track": 144.86,
        "vertical_rate": 0.33,
        "geo_altitude": 12489.18,
        "squawk": "7621",
        "spi": false,
        "position_source": 0
      }
    },
    {
      "type": "Feature",
      "geometry": {
        "type": "Point",
        "coordinates": [
          18.3829,
          42.7888
        ]
      },
      "properties": {
        "icao24": "42447f",
        "callsign": "PEX49D",
        "origin_country": "United Kingdom",
        "time_position": 1786330549,
        "last_contact": 1786330549,
        "baro_altitude": 12496.8,
        "on_ground": false,
        "velocity": 245.85,
        "true_track": 139.24,
        "vertical_rate": 0,
        "geo_altitude": 13190.22,
        "squawk": "2223",
        "spi": false,
        "position_source": 0
      }
    },
    {
      "type": "Feature",
      "geometry": {
        "type": "Point",
        "coordinates": [
          18.6646,
          46.5992
        ]
      },
      "properties": {
        "icao24": "4bce0e",
        "callsign": "SXS8ER",
        "origin_country": "Turkey",
        "time_position": 1786330549,
        "last_contact": 1786330549,
        "baro_altitude": 11582.4,
        "on_ground": false,
        "velocity": 212.49,
        "true_track": 319.91,
        "vertical_rate": 0,
        "geo_altitude": 12176.76,
        "squawk": "3272",
        "spi": false,
        "position_source": 0
      }
    },
    {
      "type": "Feature",
      "geometry": {
        "type": "Point",
        "coordinates": [
          18.9461,
          46.7829
        ]
      },
      "properties": {
        "icao24": "4bce09",
        "callsign": "SXS8WF",
        "origin_country": "Turkey",
        "time_position": 1786330548,
        "last_contact": 1786330548,
        "baro_altitude": 11277.6,
        "on_ground": false,
        "velocity": 246.07,
        "true_track": 121.23,
        "vertical_rate": -0.33,
        "geo_altitude": 11864.34,
        "squawk": "7714",
        "spi": false,
        "position_source": 0
      }
    },
    {
      "type": "Feature",
      "geometry": {
        "type": "Point",
        "coordinates": [
          16.7427,
          45.4129
        ]
      },
      "properties": {
        "icao24": "4bce01",
        "callsign": "SXS7KP",
        "origin_country": "Turkey",
        "time_position": 1786330548,
        "last_contact": 1786330548,
        "baro_altitude": 12192,
        "on_ground": false,
        "velocity": 216.23,
        "true_track": 312.88,
        "vertical_rate": 0,
        "geo_altitude": 12824.46,
        "squawk": "3237",
        "spi": false,
        "position_source": 0
      }
    },
    {
      "type": "Feature",
      "geometry": {
        "type": "Point",
        "coordinates": [
          17.0739,
          47.0039
        ]
      },
      "properties": {
        "icao24": "4d0107",
        "callsign": "CLX942",
        "origin_country": "Luxembourg",
        "time_position": 1786330548,
        "last_contact": 1786330548,
        "baro_altitude": 10363.2,
        "on_ground": false,
        "velocity": 242.29,
        "true_track": 287.17,
        "vertical_rate": 0,
        "geo_altitude": 10911.84,
        "squawk": "0445",
        "spi": false,
        "position_source": 0
      }
    },
    {
      "type": "Feature",
      "geometry": {
        "type": "Point",
        "coordinates": [
          10.2189,
          43.5141
        ]
      },
      "properties": {
        "icao24": "346199",
        "callsign": "RGN7858",
        "origin_country": "Spain",
        "time_position": 1786330548,
        "last_contact": 1786330548,
        "baro_altitude": 1135.38,
        "on_ground": false,
        "velocity": 99.47,
        "true_track": 32.54,
        "vertical_rate": -6.5,
        "geo_altitude": 1264.92,
        "squawk": "7426",
        "spi": false,
        "position_source": 0
      }
    },
    {
      "type": "Feature",
      "geometry": {
        "type": "Point",
        "coordinates": [
          18.863,
          40.6154
        ]
      },
      "properties": {
        "icao24": "76cdb1",
        "callsign": "SIA388",
        "origin_country": "Singapore",
        "time_position": 1786330548,
        "last_contact": 1786330548,
        "baro_altitude": 12192,
        "on_ground": false,
        "velocity": 238.65,
        "true_track": 275.19,
        "vertical_rate": 0,
        "geo_altitude": 12900.66,
        "squawk": "2241",
        "spi": false,
        "position_source": 0
      }
    },
    {
      "type": "Feature",
      "geometry": {
        "type": "Point",
        "coordinates": [
          18.2984,
          47.4335
        ]
      },
      "properties": {
        "icao24": "75044e",
        "callsign": "MAS20",
        "origin_country": "Malaysia",
        "time_position": 1786330549,
        "last_contact": 1786330549,
        "baro_altitude": 12192,
        "on_ground": false,
        "velocity": 225.93,
        "true_track": 291.37,
        "vertical_rate": 0,
        "geo_altitude": 12755.88,
        "squawk": "1000",
        "spi": false,
        "position_source": 0
      }
    },
    {
      "type": "Feature",
      "geometry": {
        "type": "Point",
        "coordinates": [
          18.637,
          35.2965
        ]
      },
      "properties": {
        "icao24": "8966d4",
        "callsign": "ETD14P",
        "origin_country": "United Arab Emirates",
        "time_position": 1786330548,
        "last_contact": 1786330548,
        "baro_altitude": 10363.2,
        "on_ground": false,
        "velocity": 245.1,
        "true_track": 279.42,
        "vertical_rate": 0,
        "geo_altitude": 11049,
        "squawk": null,
        "spi": false,
        "position_source": 0
      }
    },
    {
      "type": "Feature",
      "geometry": {
        "type": "Point",
        "coordinates": [
          13.9415,
          35.9884
        ]
      },
      "properties": {
        "icao24": "010245",
        "callsign": "MSR892",
        "origin_country": "Egypt",
        "time_position": 1786330548,
        "last_contact": 1786330548,
        "baro_altitude": 10668,
        "on_ground": false,
        "velocity": 254.9,
        "true_track": 92.54,
        "vertical_rate": 0,
        "geo_altitude": 11384.28,
        "squawk": "4105",
        "spi": false,
        "position_source": 0
      }
    },
    {
      "type": "Feature",
      "geometry": {
        "type": "Point",
        "coordinates": [
          13.9327,
          41.0929
        ]
      },
      "properties": {
        "icao24": "01025d",
        "callsign": "MSR995",
        "origin_country": "Egypt",
        "time_position": 1786330548,
        "last_contact": 1786330548,
        "baro_altitude": 10363.2,
        "on_ground": false,
        "velocity": 251.66,
        "true_track": 301.97,
        "vertical_rate": -0.33,
        "geo_altitude": 11010.9,
        "squawk": "7737",
        "spi": false,
        "position_source": 0
      }
    },
    {
      "type": "Feature",
      "geometry": {
        "type": "Point",
        "coordinates": [
          18.839,
          43.6583
        ]
      },
      "properties": {
        "icao24": "010265",
        "callsign": "MSC2913",
        "origin_country": "Egypt",
        "time_position": 1786330549,
        "last_contact": 1786330549,
        "baro_altitude": 11277.6,
        "on_ground": false,
        "velocity": 247.41,
        "true_track": 136.18,
        "vertical_rate": 0,
        "geo_altitude": 11932.92,
        "squawk": "2564",
        "spi": false,
        "position_source": 0
      }
    },
    {
      "type": "Feature",
      "geometry": {
        "type": "Point",
        "coordinates": [
          16.7239,
          45.4905
        ]
      },
      "properties": {
        "icao24": "01027c",
        "callsign": "NMA7141",
        "origin_country": "Egypt",
        "time_position": 1786330548,
        "last_contact": 1786330549,
        "baro_altitude": 10058.4,
        "on_ground": false,
        "velocity": 244.87,
        "true_track": 147.18,
        "vertical_rate": 0,
        "geo_altitude": 10645.14,
        "squawk": "6003",
        "spi": false,
        "position_source": 0
      }
    },
    {
      "type": "Feature",
      "geometry": {
        "type": "Point",
        "coordinates": [
          10.4449,
          44.5817
        ]
      },
      "properties": {
        "icao24": "4d24eb",
        "callsign": "RYR671",
        "origin_country": "Malta",
        "time_position": 1786330548,
        "last_contact": 1786330549,
        "baro_altitude": 8427.72,
        "on_ground": false,
        "velocity": 214.84,
        "true_track": 339.83,
        "vertical_rate": -13.98,
        "geo_altitude": 8930.64,
        "squawk": "1000",
        "spi": false,
        "position_source": 0
      }
    },
    {
      "type": "Feature",
      "geometry": {
        "type": "Point",
        "coordinates": [
          12.9248,
          39.8192
        ]
      },
      "properties": {
        "icao24": "a62bab",
        "callsign": "N497SB",
        "origin_country": "United States",
        "time_position": 1786330549,
        "last_contact": 1786330549,
        "baro_altitude": 13716,
        "on_ground": false,
        "velocity": 253.92,
        "true_track": 103.47,
        "vertical_rate": 0.65,
        "geo_altitude": 14493.24,
        "squawk": "2215",
        "spi": false,
        "position_source": 0
      }
    },
    {
      "type": "Feature",
      "geometry": {
        "type": "Point",
        "coordinates": [
          9.8793,
          45.5359
        ]
      },
      "properties": {
        "icao24": "4caed5",
        "callsign": "BCS9116",
        "origin_country": "Ireland",
        "time_position": 1786330548,
        "last_contact": 1786330548,
        "baro_altitude": 7566.66,
        "on_ground": false,
        "velocity": 227.4,
        "true_track": 89.35,
        "vertical_rate": 10.08,
        "geo_altitude": 8023.86,
        "squawk": "1000",
        "spi": false,
        "position_source": 0
      }
    },
    {
      "type": "Feature",
      "geometry": {
        "type": "Point",
        "coordinates": [
          6.2192,
          38.3377
        ]
      },
      "properties": {
        "icao24": "4072ea",
        "callsign": "VIR450",
        "origin_country": "United Kingdom",
        "time_position": 1786330549,
        "last_contact": 1786330549,
        "baro_altitude": 11582.4,
        "on_ground": false,
        "velocity": 250.36,
        "true_track": 351.25,
        "vertical_rate": -0.33,
        "geo_altitude": 12283.44,
        "squawk": null,
        "spi": false,
        "position_source": 0
      }
    },
    {
      "type": "Feature",
      "geometry": {
        "type": "Point",
        "coordinates": [
          9.5052,
          40.8963
        ]
      },
      "properties": {
        "icao24": "4d2443",
        "callsign": "AXY148F",
        "origin_country": "Malta",
        "time_position": 1786330461,
        "last_contact": 1786330461,
        "baro_altitude": null,
        "on_ground": true,
        "velocity": 0,
        "true_track": 143.44,
        "vertical_rate": null,
        "geo_altitude": null,
        "squawk": null,
        "spi": false,
        "position_source": 0
      }
    },
    {
      "type": "Feature",
      "geometry": {
        "type": "Point",
        "coordinates": [
          8.4819,
          46.3144
        ]
      },
      "properties": {
        "icao24": "3c7a48",
        "callsign": "CFG289",
        "origin_country": "Germany",
        "time_position": 1786330549,
        "last_contact": 1786330549,
        "baro_altitude": 12192,
        "on_ground": false,
        "velocity": 253.14,
        "true_track": 9,
        "vertical_rate": 0.33,
        "geo_altitude": 12771.12,
        "squawk": "1000",
        "spi": false,
        "position_source": 0
      }
    },
    {
      "type": "Feature",
      "geometry": {
        "type": "Point",
        "coordinates": [
          17.4983,
          43.7629
        ]
      },
      "properties": {
        "icao24": "4d229d",
        "callsign": "CXI7W",
        "origin_country": "Malta",
        "time_position": 1786330539,
        "last_contact": 1786330541,
        "baro_altitude": 11277.6,
        "on_ground": false,
        "velocity": 243.13,
        "true_track": 140.75,
        "vertical_rate": 0,
        "geo_altitude": 11917.68,
        "squawk": "6423",
        "spi": false,
        "position_source": 0
      }
    },
    {
      "type": "Feature",
      "geometry": {
        "type": "Point",
        "coordinates": [
          16.4621,
          44.3715
        ]
      },
      "properties": {
        "icao24": "4d21b1",
        "callsign": "FHM5375",
        "origin_country": "Malta",
        "time_position": 1786330549,
        "last_contact": 1786330549,
        "baro_altitude": 11285.22,
        "on_ground": false,
        "velocity": 240.4,
        "true_track": 137.95,
        "vertical_rate": 0,
        "geo_altitude": 11917.68,
        "squawk": "7702",
        "spi": false,
        "position_source": 0
      }
    },
    {
      "type": "Feature",
      "geometry": {
        "type": "Point",
        "coordinates": [
          12.2633,
          41.8026
        ]
      },
      "properties": {
        "icao24": "4cabf8",
        "callsign": "MSA9798",
        "origin_country": "Ireland",
        "time_position": 1786330527,
        "last_contact": 1786330539,
        "baro_altitude": null,
        "on_ground": true,
        "velocity": 0,
        "true_track": 205.31,
        "vertical_rate": null,
        "geo_altitude": null,
        "squawk": null,
        "spi": false,
        "position_source": 0
      }
    },
    {
      "type": "Feature",
      "geometry": {
        "type": "Point",
        "coordinates": [
          9.2808,
          45.4354
        ]
      },
      "properties": {
        "icao24": "49328f",
        "callsign": "NJE237F",
        "origin_country": "Portugal",
        "time_position": 1786330548,
        "last_contact": 1786330548,
        "baro_altitude": null,
        "on_ground": true,
        "velocity": 9.26,
        "true_track": 174.38,
        "vertical_rate": null,
        "geo_altitude": null,
        "squawk": null,
        "spi": false,
        "position_source": 0
      }
    },
    {
      "type": "Feature",
      "geometry": {
        "type": "Point",
        "coordinates": [
          17.1234,
          41.0735
        ]
      },
      "properties": {
        "icao24": "493298",
        "callsign": "NJE335P",
        "origin_country": "Portugal",
        "time_position": 1786330548,
        "last_contact": 1786330548,
        "baro_altitude": 12496.8,
        "on_ground": false,
        "velocity": 229.5,
        "true_track": 130.55,
        "vertical_rate": 0,
        "geo_altitude": 13213.08,
        "squawk": "0420",
        "spi": false,
        "position_source": 0
      }
    },
    {
      "type": "Feature",
      "geometry": {
        "type": "Point",
        "coordinates": [
          17.2599,
          44.9569
        ]
      },
      "properties": {
        "icao24": "4691c3",
        "callsign": "AEE525",
        "origin_country": "Greece",
        "time_position": 1786330549,
        "last_contact": 1786330549,
        "baro_altitude": 11269.98,
        "on_ground": false,
        "velocity": 240.6,
        "true_track": 136.99,
        "vertical_rate": 0,
        "geo_altitude": 11910.06,
        "squawk": "7716",
        "spi": false,
        "position_source": 0
      }
    },
    {
      "type": "Feature",
      "geometry": {
        "type": "Point",
        "coordinates": [
          12.5998,
          45.8081
        ]
      },
      "properties": {
        "icao24": "4d2159",
        "callsign": "BRD140",
        "origin_country": "Malta",
        "time_position": 1786330549,
        "last_contact": 1786330549,
        "baro_altitude": 11277.6,
        "on_ground": false,
        "velocity": 244.24,
        "true_track": 144.6,
        "vertical_rate": 0,
        "geo_altitude": 11864.34,
        "squawk": "3562",
        "spi": false,
        "position_source": 0
      }
    },
    {
      "type": "Feature",
      "geometry": {
        "type": "Point",
        "coordinates": [
          18.6857,
          39.5287
        ]
      },
      "properties": {
        "icao24": "39e5c4",
        "callsign": "CRL711",
        "origin_country": "France",
        "time_position": 1786330548,
        "last_contact": 1786330548,
        "baro_altitude": 11582.4,
        "on_ground": false,
        "velocity": 239.4,
        "true_track": 313.96,
        "vertical_rate": 0,
        "geo_altitude": 12298.68,
        "squawk": "2035",
        "spi": false,
        "position_source": 0
      }
    },
    {
      "type": "Feature",
      "geometry": {
        "type": "Point",
        "coordinates": [
          17.2634,
          44.7104
        ]
      },
      "properties": {
        "icao24": "01018d",
        "callsign": "LMU7494",
        "origin_country": "Egypt",
        "time_position": 1786330549,
        "last_contact": 1786330549,
        "baro_altitude": 10683.24,
        "on_ground": false,
        "velocity": 242.7,
        "true_track": 145.97,
        "vertical_rate": 0,
        "geo_altitude": 11308.08,
        "squawk": "1111",
        "spi": false,
        "position_source": 0
      }
    },
    {
      "type": "Feature",
      "geometry": {
        "type": "Point",
        "coordinates": [
          6.9601,
          38.5469
        ]
      },
      "properties": {
        "icao24": "4b18fc",
        "callsign": "SWR283",
        "origin_country": "Switzerland",
        "time_position": 1786330549,
        "last_contact": 1786330549,
        "baro_altitude": 10972.8,
        "on_ground": false,
        "velocity": 242.67,
        "true_track": 7.19,
        "vertical_rate": -0.33,
        "geo_altitude": 11643.36,
        "squawk": null,
        "spi": false,
        "position_source": 0
      }
    },
    {
      "type": "Feature",
      "geometry": {
        "type": "Point",
        "coordinates": [
          14.119,
          45.1546
        ]
      },
      "properties": {
        "icao24": "451dbd",
        "callsign": "BCS942",
        "origin_country": "Bulgaria",
        "time_position": 1786330549,
        "last_contact": 1786330549,
        "baro_altitude": 9448.8,
        "on_ground": false,
        "velocity": 244.77,
        "true_track": 97.24,
        "vertical_rate": 0,
        "geo_altitude": 9974.58,
        "squawk": "0474",
        "spi": false,
        "position_source": 0
      }
    },
    {
      "type": "Feature",
      "geometry": {
        "type": "Point",
        "coordinates": [
          18.8712,
          43.7467
        ]
      },
      "properties": {
        "icao24": "4b17e3",
        "callsign": "SWR1849",
        "origin_country": "Switzerland",
        "time_position": 1786330548,
        "last_contact": 1786330549,
        "baro_altitude": 11582.4,
        "on_ground": false,
        "velocity": 206.12,
        "true_track": 310.65,
        "vertical_rate": 0,
        "geo_altitude": 12252.96,
        "squawk": "6006",
        "spi": false,
        "position_source": 0
      }
    }
  ]
}