{
  "type": "FeatureCollection",
  "source": "opensky",
  "dataset": "aircraft_italy",
  "generated_at": "2026-08-23T23:51:36.312671+00:00",
  "opensky_time": 1787529086,
  "count": 121,
  "features": [
    {
      "type": "Feature",
      "geometry": {
        "type": "Point",
        "coordinates": [
          8.726,
          45.6396
        ]
      },
      "properties": {
        "icao24": "44023f",
        "callsign": "EJU46ZK",
        "origin_country": "Austria",
        "time_position": 1787529085,
        "last_contact": 1787529085,
        "baro_altitude": null,
        "on_ground": true,
        "velocity": 8.75,
        "true_track": 98.44,
        "vertical_rate": null,
        "geo_altitude": null,
        "squawk": "1000",
        "spi": false,
        "position_source": 0
      }
    },
    {
      "type": "Feature",
      "geometry": {
        "type": "Point",
        "coordinates": [
          15.9187,
          44.0539
        ]
      },
      "properties": {
        "icao24": "a6189c",
        "callsign": "GTI8290",
        "origin_country": "United States",
        "time_position": 1787529086,
        "last_contact": 1787529086,
        "baro_altitude": 10058.4,
        "on_ground": false,
        "velocity": 261.17,
        "true_track": 124.97,
        "vertical_rate": 0,
        "geo_altitude": 10546.08,
        "squawk": "7704",
        "spi": false,
        "position_source": 0
      }
    },
    {
      "type": "Feature",
      "geometry": {
        "type": "Point",
        "coordinates": [
          13.9469,
          46.158
        ]
      },
      "properties": {
        "icao24": "46b825",
        "callsign": "AEE609",
        "origin_country": "Greece",
        "time_position": 1787529086,
        "last_contact": 1787529086,
        "baro_altitude": 11262.36,
        "on_ground": false,
        "velocity": 246.04,
        "true_track": 133.14,
        "vertical_rate": 0,
        "geo_altitude": 11750.04,
        "squawk": "0535",
        "spi": false,
        "position_source": 0
      }
    },
    {
      "type": "Feature",
      "geometry": {
        "type": "Point",
        "coordinates": [
          18.2448,
          40.4912
        ]
      },
      "properties": {
        "icao24": "471fa5",
        "callsign": "WMT6364",
        "origin_country": "Hungary",
        "time_position": 1787529085,
        "last_contact": 1787529085,
        "baro_altitude": 9753.6,
        "on_ground": false,
        "velocity": 233.16,
        "true_track": 303.02,
        "vertical_rate": 0,
        "geo_altitude": 10332.72,
        "squawk": null,
        "spi": false,
        "position_source": 0
      }
    },
    {
      "type": "Feature",
      "geometry": {
        "type": "Point",
        "coordinates": [
          16.7324,
          37.013
        ]
      },
      "properties": {
        "icao24": "8015a7",
        "callsign": "AIC44K",
        "origin_country": "India",
        "time_position": 1787529086,
        "last_contact": 1787529086,
        "baro_altitude": 10668,
        "on_ground": false,
        "velocity": 267.77,
        "true_track": 121.25,
        "vertical_rate": 0,
        "geo_altitude": 11308.08,
        "squawk": "4307",
        "spi": false,
        "position_source": 0
      }
    },
    {
      "type": "Feature",
      "geometry": {
        "type": "Point",
        "coordinates": [
          12.2525,
          41.8011
        ]
      },
      "properties": {
        "icao24": "8015a5",
        "callsign": "AIC191",
        "origin_country": "India",
        "time_position": 1787528854,
        "last_contact": 1787528854,
        "baro_altitude": null,
        "on_ground": true,
        "velocity": 6.17,
        "true_track": 250.31,
        "vertical_rate": null,
        "geo_altitude": null,
        "squawk": "2325",
        "spi": true,
        "position_source": 0
      }
    },
    {
      "type": "Feature",
      "geometry": {
        "type": "Point",
        "coordinates": [
          8.7124,
          40.2334
        ]
      },
      "properties": {
        "icao24": "8015f7",
        "callsign": "AIC11E",
        "origin_country": "India",
        "time_position": 1787529085,
        "last_contact": 1787529086,
        "baro_altitude": 11582.4,
        "on_ground": false,
        "velocity": 280.94,
        "true_track": 113.18,
        "vertical_rate": 0,
        "geo_altitude": 12222.48,
        "squawk": "3730",
        "spi": false,
        "position_source": 0
      }
    },
    {
      "type": "Feature",
      "geometry": {
        "type": "Point",
        "coordinates": [
          9.9031,
          45.5762
        ]
      },
      "properties": {
        "icao24": "4401e9",
        "callsign": "EJU68VV",
        "origin_country": "Austria",
        "time_position": 1787529085,
        "last_contact": 1787529086,
        "baro_altitude": 5654.04,
        "on_ground": false,
        "velocity": 206.7,
        "true_track": 264.57,
        "vertical_rate": -16.26,
        "geo_altitude": 5989.32,
        "squawk": "6625",
        "spi": false,
        "position_source": 0
      }
    },
    {
      "type": "Feature",
      "geometry": {
        "type": "Point",
        "coordinates": [
          17.3148,
          47.5773
        ]
      },
      "properties": {
        "icao24": "4bc88d",
        "callsign": "PGT7124",
        "origin_country": "Turkey",
        "time_position": 1787529085,
        "last_contact": 1787529086,
        "baro_altitude": 10660.38,
        "on_ground": false,
        "velocity": 254.57,
        "true_track": 122.79,
        "vertical_rate": 0.33,
        "geo_altitude": 11102.34,
        "squawk": "5250",
        "spi": false,
        "position_source": 0
      }
    },
    {
      "type": "Feature",
      "geometry": {
        "type": "Point",
        "coordinates": [
          18.1708,
          38.7188
        ]
      },
      "properties": {
        "icao24": "738050",
        "callsign": "ELY392",
        "origin_country": "Israel",
        "time_position": 1787529085,
        "last_contact": 1787529086,
        "baro_altitude": 10668,
        "on_ground": false,
        "velocity": 240.22,
        "true_track": 106.81,
        "vertical_rate": 0,
        "geo_altitude": 11285.22,
        "squawk": "1450",
        "spi": false,
        "position_source": 0
      }
    },
    {
      "type": "Feature",
      "geometry": {
        "type": "Point",
        "coordinates": [
          13.6026,
          39.6338
        ]
      },
      "properties": {
        "icao24": "738054",
        "callsign": "ELY398",
        "origin_country": "Israel",
        "time_position": 1787529085,
        "last_contact": 1787529086,
        "baro_altitude": 10668,
        "on_ground": false,
        "velocity": 257.31,
        "true_track": 103.17,
        "vertical_rate": 0,
        "geo_altitude": 11308.08,
        "squawk": "1234",
        "spi": false,
        "position_source": 0
      }
    },
    {
      "type": "Feature",
      "geometry": {
        "type": "Point",
        "coordinates": [
          17.8821,
          46.7491
        ]
      },
      "properties": {
        "icao24": "44006d",
        "callsign": "AUA1083",
        "origin_country": "Austria",
        "time_position": 1787529086,
        "last_contact": 1787529086,
        "baro_altitude": 7421.88,
        "on_ground": false,
        "velocity": 257.57,
        "true_track": 138.16,
        "vertical_rate": 4.88,
        "geo_altitude": 7780.02,
        "squawk": "7102",
        "spi": false,
        "position_source": 0
      }
    },
    {
      "type": "Feature",
      "geometry": {
        "type": "Point",
        "coordinates": [
          18.7651,
          41.8482
        ]
      },
      "properties": {
        "icao24": "440036",
        "callsign": "EJU67TU",
        "origin_country": "Austria",
        "time_position": 1787529084,
        "last_contact": 1787529084,
        "baro_altitude": 10363.2,
        "on_ground": false,
        "velocity": 228.23,
        "true_track": 311.16,
        "vertical_rate": 0,
        "geo_altitude": 10934.7,
        "squawk": null,
        "spi": false,
        "position_source": 0
      }
    },
    {
      "type": "Feature",
      "geometry": {
        "type": "Point",
        "coordinates": [
          14.6289,
          45.2926
        ]
      },
      "properties": {
        "icao24": "471d63",
        "callsign": "WZZ407",
        "origin_country": "Hungary",
        "time_position": 1787529086,
        "last_contact": 1787529086,
        "baro_altitude": 11582.4,
        "on_ground": false,
        "velocity": 195.06,
        "true_track": 271.66,
        "vertical_rate": 0,
        "geo_altitude": 12115.8,
        "squawk": "6026",
        "spi": false,
        "position_source": 0
      }
    },
    {
      "type": "Feature",
      "geometry": {
        "type": "Point",
        "coordinates": [
          10.5804,
          44.2094
        ]
      },
      "properties": {
        "icao24": "471d5f",
        "callsign": "WMT2WP",
        "origin_country": "Hungary",
        "time_position": 1787529086,
        "last_contact": 1787529086,
        "baro_altitude": 9212.58,
        "on_ground": false,
        "velocity": 220.38,
        "true_track": 54.79,
        "vertical_rate": -9.43,
        "geo_altitude": 9692.64,
        "squawk": "1000",
        "spi": false,
        "position_source": 0
      }
    },
    {
      "type": "Feature",
      "geometry": {
        "type": "Point",
        "coordinates": [
          16.4339,
          41.2485
        ]
      },
      "properties": {
        "icao24": "738102",
        "callsign": "ELY017",
        "origin_country": "Israel",
        "time_position": 1787529086,
        "last_contact": 1787529086,
        "baro_altitude": 10972.8,
        "on_ground": false,
        "velocity": 238.13,
        "true_track": 303.72,
        "vertical_rate": 0,
        "geo_altitude": 11574.78,
        "squawk": "4143",
        "spi": false,
        "position_source": 0
      }
    },
    {
      "type": "Feature",
      "geometry": {
        "type": "Point",
        "coordinates": [
          9.7241,
          46.6165
        ]
      },
      "properties": {
        "icao24": "738100",
        "callsign": "ELY220",
        "origin_country": "Israel",
        "time_position": 1787529086,
        "last_contact": 1787529086,
        "baro_altitude": 12489.18,
        "on_ground": false,
        "velocity": 271.95,
        "true_track": 121.86,
        "vertical_rate": 0,
        "geo_altitude": 12961.62,
        "squawk": "7551",
        "spi": false,
        "position_source": 0
      }
    },
    {
      "type": "Feature",
      "geometry": {
        "type": "Point",
        "coordinates": [
          8.7428,
          45.5583
        ]
      },
      "properties": {
        "icao24": "440179",
        "callsign": "EJU46TA",
        "origin_country": "Austria",
        "time_position": 1787529086,
        "last_contact": 1787529086,
        "baro_altitude": 502.92,
        "on_ground": false,
        "velocity": 76.58,
        "true_track": 348.77,
        "vertical_rate": -3.58,
        "geo_altitude": 609.6,
        "squawk": "1000",
        "spi": false,
        "position_source": 0
      }
    },
    {
      "type": "Feature",
      "geometry": {
        "type": "Point",
        "coordinates": [
          14.9014,
          42.0811
        ]
      },
      "properties": {
        "icao24": "45213e",
        "callsign": "AMQ725",
        "origin_country": "Bulgaria",
        "time_position": 1787529086,
        "last_contact": 1787529086,
        "baro_altitude": 10843.26,
        "on_ground": false,
        "velocity": 239.72,
        "true_track": 13.02,
        "vertical_rate": 9.75,
        "geo_altitude": 11437.62,
        "squawk": null,
        "spi": false,
        "position_source": 0
      }
    },
    {
      "type": "Feature",
      "geometry": {
        "type": "Point",
        "coordinates": [
          8.8005,
          45.2662
        ]
      },
      "properties": {
        "icao24": "440195",
        "callsign": "EJU3548",
        "origin_country": "Austria",
        "time_position": 1787529084,
        "last_contact": 1787529086,
        "baro_altitude": 2354.58,
        "on_ground": false,
        "velocity": 138.39,
        "true_track": 359.79,
        "vertical_rate": -5.53,
        "geo_altitude": 2552.7,
        "squawk": "5445",
        "spi": false,
        "position_source": 0
      }
    },
    {
      "type": "Feature",
      "geometry": {
        "type": "Point",
        "coordinates": [
          15.56,
          47.0715
        ]
      },
      "properties": {
        "icao24": "440129",
        "callsign": "C17",
        "origin_country": "Austria",
        "time_position": 1787529085,
        "last_contact": 1787529086,
        "baro_altitude": 708.66,
        "on_ground": false,
        "velocity": 67.3,
        "true_track": 281.91,
        "vertical_rate": -0.33,
        "geo_altitude": 830.58,
        "squawk": "1657",
        "spi": false,
        "position_source": 0
      }
    },
    {
      "type": "Feature",
      "geometry": {
        "type": "Point",
        "coordinates": [
          8.4411,
          45.0629
        ]
      },
      "properties": {
        "icao24": "471dad",
        "callsign": "WMT7359",
        "origin_country": "Hungary",
        "time_position": 1787529086,
        "last_contact": 1787529086,
        "baro_altitude": 3520.44,
        "on_ground": false,
        "velocity": 184.83,
        "true_track": 39.81,
        "vertical_rate": -12.68,
        "geo_altitude": 3771.9,
        "squawk": "1000",
        "spi": false,
        "position_source": 0
      }
    },
    {
      "type": "Feature",
      "geometry": {
        "type": "Point",
        "coordinates": [
          9.0406,
          39.3902
        ]
      },
      "properties": {
        "icao24": "440115",
        "callsign": "EJU12RT",
        "origin_country": "Austria",
        "time_position": 1787529063,
        "last_contact": 1787529070,
        "baro_altitude": 1821.18,
        "on_ground": false,
        "velocity": 137.12,
        "true_track": 3.66,
        "vertical_rate": 7.8,
        "geo_altitude": 2004.06,
        "squawk": "3737",
        "spi": false,
        "position_source": 0
      }
    },
    {
      "type": "Feature",
      "geometry": {
        "type": "Point",
        "coordinates": [
          14.2465,
          38.4229
        ]
      },
      "properties": {
        "icao24": "4bb1c4",
        "callsign": "THY571",
        "origin_country": "Turkey",
        "time_position": 1787529086,
        "last_contact": 1787529086,
        "baro_altitude": 10363.2,
        "on_ground": false,
        "velocity": 235.81,
        "true_track": 254.17,
        "vertical_rate": 0,
        "geo_altitude": 11003.28,
        "squawk": "2340",
        "spi": false,
        "position_source": 0
      }
    },
    {
      "type": "Feature",
      "geometry": {
        "type": "Point",
        "coordinates": [
          6.341,
          42.9726
        ]
      },
      "properties": {
        "icao24": "4892c9",
        "callsign": "ENT4KW",
        "origin_country": "Poland",
        "time_position": 1787529086,
        "last_contact": 1787529086,
        "baro_altitude": 10972.8,
        "on_ground": false,
        "velocity": 252.41,
        "true_track": 50.21,
        "vertical_rate": -0.33,
        "geo_altitude": 11529.06,
        "squawk": "1000",
        "spi": false,
        "position_source": 0
      }
    },
    {
      "type": "Feature",
      "geometry": {
        "type": "Point",
        "coordinates": [
          17.725,
          46.4037
        ]
      },
      "properties": {
        "icao24": "4bb1c6",
        "callsign": "THY4RN",
        "origin_country": "Turkey",
        "time_position": 1787529086,
        "last_contact": 1787529086,
        "baro_altitude": 11887.2,
        "on_ground": false,
        "velocity": 263.29,
        "true_track": 122.63,
        "vertical_rate": 0,
        "geo_altitude": 12374.88,
        "squawk": "5231",
        "spi": false,
        "position_source": 0
      }
    },
    {
      "type": "Feature",
      "geometry": {
        "type": "Point",
        "coordinates": [
          18.1733,
          40.4485
        ]
      },
      "properties": {
        "icao24": "7380c6",
        "callsign": "ELY027",
        "origin_country": "Israel",
        "time_position": 1787529086,
        "last_contact": 1787529086,
        "baro_altitude": 10363.2,
        "on_ground": false,
        "velocity": 248.89,
        "true_track": 301.39,
        "vertical_rate": 0.33,
        "geo_altitude": 10965.18,
        "squawk": "7211",
        "spi": false,
        "position_source": 0
      }
    },
    {
      "type": "Feature",
      "geometry": {
        "type": "Point",
        "coordinates": [
          14.8549,
          42.2174
        ]
      },
      "properties": {
        "icao24": "345618",
        "callsign": "LAV3640",
        "origin_country": "Spain",
        "time_position": 1787529086,
        "last_contact": 1787529086,
        "baro_altitude": 10363.2,
        "on_ground": false,
        "velocity": 226.08,
        "true_track": 317.31,
        "vertical_rate": 0,
        "geo_altitude": 10949.94,
        "squawk": null,
        "spi": false,
        "position_source": 0
      }
    },
    {
      "type": "Feature",
      "geometry": {
        "type": "Point",
        "coordinates": [
          12.8925,
          40.1924
        ]
      },
      "properties": {
        "icao24": "4bb268",
        "callsign": "THY5LY",
        "origin_country": "Turkey",
        "time_position": 1787529086,
        "last_contact": 1787529086,
        "baro_altitude": 10660.38,
        "on_ground": false,
        "velocity": 250.32,
        "true_track": 83.04,
        "vertical_rate": 0,
        "geo_altitude": 11277.6,
        "squawk": null,
        "spi": false,
        "position_source": 0
      }
    },
    {
      "type": "Feature",
      "geometry": {
        "type": "Point",
        "coordinates": [
          14.4909,
          40.597
        ]
      },
      "properties": {
        "icao24": "02012b",
        "callsign": "MAC523",
        "origin_country": "Morocco",
        "time_position": 1787529086,
        "last_contact": 1787529086,
        "baro_altitude": 10363.2,
        "on_ground": false,
        "velocity": 215.55,
        "true_track": 270.14,
        "vertical_rate": 0,
        "geo_altitude": 10980.42,
        "squawk": "2301",
        "spi": false,
        "position_source": 0
      }
    },
    {
      "type": "Feature",
      "geometry": {
        "type": "Point",
        "coordinates": [
          13.1769,
          46.6544
        ]
      },
      "properties": {
        "icao24": "4bb1a2",
        "callsign": "THY41J",
        "origin_country": "Turkey",
        "time_position": 1787529086,
        "last_contact": 1787529086,
        "baro_altitude": 11887.2,
        "on_ground": false,
        "velocity": 274.36,
        "true_track": 114.84,
        "vertical_rate": -0.33,
        "geo_altitude": 12367.26,
        "squawk": "1166",
        "spi": false,
        "position_source": 0
      }
    },
    {
      "type": "Feature",
      "geometry": {
        "type": "Point",
        "coordinates": [
          11.9801,
          47.5963
        ]
      },
      "properties": {
        "icao24": "4079a9",
        "callsign": "TOM86Y",
        "origin_country": "United Kingdom",
        "time_position": 1787529086,
        "last_contact": 1787529086,
        "baro_altitude": 11582.4,
        "on_ground": false,
        "velocity": 198.89,
        "true_track": 307.43,
        "vertical_rate": 0,
        "geo_altitude": 11993.88,
        "squawk": "2044",
        "spi": false,
        "position_source": 0
      }
    },
    {
      "type": "Feature",
      "geometry": {
        "type": "Point",
        "coordinates": [
          14.1111,
          46.7945
        ]
      },
      "properties": {
        "icao24": "45b8e1",
        "callsign": "GAV606",
        "origin_country": "Denmark",
        "time_position": 1787529086,
        "last_contact": 1787529086,
        "baro_altitude": 12192,
        "on_ground": false,
        "velocity": 219.91,
        "true_track": 335.83,
        "vertical_rate": -0.33,
        "geo_altitude": 12672.06,
        "squawk": "1000",
        "spi": false,
        "position_source": 0
      }
    },
    {
      "type": "Feature",
      "geometry": {
        "type": "Point",
        "coordinates": [
          16.3186,
          35.193
        ]
      },
      "properties": {
        "icao24": "8963de",
        "callsign": "UAE194",
        "origin_country": "United Arab Emirates",
        "time_position": 1787529086,
        "last_contact": 1787529086,
        "baro_altitude": 10668,
        "on_ground": false,
        "velocity": 269.21,
        "true_track": 110.24,
        "vertical_rate": 0,
        "geo_altitude": 11338.56,
        "squawk": "2230",
        "spi": false,
        "position_source": 0
      }
    },
    {
      "type": "Feature",
      "geometry": {
        "type": "Point",
        "coordinates": [
          13.796,
          46.3727
        ]
      },
      "properties": {
        "icao24": "4077ba",
        "callsign": "EXS36AP",
        "origin_country": "United Kingdom",
        "time_position": 1787529086,
        "last_contact": 1787529086,
        "baro_altitude": 10972.8,
        "on_ground": false,
        "velocity": 214.21,
        "true_track": 310.42,
        "vertical_rate": 0.33,
        "geo_altitude": 11437.62,
        "squawk": "2264",
        "spi": false,
        "position_source": 0
      }
    },
    {
      "type": "Feature",
      "geometry": {
        "type": "Point",
        "coordinates": [
          13.1887,
          46.9674
        ]
      },
      "properties": {
        "icao24": "407838",
        "callsign": "EZY35UC",
        "origin_country": "United Kingdom",
        "time_position": 1787529086,
        "last_contact": 1787529086,
        "baro_altitude": 10972.8,
        "on_ground": false,
        "velocity": 213.56,
        "true_track": 308.25,
        "vertical_rate": 0,
        "geo_altitude": 11430,
        "squawk": "2034",
        "spi": false,
        "position_source": 0
      }
    },
    {
      "type": "Feature",
      "geometry": {
        "type": "Point",
        "coordinates": [
          10.822,
          36.6472
        ]
      },
      "properties": {
        "icao24": "89667a",
        "callsign": "UAE143",
        "origin_country": "United Arab Emirates",
        "time_position": 1787529086,
        "last_contact": 1787529086,
        "baro_altitude": 12192,
        "on_ground": false,
        "velocity": 229.97,
        "true_track": 276.68,
        "vertical_rate": 0,
        "geo_altitude": 12923.52,
        "squawk": "5535",
        "spi": false,
        "position_source": 0
      }
    },
    {
      "type": "Feature",
      "geometry": {
        "type": "Point",
        "coordinates": [
          18.1156,
          46.6541
        ]
      },
      "properties": {
        "icao24": "49d3d5",
        "callsign": "TVS5NR",
        "origin_country": "Czech Republic",
        "time_position": 1787529085,
        "last_contact": 1787529086,
        "baro_altitude": 10668,
        "on_ground": false,
        "velocity": 249.07,
        "true_track": 141.71,
        "vertical_rate": 0,
        "geo_altitude": 11132.82,
        "squawk": "6025",
        "spi": false,
        "position_source": 0
      }
    },
    {
      "type": "Feature",
      "geometry": {
        "type": "Point",
        "coordinates": [
          7.8048,
          47.5061
        ]
      },
      "properties": {
        "icao24": "3c70b4",
        "callsign": "BCS47H",
        "origin_country": "Germany",
        "time_position": 1787529086,
        "last_contact": 1787529086,
        "baro_altitude": 10668,
        "on_ground": false,
        "velocity": 217.33,
        "true_track": 212.82,
        "vertical_rate": 0,
        "geo_altitude": 11102.34,
        "squawk": "1000",
        "spi": false,
        "position_source": 0
      }
    },
    {
      "type": "Feature",
      "geometry": {
        "type": "Point",
        "coordinates": [
          12.6742,
          38.8842
        ]
      },
      "properties": {
        "icao24": "04004a",
        "callsign": "ETH575",
        "origin_country": "Ethiopia",
        "time_position": 1787529086,
        "last_contact": 1787529086,
        "baro_altitude": 12496.8,
        "on_ground": false,
        "velocity": 271.72,
        "true_track": 114.14,
        "vertical_rate": -0.33,
        "geo_altitude": 13205.46,
        "squawk": "1222",
        "spi": false,
        "position_source": 0
      }
    },
    {
      "type": "Feature",
      "geometry": {
        "type": "Point",
        "coordinates": [
          17.1572,
          36.0398
        ]
      },
      "properties": {
        "icao24": "06a2e7",
        "callsign": "QTR52A",
        "origin_country": "Qatar",
        "time_position": 1787529086,
        "last_contact": 1787529086,
        "baro_altitude": 11887.2,
        "on_ground": false,
        "velocity": 259.73,
        "true_track": 97.97,
        "vertical_rate": -0.33,
        "geo_altitude": 12588.24,
        "squawk": "6133",
        "spi": false,
        "position_source": 0
      }
    },
    {
      "type": "Feature",
      "geometry": {
        "type": "Point",
        "coordinates": [
          18.6595,
          39.4319
        ]
      },
      "properties": {
        "icao24": "06a2b5",
        "callsign": "QTR30J",
        "origin_country": "Qatar",
        "time_position": 1787529070,
        "last_contact": 1787529070,
        "baro_altitude": 10058.4,
        "on_ground": false,
        "velocity": 264.62,
        "true_track": 117.56,
        "vertical_rate": 0,
        "geo_altitude": 10652.76,
        "squawk": "3734",
        "spi": false,
        "position_source": 0
      }
    },
    {
      "type": "Feature",
      "geometry": {
        "type": "Point",
        "coordinates": [
          15.753,
          46.1374
        ]
      },
      "properties": {
        "icao24": "407fad",
        "callsign": "TOM7JT",
        "origin_country": "United Kingdom",
        "time_position": 1787529086,
        "last_contact": 1787529086,
        "baro_altitude": 12192,
        "on_ground": false,
        "velocity": 218.9,
        "true_track": 319.38,
        "vertical_rate": 0,
        "geo_altitude": 12687.3,
        "squawk": "7736",
        "spi": false,
        "position_source": 0
      }
    },
    {
      "type": "Feature",
      "geometry": {
        "type": "Point",
        "coordinates": [
          9.9567,
          44.0256
        ]
      },
      "properties": {
        "icao24": "4ca2c0",
        "callsign": "RYR72RX",
        "origin_country": "Ireland",
        "time_position": 1787529086,
        "last_contact": 1787529086,
        "baro_altitude": 11277.6,
        "on_ground": false,
        "velocity": 213,
        "true_track": 238.23,
        "vertical_rate": 0,
        "geo_altitude": 11803.38,
        "squawk": "1000",
        "spi": false,
        "position_source": 0
      }
    },
    {
      "type": "Feature",
      "geometry": {
        "type": "Point",
        "coordinates": [
          18.0094,
          38.6202
        ]
      },
      "properties": {
        "icao24": "4ba934",
        "callsign": "THY1CT",
        "origin_country": "Turkey",
        "time_position": 1787529086,
        "last_contact": 1787529086,
        "baro_altitude": 11582.4,
        "on_ground": false,
        "velocity": 252.7,
        "true_track": 232.94,
        "vertical_rate": 0,
        "geo_altitude": 10622.28,
        "squawk": "2303",
        "spi": false,
        "position_source": 0
      }
    },
    {
      "type": "Feature",
      "geometry": {
        "type": "Point",
        "coordinates": [
          18.7994,
          35.448
        ]
      },
      "properties": {
        "icao24": "040240",
        "callsign": "ETH501",
        "origin_country": "Ethiopia",
        "time_position": 1787529077,
        "last_contact": 1787529078,
        "baro_altitude": 11277.6,
        "on_ground": false,
        "velocity": 262.15,
        "true_track": 102.24,
        "vertical_rate": 0,
        "geo_altitude": 11932.92,
        "squawk": "2226",
        "spi": false,
        "position_source": 0
      }
    },
    {
      "type": "Feature",
      "geometry": {
        "type": "Point",
        "coordinates": [
          18.7983,
          43.4041
        ]
      },
      "properties": {
        "icao24": "406e69",
        "callsign": "EZY79TV",
        "origin_country": "United Kingdom",
        "time_position": 1787529086,
        "last_contact": 1787529086,
        "baro_altitude": 10965.18,
        "on_ground": false,
        "velocity": 214.9,
        "true_track": 297.36,
        "vertical_rate": 0,
        "geo_altitude": 11536.68,
        "squawk": "5324",
        "spi": false,
        "position_source": 0
      }
    },
    {
      "type": "Feature",
      "geometry": {
        "type": "Point",
        "coordinates": [
          15.2852,
          42.1283
        ]
      },
      "properties": {
        "icao24": "4ba893",
        "callsign": "THY6437",
        "origin_country": "Turkey",
        "time_position": 1787529085,
        "last_contact": 1787529086,
        "baro_altitude": 12153.9,
        "on_ground": false,
        "velocity": 252.33,
        "true_track": 77.04,
        "vertical_rate": -3.9,
        "geo_altitude": 12786.36,
        "squawk": "4314",
        "spi": false,
        "position_source": 0
      }
    },
    {
      "type": "Feature",
      "geometry": {
        "type": "Point",
        "coordinates": [
          8.719,
          45.6344
        ]
      },
      "properties": {
        "icao24": "31d7a6",
        "callsign": "ECHO10",
        "origin_country": "Italy",
        "time_position": 1787529073,
        "last_contact": 1787529073,
        "baro_altitude": null,
        "on_ground": true,
        "velocity": 3.86,
        "true_track": 216.56,
        "vertical_rate": null,
        "geo_altitude": null,
        "squawk": null,
        "spi": false,
        "position_source": 0
      }
    },
    {
      "type": "Feature",
      "geometry": {
        "type": "Point",
        "coordinates": [
          14.4921,
          44.8215
        ]
      },
      "properties": {
        "icao24": "407fda",
        "callsign": "WUK8YM",
        "origin_country": "United Kingdom",
        "time_position": 1787529086,
        "last_contact": 1787529086,
        "baro_altitude": 10972.8,
        "on_ground": false,
        "velocity": 221.16,
        "true_track": 299.55,
        "vertical_rate": 0,
        "geo_altitude": 11506.2,
        "squawk": "0501",
        "spi": false,
        "position_source": 0
      }
    },
    {
      "type": "Feature",
      "geometry": {
        "type": "Point",
        "coordinates": [
          14.1659,
          39.937
        ]
      },
      "properties": {
        "icao24": "407fff",
        "callsign": "EZY63MD",
        "origin_country": "United Kingdom",
        "time_position": 1787529086,
        "last_contact": 1787529086,
        "baro_altitude": 10972.8,
        "on_ground": false,
        "velocity": 210.67,
        "true_track": 313.71,
        "vertical_rate": 0,
        "geo_altitude": 11605.26,
        "squawk": "7732",
        "spi": false,
        "position_source": 0
      }
    },
    {
      "type": "Feature",
      "geometry": {
        "type": "Point",
        "coordinates": [
          17.73,
          44.4258
        ]
      },
      "properties": {
        "icao24": "407e53",
        "callsign": "EXS4SL",
        "origin_country": "United Kingdom",
        "time_position": 1787529086,
        "last_contact": 1787529086,
        "baro_altitude": 10965.18,
        "on_ground": false,
        "velocity": 223.76,
        "true_track": 309.22,
        "vertical_rate": 0.33,
        "geo_altitude": 11521.44,
        "squawk": "5362",
        "spi": false,
        "position_source": 0
      }
    },
    {
      "type": "Feature",
      "geometry": {
        "type": "Point",
        "coordinates": [
          9.0557,
          46.9803
        ]
      },
      "properties": {
        "icao24": "407e45",
        "callsign": "EXS70VV",
        "origin_country": "United Kingdom",
        "time_position": 1787529086,
        "last_contact": 1787529086,
        "baro_altitude": 10965.18,
        "on_ground": false,
        "velocity": 209.81,
        "true_track": 307.63,
        "vertical_rate": 0,
        "geo_altitude": 11437.62,
        "squawk": "7532",
        "spi": false,
        "position_source": 0
      }
    },
    {
      "type": "Feature",
      "geometry": {
        "type": "Point",
        "coordinates": [
          14.0538,
          46.4942
        ]
      },
      "properties": {
        "icao24": "407e46",
        "callsign": "EXS48CR",
        "origin_country": "United Kingdom",
        "time_position": 1787529085,
        "last_contact": 1787529086,
        "baro_altitude": 10972.8,
        "on_ground": false,
        "velocity": 206.97,
        "true_track": 309.15,
        "vertical_rate": 0,
        "geo_altitude": 11430,
        "squawk": "5367",
        "spi": false,
        "position_source": 0
      }
    },
    {
      "type": "Feature",
      "geometry": {
        "type": "Point",
        "coordinates": [
          9.1708,
          43.099
        ]
      },
      "properties": {
        "icao24": "440614",
        "callsign": "EJU3701",
        "origin_country": "Austria",
        "time_position": 1787529086,
        "last_contact": 1787529086,
        "baro_altitude": 9144,
        "on_ground": false,
        "velocity": 214.04,
        "true_track": 0.96,
        "vertical_rate": 0,
        "geo_altitude": 9646.92,
        "squawk": "1000",
        "spi": false,
        "position_source": 0
      }
    },
    {
      "type": "Feature",
      "geometry": {
        "type": "Point",
        "coordinates": [
          8.3559,
          47.7391
        ]
      },
      "properties": {
        "icao24": "406ae9",
        "callsign": "TOM71H",
        "origin_country": "United Kingdom",
        "time_position": 1787529085,
        "last_contact": 1787529086,
        "baro_altitude": 11277.6,
        "on_ground": false,
        "velocity": 249.79,
        "true_track": 128.31,
        "vertical_rate": 0,
        "geo_altitude": 11711.94,
        "squawk": "2203",
        "spi": false,
        "position_source": 0
      }
    },
    {
      "type": "Feature",
      "geometry": {
        "type": "Point",
        "coordinates": [
          16.4774,
          38.3564
        ]
      },
      "properties": {
        "icao24": "3444ca",
        "callsign": "VLG1595",
        "origin_country": "Spain",
        "time_position": 1787529086,
        "last_contact": 1787529086,
        "baro_altitude": 10370.82,
        "on_ground": false,
        "velocity": 223.26,
        "true_track": 293.49,
        "vertical_rate": 0,
        "geo_altitude": 11003.28,
        "squawk": "5517",
        "spi": false,
        "position_source": 0
      }
    },
    {
      "type": "Feature",
      "geometry": {
        "type": "Point",
        "coordinates": [
          12.9395,
          45.0585
        ]
      },
      "properties": {
        "icao24": "407c26",
        "callsign": "TOM43H",
        "origin_country": "United Kingdom",
        "time_position": 1787529086,
        "last_contact": 1787529086,
        "baro_altitude": 10972.8,
        "on_ground": false,
        "velocity": 221.09,
        "true_track": 305.24,
        "vertical_rate": 0,
        "geo_altitude": 11483.34,
        "squawk": "5533",
        "spi": false,
        "position_source": 0
      }
    },
    {
      "type": "Feature",
      "geometry": {
        "type": "Point",
        "coordinates": [
          17.3549,
          42.7025
        ]
      },
      "properties": {
        "icao24": "440425",
        "callsign": "EJU19FC",
        "origin_country": "Austria",
        "time_position": 1787529086,
        "last_contact": 1787529086,
        "baro_altitude": 10965.18,
        "on_ground": false,
        "velocity": 225.09,
        "true_track": 310.64,
        "vertical_rate": 0,
        "geo_altitude": 11559.54,
        "squawk": "7731",
        "spi": false,
        "position_source": 0
      }
    },
    {
      "type": "Feature",
      "geometry": {
        "type": "Point",
        "coordinates": [
          18.2544,
          47.0124
        ]
      },
      "properties": {
        "icao24": "4bb886",
        "callsign": "TKJ3MQ",
        "origin_country": "Turkey",
        "time_position": 1787529086,
        "last_contact": 1787529086,
        "baro_altitude": 10660.38,
        "on_ground": false,
        "velocity": 252.63,
        "true_track": 119.12,
        "vertical_rate": 0,
        "geo_altitude": 11117.58,
        "squawk": "1173",
        "spi": false,
        "position_source": 0
      }
    },
    {
      "type": "Feature",
      "geometry": {
        "type": "Point",
        "coordinates": [
          8.0231,
          44.0889
        ]
      },
      "properties": {
        "icao24": "4402db",
        "callsign": "EJU17BL",
        "origin_country": "Austria",
        "time_position": 1787529086,
        "last_contact": 1787529086,
        "baro_altitude": 9166.86,
        "on_ground": false,
        "velocity": 248.2,
        "true_track": 40.29,
        "vertical_rate": -3.25,
        "geo_altitude": 9677.4,
        "squawk": "1000",
        "spi": false,
        "position_source": 0
      }
    },
    {
      "type": "Feature",
      "geometry": {
        "type": "Point",
        "coordinates": [
          7.391,
          37.1903
        ]
      },
      "properties": {
        "icao24": "06a0a7",
        "callsign": "QTR99L",
        "origin_country": "Qatar",
        "time_position": 1787529073,
        "last_contact": 1787529073,
        "baro_altitude": 11887.2,
        "on_ground": false,
        "velocity": 283.89,
        "true_track": 108.93,
        "vertical_rate": 0,
        "geo_altitude": 12626.34,
        "squawk": null,
        "spi": false,
        "position_source": 0
      }
    },
    {
      "type": "Feature",
      "geometry": {
        "type": "Point",
        "coordinates": [
          8.5609,
          47.4424
        ]
      },
      "properties": {
        "icao24": "4b1808",
        "callsign": "SWR",
        "origin_country": "Switzerland",
        "time_position": 1787529051,
        "last_contact": 1787529051,
        "baro_altitude": null,
        "on_ground": true,
        "velocity": 0,
        "true_track": 244.69,
        "vertical_rate": null,
        "geo_altitude": null,
        "squawk": "2000",
        "spi": false,
        "position_source": 0
      }
    },
    {
      "type": "Feature",
      "geometry": {
        "type": "Point",
        "coordinates": [
          11.6053,
          40.105
        ]
      },
      "properties": {
        "icao24": "4952ca",
        "callsign": "TAP900",
        "origin_country": "Portugal",
        "time_position": 1787529086,
        "last_contact": 1787529086,
        "baro_altitude": 11887.2,
        "on_ground": false,
        "velocity": 262.22,
        "true_track": 101.2,
        "vertical_rate": 0,
        "geo_altitude": 12550.14,
        "squawk": "5214",
        "spi": false,
        "position_source": 0
      }
    },
    {
      "type": "Feature",
      "geometry": {
        "type": "Point",
        "coordinates": [
          18.7965,
          42.5853
        ]
      },
      "properties": {
        "icao24": "48cb15",
        "callsign": "TVS3262",
        "origin_country": "Poland",
        "time_position": 1787529084,
        "last_contact": 1787529084,
        "baro_altitude": 11277.6,
        "on_ground": false,
        "velocity": 237.64,
        "true_track": 150.99,
        "vertical_rate": 0,
        "geo_altitude": 11841.48,
        "squawk": "6020",
        "spi": false,
        "position_source": 0
      }
    },
    {
      "type": "Feature",
      "geometry": {
        "type": "Point",
        "coordinates": [
          7.9074,
          47.4347
        ]
      },
      "properties": {
        "icao24": "408086",
        "callsign": "TOM3XD",
        "origin_country": "United Kingdom",
        "time_position": 1787529086,
        "last_contact": 1787529086,
        "baro_altitude": 10972.8,
        "on_ground": false,
        "velocity": 215.66,
        "true_track": 306.95,
        "vertical_rate": 0,
        "geo_altitude": 11430,
        "squawk": "2756",
        "spi": false,
        "position_source": 0
      }
    },
    {
      "type": "Feature",
      "geometry": {
        "type": "Point",
        "coordinates": [
          14.9694,
          41.886
        ]
      },
      "properties": {
        "icao24": "02a1a6",
        "callsign": "LBT7639",
        "origin_country": "Tunisia",
        "time_position": 1787529086,
        "last_contact": 1787529086,
        "baro_altitude": 10660.38,
        "on_ground": false,
        "velocity": 221.25,
        "true_track": 198.86,
        "vertical_rate": 0,
        "geo_altitude": 11247.12,
        "squawk": "0211",
        "spi": false,
        "position_source": 0
      }
    },
    {
      "type": "Feature",
      "geometry": {
        "type": "Point",
        "coordinates": [
          12.3688,
          36.9798
        ]
      },
      "properties": {
        "icao24": "02a1a1",
        "callsign": "LBT7534",
        "origin_country": "Tunisia",
        "time_position": 1787529086,
        "last_contact": 1787529086,
        "baro_altitude": 9776.46,
        "on_ground": false,
        "velocity": 229.24,
        "true_track": 36.97,
        "vertical_rate": 3.9,
        "geo_altitude": 10416.54,
        "squawk": "6151",
        "spi": false,
        "position_source": 0
      }
    },
    {
      "type": "Feature",
      "geometry": {
        "type": "Point",
        "coordinates": [
          13.486,
          40.5691
        ]
      },
      "properties": {
        "icao24": "02a1a2",
        "callsign": "LBT815",
        "origin_country": "Tunisia",
        "time_position": 1787529086,
        "last_contact": 1787529086,
        "baro_altitude": 11277.6,
        "on_ground": false,
        "velocity": 227.19,
        "true_track": 210.63,
        "vertical_rate": 0,
        "geo_altitude": 11887.2,
        "squawk": "0215",
        "spi": false,
        "position_source": 0
      }
    },
    {
      "type": "Feature",
      "geometry": {
        "type": "Point",
        "coordinates": [
          12.8494,
          41.2152
        ]
      },
      "properties": {
        "icao24": "02a1a8",
        "callsign": "LBT7415",
        "origin_country": "Tunisia",
        "time_position": 1787529086,
        "last_contact": 1787529086,
        "baro_altitude": 11277.6,
        "on_ground": false,
        "velocity": 226.62,
        "true_track": 198.81,
        "vertical_rate": 0,
        "geo_altitude": 11887.2,
        "squawk": "6032",
        "spi": false,
        "position_source": 0
      }
    },
    {
      "type": "Feature",
      "geometry": {
        "type": "Point",
        "coordinates": [
          13.4885,
          46.4342
        ]
      },
      "properties": {
        "icao24": "40820f",
        "callsign": "EXS83J",
        "origin_country": "United Kingdom",
        "time_position": 1787529085,
        "last_contact": 1787529086,
        "baro_altitude": 10972.8,
        "on_ground": false,
        "velocity": 218.36,
        "true_track": 311.27,
        "vertical_rate": 0,
        "geo_altitude": 11460.48,
        "squawk": "2074",
        "spi": false,
        "position_source": 0
      }
    },
    {
      "type": "Feature",
      "geometry": {
        "type": "Point",
        "coordinates": [
          12.5566,
          47.3222
        ]
      },
      "properties": {
        "icao24": "408210",
        "callsign": "EXS7GT",
        "origin_country": "United Kingdom",
        "time_position": 1787529086,
        "last_contact": 1787529086,
        "baro_altitude": 10972.8,
        "on_ground": false,
        "velocity": 208.37,
        "true_track": 307.58,
        "vertical_rate": 0,
        "geo_altitude": 11430,
        "squawk": "5301",
        "spi": false,
        "position_source": 0
      }
    },
    {
      "type": "Feature",
      "geometry": {
        "type": "Point",
        "coordinates": [
          11.5758,
          47.5992
        ]
      },
      "properties": {
        "icao24": "40823c",
        "callsign": "EXS2DT",
        "origin_country": "United Kingdom",
        "time_position": 1787529086,
        "last_contact": 1787529086,
        "baro_altitude": 10957.56,
        "on_ground": false,
        "velocity": 205.21,
        "true_track": 308.08,
        "vertical_rate": 0,
        "geo_altitude": 11399.52,
        "squawk": "3557",
        "spi": false,
        "position_source": 0
      }
    },
    {
      "type": "Feature",
      "geometry": {
        "type": "Point",
        "coordinates": [
          14.757,
          35.783
        ]
      },
      "properties": {
        "icao24": "0a0086",
        "callsign": "DAH304",
        "origin_country": "Algeria",
        "time_position": 1787529086,
        "last_contact": 1787529086,
        "baro_altitude": 11887.2,
        "on_ground": false,
        "velocity": 259.91,
        "true_track": 96.48,
        "vertical_rate": 0.33,
        "geo_altitude": 12618.72,
        "squawk": "4116",
        "spi": false,
        "position_source": 0
      }
    },
    {
      "type": "Feature",
      "geometry": {
        "type": "Point",
        "coordinates": [
          13.8313,
          36.2452
        ]
      },
      "properties": {
        "icao24": "05e054",
        "callsign": "MAI301",
        "origin_country": "Mauritania",
        "time_position": 1787529086,
        "last_contact": 1787529086,
        "baro_altitude": 11597.64,
        "on_ground": false,
        "velocity": 216.43,
        "true_track": 279.44,
        "vertical_rate": 0.33,
        "geo_altitude": 12260.58,
        "squawk": "2010",
        "spi": false,
        "position_source": 0
      }
    },
    {
      "type": "Feature",
      "geometry": {
        "type": "Point",
        "coordinates": [
          12.9287,
          47.1087
        ]
      },
      "properties": {
        "icao24": "408033",
        "callsign": "EXS9QS",
        "origin_country": "United Kingdom",
        "time_position": 1787529086,
        "last_contact": 1787529086,
        "baro_altitude": 11490.96,
        "on_ground": false,
        "velocity": 207.84,
        "true_track": 307.15,
        "vertical_rate": 2.28,
        "geo_altitude": 11948.16,
        "squawk": "5646",
        "spi": false,
        "position_source": 0
      }
    },
    {
      "type": "Feature",
      "geometry": {
        "type": "Point",
        "coordinates": [
          13.4343,
          36.8705
        ]
      },
      "properties": {
        "icao24": "43c5e2",
        "callsign": "RRR4225",
        "origin_country": "United Kingdom",
        "time_position": 1787529086,
        "last_contact": 1787529086,
        "baro_altitude": 7833.36,
        "on_ground": false,
        "velocity": 166.1,
        "true_track": 325.47,
        "vertical_rate": 2.93,
        "geo_altitude": 8397.24,
        "squawk": "6574",
        "spi": false,
        "position_source": 0
      }
    },
    {
      "type": "Feature",
      "geometry": {
        "type": "Point",
        "coordinates": [
          10.2388,
          36.8946
        ]
      },
      "properties": {
        "icao24": "02a197",
        "callsign": null,
        "origin_country": "Tunisia",
        "time_position": 1787528780,
        "last_contact": 1787528780,
        "baro_altitude": 167.64,
        "on_ground": false,
        "velocity": 65.29,
        "true_track": 192.28,
        "vertical_rate": -3.25,
        "geo_altitude": 243.84,
        "squawk": null,
        "spi": false,
        "position_source": 0
      }
    },
    {
      "type": "Feature",
      "geometry": {
        "type": "Point",
        "coordinates": [
          9.3989,
          39.3496
        ]
      },
      "properties": {
        "icao24": "02a0ad",
        "callsign": "TAR725",
        "origin_country": "Tunisia",
        "time_position": 1787529086,
        "last_contact": 1787529086,
        "baro_altitude": 12496.8,
        "on_ground": false,
        "velocity": 260.07,
        "true_track": 151.91,
        "vertical_rate": 0,
        "geo_altitude": 13213.08,
        "squawk": "7671",
        "spi": false,
        "position_source": 0
      }
    },
    {
      "type": "Feature",
      "geometry": {
        "type": "Point",
        "coordinates": [
          14.8547,
          37.4489
        ]
      },
      "properties": {
        "icao24": "4ca82c",
        "callsign": "MSA97C",
        "origin_country": "Ireland",
        "time_position": 1787528859,
        "last_contact": 1787528859,
        "baro_altitude": 891.54,
        "on_ground": false,
        "velocity": 103.51,
        "true_track": 83.72,
        "vertical_rate": -4.88,
        "geo_altitude": 1028.7,
        "squawk": "7466",
        "spi": false,
        "position_source": 0
      }
    },
    {
      "type": "Feature",
      "geometry": {
        "type": "Point",
        "coordinates": [
          18.7463,
          47.164
        ]
      },
      "properties": {
        "icao24": "4bcdea",
        "callsign": "SXS5FR",
        "origin_country": "Turkey",
        "time_position": 1787529086,
        "last_contact": 1787529086,
        "baro_altitude": 11887.2,
        "on_ground": false,
        "velocity": 241.01,
        "true_track": 144.21,
        "vertical_rate": 0,
        "geo_altitude": 12344.4,
        "squawk": "7635",
        "spi": false,
        "position_source": 0
      }
    },
    {
      "type": "Feature",
      "geometry": {
        "type": "Point",
        "coordinates": [
          17.3541,
          46.7773
        ]
      },
      "properties": {
        "icao24": "4bcde1",
        "callsign": "SXS4QP",
        "origin_country": "Turkey",
        "time_position": 1787529086,
        "last_contact": 1787529086,
        "baro_altitude": 11277.6,
        "on_ground": false,
        "velocity": 248.89,
        "true_track": 127.27,
        "vertical_rate": 0,
        "geo_altitude": 11734.8,
        "squawk": "6001",
        "spi": false,
        "position_source": 0
      }
    },
    {
      "type": "Feature",
      "geometry": {
        "type": "Point",
        "coordinates": [
          17.5786,
          46.6423
        ]
      },
      "properties": {
        "icao24": "4bce46",
        "callsign": "SXS2GA",
        "origin_country": "Turkey",
        "time_position": 1787529086,
        "last_contact": 1787529086,
        "baro_altitude": 11887.2,
        "on_ground": false,
        "velocity": 248.89,
        "true_track": 126.68,
        "vertical_rate": 0,
        "geo_altitude": 12359.64,
        "squawk": "7711",
        "spi": false,
        "position_source": 0
      }
    },
    {
      "type": "Feature",
      "geometry": {
        "type": "Point",
        "coordinates": [
          17.1773,
          45.5051
        ]
      },
      "properties": {
        "icao24": "4bcdb5",
        "callsign": "SXS2NB",
        "origin_country": "Turkey",
        "time_position": 1787529086,
        "last_contact": 1787529086,
        "baro_altitude": 12496.8,
        "on_ground": false,
        "velocity": 237.93,
        "true_track": 134.12,
        "vertical_rate": 0,
        "geo_altitude": 13022.58,
        "squawk": "7655",
        "spi": false,
        "position_source": 0
      }
    },
    {
      "type": "Feature",
      "geometry": {
        "type": "Point",
        "coordinates": [
          14.6898,
          46.1677
        ]
      },
      "properties": {
        "icao24": "448466",
        "callsign": "ICL903",
        "origin_country": "Belgium",
        "time_position": 1787529085,
        "last_contact": 1787529085,
        "baro_altitude": 10965.18,
        "on_ground": false,
        "velocity": 233.99,
        "true_track": 307.68,
        "vertical_rate": 0,
        "geo_altitude": 11407.14,
        "squawk": "1154",
        "spi": false,
        "position_source": 0
      }
    },
    {
      "type": "Feature",
      "geometry": {
        "type": "Point",
        "coordinates": [
          17.5229,
          45.4693
        ]
      },
      "properties": {
        "icao24": "4bce0e",
        "callsign": "SXS8UA",
        "origin_country": "Turkey",
        "time_position": 1787529085,
        "last_contact": 1787529086,
        "baro_altitude": 11887.2,
        "on_ground": false,
        "velocity": 242.24,
        "true_track": 138.01,
        "vertical_rate": 0.33,
        "geo_altitude": 12405.36,
        "squawk": "6403",
        "spi": false,
        "position_source": 0
      }
    },
    {
      "type": "Feature",
      "geometry": {
        "type": "Point",
        "coordinates": [
          7.6598,
          43.7793
        ]
      },
      "properties": {
        "icao24": "300814",
        "callsign": "ILEAF",
        "origin_country": "Italy",
        "time_position": 1787529086,
        "last_contact": 1787529086,
        "baro_altitude": 251.46,
        "on_ground": false,
        "velocity": 42.8,
        "true_track": 64.36,
        "vertical_rate": 3.25,
        "geo_altitude": 342.9,
        "squawk": null,
        "spi": false,
        "position_source": 0
      }
    },
    {
      "type": "Feature",
      "geometry": {
        "type": "Point",
        "coordinates": [
          13.1037,
          38.1801
        ]
      },
      "properties": {
        "icao24": "4cafca",
        "callsign": "MSA61P",
        "origin_country": "Ireland",
        "time_position": 1787528926,
        "last_contact": 1787528926,
        "baro_altitude": null,
        "on_ground": true,
        "velocity": 15.95,
        "true_track": 247.5,
        "vertical_rate": null,
        "geo_altitude": null,
        "squawk": null,
        "spi": false,
        "position_source": 0
      }
    },
    {
      "type": "Feature",
      "geometry": {
        "type": "Point",
        "coordinates": [
          16.1763,
          38.9132
        ]
      },
      "properties": {
        "icao24": "4cafcb",
        "callsign": "MSA95S",
        "origin_country": "Ireland",
        "time_position": 1787528923,
        "last_contact": 1787528926,
        "baro_altitude": 243.84,
        "on_ground": false,
        "velocity": 70.87,
        "true_track": 99.19,
        "vertical_rate": -3.58,
        "geo_altitude": 320.04,
        "squawk": "1000",
        "spi": false,
        "position_source": 0
      }
    },
    {
      "type": "Feature",
      "geometry": {
        "type": "Point",
        "coordinates": [
          12.6285,
          46.9302
        ]
      },
      "properties": {
        "icao24": "4076b1",
        "callsign": "TOM4AX",
        "origin_country": "United Kingdom",
        "time_position": 1787529086,
        "last_contact": 1787529086,
        "baro_altitude": 10363.2,
        "on_ground": false,
        "velocity": 218.29,
        "true_track": 310.22,
        "vertical_rate": 0,
        "geo_altitude": 10805.16,
        "squawk": "2022",
        "spi": false,
        "position_source": 0
      }
    },
    {
      "type": "Feature",
      "geometry": {
        "type": "Point",
        "coordinates": [
          14.2786,
          46.7118
        ]
      },
      "properties": {
        "icao24": "010266",
        "callsign": "MSC2964",
        "origin_country": "Egypt",
        "time_position": 1787529086,
        "last_contact": 1787529086,
        "baro_altitude": 11590.02,
        "on_ground": false,
        "velocity": 218.51,
        "true_track": 331.14,
        "vertical_rate": 0.33,
        "geo_altitude": 12054.84,
        "squawk": "2066",
        "spi": false,
        "position_source": 0
      }
    },
    {
      "type": "Feature",
      "geometry": {
        "type": "Point",
        "coordinates": [
          16.9632,
          43.8938
        ]
      },
      "properties": {
        "icao24": "010208",
        "callsign": "MSR796",
        "origin_country": "Egypt",
        "time_position": 1787529086,
        "last_contact": 1787529086,
        "baro_altitude": 11277.6,
        "on_ground": false,
        "velocity": 248.33,
        "true_track": 137.52,
        "vertical_rate": 0,
        "geo_altitude": 11818.62,
        "squawk": "5230",
        "spi": false,
        "position_source": 0
      }
    },
    {
      "type": "Feature",
      "geometry": {
        "type": "Point",
        "coordinates": [
          13.2737,
          44.3724
        ]
      },
      "properties": {
        "icao24": "010236",
        "callsign": "NMA7140",
        "origin_country": "Egypt",
        "time_position": 1787529086,
        "last_contact": 1787529086,
        "baro_altitude": 10972.8,
        "on_ground": false,
        "velocity": 216.44,
        "true_track": 315.29,
        "vertical_rate": 0,
        "geo_altitude": 11498.58,
        "squawk": "7370",
        "spi": false,
        "position_source": 0
      }
    },
    {
      "type": "Feature",
      "geometry": {
        "type": "Point",
        "coordinates": [
          14.7909,
          44.8163
        ]
      },
      "properties": {
        "icao24": "40773b",
        "callsign": "TOM1BY",
        "origin_country": "United Kingdom",
        "time_position": 1787529086,
        "last_contact": 1787529086,
        "baro_altitude": 10972.8,
        "on_ground": false,
        "velocity": 217.06,
        "true_track": 294.8,
        "vertical_rate": 0,
        "geo_altitude": 11506.2,
        "squawk": "2071",
        "spi": false,
        "position_source": 0
      }
    },
    {
      "type": "Feature",
      "geometry": {
        "type": "Point",
        "coordinates": [
          12.872,
          41.329
        ]
      },
      "properties": {
        "icao24": "01028a",
        "callsign": "MSR948",
        "origin_country": "Egypt",
        "time_position": 1787529086,
        "last_contact": 1787529086,
        "baro_altitude": 12496.8,
        "on_ground": false,
        "velocity": 277.83,
        "true_track": 119.51,
        "vertical_rate": 0,
        "geo_altitude": 13106.4,
        "squawk": "1220",
        "spi": false,
        "position_source": 0
      }
    },
    {
      "type": "Feature",
      "geometry": {
        "type": "Point",
        "coordinates": [
          9.235,
          46.7479
        ]
      },
      "properties": {
        "icao24": "4075f4",
        "callsign": "TOM5DW",
        "origin_country": "United Kingdom",
        "time_position": 1787529086,
        "last_contact": 1787529086,
        "baro_altitude": 10972.8,
        "on_ground": false,
        "velocity": 212.99,
        "true_track": 308.72,
        "vertical_rate": 0,
        "geo_altitude": 11430,
        "squawk": "7520",
        "spi": false,
        "position_source": 0
      }
    },
    {
      "type": "Feature",
      "geometry": {
        "type": "Point",
        "coordinates": [
          6.5143,
          44.0861
        ]
      },
      "properties": {
        "icao24": "0101df",
        "callsign": "MSR996",
        "origin_country": "Egypt",
        "time_position": 1787529085,
        "last_contact": 1787529086,
        "baro_altitude": 11887.2,
        "on_ground": false,
        "velocity": 271.42,
        "true_track": 122.7,
        "vertical_rate": 0,
        "geo_altitude": 12443.46,
        "squawk": "3360",
        "spi": false,
        "position_source": 0
      }
    },
    {
      "type": "Feature",
      "geometry": {
        "type": "Point",
        "coordinates": [
          11.2145,
          42.8567
        ]
      },
      "properties": {
        "icao24": "300695",
        "callsign": null,
        "origin_country": "Italy",
        "time_position": 1787529085,
        "last_contact": 1787529085,
        "baro_altitude": 716.28,
        "on_ground": false,
        "velocity": 69.35,
        "true_track": 37.46,
        "vertical_rate": 2.93,
        "geo_altitude": 792.48,
        "squawk": null,
        "spi": false,
        "position_source": 0
      }
    },
    {
      "type": "Feature",
      "geometry": {
        "type": "Point",
        "coordinates": [
          14.5659,
          44.7215
        ]
      },
      "properties": {
        "icao24": "4072a4",
        "callsign": "TOM35M",
        "origin_country": "United Kingdom",
        "time_position": 1787529086,
        "last_contact": 1787529086,
        "baro_altitude": 11582.4,
        "on_ground": false,
        "velocity": 209.63,
        "true_track": 302.68,
        "vertical_rate": 0,
        "geo_altitude": 12108.18,
        "squawk": "5206",
        "spi": false,
        "position_source": 0
      }
    },
    {
      "type": "Feature",
      "geometry": {
        "type": "Point",
        "coordinates": [
          10.6464,
          47.3014
        ]
      },
      "properties": {
        "icao24": "407575",
        "callsign": "EZY2404",
        "origin_country": "United Kingdom",
        "time_position": 1787529086,
        "last_contact": 1787529086,
        "baro_altitude": 10370.82,
        "on_ground": false,
        "velocity": 216.98,
        "true_track": 312.69,
        "vertical_rate": 0,
        "geo_altitude": 10820.4,
        "squawk": "3540",
        "spi": false,
        "position_source": 0
      }
    },
    {
      "type": "Feature",
      "geometry": {
        "type": "Point",
        "coordinates": [
          6.44,
          43.5898
        ]
      },
      "properties": {
        "icao24": "40622b",
        "callsign": "EZY64YF",
        "origin_country": "United Kingdom",
        "time_position": 1787529086,
        "last_contact": 1787529086,
        "baro_altitude": 3703.32,
        "on_ground": false,
        "velocity": 200.76,
        "true_track": 108.99,
        "vertical_rate": -11.7,
        "geo_altitude": 3992.88,
        "squawk": "6301",
        "spi": false,
        "position_source": 0
      }
    },
    {
      "type": "Feature",
      "geometry": {
        "type": "Point",
        "coordinates": [
          9.0557,
          43.999
        ]
      },
      "properties": {
        "icao24": "4cae05",
        "callsign": "NOS8050",
        "origin_country": "Ireland",
        "time_position": 1787529086,
        "last_contact": 1787529086,
        "baro_altitude": 10058.4,
        "on_ground": false,
        "velocity": 248.27,
        "true_track": 142.92,
        "vertical_rate": 0,
        "geo_altitude": 10568.94,
        "squawk": "1000",
        "spi": false,
        "position_source": 0
      }
    },
    {
      "type": "Feature",
      "geometry": {
        "type": "Point",
        "coordinates": [
          8.3769,
          47.0708
        ]
      },
      "properties": {
        "icao24": "4caca2",
        "callsign": "ABR177",
        "origin_country": "Ireland",
        "time_position": 1787529086,
        "last_contact": 1787529086,
        "baro_altitude": 6096,
        "on_ground": false,
        "velocity": 124.7,
        "true_track": 333.54,
        "vertical_rate": 0,
        "geo_altitude": 6393.18,
        "squawk": "1000",
        "spi": false,
        "position_source": 0
      }
    },
    {
      "type": "Feature",
      "geometry": {
        "type": "Point",
        "coordinates": [
          11.8989,
          43.6411
        ]
      },
      "properties": {
        "icao24": "70e083",
        "callsign": "NIA221",
        "origin_country": "Cambodia",
        "time_position": 1787529086,
        "last_contact": 1787529086,
        "baro_altitude": 10363.2,
        "on_ground": false,
        "velocity": 214.39,
        "true_track": 301.06,
        "vertical_rate": 0,
        "geo_altitude": 10888.98,
        "squawk": "2003",
        "spi": false,
        "position_source": 0
      }
    },
    {
      "type": "Feature",
      "geometry": {
        "type": "Point",
        "coordinates": [
          15.5351,
          41.4223
        ]
      },
      "properties": {
        "icao24": "4cac59",
        "callsign": "LID530",
        "origin_country": "Ireland",
        "time_position": 1787529084,
        "last_contact": 1787529084,
        "baro_altitude": 106.68,
        "on_ground": false,
        "velocity": 8.98,
        "true_track": 336.37,
        "vertical_rate": -1.63,
        "geo_altitude": 213.36,
        "squawk": null,
        "spi": false,
        "position_source": 0
      }
    },
    {
      "type": "Feature",
      "geometry": {
        "type": "Point",
        "coordinates": [
          9.6485,
          44.509
        ]
      },
      "properties": {
        "icao24": "4d20e5",
        "callsign": "HAT4911",
        "origin_country": "Malta",
        "time_position": 1787529086,
        "last_contact": 1787529086,
        "baro_altitude": 8366.76,
        "on_ground": false,
        "velocity": 201.15,
        "true_track": 306.58,
        "vertical_rate": -11.7,
        "geo_altitude": 8808.72,
        "squawk": "5526",
        "spi": false,
        "position_source": 0
      }
    },
    {
      "type": "Feature",
      "geometry": {
        "type": "Point",
        "coordinates": [
          13.2454,
          43.3989
        ]
      },
      "properties": {
        "icao24": "4cac8d",
        "callsign": "NOS7929",
        "origin_country": "Ireland",
        "time_position": 1787529085,
        "last_contact": 1787529086,
        "baro_altitude": 10972.8,
        "on_ground": false,
        "velocity": 220.47,
        "true_track": 315.95,
        "vertical_rate": 0,
        "geo_altitude": 11521.44,
        "squawk": "6631",
        "spi": false,
        "position_source": 0
      }
    },
    {
      "type": "Feature",
      "geometry": {
        "type": "Point",
        "coordinates": [
          8.0993,
          45.04
        ]
      },
      "properties": {
        "icao24": "4cac63",
        "callsign": "ABR420",
        "origin_country": "Ireland",
        "time_position": 1787529086,
        "last_contact": 1787529086,
        "baro_altitude": 7772.4,
        "on_ground": false,
        "velocity": 196.05,
        "true_track": 200.91,
        "vertical_rate": 9.43,
        "geo_altitude": 8183.88,
        "squawk": "1000",
        "spi": false,
        "position_source": 0
      }
    },
    {
      "type": "Feature",
      "geometry": {
        "type": "Point",
        "coordinates": [
          17.4733,
          44.3864
        ]
      },
      "properties": {
        "icao24": "4d20bd",
        "callsign": "WMT8B",
        "origin_country": "Malta",
        "time_position": 1787529086,
        "last_contact": 1787529086,
        "baro_altitude": 10363.2,
        "on_ground": false,
        "velocity": 214.44,
        "true_track": 282.47,
        "vertical_rate": 0,
        "geo_altitude": 10896.6,
        "squawk": "6011",
        "spi": false,
        "position_source": 0
      }
    },
    {
      "type": "Feature",
      "geometry": {
        "type": "Point",
        "coordinates": [
          7.5732,
          47.6438
        ]
      },
      "properties": {
        "icao24": "40832c",
        "callsign": "TOM523",
        "origin_country": "United Kingdom",
        "time_position": 1787529086,
        "last_contact": 1787529086,
        "baro_altitude": 11582.4,
        "on_ground": false,
        "velocity": 206.92,
        "true_track": 307.53,
        "vertical_rate": 0,
        "geo_altitude": 12024.36,
        "squawk": "7524",
        "spi": false,
        "position_source": 0
      }
    },
    {
      "type": "Feature",
      "geometry": {
        "type": "Point",
        "coordinates": [
          17.5372,
          44.5636
        ]
      },
      "properties": {
        "icao24": "40832b",
        "callsign": "TOM5XJ",
        "origin_country": "United Kingdom",
        "time_position": 1787529086,
        "last_contact": 1787529086,
        "baro_altitude": 10972.8,
        "on_ground": false,
        "velocity": 222.11,
        "true_track": 309.74,
        "vertical_rate": 0,
        "geo_altitude": 11513.82,
        "squawk": "2242",
        "spi": false,
        "position_source": 0
      }
    },
    {
      "type": "Feature",
      "geometry": {
        "type": "Point",
        "coordinates": [
          11.6649,
          46.648
        ]
      },
      "properties": {
        "icao24": "40838a",
        "callsign": "EZY72WY",
        "origin_country": "United Kingdom",
        "time_position": 1787529086,
        "last_contact": 1787529086,
        "baro_altitude": 10980.42,
        "on_ground": false,
        "velocity": 215.41,
        "true_track": 313.65,
        "vertical_rate": 0,
        "geo_altitude": 11445.24,
        "squawk": "2051",
        "spi": false,
        "position_source": 0
      }
    },
    {
      "type": "Feature",
      "geometry": {
        "type": "Point",
        "coordinates": [
          18.6499,
          43.9117
        ]
      },
      "properties": {
        "icao24": "40837c",
        "callsign": "EXS8HQ",
        "origin_country": "United Kingdom",
        "time_position": 1787529086,
        "last_contact": 1787529086,
        "baro_altitude": 10980.42,
        "on_ground": false,
        "velocity": 221.92,
        "true_track": 310.3,
        "vertical_rate": 0.33,
        "geo_altitude": 11513.82,
        "squawk": "6632",
        "spi": false,
        "position_source": 0
      }
    },
    {
      "type": "Feature",
      "geometry": {
        "type": "Point",
        "coordinates": [
          8.7877,
          45.3953
        ]
      },
      "properties": {
        "icao24": "30019c",
        "callsign": "NOS8511",
        "origin_country": "Italy",
        "time_position": 1787529086,
        "last_contact": 1787529086,
        "baro_altitude": 1432.56,
        "on_ground": false,
        "velocity": 101.19,
        "true_track": 348.86,
        "vertical_rate": -5.85,
        "geo_altitude": 1584.96,
        "squawk": "1000",
        "spi": false,
        "position_source": 0
      }
    },
    {
      "type": "Feature",
      "geometry": {
        "type": "Point",
        "coordinates": [
          11.6021,
          41.8905
        ]
      },
      "properties": {
        "icao24": "4d2100",
        "callsign": "WMT511",
        "origin_country": "Malta",
        "time_position": 1787529086,
        "last_contact": 1787529086,
        "baro_altitude": 2758.44,
        "on_ground": false,
        "velocity": 173.16,
        "true_track": 65.8,
        "vertical_rate": -5.53,
        "geo_altitude": 2987.04,
        "squawk": "5210",
        "spi": false,
        "position_source": 0
      }
    },
    {
      "type": "Feature",
      "geometry": {
        "type": "Point",
        "coordinates": [
          17.1289,
          45.1698
        ]
      },
      "properties": {
        "icao24": "408314",
        "callsign": "TOM1YC",
        "origin_country": "United Kingdom",
        "time_position": 1787529086,
        "last_contact": 1787529086,
        "baro_altitude": 10972.8,
        "on_ground": false,
        "velocity": 220.47,
        "true_track": 314.05,
        "vertical_rate": 0,
        "geo_altitude": 11498.58,
        "squawk": "2273",
        "spi": false,
        "position_source": 0
      }
    },
    {
      "type": "Feature",
      "geometry": {
        "type": "Point",
        "coordinates": [
          15.9348,
          41.5553
        ]
      },
      "properties": {
        "icao24": "4d206e",
        "callsign": "AIZ991",
        "origin_country": "Malta",
        "time_position": 1787529085,
        "last_contact": 1787529085,
        "baro_altitude": 10363.2,
        "on_ground": false,
        "velocity": 234.33,
        "true_track": 302.54,
        "vertical_rate": 0,
        "geo_altitude": 10949.94,
        "squawk": "2437",
        "spi": false,
        "position_source": 0
      }
    },
    {
      "type": "Feature",
      "geometry": {
        "type": "Point",
        "coordinates": [
          13.4058,
          38.8974
        ]
      },
      "properties": {
        "icao24": "4d204d",
        "callsign": "UVL002",
        "origin_country": "Malta",
        "time_position": 1787529085,
        "last_contact": 1787529085,
        "baro_altitude": 5943.6,
        "on_ground": false,
        "velocity": 145.71,
        "true_track": 22.85,
        "vertical_rate": 4.23,
        "geo_altitude": 6385.56,
        "squawk": null,
        "spi": false,
        "position_source": 0
      }
    },
    {
      "type": "Feature",
      "geometry": {
        "type": "Point",
        "coordinates": [
          14.4855,
          46.2094
        ]
      },
      "properties": {
        "icao24": "451dad",
        "callsign": "BCS4850",
        "origin_country": "Bulgaria",
        "time_position": 1787528847,
        "last_contact": 1787528848,
        "baro_altitude": 358.14,
        "on_ground": false,
        "velocity": 76.04,
        "true_track": 307.02,
        "vertical_rate": -3.58,
        "geo_altitude": 480.06,
        "squawk": "1000",
        "spi": false,
        "position_source": 0
      }
    },
    {
      "type": "Feature",
      "geometry": {
        "type": "Point",
        "coordinates": [
          8.5614,
          47.4416
        ]
      },
      "properties": {
        "icao24": "4b17e6",
        "callsign": "SWR",
        "origin_country": "Switzerland",
        "time_position": 1787529084,
        "last_contact": 1787529084,
        "baro_altitude": null,
        "on_ground": true,
        "velocity": 0,
        "true_track": 244.69,
        "vertical_rate": null,
        "geo_altitude": null,
        "squawk": "2000",
        "spi": false,
        "position_source": 0
      }
    },
    {
      "type": "Feature",
      "geometry": {
        "type": "Point",
        "coordinates": [
          17.0621,
          41.1374
        ]
      },
      "properties": {
        "icao24": "3481c9",
        "callsign": "BCS7550",
        "origin_country": "Spain",
        "time_position": 1787529086,
        "last_contact": 1787529086,
        "baro_altitude": 10058.4,
        "on_ground": false,
        "velocity": 233.7,
        "true_track": 131.16,
        "vertical_rate": 0,
        "geo_altitude": 10652.76,
        "squawk": "0447",
        "spi": false,
        "position_source": 0
      }
    }
  ]
}