{
  "type": "FeatureCollection",
  "source": "opensky",
  "dataset": "aircraft_italy",
  "generated_at": "2026-08-23T00:03:05.328736+00:00",
  "opensky_time": 1787443378,
  "count": 121,
  "features": [
    {
      "type": "Feature",
      "geometry": {
        "type": "Point",
        "coordinates": [
          8.728,
          45.6121
        ]
      },
      "properties": {
        "icao24": "440224",
        "callsign": "EJU36QL",
        "origin_country": "Austria",
        "time_position": 1787443377,
        "last_contact": 1787443378,
        "baro_altitude": 213.36,
        "on_ground": false,
        "velocity": 66.69,
        "true_track": 348.43,
        "vertical_rate": -3.9,
        "geo_altitude": 297.18,
        "squawk": "1000",
        "spi": false,
        "position_source": 0
      }
    },
    {
      "type": "Feature",
      "geometry": {
        "type": "Point",
        "coordinates": [
          18.5819,
          46.1223
        ]
      },
      "properties": {
        "icao24": "4bc84a",
        "callsign": "PGT7122",
        "origin_country": "Turkey",
        "time_position": 1787443376,
        "last_contact": 1787443377,
        "baro_altitude": 10668,
        "on_ground": false,
        "velocity": 248.03,
        "true_track": 128.18,
        "vertical_rate": 0,
        "geo_altitude": 11163.3,
        "squawk": "6414",
        "spi": false,
        "position_source": 0
      }
    },
    {
      "type": "Feature",
      "geometry": {
        "type": "Point",
        "coordinates": [
          11.0853,
          40.1456
        ]
      },
      "properties": {
        "icao24": "738069",
        "callsign": "ELY292",
        "origin_country": "Israel",
        "time_position": 1787443377,
        "last_contact": 1787443378,
        "baro_altitude": 11277.6,
        "on_ground": false,
        "velocity": 236.93,
        "true_track": 102.29,
        "vertical_rate": 0,
        "geo_altitude": 11932.92,
        "squawk": "1230",
        "spi": false,
        "position_source": 0
      }
    },
    {
      "type": "Feature",
      "geometry": {
        "type": "Point",
        "coordinates": [
          9.933,
          41.3137
        ]
      },
      "properties": {
        "icao24": "4bb470",
        "callsign": "MNB1546",
        "origin_country": "Turkey",
        "time_position": 1787443378,
        "last_contact": 1787443378,
        "baro_altitude": 11582.4,
        "on_ground": false,
        "velocity": 224.79,
        "true_track": 253.51,
        "vertical_rate": 0,
        "geo_altitude": 12199.62,
        "squawk": "7346",
        "spi": false,
        "position_source": 0
      }
    },
    {
      "type": "Feature",
      "geometry": {
        "type": "Point",
        "coordinates": [
          13.7676,
          39.7884
        ]
      },
      "properties": {
        "icao24": "738075",
        "callsign": "ELY003",
        "origin_country": "Israel",
        "time_position": 1787443377,
        "last_contact": 1787443377,
        "baro_altitude": 9753.6,
        "on_ground": false,
        "velocity": 243.65,
        "true_track": 285.68,
        "vertical_rate": 0,
        "geo_altitude": 10355.58,
        "squawk": "4153",
        "spi": false,
        "position_source": 0
      }
    },
    {
      "type": "Feature",
      "geometry": {
        "type": "Point",
        "coordinates": [
          18.8014,
          41.7958
        ]
      },
      "properties": {
        "icao24": "738059",
        "callsign": "ELY288",
        "origin_country": "Israel",
        "time_position": 1787443373,
        "last_contact": 1787443376,
        "baro_altitude": 11277.6,
        "on_ground": false,
        "velocity": 243.61,
        "true_track": 128.23,
        "vertical_rate": 0,
        "geo_altitude": 11879.58,
        "squawk": "0464",
        "spi": false,
        "position_source": 0
      }
    },
    {
      "type": "Feature",
      "geometry": {
        "type": "Point",
        "coordinates": [
          11.0224,
          46.0703
        ]
      },
      "properties": {
        "icao24": "80189d",
        "callsign": "AIC188",
        "origin_country": "India",
        "time_position": 1787443377,
        "last_contact": 1787443377,
        "baro_altitude": 11269.98,
        "on_ground": false,
        "velocity": 277.74,
        "true_track": 121.36,
        "vertical_rate": 0.33,
        "geo_altitude": 11765.28,
        "squawk": "1155",
        "spi": false,
        "position_source": 0
      }
    },
    {
      "type": "Feature",
      "geometry": {
        "type": "Point",
        "coordinates": [
          9.7544,
          45.4289
        ]
      },
      "properties": {
        "icao24": "440073",
        "callsign": "EJU12HZ",
        "origin_country": "Austria",
        "time_position": 1787443378,
        "last_contact": 1787443378,
        "baro_altitude": 5608.32,
        "on_ground": false,
        "velocity": 179.65,
        "true_track": 265.24,
        "vertical_rate": -11.7,
        "geo_altitude": 5905.5,
        "squawk": "5535",
        "spi": false,
        "position_source": 0
      }
    },
    {
      "type": "Feature",
      "geometry": {
        "type": "Point",
        "coordinates": [
          16.025,
          45.8654
        ]
      },
      "properties": {
        "icao24": "abbe23",
        "callsign": "FDX10",
        "origin_country": "United States",
        "time_position": 1787443377,
        "last_contact": 1787443377,
        "baro_altitude": 10058.4,
        "on_ground": false,
        "velocity": 275.13,
        "true_track": 113.35,
        "vertical_rate": 0,
        "geo_altitude": 10523.22,
        "squawk": "0675",
        "spi": false,
        "position_source": 0
      }
    },
    {
      "type": "Feature",
      "geometry": {
        "type": "Point",
        "coordinates": [
          14.375,
          40.6821
        ]
      },
      "properties": {
        "icao24": "44019b",
        "callsign": "TJS003",
        "origin_country": "Austria",
        "time_position": 1787443377,
        "last_contact": 1787443377,
        "baro_altitude": 4564.38,
        "on_ground": false,
        "velocity": 169.65,
        "true_track": 331.57,
        "vertical_rate": 8.78,
        "geo_altitude": 4892.04,
        "squawk": null,
        "spi": false,
        "position_source": 0
      }
    },
    {
      "type": "Feature",
      "geometry": {
        "type": "Point",
        "coordinates": [
          9.9701,
          45.5132
        ]
      },
      "properties": {
        "icao24": "440198",
        "callsign": "EJU67TU",
        "origin_country": "Austria",
        "time_position": 1787443377,
        "last_contact": 1787443377,
        "baro_altitude": 6248.4,
        "on_ground": false,
        "velocity": 199.6,
        "true_track": 260.8,
        "vertical_rate": -11.38,
        "geo_altitude": 6583.68,
        "squawk": "2011",
        "spi": false,
        "position_source": 0
      }
    },
    {
      "type": "Feature",
      "geometry": {
        "type": "Point",
        "coordinates": [
          6.7269,
          43.3005
        ]
      },
      "properties": {
        "icao24": "452124",
        "callsign": "LZB564",
        "origin_country": "Bulgaria",
        "time_position": 1787443377,
        "last_contact": 1787443377,
        "baro_altitude": 11582.4,
        "on_ground": false,
        "velocity": 251.48,
        "true_track": 54.91,
        "vertical_rate": 0,
        "geo_altitude": 12138.66,
        "squawk": "2235",
        "spi": false,
        "position_source": 0
      }
    },
    {
      "type": "Feature",
      "geometry": {
        "type": "Point",
        "coordinates": [
          9.5744,
          44.2954
        ]
      },
      "properties": {
        "icao24": "345613",
        "callsign": "VOE2047",
        "origin_country": "Spain",
        "time_position": 1787443377,
        "last_contact": 1787443378,
        "baro_altitude": 11551.92,
        "on_ground": false,
        "velocity": 207.14,
        "true_track": 298.16,
        "vertical_rate": 0.33,
        "geo_altitude": 12092.94,
        "squawk": "2030",
        "spi": false,
        "position_source": 0
      }
    },
    {
      "type": "Feature",
      "geometry": {
        "type": "Point",
        "coordinates": [
          14.8472,
          40.3823
        ]
      },
      "properties": {
        "icao24": "4bb289",
        "callsign": "THY5LY",
        "origin_country": "Turkey",
        "time_position": 1787443377,
        "last_contact": 1787443377,
        "baro_altitude": 10668,
        "on_ground": false,
        "velocity": 243.36,
        "true_track": 84.66,
        "vertical_rate": 0,
        "geo_altitude": 11308.08,
        "squawk": "1272",
        "spi": false,
        "position_source": 0
      }
    },
    {
      "type": "Feature",
      "geometry": {
        "type": "Point",
        "coordinates": [
          17.8101,
          42.8639
        ]
      },
      "properties": {
        "icao24": "8005eb",
        "callsign": "AIC132",
        "origin_country": "India",
        "time_position": 1787443374,
        "last_contact": 1787443376,
        "baro_altitude": 11269.98,
        "on_ground": false,
        "velocity": 264.85,
        "true_track": 134.21,
        "vertical_rate": -0.33,
        "geo_altitude": 11871.96,
        "squawk": "5264",
        "spi": false,
        "position_source": 0
      }
    },
    {
      "type": "Feature",
      "geometry": {
        "type": "Point",
        "coordinates": [
          16.811,
          40.6138
        ]
      },
      "properties": {
        "icao24": "02019d",
        "callsign": "MAC529",
        "origin_country": "Morocco",
        "time_position": 1787443377,
        "last_contact": 1787443378,
        "baro_altitude": 10363.2,
        "on_ground": false,
        "velocity": 218.64,
        "true_track": 269.73,
        "vertical_rate": 0,
        "geo_altitude": 10972.8,
        "squawk": "2324",
        "spi": false,
        "position_source": 0
      }
    },
    {
      "type": "Feature",
      "geometry": {
        "type": "Point",
        "coordinates": [
          7.0203,
          41.9672
        ]
      },
      "properties": {
        "icao24": "346612",
        "callsign": "VOE8NN",
        "origin_country": "Spain",
        "time_position": 1787443377,
        "last_contact": 1787443377,
        "baro_altitude": 10972.8,
        "on_ground": false,
        "velocity": 221.46,
        "true_track": 301.51,
        "vertical_rate": 0,
        "geo_altitude": 11536.68,
        "squawk": "6623",
        "spi": false,
        "position_source": 0
      }
    },
    {
      "type": "Feature",
      "geometry": {
        "type": "Point",
        "coordinates": [
          17.156,
          47.722
        ]
      },
      "properties": {
        "icao24": "4bb213",
        "callsign": "THY7QN",
        "origin_country": "Turkey",
        "time_position": 1787443377,
        "last_contact": 1787443378,
        "baro_altitude": 10668,
        "on_ground": false,
        "velocity": 255.11,
        "true_track": 123.82,
        "vertical_rate": 0.33,
        "geo_altitude": 11094.72,
        "squawk": "5213",
        "spi": false,
        "position_source": 0
      }
    },
    {
      "type": "Feature",
      "geometry": {
        "type": "Point",
        "coordinates": [
          12.5172,
          37.8736
        ]
      },
      "properties": {
        "icao24": "4bb20d",
        "callsign": "THY658",
        "origin_country": "Turkey",
        "time_position": 1787443377,
        "last_contact": 1787443377,
        "baro_altitude": 9608.82,
        "on_ground": false,
        "velocity": 235.26,
        "true_track": 72.44,
        "vertical_rate": 4.88,
        "geo_altitude": 10218.42,
        "squawk": "6153",
        "spi": false,
        "position_source": 0
      }
    },
    {
      "type": "Feature",
      "geometry": {
        "type": "Point",
        "coordinates": [
          7.3972,
          44.9939
        ]
      },
      "properties": {
        "icao24": "8963f2",
        "callsign": "UAE206",
        "origin_country": "United Arab Emirates",
        "time_position": 1787443377,
        "last_contact": 1787443377,
        "baro_altitude": 6911.34,
        "on_ground": false,
        "velocity": 245.61,
        "true_track": 94.44,
        "vertical_rate": -11.7,
        "geo_altitude": 7299.96,
        "squawk": "1172",
        "spi": false,
        "position_source": 0
      }
    },
    {
      "type": "Feature",
      "geometry": {
        "type": "Point",
        "coordinates": [
          8.3939,
          40.7271
        ]
      },
      "properties": {
        "icao24": "4bb14e",
        "callsign": "THY6470",
        "origin_country": "Turkey",
        "time_position": 1787443378,
        "last_contact": 1787443378,
        "baro_altitude": 11582.4,
        "on_ground": false,
        "velocity": 260.06,
        "true_track": 87.39,
        "vertical_rate": 0,
        "geo_altitude": 12192,
        "squawk": "1267",
        "spi": false,
        "position_source": 0
      }
    },
    {
      "type": "Feature",
      "geometry": {
        "type": "Point",
        "coordinates": [
          7.2839,
          47.0018
        ]
      },
      "properties": {
        "icao24": "020095",
        "callsign": "RAM220M",
        "origin_country": "Morocco",
        "time_position": 1787443378,
        "last_contact": 1787443378,
        "baro_altitude": 10972.8,
        "on_ground": false,
        "velocity": 257.61,
        "true_track": 39.57,
        "vertical_rate": 0,
        "geo_altitude": 11399.52,
        "squawk": "2330",
        "spi": false,
        "position_source": 0
      }
    },
    {
      "type": "Feature",
      "geometry": {
        "type": "Point",
        "coordinates": [
          18.3636,
          46.7696
        ]
      },
      "properties": {
        "icao24": "505a88",
        "callsign": "TVQ6084",
        "origin_country": "Slovakia",
        "time_position": 1787443378,
        "last_contact": 1787443378,
        "baro_altitude": 9098.28,
        "on_ground": false,
        "velocity": 243.69,
        "true_track": 154.63,
        "vertical_rate": 7.8,
        "geo_altitude": 9486.9,
        "squawk": "4406",
        "spi": false,
        "position_source": 0
      }
    },
    {
      "type": "Feature",
      "geometry": {
        "type": "Point",
        "coordinates": [
          17.8595,
          43.406
        ]
      },
      "properties": {
        "icao24": "4064bb",
        "callsign": "EXS36UM",
        "origin_country": "United Kingdom",
        "time_position": 1787443377,
        "last_contact": 1787443377,
        "baro_altitude": 10972.8,
        "on_ground": false,
        "velocity": 216.16,
        "true_track": 316.54,
        "vertical_rate": 0,
        "geo_altitude": 11536.68,
        "squawk": "2254",
        "spi": false,
        "position_source": 0
      }
    },
    {
      "type": "Feature",
      "geometry": {
        "type": "Point",
        "coordinates": [
          15.8337,
          45.5439
        ]
      },
      "properties": {
        "icao24": "4064a4",
        "callsign": "TOM9CV",
        "origin_country": "United Kingdom",
        "time_position": 1787443377,
        "last_contact": 1787443377,
        "baro_altitude": 11582.4,
        "on_ground": false,
        "velocity": 215.24,
        "true_track": 308.6,
        "vertical_rate": 0,
        "geo_altitude": 12092.94,
        "squawk": "2025",
        "spi": false,
        "position_source": 0
      }
    },
    {
      "type": "Feature",
      "geometry": {
        "type": "Point",
        "coordinates": [
          13.3735,
          46.6169
        ]
      },
      "properties": {
        "icao24": "abf0c7",
        "callsign": "FDX5384",
        "origin_country": "United States",
        "time_position": 1787443377,
        "last_contact": 1787443378,
        "baro_altitude": 10058.4,
        "on_ground": false,
        "velocity": 276.09,
        "true_track": 111.31,
        "vertical_rate": 0,
        "geo_altitude": 10492.74,
        "squawk": "0652",
        "spi": false,
        "position_source": 0
      }
    },
    {
      "type": "Feature",
      "geometry": {
        "type": "Point",
        "coordinates": [
          6.8375,
          41.6277
        ]
      },
      "properties": {
        "icao24": "407838",
        "callsign": "EZY68YJ",
        "origin_country": "United Kingdom",
        "time_position": 1787443377,
        "last_contact": 1787443377,
        "baro_altitude": 10972.8,
        "on_ground": false,
        "velocity": 236.94,
        "true_track": 340.07,
        "vertical_rate": -0.33,
        "geo_altitude": 11567.16,
        "squawk": "4051",
        "spi": false,
        "position_source": 0
      }
    },
    {
      "type": "Feature",
      "geometry": {
        "type": "Point",
        "coordinates": [
          17.2235,
          44.9462
        ]
      },
      "properties": {
        "icao24": "4b991a",
        "callsign": "FHY1366",
        "origin_country": "Turkey",
        "time_position": 1787443377,
        "last_contact": 1787443378,
        "baro_altitude": 10668,
        "on_ground": false,
        "velocity": 246.35,
        "true_track": 136.44,
        "vertical_rate": 0.33,
        "geo_altitude": 11193.78,
        "squawk": "7642",
        "spi": false,
        "position_source": 0
      }
    },
    {
      "type": "Feature",
      "geometry": {
        "type": "Point",
        "coordinates": [
          18.2703,
          44.5402
        ]
      },
      "properties": {
        "icao24": "4bcd84",
        "callsign": "SXS2NB",
        "origin_country": "Turkey",
        "time_position": 1787443378,
        "last_contact": 1787443378,
        "baro_altitude": 11887.2,
        "on_ground": false,
        "velocity": 249.33,
        "true_track": 131.32,
        "vertical_rate": 0,
        "geo_altitude": 12451.08,
        "squawk": "7712",
        "spi": false,
        "position_source": 0
      }
    },
    {
      "type": "Feature",
      "geometry": {
        "type": "Point",
        "coordinates": [
          15.8023,
          44.9338
        ]
      },
      "properties": {
        "icao24": "502d0f",
        "callsign": "BTI8CH",
        "origin_country": "Latvia",
        "time_position": 1787443378,
        "last_contact": 1787443378,
        "baro_altitude": 10972.8,
        "on_ground": false,
        "velocity": 235.49,
        "true_track": 5.01,
        "vertical_rate": 0,
        "geo_altitude": 11490.96,
        "squawk": "6563",
        "spi": false,
        "position_source": 0
      }
    },
    {
      "type": "Feature",
      "geometry": {
        "type": "Point",
        "coordinates": [
          13.1831,
          46.7984
        ]
      },
      "properties": {
        "icao24": "06a391",
        "callsign": "QTR10A",
        "origin_country": "Qatar",
        "time_position": 1787443377,
        "last_contact": 1787443378,
        "baro_altitude": 10363.2,
        "on_ground": false,
        "velocity": 214.37,
        "true_track": 313.15,
        "vertical_rate": 0,
        "geo_altitude": 10797.54,
        "squawk": "7735",
        "spi": false,
        "position_source": 0
      }
    },
    {
      "type": "Feature",
      "geometry": {
        "type": "Point",
        "coordinates": [
          18.1769,
          46.6003
        ]
      },
      "properties": {
        "icao24": "49d42b",
        "callsign": "TVS32V",
        "origin_country": "Czech Republic",
        "time_position": 1787443377,
        "last_contact": 1787443377,
        "baro_altitude": 10668,
        "on_ground": false,
        "velocity": 248.34,
        "true_track": 141.73,
        "vertical_rate": 0,
        "geo_altitude": 11132.82,
        "squawk": "6004",
        "spi": false,
        "position_source": 0
      }
    },
    {
      "type": "Feature",
      "geometry": {
        "type": "Point",
        "coordinates": [
          17.2712,
          38.1273
        ]
      },
      "properties": {
        "icao24": "040101",
        "callsign": "ETH575",
        "origin_country": "Ethiopia",
        "time_position": 1787443378,
        "last_contact": 1787443378,
        "baro_altitude": 11887.2,
        "on_ground": false,
        "velocity": 264.2,
        "true_track": 129.55,
        "vertical_rate": 0,
        "geo_altitude": 12550.14,
        "squawk": "2231",
        "spi": false,
        "position_source": 0
      }
    },
    {
      "type": "Feature",
      "geometry": {
        "type": "Point",
        "coordinates": [
          11.7907,
          35.1496
        ]
      },
      "properties": {
        "icao24": "4ba9c8",
        "callsign": "THY5YP",
        "origin_country": "Turkey",
        "time_position": 1787443378,
        "last_contact": 1787443378,
        "baro_altitude": 11887.2,
        "on_ground": false,
        "velocity": 256.56,
        "true_track": 66.98,
        "vertical_rate": 0,
        "geo_altitude": 12595.86,
        "squawk": "4103",
        "spi": false,
        "position_source": 0
      }
    },
    {
      "type": "Feature",
      "geometry": {
        "type": "Point",
        "coordinates": [
          15.6181,
          36.5068
        ]
      },
      "properties": {
        "icao24": "4ba9d2",
        "callsign": "THY1CT",
        "origin_country": "Turkey",
        "time_position": 1787443377,
        "last_contact": 1787443378,
        "baro_altitude": 11582.4,
        "on_ground": false,
        "velocity": 233.55,
        "true_track": 239.71,
        "vertical_rate": 0,
        "geo_altitude": 12268.2,
        "squawk": "2340",
        "spi": false,
        "position_source": 0
      }
    },
    {
      "type": "Feature",
      "geometry": {
        "type": "Point",
        "coordinates": [
          12.9267,
          46.7218
        ]
      },
      "properties": {
        "icao24": "4ba94d",
        "callsign": "THY4",
        "origin_country": "Turkey",
        "time_position": 1787443378,
        "last_contact": 1787443378,
        "baro_altitude": 11277.6,
        "on_ground": false,
        "velocity": 274.7,
        "true_track": 116.71,
        "vertical_rate": 0,
        "geo_altitude": 11742.42,
        "squawk": "2220",
        "spi": false,
        "position_source": 0
      }
    },
    {
      "type": "Feature",
      "geometry": {
        "type": "Point",
        "coordinates": [
          18.9625,
          42.1571
        ]
      },
      "properties": {
        "icao24": "407eeb",
        "callsign": "EXS2VM",
        "origin_country": "United Kingdom",
        "time_position": 1787443377,
        "last_contact": 1787443378,
        "baro_altitude": 10972.8,
        "on_ground": false,
        "velocity": 224.3,
        "true_track": 326.13,
        "vertical_rate": 0,
        "geo_altitude": 11559.54,
        "squawk": null,
        "spi": false,
        "position_source": 0
      }
    },
    {
      "type": "Feature",
      "geometry": {
        "type": "Point",
        "coordinates": [
          14.2469,
          47.0755
        ]
      },
      "properties": {
        "icao24": "71c252",
        "callsign": "KAL504",
        "origin_country": "Republic of Korea",
        "time_position": 1787443378,
        "last_contact": 1787443378,
        "baro_altitude": 10058.4,
        "on_ground": false,
        "velocity": 282.07,
        "true_track": 99.98,
        "vertical_rate": 0,
        "geo_altitude": 10485.12,
        "squawk": "0651",
        "spi": false,
        "position_source": 0
      }
    },
    {
      "type": "Feature",
      "geometry": {
        "type": "Point",
        "coordinates": [
          12.973,
          45.3428
        ]
      },
      "properties": {
        "icao24": "744843",
        "callsign": "RJA266",
        "origin_country": "Jordan",
        "time_position": 1787443378,
        "last_contact": 1787443378,
        "baro_altitude": 12489.18,
        "on_ground": false,
        "velocity": 268.4,
        "true_track": 120.4,
        "vertical_rate": -0.65,
        "geo_altitude": 13030.2,
        "squawk": "1173",
        "spi": false,
        "position_source": 0
      }
    },
    {
      "type": "Feature",
      "geometry": {
        "type": "Point",
        "coordinates": [
          16.5686,
          36.094
        ]
      },
      "properties": {
        "icao24": "744827",
        "callsign": "RJA553",
        "origin_country": "Jordan",
        "time_position": 1787443378,
        "last_contact": 1787443378,
        "baro_altitude": 10347.96,
        "on_ground": false,
        "velocity": 227.23,
        "true_track": 277.41,
        "vertical_rate": -0.33,
        "geo_altitude": 10988.04,
        "squawk": null,
        "spi": false,
        "position_source": 0
      }
    },
    {
      "type": "Feature",
      "geometry": {
        "type": "Point",
        "coordinates": [
          17.9971,
          43.7034
        ]
      },
      "properties": {
        "icao24": "406e66",
        "callsign": "EZY8582",
        "origin_country": "United Kingdom",
        "time_position": 1787443378,
        "last_contact": 1787443378,
        "baro_altitude": 10972.8,
        "on_ground": false,
        "velocity": 218.8,
        "true_track": 296.99,
        "vertical_rate": 0,
        "geo_altitude": 11551.92,
        "squawk": "5323",
        "spi": false,
        "position_source": 0
      }
    },
    {
      "type": "Feature",
      "geometry": {
        "type": "Point",
        "coordinates": [
          12.7134,
          44.9273
        ]
      },
      "properties": {
        "icao24": "4a1265",
        "callsign": "DNA412",
        "origin_country": "Romania",
        "time_position": 1787443377,
        "last_contact": 1787443377,
        "baro_altitude": 9136.38,
        "on_ground": false,
        "velocity": 270.46,
        "true_track": 77.36,
        "vertical_rate": -0.33,
        "geo_altitude": 9631.68,
        "squawk": "0466",
        "spi": false,
        "position_source": 0
      }
    },
    {
      "type": "Feature",
      "geometry": {
        "type": "Point",
        "coordinates": [
          8.7236,
          45.6175
        ]
      },
      "properties": {
        "icao24": "31d7a5",
        "callsign": "ECHO9",
        "origin_country": "Italy",
        "time_position": 1787443377,
        "last_contact": 1787443377,
        "baro_altitude": null,
        "on_ground": true,
        "velocity": 3.09,
        "true_track": 348.75,
        "vertical_rate": null,
        "geo_altitude": null,
        "squawk": null,
        "spi": false,
        "position_source": 0
      }
    },
    {
      "type": "Feature",
      "geometry": {
        "type": "Point",
        "coordinates": [
          8.7231,
          45.6091
        ]
      },
      "properties": {
        "icao24": "31d7a4",
        "callsign": null,
        "origin_country": "Italy",
        "time_position": 1787443374,
        "last_contact": 1787443374,
        "baro_altitude": null,
        "on_ground": true,
        "velocity": 13.38,
        "true_track": 168.75,
        "vertical_rate": null,
        "geo_altitude": null,
        "squawk": null,
        "spi": false,
        "position_source": 0
      }
    },
    {
      "type": "Feature",
      "geometry": {
        "type": "Point",
        "coordinates": [
          12.1209,
          41.7775
        ]
      },
      "properties": {
        "icao24": "4ca256",
        "callsign": "RYR6SJ",
        "origin_country": "Ireland",
        "time_position": 1787443378,
        "last_contact": 1787443378,
        "baro_altitude": 1104.9,
        "on_ground": false,
        "velocity": 122.57,
        "true_track": 248.06,
        "vertical_rate": 7.15,
        "geo_altitude": 1219.2,
        "squawk": null,
        "spi": false,
        "position_source": 0
      }
    },
    {
      "type": "Feature",
      "geometry": {
        "type": "Point",
        "coordinates": [
          14.413,
          39.6876
        ]
      },
      "properties": {
        "icao24": "407fff",
        "callsign": "EZY63MD",
        "origin_country": "United Kingdom",
        "time_position": 1787443377,
        "last_contact": 1787443378,
        "baro_altitude": 10378.44,
        "on_ground": false,
        "velocity": 235.01,
        "true_track": 314.29,
        "vertical_rate": 0,
        "geo_altitude": 11010.9,
        "squawk": "6630",
        "spi": false,
        "position_source": 0
      }
    },
    {
      "type": "Feature",
      "geometry": {
        "type": "Point",
        "coordinates": [
          8.7171,
          45.624
        ]
      },
      "properties": {
        "icao24": "4ca25b",
        "callsign": "RYR40VK",
        "origin_country": "Ireland",
        "time_position": 1787443135,
        "last_contact": 1787443144,
        "baro_altitude": null,
        "on_ground": true,
        "velocity": 0.06,
        "true_track": 348.75,
        "vertical_rate": null,
        "geo_altitude": null,
        "squawk": "1000",
        "spi": false,
        "position_source": 0
      }
    },
    {
      "type": "Feature",
      "geometry": {
        "type": "Point",
        "coordinates": [
          18.5951,
          43.9206
        ]
      },
      "properties": {
        "icao24": "407e46",
        "callsign": "EXS21LK",
        "origin_country": "United Kingdom",
        "time_position": 1787443377,
        "last_contact": 1787443378,
        "baro_altitude": 10972.8,
        "on_ground": false,
        "velocity": 218.62,
        "true_track": 310.32,
        "vertical_rate": -0.33,
        "geo_altitude": 11521.44,
        "squawk": "2052",
        "spi": false,
        "position_source": 0
      }
    },
    {
      "type": "Feature",
      "geometry": {
        "type": "Point",
        "coordinates": [
          8.7248,
          45.6454
        ]
      },
      "properties": {
        "icao24": "440614",
        "callsign": "EJU94AD",
        "origin_country": "Austria",
        "time_position": 1787443232,
        "last_contact": 1787443237,
        "baro_altitude": null,
        "on_ground": true,
        "velocity": 0,
        "true_track": 348.75,
        "vertical_rate": null,
        "geo_altitude": null,
        "squawk": "1000",
        "spi": false,
        "position_source": 0
      }
    },
    {
      "type": "Feature",
      "geometry": {
        "type": "Point",
        "coordinates": [
          16.4782,
          43.2906
        ]
      },
      "properties": {
        "icao24": "440611",
        "callsign": "EJU3686",
        "origin_country": "Austria",
        "time_position": 1787443377,
        "last_contact": 1787443378,
        "baro_altitude": 10980.42,
        "on_ground": false,
        "velocity": 219.28,
        "true_track": 309.48,
        "vertical_rate": -0.33,
        "geo_altitude": 11544.3,
        "squawk": "2045",
        "spi": false,
        "position_source": 0
      }
    },
    {
      "type": "Feature",
      "geometry": {
        "type": "Point",
        "coordinates": [
          16.7193,
          47.202
        ]
      },
      "properties": {
        "icao24": "45aa53",
        "callsign": "NSZ3879",
        "origin_country": "Denmark",
        "time_position": 1787443377,
        "last_contact": 1787443378,
        "baro_altitude": 11574.78,
        "on_ground": false,
        "velocity": 222.44,
        "true_track": 340.27,
        "vertical_rate": 0,
        "geo_altitude": 12039.6,
        "squawk": "2072",
        "spi": false,
        "position_source": 0
      }
    },
    {
      "type": "Feature",
      "geometry": {
        "type": "Point",
        "coordinates": [
          10.8036,
          39.7718
        ]
      },
      "properties": {
        "icao24": "407f5f",
        "callsign": "EZY25CQ",
        "origin_country": "United Kingdom",
        "time_position": 1787443377,
        "last_contact": 1787443377,
        "baro_altitude": 10972.8,
        "on_ground": false,
        "velocity": 226.98,
        "true_track": 323.57,
        "vertical_rate": 0,
        "geo_altitude": 11620.5,
        "squawk": "6564",
        "spi": false,
        "position_source": 0
      }
    },
    {
      "type": "Feature",
      "geometry": {
        "type": "Point",
        "coordinates": [
          12.908,
          47.6408
        ]
      },
      "properties": {
        "icao24": "407f0d",
        "callsign": "RUK14",
        "origin_country": "United Kingdom",
        "time_position": 1787443377,
        "last_contact": 1787443378,
        "baro_altitude": 11140.44,
        "on_ground": false,
        "velocity": 199.91,
        "true_track": 304.3,
        "vertical_rate": 4.88,
        "geo_altitude": 11544.3,
        "squawk": "0523",
        "spi": false,
        "position_source": 0
      }
    },
    {
      "type": "Feature",
      "geometry": {
        "type": "Point",
        "coordinates": [
          8.6621,
          43.4213
        ]
      },
      "properties": {
        "icao24": "48c2a8",
        "callsign": "RYS7239",
        "origin_country": "Poland",
        "time_position": 1787443377,
        "last_contact": 1787443377,
        "baro_altitude": 11277.6,
        "on_ground": false,
        "velocity": 218.46,
        "true_track": 222.52,
        "vertical_rate": 0,
        "geo_altitude": 11841.48,
        "squawk": "1000",
        "spi": false,
        "position_source": 0
      }
    },
    {
      "type": "Feature",
      "geometry": {
        "type": "Point",
        "coordinates": [
          14.5372,
          46.0614
        ]
      },
      "properties": {
        "icao24": "71c521",
        "callsign": "AAR582",
        "origin_country": "Republic of Korea",
        "time_position": 1787443378,
        "last_contact": 1787443378,
        "baro_altitude": 11277.6,
        "on_ground": false,
        "velocity": 280.38,
        "true_track": 83.04,
        "vertical_rate": 0,
        "geo_altitude": 11742.42,
        "squawk": "0415",
        "spi": false,
        "position_source": 0
      }
    },
    {
      "type": "Feature",
      "geometry": {
        "type": "Point",
        "coordinates": [
          9.7321,
          45.6632
        ]
      },
      "properties": {
        "icao24": "48c128",
        "callsign": "RYR850",
        "origin_country": "Poland",
        "time_position": 1787443377,
        "last_contact": 1787443377,
        "baro_altitude": 243.84,
        "on_ground": false,
        "velocity": 71.25,
        "true_track": 284.64,
        "vertical_rate": -2.93,
        "geo_altitude": 327.66,
        "squawk": "1000",
        "spi": false,
        "position_source": 0
      }
    },
    {
      "type": "Feature",
      "geometry": {
        "type": "Point",
        "coordinates": [
          10.4599,
          43.0632
        ]
      },
      "properties": {
        "icao24": "3444c8",
        "callsign": "VOE9BA",
        "origin_country": "Spain",
        "time_position": 1787443378,
        "last_contact": 1787443378,
        "baro_altitude": 10058.4,
        "on_ground": false,
        "velocity": 219.35,
        "true_track": 194.39,
        "vertical_rate": 0,
        "geo_altitude": 10607.04,
        "squawk": "7424",
        "spi": false,
        "position_source": 0
      }
    },
    {
      "type": "Feature",
      "geometry": {
        "type": "Point",
        "coordinates": [
          6.5979,
          45.354
        ]
      },
      "properties": {
        "icao24": "44046d",
        "callsign": "EJU82FJ",
        "origin_country": "Austria",
        "time_position": 1787443377,
        "last_contact": 1787443377,
        "baro_altitude": 6370.32,
        "on_ground": false,
        "velocity": 211.16,
        "true_track": 288.17,
        "vertical_rate": -8.45,
        "geo_altitude": 6728.46,
        "squawk": "1000",
        "spi": false,
        "position_source": 0
      }
    },
    {
      "type": "Feature",
      "geometry": {
        "type": "Point",
        "coordinates": [
          16.0065,
          43.5444
        ]
      },
      "properties": {
        "icao24": "440425",
        "callsign": "EJU65WZ",
        "origin_country": "Austria",
        "time_position": 1787443377,
        "last_contact": 1787443377,
        "baro_altitude": 9745.98,
        "on_ground": false,
        "velocity": 210.84,
        "true_track": 309.55,
        "vertical_rate": 0.33,
        "geo_altitude": 10271.76,
        "squawk": null,
        "spi": false,
        "position_source": 0
      }
    },
    {
      "type": "Feature",
      "geometry": {
        "type": "Point",
        "coordinates": [
          17.4174,
          40.6699
        ]
      },
      "properties": {
        "icao24": "4bb850",
        "callsign": "PGT1742",
        "origin_country": "Turkey",
        "time_position": 1787443377,
        "last_contact": 1787443377,
        "baro_altitude": 11277.6,
        "on_ground": false,
        "velocity": 241.08,
        "true_track": 92.94,
        "vertical_rate": 0.33,
        "geo_altitude": 11894.82,
        "squawk": "5211",
        "spi": false,
        "position_source": 0
      }
    },
    {
      "type": "Feature",
      "geometry": {
        "type": "Point",
        "coordinates": [
          8.7231,
          45.6409
        ]
      },
      "properties": {
        "icao24": "4402ac",
        "callsign": "EJU3678",
        "origin_country": "Austria",
        "time_position": 1787443378,
        "last_contact": 1787443378,
        "baro_altitude": null,
        "on_ground": true,
        "velocity": 5.66,
        "true_track": 348.75,
        "vertical_rate": null,
        "geo_altitude": null,
        "squawk": "7734",
        "spi": false,
        "position_source": 0
      }
    },
    {
      "type": "Feature",
      "geometry": {
        "type": "Point",
        "coordinates": [
          16.3375,
          35.5963
        ]
      },
      "properties": {
        "icao24": "06a0b7",
        "callsign": "QTR42U",
        "origin_country": "Qatar",
        "time_position": 1787443377,
        "last_contact": 1787443377,
        "baro_altitude": 12489.18,
        "on_ground": false,
        "velocity": 269.19,
        "true_track": 98.13,
        "vertical_rate": 0,
        "geo_altitude": 13197.84,
        "squawk": "1175",
        "spi": false,
        "position_source": 0
      }
    },
    {
      "type": "Feature",
      "geometry": {
        "type": "Point",
        "coordinates": [
          14.2538,
          46.4017
        ]
      },
      "properties": {
        "icao24": "408124",
        "callsign": "EXS85BE",
        "origin_country": "United Kingdom",
        "time_position": 1787443377,
        "last_contact": 1787443378,
        "baro_altitude": 10972.8,
        "on_ground": false,
        "velocity": 205.58,
        "true_track": 307.27,
        "vertical_rate": 0.33,
        "geo_altitude": 11430,
        "squawk": "2252",
        "spi": false,
        "position_source": 0
      }
    },
    {
      "type": "Feature",
      "geometry": {
        "type": "Point",
        "coordinates": [
          6.4146,
          40.0055
        ]
      },
      "properties": {
        "icao24": "02a1a6",
        "callsign": "LBT593",
        "origin_country": "Tunisia",
        "time_position": 1787443377,
        "last_contact": 1787443378,
        "baro_altitude": 11887.2,
        "on_ground": false,
        "velocity": 227.23,
        "true_track": 166.78,
        "vertical_rate": 0,
        "geo_altitude": 12519.66,
        "squawk": "5671",
        "spi": false,
        "position_source": 0
      }
    },
    {
      "type": "Feature",
      "geometry": {
        "type": "Point",
        "coordinates": [
          15.4756,
          40.4915
        ]
      },
      "properties": {
        "icao24": "02a1a7",
        "callsign": "LBT7762",
        "origin_country": "Tunisia",
        "time_position": 1787443377,
        "last_contact": 1787443378,
        "baro_altitude": 10972.8,
        "on_ground": false,
        "velocity": 239.23,
        "true_track": 42.47,
        "vertical_rate": 0.33,
        "geo_altitude": 11605.26,
        "squawk": "6142",
        "spi": false,
        "position_source": 0
      }
    },
    {
      "type": "Feature",
      "geometry": {
        "type": "Point",
        "coordinates": [
          14.4877,
          46.2728
        ]
      },
      "properties": {
        "icao24": "408213",
        "callsign": "EXS65BM",
        "origin_country": "United Kingdom",
        "time_position": 1787443377,
        "last_contact": 1787443378,
        "baro_altitude": 10972.8,
        "on_ground": false,
        "velocity": 206.52,
        "true_track": 307.61,
        "vertical_rate": 0,
        "geo_altitude": 11468.1,
        "squawk": "2057",
        "spi": false,
        "position_source": 0
      }
    },
    {
      "type": "Feature",
      "geometry": {
        "type": "Point",
        "coordinates": [
          14.1385,
          46.7984
        ]
      },
      "properties": {
        "icao24": "408262",
        "callsign": "EXS31ER",
        "origin_country": "United Kingdom",
        "time_position": 1787443377,
        "last_contact": 1787443377,
        "baro_altitude": 10980.42,
        "on_ground": false,
        "velocity": 206.14,
        "true_track": 305.55,
        "vertical_rate": -0.33,
        "geo_altitude": 11452.86,
        "squawk": "3242",
        "spi": false,
        "position_source": 0
      }
    },
    {
      "type": "Feature",
      "geometry": {
        "type": "Point",
        "coordinates": [
          10.4499,
          36.7658
        ]
      },
      "properties": {
        "icao24": "02a1ab",
        "callsign": "LBT3965",
        "origin_country": "Tunisia",
        "time_position": 1787443122,
        "last_contact": 1787443122,
        "baro_altitude": 7566.66,
        "on_ground": false,
        "velocity": 225.25,
        "true_track": 159.83,
        "vertical_rate": -14.31,
        "geo_altitude": 8115.3,
        "squawk": "1214",
        "spi": false,
        "position_source": 0
      }
    },
    {
      "type": "Feature",
      "geometry": {
        "type": "Point",
        "coordinates": [
          10.2277,
          37.817
        ]
      },
      "properties": {
        "icao24": "02a1b4",
        "callsign": "LBT789",
        "origin_country": "Tunisia",
        "time_position": 1787443314,
        "last_contact": 1787443314,
        "baro_altitude": 4907.28,
        "on_ground": false,
        "velocity": 195.91,
        "true_track": 165.09,
        "vertical_rate": -9.1,
        "geo_altitude": 5676.9,
        "squawk": "1251",
        "spi": false,
        "position_source": 0
      }
    },
    {
      "type": "Feature",
      "geometry": {
        "type": "Point",
        "coordinates": [
          10.1277,
          37.499
        ]
      },
      "properties": {
        "icao24": "02a1b0",
        "callsign": "LBT543",
        "origin_country": "Tunisia",
        "time_position": 1787443230,
        "last_contact": 1787443232,
        "baro_altitude": 10462.26,
        "on_ground": false,
        "velocity": 245.48,
        "true_track": 156.93,
        "vertical_rate": -12.35,
        "geo_altitude": 11148.06,
        "squawk": "7640",
        "spi": false,
        "position_source": 0
      }
    },
    {
      "type": "Feature",
      "geometry": {
        "type": "Point",
        "coordinates": [
          15.643,
          45.6404
        ]
      },
      "properties": {
        "icao24": "4080df",
        "callsign": "EXS65LG",
        "origin_country": "United Kingdom",
        "time_position": 1787443378,
        "last_contact": 1787443378,
        "baro_altitude": 10980.42,
        "on_ground": false,
        "velocity": 212.03,
        "true_track": 308.4,
        "vertical_rate": 0,
        "geo_altitude": 11490.96,
        "squawk": "2032",
        "spi": false,
        "position_source": 0
      }
    },
    {
      "type": "Feature",
      "geometry": {
        "type": "Point",
        "coordinates": [
          14.6137,
          46.2091
        ]
      },
      "properties": {
        "icao24": "408032",
        "callsign": "EXS1QR",
        "origin_country": "United Kingdom",
        "time_position": 1787443378,
        "last_contact": 1787443378,
        "baro_altitude": 10363.2,
        "on_ground": false,
        "velocity": 211.35,
        "true_track": 307.48,
        "vertical_rate": 0.33,
        "geo_altitude": 10828.02,
        "squawk": "5372",
        "spi": false,
        "position_source": 0
      }
    },
    {
      "type": "Feature",
      "geometry": {
        "type": "Point",
        "coordinates": [
          9.1508,
          40.2384
        ]
      },
      "properties": {
        "icao24": "440d6e",
        "callsign": "EJU54MD",
        "origin_country": "Austria",
        "time_position": 1787443378,
        "last_contact": 1787443378,
        "baro_altitude": 8542.02,
        "on_ground": false,
        "velocity": 209.26,
        "true_track": 356.48,
        "vertical_rate": 11.7,
        "geo_altitude": 9083.04,
        "squawk": "0202",
        "spi": false,
        "position_source": 0
      }
    },
    {
      "type": "Feature",
      "geometry": {
        "type": "Point",
        "coordinates": [
          13.6801,
          40.9718
        ]
      },
      "properties": {
        "icao24": "43ea87",
        "callsign": "MCNZI",
        "origin_country": "United Kingdom",
        "time_position": 1787443377,
        "last_contact": 1787443377,
        "baro_altitude": 12496.8,
        "on_ground": false,
        "velocity": 256.53,
        "true_track": 119.03,
        "vertical_rate": -0.33,
        "geo_altitude": 13098.78,
        "squawk": "1220",
        "spi": false,
        "position_source": 0
      }
    },
    {
      "type": "Feature",
      "geometry": {
        "type": "Point",
        "coordinates": [
          15.653,
          46.029
        ]
      },
      "properties": {
        "icao24": "440a8d",
        "callsign": "BCS516",
        "origin_country": "Austria",
        "time_position": 1787443377,
        "last_contact": 1787443377,
        "baro_altitude": 10668,
        "on_ground": false,
        "velocity": 268.41,
        "true_track": 148.32,
        "vertical_rate": 0,
        "geo_altitude": 11102.34,
        "squawk": "2242",
        "spi": false,
        "position_source": 0
      }
    },
    {
      "type": "Feature",
      "geometry": {
        "type": "Point",
        "coordinates": [
          17.6761,
          46.6145
        ]
      },
      "properties": {
        "icao24": "4bab2d",
        "callsign": "THY3393",
        "origin_country": "Turkey",
        "time_position": 1787443378,
        "last_contact": 1787443378,
        "baro_altitude": 10668,
        "on_ground": false,
        "velocity": 254.32,
        "true_track": 129.58,
        "vertical_rate": -0.33,
        "geo_altitude": 11132.82,
        "squawk": "5402",
        "spi": false,
        "position_source": 0
      }
    },
    {
      "type": "Feature",
      "geometry": {
        "type": "Point",
        "coordinates": [
          8.7179,
          45.624
        ]
      },
      "properties": {
        "icao24": "4ca961",
        "callsign": "NOS6149",
        "origin_country": "Ireland",
        "time_position": 1787443376,
        "last_contact": 1787443377,
        "baro_altitude": null,
        "on_ground": true,
        "velocity": 1.03,
        "true_track": 323.44,
        "vertical_rate": null,
        "geo_altitude": null,
        "squawk": "5527",
        "spi": false,
        "position_source": 0
      }
    },
    {
      "type": "Feature",
      "geometry": {
        "type": "Point",
        "coordinates": [
          14.4951,
          35.8482
        ]
      },
      "properties": {
        "icao24": "4ca92b",
        "callsign": "RYR3864",
        "origin_country": "Ireland",
        "time_position": 1787443311,
        "last_contact": 1787443314,
        "baro_altitude": null,
        "on_ground": true,
        "velocity": 0.26,
        "true_track": 0,
        "vertical_rate": null,
        "geo_altitude": null,
        "squawk": "3721",
        "spi": false,
        "position_source": 0
      }
    },
    {
      "type": "Feature",
      "geometry": {
        "type": "Point",
        "coordinates": [
          14.029,
          47.6881
        ]
      },
      "properties": {
        "icao24": "486648",
        "callsign": "CND63ZG",
        "origin_country": "Kingdom of the Netherlands",
        "time_position": 1787443377,
        "last_contact": 1787443378,
        "baro_altitude": 10972.8,
        "on_ground": false,
        "velocity": 206.43,
        "true_track": 317.32,
        "vertical_rate": 0,
        "geo_altitude": 11369.04,
        "squawk": "5307",
        "spi": false,
        "position_source": 0
      }
    },
    {
      "type": "Feature",
      "geometry": {
        "type": "Point",
        "coordinates": [
          17.7474,
          47.1628
        ]
      },
      "properties": {
        "icao24": "4bcdec",
        "callsign": "SXS11A",
        "origin_country": "Turkey",
        "time_position": 1787443377,
        "last_contact": 1787443378,
        "baro_altitude": 11277.6,
        "on_ground": false,
        "velocity": 247.84,
        "true_track": 146.34,
        "vertical_rate": 0,
        "geo_altitude": 11742.42,
        "squawk": "7605",
        "spi": false,
        "position_source": 0
      }
    },
    {
      "type": "Feature",
      "geometry": {
        "type": "Point",
        "coordinates": [
          18.0206,
          44.016
        ]
      },
      "properties": {
        "icao24": "486649",
        "callsign": "CND19ZY",
        "origin_country": "Kingdom of the Netherlands",
        "time_position": 1787443378,
        "last_contact": 1787443378,
        "baro_altitude": 11582.4,
        "on_ground": false,
        "velocity": 223.76,
        "true_track": 321.63,
        "vertical_rate": 0,
        "geo_altitude": 12146.28,
        "squawk": "5537",
        "spi": false,
        "position_source": 0
      }
    },
    {
      "type": "Feature",
      "geometry": {
        "type": "Point",
        "coordinates": [
          17.6081,
          44.2284
        ]
      },
      "properties": {
        "icao24": "4bcda1",
        "callsign": "SXS2GA",
        "origin_country": "Turkey",
        "time_position": 1787443378,
        "last_contact": 1787443378,
        "baro_altitude": 11277.6,
        "on_ground": false,
        "velocity": 246.42,
        "true_track": 129.24,
        "vertical_rate": 0,
        "geo_altitude": 11841.48,
        "squawk": "7641",
        "spi": false,
        "position_source": 0
      }
    },
    {
      "type": "Feature",
      "geometry": {
        "type": "Point",
        "coordinates": [
          6.4523,
          46.5602
        ]
      },
      "properties": {
        "icao24": "3c71a1",
        "callsign": "BCS080",
        "origin_country": "Germany",
        "time_position": 1787443377,
        "last_contact": 1787443377,
        "baro_altitude": 12192,
        "on_ground": false,
        "velocity": 238.78,
        "true_track": 351.45,
        "vertical_rate": 0,
        "geo_altitude": 12672.06,
        "squawk": "1000",
        "spi": false,
        "position_source": 0
      }
    },
    {
      "type": "Feature",
      "geometry": {
        "type": "Point",
        "coordinates": [
          10.1424,
          47.0207
        ]
      },
      "properties": {
        "icao24": "405f12",
        "callsign": "EZY47GE",
        "origin_country": "United Kingdom",
        "time_position": 1787443378,
        "last_contact": 1787443378,
        "baro_altitude": 10363.2,
        "on_ground": false,
        "velocity": 202.15,
        "true_track": 294.35,
        "vertical_rate": 0,
        "geo_altitude": 10797.54,
        "squawk": "2761",
        "spi": false,
        "position_source": 0
      }
    },
    {
      "type": "Feature",
      "geometry": {
        "type": "Point",
        "coordinates": [
          18.7412,
          47.7054
        ]
      },
      "properties": {
        "icao24": "4bce13",
        "callsign": "SXS2XN",
        "origin_country": "Turkey",
        "time_position": 1787443377,
        "last_contact": 1787443377,
        "baro_altitude": 10226.04,
        "on_ground": false,
        "velocity": 263.09,
        "true_track": 96.62,
        "vertical_rate": 6.83,
        "geo_altitude": 10629.9,
        "squawk": "6014",
        "spi": false,
        "position_source": 0
      }
    },
    {
      "type": "Feature",
      "geometry": {
        "type": "Point",
        "coordinates": [
          15.7344,
          44.5711
        ]
      },
      "properties": {
        "icao24": "407667",
        "callsign": "EZY68ZN",
        "origin_country": "United Kingdom",
        "time_position": 1787443378,
        "last_contact": 1787443378,
        "baro_altitude": 10363.2,
        "on_ground": false,
        "velocity": 212.14,
        "true_track": 295.88,
        "vertical_rate": 0,
        "geo_altitude": 10881.36,
        "squawk": "2065",
        "spi": false,
        "position_source": 0
      }
    },
    {
      "type": "Feature",
      "geometry": {
        "type": "Point",
        "coordinates": [
          15.2521,
          44.4994
        ]
      },
      "properties": {
        "icao24": "40768c",
        "callsign": "EZY75PF",
        "origin_country": "United Kingdom",
        "time_position": 1787443378,
        "last_contact": 1787443378,
        "baro_altitude": 10355.58,
        "on_ground": false,
        "velocity": 209.31,
        "true_track": 305.8,
        "vertical_rate": 0,
        "geo_altitude": 10866.12,
        "squawk": "5607",
        "spi": false,
        "position_source": 0
      }
    },
    {
      "type": "Feature",
      "geometry": {
        "type": "Point",
        "coordinates": [
          10.2428,
          47.6838
        ]
      },
      "properties": {
        "icao24": "4074b6",
        "callsign": "EZY12ET",
        "origin_country": "United Kingdom",
        "time_position": 1787443377,
        "last_contact": 1787443378,
        "baro_altitude": 11574.78,
        "on_ground": false,
        "velocity": 205.11,
        "true_track": 311.85,
        "vertical_rate": 0.33,
        "geo_altitude": 11993.88,
        "squawk": "3554",
        "spi": false,
        "position_source": 0
      }
    },
    {
      "type": "Feature",
      "geometry": {
        "type": "Point",
        "coordinates": [
          14.2714,
          41.4631
        ]
      },
      "properties": {
        "icao24": "4cafd0",
        "callsign": "RYR2EC",
        "origin_country": "Ireland",
        "time_position": 1787443377,
        "last_contact": 1787443377,
        "baro_altitude": 8534.4,
        "on_ground": false,
        "velocity": 186.98,
        "true_track": 285.64,
        "vertical_rate": 0,
        "geo_altitude": 9060.18,
        "squawk": null,
        "spi": false,
        "position_source": 0
      }
    },
    {
      "type": "Feature",
      "geometry": {
        "type": "Point",
        "coordinates": [
          18.7782,
          43.4216
        ]
      },
      "properties": {
        "icao24": "010248",
        "callsign": "NIA8604",
        "origin_country": "Egypt",
        "time_position": 1787443377,
        "last_contact": 1787443378,
        "baro_altitude": 10050.78,
        "on_ground": false,
        "velocity": 245.58,
        "true_track": 145.41,
        "vertical_rate": -0.33,
        "geo_altitude": 10614.66,
        "squawk": "6031",
        "spi": false,
        "position_source": 0
      }
    },
    {
      "type": "Feature",
      "geometry": {
        "type": "Point",
        "coordinates": [
          17.5873,
          43.7984
        ]
      },
      "properties": {
        "icao24": "010266",
        "callsign": "MSC2918",
        "origin_country": "Egypt",
        "time_position": 1787443378,
        "last_contact": 1787443378,
        "baro_altitude": 10363.2,
        "on_ground": false,
        "velocity": 226.01,
        "true_track": 325.95,
        "vertical_rate": 0,
        "geo_altitude": 10896.6,
        "squawk": "2064",
        "spi": false,
        "position_source": 0
      }
    },
    {
      "type": "Feature",
      "geometry": {
        "type": "Point",
        "coordinates": [
          18.8431,
          37.0127
        ]
      },
      "properties": {
        "icao24": "abd336",
        "callsign": "GTI583",
        "origin_country": "United States",
        "time_position": 1787443323,
        "last_contact": 1787443323,
        "baro_altitude": 10058.4,
        "on_ground": false,
        "velocity": 261.08,
        "true_track": 118.74,
        "vertical_rate": 0.33,
        "geo_altitude": 10675.62,
        "squawk": "1202",
        "spi": false,
        "position_source": 0
      }
    },
    {
      "type": "Feature",
      "geometry": {
        "type": "Point",
        "coordinates": [
          15.8323,
          46.7482
        ]
      },
      "properties": {
        "icao24": "010287",
        "callsign": "NMA750",
        "origin_country": "Egypt",
        "time_position": 1787443377,
        "last_contact": 1787443377,
        "baro_altitude": 10370.82,
        "on_ground": false,
        "velocity": 218.81,
        "true_track": 320.25,
        "vertical_rate": 0,
        "geo_altitude": 10805.16,
        "squawk": "2027",
        "spi": false,
        "position_source": 0
      }
    },
    {
      "type": "Feature",
      "geometry": {
        "type": "Point",
        "coordinates": [
          14.3589,
          46.8606
        ]
      },
      "properties": {
        "icao24": "407739",
        "callsign": "TOM66N",
        "origin_country": "United Kingdom",
        "time_position": 1787443377,
        "last_contact": 1787443377,
        "baro_altitude": 11582.4,
        "on_ground": false,
        "velocity": 215.88,
        "true_track": 326.76,
        "vertical_rate": 0,
        "geo_altitude": 12047.22,
        "squawk": "2074",
        "spi": false,
        "position_source": 0
      }
    },
    {
      "type": "Feature",
      "geometry": {
        "type": "Point",
        "coordinates": [
          6.403,
          43.1186
        ]
      },
      "properties": {
        "icao24": "4d24b6",
        "callsign": "SEU408",
        "origin_country": "Malta",
        "time_position": 1787443378,
        "last_contact": 1787443378,
        "baro_altitude": 11582.4,
        "on_ground": false,
        "velocity": 250.76,
        "true_track": 53.93,
        "vertical_rate": 0,
        "geo_altitude": 12169.14,
        "squawk": "1000",
        "spi": false,
        "position_source": 0
      }
    },
    {
      "type": "Feature",
      "geometry": {
        "type": "Point",
        "coordinates": [
          13.4625,
          39.7095
        ]
      },
      "properties": {
        "icao24": "347601",
        "callsign": "VLG4CA",
        "origin_country": "Spain",
        "time_position": 1787443377,
        "last_contact": 1787443377,
        "baro_altitude": 9448.8,
        "on_ground": false,
        "velocity": 223.47,
        "true_track": 103.72,
        "vertical_rate": 0,
        "geo_altitude": 10043.16,
        "squawk": "1414",
        "spi": false,
        "position_source": 0
      }
    },
    {
      "type": "Feature",
      "geometry": {
        "type": "Point",
        "coordinates": [
          8.9473,
          42.9026
        ]
      },
      "properties": {
        "icao24": "0101e0",
        "callsign": "MSR996",
        "origin_country": "Egypt",
        "time_position": 1787443377,
        "last_contact": 1787443377,
        "baro_altitude": 11277.6,
        "on_ground": false,
        "velocity": 265.82,
        "true_track": 123.87,
        "vertical_rate": -0.33,
        "geo_altitude": 11864.34,
        "squawk": "2205",
        "spi": false,
        "position_source": 0
      }
    },
    {
      "type": "Feature",
      "geometry": {
        "type": "Point",
        "coordinates": [
          14.613,
          47.0672
        ]
      },
      "properties": {
        "icao24": "4075e0",
        "callsign": "EZY95YX",
        "origin_country": "United Kingdom",
        "time_position": 1787443377,
        "last_contact": 1787443377,
        "baro_altitude": 10355.58,
        "on_ground": false,
        "velocity": 209.46,
        "true_track": 308.42,
        "vertical_rate": 0,
        "geo_altitude": 10782.3,
        "squawk": "5331",
        "spi": false,
        "position_source": 0
      }
    },
    {
      "type": "Feature",
      "geometry": {
        "type": "Point",
        "coordinates": [
          12.4396,
          47.3684
        ]
      },
      "properties": {
        "icao24": "4075bb",
        "callsign": "EXS6MN",
        "origin_country": "United Kingdom",
        "time_position": 1787443377,
        "last_contact": 1787443377,
        "baro_altitude": 10972.8,
        "on_ground": false,
        "velocity": 196.32,
        "true_track": 307.44,
        "vertical_rate": 0,
        "geo_altitude": 11384.28,
        "squawk": "5636",
        "spi": false,
        "position_source": 0
      }
    },
    {
      "type": "Feature",
      "geometry": {
        "type": "Point",
        "coordinates": [
          11.192,
          44.3751
        ]
      },
      "properties": {
        "icao24": "33fd42",
        "callsign": "RILA",
        "origin_country": "Italy",
        "time_position": 1787443377,
        "last_contact": 1787443378,
        "baro_altitude": 1181.1,
        "on_ground": false,
        "velocity": 74.51,
        "true_track": 80.86,
        "vertical_rate": 0,
        "geo_altitude": 1295.4,
        "squawk": null,
        "spi": false,
        "position_source": 0
      }
    },
    {
      "type": "Feature",
      "geometry": {
        "type": "Point",
        "coordinates": [
          10.857,
          45.1673
        ]
      },
      "properties": {
        "icao24": "4caeb0",
        "callsign": "NOS18JZ",
        "origin_country": "Ireland",
        "time_position": 1787443378,
        "last_contact": 1787443378,
        "baro_altitude": 1897.38,
        "on_ground": false,
        "velocity": 137.5,
        "true_track": 284.3,
        "vertical_rate": -7.15,
        "geo_altitude": 2049.78,
        "squawk": "6634",
        "spi": false,
        "position_source": 0
      }
    },
    {
      "type": "Feature",
      "geometry": {
        "type": "Point",
        "coordinates": [
          15.8745,
          41.9492
        ]
      },
      "properties": {
        "icao24": "4caecc",
        "callsign": "RYR70CR",
        "origin_country": "Ireland",
        "time_position": 1787443378,
        "last_contact": 1787443378,
        "baro_altitude": 11277.6,
        "on_ground": false,
        "velocity": 229.74,
        "true_track": 193.07,
        "vertical_rate": 0.33,
        "geo_altitude": 11894.82,
        "squawk": "1336",
        "spi": false,
        "position_source": 0
      }
    },
    {
      "type": "Feature",
      "geometry": {
        "type": "Point",
        "coordinates": [
          17.6097,
          40.2302
        ]
      },
      "properties": {
        "icao24": "4d23e1",
        "callsign": "CHZ312",
        "origin_country": "Malta",
        "time_position": 1787443376,
        "last_contact": 1787443376,
        "baro_altitude": 10668,
        "on_ground": false,
        "velocity": 245.91,
        "true_track": 130.59,
        "vertical_rate": 0,
        "geo_altitude": 11231.88,
        "squawk": "0663",
        "spi": false,
        "position_source": 0
      }
    },
    {
      "type": "Feature",
      "geometry": {
        "type": "Point",
        "coordinates": [
          10.9952,
          46.0024
        ]
      },
      "properties": {
        "icao24": "4072a4",
        "callsign": "TOM701",
        "origin_country": "United Kingdom",
        "time_position": 1787443377,
        "last_contact": 1787443377,
        "baro_altitude": 11582.4,
        "on_ground": false,
        "velocity": 209.46,
        "true_track": 303.89,
        "vertical_rate": 0,
        "geo_altitude": 12062.46,
        "squawk": "5536",
        "spi": false,
        "position_source": 0
      }
    },
    {
      "type": "Feature",
      "geometry": {
        "type": "Point",
        "coordinates": [
          12.3826,
          41.7962
        ]
      },
      "properties": {
        "icao24": "4d2448",
        "callsign": "WMT1917",
        "origin_country": "Malta",
        "time_position": 1787443378,
        "last_contact": 1787443378,
        "baro_altitude": 899.16,
        "on_ground": false,
        "velocity": 117.42,
        "true_track": 13.43,
        "vertical_rate": 0,
        "geo_altitude": 1013.46,
        "squawk": "1441",
        "spi": false,
        "position_source": 0
      }
    },
    {
      "type": "Feature",
      "geometry": {
        "type": "Point",
        "coordinates": [
          14.4933,
          35.8479
        ]
      },
      "properties": {
        "icao24": "4cadc0",
        "callsign": "RYR9257",
        "origin_country": "Ireland",
        "time_position": 1787443094,
        "last_contact": 1787443099,
        "baro_altitude": null,
        "on_ground": true,
        "velocity": 0,
        "true_track": 225,
        "vertical_rate": null,
        "geo_altitude": null,
        "squawk": "4154",
        "spi": false,
        "position_source": 0
      }
    },
    {
      "type": "Feature",
      "geometry": {
        "type": "Point",
        "coordinates": [
          9.7236,
          45.6648
        ]
      },
      "properties": {
        "icao24": "4cadfd",
        "callsign": "RYR13LL",
        "origin_country": "Ireland",
        "time_position": 1787443149,
        "last_contact": 1787443150,
        "baro_altitude": 213.36,
        "on_ground": false,
        "velocity": 77.38,
        "true_track": 285.42,
        "vertical_rate": -3.25,
        "geo_altitude": 304.8,
        "squawk": "1000",
        "spi": false,
        "position_source": 0
      }
    },
    {
      "type": "Feature",
      "geometry": {
        "type": "Point",
        "coordinates": [
          15.5007,
          44.7504
        ]
      },
      "properties": {
        "icao24": "40622f",
        "callsign": "EZY2561",
        "origin_country": "United Kingdom",
        "time_position": 1787443377,
        "last_contact": 1787443378,
        "baro_altitude": 11277.6,
        "on_ground": false,
        "velocity": 258.29,
        "true_track": 100.91,
        "vertical_rate": 0,
        "geo_altitude": 11818.62,
        "squawk": "0405",
        "spi": false,
        "position_source": 0
      }
    },
    {
      "type": "Feature",
      "geometry": {
        "type": "Point",
        "coordinates": [
          13.3242,
          38.1824
        ]
      },
      "properties": {
        "icao24": "300750",
        "callsign": "IVLTN",
        "origin_country": "Italy",
        "time_position": 1787443112,
        "last_contact": 1787443112,
        "baro_altitude": 434.34,
        "on_ground": false,
        "velocity": 69.13,
        "true_track": 14.66,
        "vertical_rate": 0.98,
        "geo_altitude": 525.78,
        "squawk": null,
        "spi": false,
        "position_source": 0
      }
    },
    {
      "type": "Feature",
      "geometry": {
        "type": "Point",
        "coordinates": [
          11.6358,
          42.2606
        ]
      },
      "properties": {
        "icao24": "4d2346",
        "callsign": "RYR13PK",
        "origin_country": "Malta",
        "time_position": 1787443378,
        "last_contact": 1787443378,
        "baro_altitude": 10363.2,
        "on_ground": false,
        "velocity": 235.68,
        "true_track": 343.38,
        "vertical_rate": 0,
        "geo_altitude": 10942.32,
        "squawk": "1000",
        "spi": false,
        "position_source": 0
      }
    },
    {
      "type": "Feature",
      "geometry": {
        "type": "Point",
        "coordinates": [
          14.4144,
          35.8212
        ]
      },
      "properties": {
        "icao24": "4d20ea",
        "callsign": "AS2633",
        "origin_country": "Malta",
        "time_position": 1787443377,
        "last_contact": 1787443377,
        "baro_altitude": 365.76,
        "on_ground": false,
        "velocity": 29.25,
        "true_track": 235.75,
        "vertical_rate": 1.95,
        "geo_altitude": 419.1,
        "squawk": null,
        "spi": false,
        "position_source": 0
      }
    },
    {
      "type": "Feature",
      "geometry": {
        "type": "Point",
        "coordinates": [
          8.5536,
          44.791
        ]
      },
      "properties": {
        "icao24": "4d2257",
        "callsign": "RYR8AG",
        "origin_country": "Malta",
        "time_position": 1787443377,
        "last_contact": 1787443377,
        "baro_altitude": 11277.6,
        "on_ground": false,
        "velocity": 211.03,
        "true_track": 226.19,
        "vertical_rate": 0,
        "geo_altitude": 11788.14,
        "squawk": "1000",
        "spi": false,
        "position_source": 0
      }
    },
    {
      "type": "Feature",
      "geometry": {
        "type": "Point",
        "coordinates": [
          18.8277,
          47.6867
        ]
      },
      "properties": {
        "icao24": "4d20b1",
        "callsign": "WMT9CX",
        "origin_country": "Malta",
        "time_position": 1787443377,
        "last_contact": 1787443377,
        "baro_altitude": 10980.42,
        "on_ground": false,
        "velocity": 214.86,
        "true_track": 222.28,
        "vertical_rate": 0,
        "geo_altitude": 11422.38,
        "squawk": "1000",
        "spi": false,
        "position_source": 0
      }
    },
    {
      "type": "Feature",
      "geometry": {
        "type": "Point",
        "coordinates": [
          12.6929,
          43.7045
        ]
      },
      "properties": {
        "icao24": "4cac8d",
        "callsign": "NOS6023",
        "origin_country": "Ireland",
        "time_position": 1787443377,
        "last_contact": 1787443377,
        "baro_altitude": 10363.2,
        "on_ground": false,
        "velocity": 218.09,
        "true_track": 317.39,
        "vertical_rate": 0,
        "geo_altitude": 10904.22,
        "squawk": "7742",
        "spi": false,
        "position_source": 0
      }
    },
    {
      "type": "Feature",
      "geometry": {
        "type": "Point",
        "coordinates": [
          13.0122,
          47.068
        ]
      },
      "properties": {
        "icao24": "408352",
        "callsign": "EXS94VU",
        "origin_country": "United Kingdom",
        "time_position": 1787443378,
        "last_contact": 1787443378,
        "baro_altitude": 10965.18,
        "on_ground": false,
        "velocity": 204.26,
        "true_track": 307.74,
        "vertical_rate": 0.33,
        "geo_altitude": 11407.14,
        "squawk": "5371",
        "spi": false,
        "position_source": 0
      }
    },
    {
      "type": "Feature",
      "geometry": {
        "type": "Point",
        "coordinates": [
          13.7702,
          46.6551
        ]
      },
      "properties": {
        "icao24": "40702e",
        "callsign": "EXS96PS",
        "origin_country": "United Kingdom",
        "time_position": 1787443377,
        "last_contact": 1787443378,
        "baro_altitude": 11582.4,
        "on_ground": false,
        "velocity": 204.76,
        "true_track": 307.45,
        "vertical_rate": -0.33,
        "geo_altitude": 12054.84,
        "squawk": "5633",
        "spi": false,
        "position_source": 0
      }
    },
    {
      "type": "Feature",
      "geometry": {
        "type": "Point",
        "coordinates": [
          9.9038,
          46.6345
        ]
      },
      "properties": {
        "icao24": "4081cf",
        "callsign": "WUK7PY",
        "origin_country": "United Kingdom",
        "time_position": 1787443377,
        "last_contact": 1787443378,
        "baro_altitude": 10972.8,
        "on_ground": false,
        "velocity": 206.6,
        "true_track": 306.7,
        "vertical_rate": 0,
        "geo_altitude": 11437.62,
        "squawk": "2753",
        "spi": false,
        "position_source": 0
      }
    },
    {
      "type": "Feature",
      "geometry": {
        "type": "Point",
        "coordinates": [
          7.5232,
          47.6028
        ]
      },
      "properties": {
        "icao24": "38c7ff",
        "callsign": "TECH18",
        "origin_country": "France",
        "time_position": 1787443378,
        "last_contact": 1787443378,
        "baro_altitude": null,
        "on_ground": true,
        "velocity": 24.18,
        "true_track": 154.69,
        "vertical_rate": null,
        "geo_altitude": null,
        "squawk": null,
        "spi": false,
        "position_source": 0
      }
    },
    {
      "type": "Feature",
      "geometry": {
        "type": "Point",
        "coordinates": [
          18.9049,
          35.2689
        ]
      },
      "properties": {
        "icao24": "4d203a",
        "callsign": "KNE672",
        "origin_country": "Malta",
        "time_position": 1787443341,
        "last_contact": 1787443375,
        "baro_altitude": 11887.2,
        "on_ground": false,
        "velocity": 257.28,
        "true_track": 99.67,
        "vertical_rate": 0,
        "geo_altitude": 12588.24,
        "squawk": "7754",
        "spi": false,
        "position_source": 0
      }
    },
    {
      "type": "Feature",
      "geometry": {
        "type": "Point",
        "coordinates": [
          15.4599,
          43.7569
        ]
      },
      "properties": {
        "icao24": "4082cb",
        "callsign": "TOM5KY",
        "origin_country": "United Kingdom",
        "time_position": 1787443377,
        "last_contact": 1787443377,
        "baro_altitude": 11582.4,
        "on_ground": false,
        "velocity": 220.6,
        "true_track": 306.66,
        "vertical_rate": -0.33,
        "geo_altitude": 12153.9,
        "squawk": "2050",
        "spi": false,
        "position_source": 0
      }
    },
    {
      "type": "Feature",
      "geometry": {
        "type": "Point",
        "coordinates": [
          8.5671,
          47.445
        ]
      },
      "properties": {
        "icao24": "4b17fd",
        "callsign": "SWR",
        "origin_country": "Switzerland",
        "time_position": 1787443240,
        "last_contact": 1787443240,
        "baro_altitude": null,
        "on_ground": true,
        "velocity": 0.06,
        "true_track": 244.69,
        "vertical_rate": null,
        "geo_altitude": null,
        "squawk": "2000",
        "spi": false,
        "position_source": 0
      }
    }
  ]
}