{
  "type": "FeatureCollection",
  "source": "opensky",
  "dataset": "aircraft_italy",
  "generated_at": "2026-07-04T01:19:30.730942+00:00",
  "opensky_time": 1783127964,
  "count": 73,
  "features": [
    {
      "type": "Feature",
      "geometry": {
        "type": "Point",
        "coordinates": [
          8.256,
          40.58
        ]
      },
      "properties": {
        "icao24": "46b82d",
        "callsign": "AEE3EM",
        "origin_country": "Greece",
        "time_position": 1783127964,
        "last_contact": 1783127964,
        "baro_altitude": 11277.6,
        "on_ground": false,
        "velocity": 237.52,
        "true_track": 100.48,
        "vertical_rate": 0,
        "geo_altitude": 11955.78,
        "squawk": "4301",
        "spi": false,
        "position_source": 0
      }
    },
    {
      "type": "Feature",
      "geometry": {
        "type": "Point",
        "coordinates": [
          11.5205,
          40.0621
        ]
      },
      "properties": {
        "icao24": "46b82f",
        "callsign": "AEE3LP",
        "origin_country": "Greece",
        "time_position": 1783127964,
        "last_contact": 1783127964,
        "baro_altitude": 11277.6,
        "on_ground": false,
        "velocity": 234.52,
        "true_track": 102.54,
        "vertical_rate": 0,
        "geo_altitude": 11902.44,
        "squawk": "1444",
        "spi": false,
        "position_source": 0
      }
    },
    {
      "type": "Feature",
      "geometry": {
        "type": "Point",
        "coordinates": [
          14.5908,
          46.0952
        ]
      },
      "properties": {
        "icao24": "46b830",
        "callsign": "AEE631",
        "origin_country": "Greece",
        "time_position": 1783127964,
        "last_contact": 1783127964,
        "baro_altitude": 11269.98,
        "on_ground": false,
        "velocity": 262.66,
        "true_track": 138.1,
        "vertical_rate": 0,
        "geo_altitude": 11772.9,
        "squawk": "5216",
        "spi": false,
        "position_source": 0
      }
    },
    {
      "type": "Feature",
      "geometry": {
        "type": "Point",
        "coordinates": [
          8.9957,
          46.228
        ]
      },
      "properties": {
        "icao24": "471f70",
        "callsign": "WMT401",
        "origin_country": "Hungary",
        "time_position": 1783127963,
        "last_contact": 1783127964,
        "baro_altitude": 6865.62,
        "on_ground": false,
        "velocity": 188.95,
        "true_track": 187.67,
        "vertical_rate": -11.05,
        "geo_altitude": 7277.1,
        "squawk": "1000",
        "spi": false,
        "position_source": 0
      }
    },
    {
      "type": "Feature",
      "geometry": {
        "type": "Point",
        "coordinates": [
          15.1102,
          39.3392
        ]
      },
      "properties": {
        "icao24": "46b927",
        "callsign": "SEH923",
        "origin_country": "Greece",
        "time_position": 1783127963,
        "last_contact": 1783127964,
        "baro_altitude": 11277.6,
        "on_ground": false,
        "velocity": 228.96,
        "true_track": 103.91,
        "vertical_rate": -0.65,
        "geo_altitude": 11871.96,
        "squawk": "2247",
        "spi": false,
        "position_source": 0
      }
    },
    {
      "type": "Feature",
      "geometry": {
        "type": "Point",
        "coordinates": [
          17.9341,
          46.4733
        ]
      },
      "properties": {
        "icao24": "4bc84c",
        "callsign": "PGT96T",
        "origin_country": "Turkey",
        "time_position": 1783127964,
        "last_contact": 1783127964,
        "baro_altitude": 10660.38,
        "on_ground": false,
        "velocity": 282.45,
        "true_track": 127.6,
        "vertical_rate": 0.33,
        "geo_altitude": 11064.24,
        "squawk": "6430",
        "spi": false,
        "position_source": 0
      }
    },
    {
      "type": "Feature",
      "geometry": {
        "type": "Point",
        "coordinates": [
          12.2571,
          44.8203
        ]
      },
      "properties": {
        "icao24": "440096",
        "callsign": "EJU3648",
        "origin_country": "Austria",
        "time_position": 1783127964,
        "last_contact": 1783127964,
        "baro_altitude": 10972.8,
        "on_ground": false,
        "velocity": 213.57,
        "true_track": 295.08,
        "vertical_rate": 0,
        "geo_altitude": 11529.06,
        "squawk": "6622",
        "spi": false,
        "position_source": 0
      }
    },
    {
      "type": "Feature",
      "geometry": {
        "type": "Point",
        "coordinates": [
          8.8887,
          38.7963
        ]
      },
      "properties": {
        "icao24": "3c4a15",
        "callsign": "DLH577",
        "origin_country": "Germany",
        "time_position": 1783127964,
        "last_contact": 1783127964,
        "baro_altitude": 12192,
        "on_ground": false,
        "velocity": 242.88,
        "true_track": 358.66,
        "vertical_rate": 0,
        "geo_altitude": 12847.32,
        "squawk": null,
        "spi": false,
        "position_source": 0
      }
    },
    {
      "type": "Feature",
      "geometry": {
        "type": "Point",
        "coordinates": [
          8.8598,
          39.6595
        ]
      },
      "properties": {
        "icao24": "3c5b32",
        "callsign": "OCN133",
        "origin_country": "Germany",
        "time_position": 1783127963,
        "last_contact": 1783127964,
        "baro_altitude": 12199.62,
        "on_ground": false,
        "velocity": 229.49,
        "true_track": 358.84,
        "vertical_rate": 0,
        "geo_altitude": 12839.7,
        "squawk": "1204",
        "spi": false,
        "position_source": 0
      }
    },
    {
      "type": "Feature",
      "geometry": {
        "type": "Point",
        "coordinates": [
          15.2945,
          39.4462
        ]
      },
      "properties": {
        "icao24": "020140",
        "callsign": "MAC437",
        "origin_country": "Morocco",
        "time_position": 1783127964,
        "last_contact": 1783127964,
        "baro_altitude": 11277.6,
        "on_ground": false,
        "velocity": 230.58,
        "true_track": 91.79,
        "vertical_rate": 0,
        "geo_altitude": 11879.58,
        "squawk": "1422",
        "spi": false,
        "position_source": 0
      }
    },
    {
      "type": "Feature",
      "geometry": {
        "type": "Point",
        "coordinates": [
          7.5001,
          44.3586
        ]
      },
      "properties": {
        "icao24": "489226",
        "callsign": "ENT3RZ",
        "origin_country": "Poland",
        "time_position": 1783127964,
        "last_contact": 1783127964,
        "baro_altitude": 11582.4,
        "on_ground": false,
        "velocity": 219.79,
        "true_track": 235.01,
        "vertical_rate": 0.33,
        "geo_altitude": 12222.48,
        "squawk": "1000",
        "spi": false,
        "position_source": 0
      }
    },
    {
      "type": "Feature",
      "geometry": {
        "type": "Point",
        "coordinates": [
          10.5036,
          44.8234
        ]
      },
      "properties": {
        "icao24": "4bb152",
        "callsign": "THY6019",
        "origin_country": "Turkey",
        "time_position": 1783127964,
        "last_contact": 1783127964,
        "baro_altitude": 9753.6,
        "on_ground": false,
        "velocity": 231.82,
        "true_track": 279.84,
        "vertical_rate": 0,
        "geo_altitude": 10279.38,
        "squawk": "3247",
        "spi": false,
        "position_source": 0
      }
    },
    {
      "type": "Feature",
      "geometry": {
        "type": "Point",
        "coordinates": [
          9.4317,
          44.9507
        ]
      },
      "properties": {
        "icao24": "4bb194",
        "callsign": "THY4JD",
        "origin_country": "Turkey",
        "time_position": 1783127964,
        "last_contact": 1783127964,
        "baro_altitude": 10363.2,
        "on_ground": false,
        "velocity": 234.44,
        "true_track": 279.09,
        "vertical_rate": 0,
        "geo_altitude": 10911.84,
        "squawk": "3230",
        "spi": false,
        "position_source": 0
      }
    },
    {
      "type": "Feature",
      "geometry": {
        "type": "Point",
        "coordinates": [
          18.6625,
          47.7983
        ]
      },
      "properties": {
        "icao24": "896461",
        "callsign": "ETD8MY",
        "origin_country": "United Arab Emirates",
        "time_position": 1783127964,
        "last_contact": 1783127964,
        "baro_altitude": 11887.2,
        "on_ground": false,
        "velocity": 282.01,
        "true_track": 131.75,
        "vertical_rate": 0,
        "geo_altitude": 12214.86,
        "squawk": "1163",
        "spi": false,
        "position_source": 0
      }
    },
    {
      "type": "Feature",
      "geometry": {
        "type": "Point",
        "coordinates": [
          18.1692,
          40.5233
        ]
      },
      "properties": {
        "icao24": "3965ae",
        "callsign": "AFR473",
        "origin_country": "France",
        "time_position": 1783127964,
        "last_contact": 1783127964,
        "baro_altitude": 10972.8,
        "on_ground": false,
        "velocity": 236.45,
        "true_track": 308.64,
        "vertical_rate": 0,
        "geo_altitude": 11536.68,
        "squawk": "5536",
        "spi": false,
        "position_source": 0
      }
    },
    {
      "type": "Feature",
      "geometry": {
        "type": "Point",
        "coordinates": [
          18.0306,
          38.1588
        ]
      },
      "properties": {
        "icao24": "4bb06e",
        "callsign": "THY597",
        "origin_country": "Turkey",
        "time_position": 1783127964,
        "last_contact": 1783127964,
        "baro_altitude": 11285.22,
        "on_ground": false,
        "velocity": 256.81,
        "true_track": 64.62,
        "vertical_rate": 0.33,
        "geo_altitude": 11856.72,
        "squawk": "4101",
        "spi": false,
        "position_source": 0
      }
    },
    {
      "type": "Feature",
      "geometry": {
        "type": "Point",
        "coordinates": [
          15.6242,
          47.6376
        ]
      },
      "properties": {
        "icao24": "4b9903",
        "callsign": "FHY1344",
        "origin_country": "Turkey",
        "time_position": 1783127964,
        "last_contact": 1783127964,
        "baro_altitude": 10668,
        "on_ground": false,
        "velocity": 270.55,
        "true_track": 125.71,
        "vertical_rate": 0,
        "geo_altitude": 11056.62,
        "squawk": "6401",
        "spi": false,
        "position_source": 0
      }
    },
    {
      "type": "Feature",
      "geometry": {
        "type": "Point",
        "coordinates": [
          6.976,
          39.6442
        ]
      },
      "properties": {
        "icao24": "44ccc2",
        "callsign": "BEL39G",
        "origin_country": "Belgium",
        "time_position": 1783127964,
        "last_contact": 1783127964,
        "baro_altitude": 11582.4,
        "on_ground": false,
        "velocity": 236.63,
        "true_track": 356.26,
        "vertical_rate": 0,
        "geo_altitude": 12237.72,
        "squawk": null,
        "spi": false,
        "position_source": 0
      }
    },
    {
      "type": "Feature",
      "geometry": {
        "type": "Point",
        "coordinates": [
          8.907,
          47.2717
        ]
      },
      "properties": {
        "icao24": "406696",
        "callsign": "TOM675",
        "origin_country": "United Kingdom",
        "time_position": 1783127964,
        "last_contact": 1783127964,
        "baro_altitude": 10972.8,
        "on_ground": false,
        "velocity": 212.32,
        "true_track": 303.04,
        "vertical_rate": 0,
        "geo_altitude": 11498.58,
        "squawk": "7521",
        "spi": false,
        "position_source": 0
      }
    },
    {
      "type": "Feature",
      "geometry": {
        "type": "Point",
        "coordinates": [
          9.3121,
          47.1491
        ]
      },
      "properties": {
        "icao24": "40665f",
        "callsign": "TOM2KB",
        "origin_country": "United Kingdom",
        "time_position": 1783127964,
        "last_contact": 1783127964,
        "baro_altitude": 11582.4,
        "on_ground": false,
        "velocity": 207.88,
        "true_track": 305.74,
        "vertical_rate": 0,
        "geo_altitude": 12123.42,
        "squawk": "2762",
        "spi": false,
        "position_source": 0
      }
    },
    {
      "type": "Feature",
      "geometry": {
        "type": "Point",
        "coordinates": [
          16.8432,
          38.3821
        ]
      },
      "properties": {
        "icao24": "040127",
        "callsign": "ETH740",
        "origin_country": "Ethiopia",
        "time_position": 1783127964,
        "last_contact": 1783127964,
        "baro_altitude": 12192,
        "on_ground": false,
        "velocity": 234.07,
        "true_track": 283.73,
        "vertical_rate": 0,
        "geo_altitude": 12809.22,
        "squawk": "7731",
        "spi": false,
        "position_source": 0
      }
    },
    {
      "type": "Feature",
      "geometry": {
        "type": "Point",
        "coordinates": [
          17.6962,
          44.2024
        ]
      },
      "properties": {
        "icao24": "49d3d4",
        "callsign": "TVS22H",
        "origin_country": "Czech Republic",
        "time_position": 1783127964,
        "last_contact": 1783127964,
        "baro_altitude": 10066.02,
        "on_ground": false,
        "velocity": 264.35,
        "true_track": 153.29,
        "vertical_rate": -0.33,
        "geo_altitude": 10553.7,
        "squawk": "6013",
        "spi": false,
        "position_source": 0
      }
    },
    {
      "type": "Feature",
      "geometry": {
        "type": "Point",
        "coordinates": [
          18.6348,
          39.525
        ]
      },
      "properties": {
        "icao24": "3a4494",
        "callsign": "REU975",
        "origin_country": "France",
        "time_position": 1783127963,
        "last_contact": 1783127963,
        "baro_altitude": 10363.2,
        "on_ground": false,
        "velocity": 247.55,
        "true_track": 309.18,
        "vertical_rate": 0,
        "geo_altitude": 10896.6,
        "squawk": "5535",
        "spi": false,
        "position_source": 0
      }
    },
    {
      "type": "Feature",
      "geometry": {
        "type": "Point",
        "coordinates": [
          8.7287,
          45.6478
        ]
      },
      "properties": {
        "icao24": "78021a",
        "callsign": "CPA038",
        "origin_country": "China",
        "time_position": 1783127964,
        "last_contact": 1783127964,
        "baro_altitude": null,
        "on_ground": true,
        "velocity": 24.69,
        "true_track": 168.75,
        "vertical_rate": null,
        "geo_altitude": null,
        "squawk": null,
        "spi": false,
        "position_source": 0
      }
    },
    {
      "type": "Feature",
      "geometry": {
        "type": "Point",
        "coordinates": [
          15.3888,
          40.6184
        ]
      },
      "properties": {
        "icao24": "040048",
        "callsign": "ETH574",
        "origin_country": "Ethiopia",
        "time_position": 1783127964,
        "last_contact": 1783127964,
        "baro_altitude": 12192,
        "on_ground": false,
        "velocity": 238.57,
        "true_track": 303.21,
        "vertical_rate": -0.33,
        "geo_altitude": 12793.98,
        "squawk": "7743",
        "spi": false,
        "position_source": 0
      }
    },
    {
      "type": "Feature",
      "geometry": {
        "type": "Point",
        "coordinates": [
          17.7101,
          39.8495
        ]
      },
      "properties": {
        "icao24": "040047",
        "callsign": "ETH552",
        "origin_country": "Ethiopia",
        "time_position": 1783127963,
        "last_contact": 1783127964,
        "baro_altitude": 12184.38,
        "on_ground": false,
        "velocity": 241.67,
        "true_track": 298.2,
        "vertical_rate": 0,
        "geo_altitude": 12771.12,
        "squawk": "7732",
        "spi": false,
        "position_source": 0
      }
    },
    {
      "type": "Feature",
      "geometry": {
        "type": "Point",
        "coordinates": [
          12.1038,
          40.8951
        ]
      },
      "properties": {
        "icao24": "49d414",
        "callsign": "TVS2810",
        "origin_country": "Czech Republic",
        "time_position": 1783127964,
        "last_contact": 1783127964,
        "baro_altitude": 6004.56,
        "on_ground": false,
        "velocity": 212.03,
        "true_track": 181.53,
        "vertical_rate": 5.85,
        "geo_altitude": 6393.18,
        "squawk": null,
        "spi": false,
        "position_source": 0
      }
    },
    {
      "type": "Feature",
      "geometry": {
        "type": "Point",
        "coordinates": [
          7.3777,
          47.1467
        ]
      },
      "properties": {
        "icao24": "4b32fd",
        "callsign": "RGA03",
        "origin_country": "Switzerland",
        "time_position": 1783127733,
        "last_contact": 1783127740,
        "baro_altitude": 510.54,
        "on_ground": false,
        "velocity": 62.76,
        "true_track": 337.85,
        "vertical_rate": -6.18,
        "geo_altitude": 678.18,
        "squawk": "7100",
        "spi": false,
        "position_source": 0
      }
    },
    {
      "type": "Feature",
      "geometry": {
        "type": "Point",
        "coordinates": [
          8.9405,
          46.0699
        ]
      },
      "properties": {
        "icao24": "4b3309",
        "callsign": "RGA06",
        "origin_country": "Switzerland",
        "time_position": 1783127963,
        "last_contact": 1783127964,
        "baro_altitude": 1051.56,
        "on_ground": false,
        "velocity": 45.95,
        "true_track": 338.32,
        "vertical_rate": 3.25,
        "geo_altitude": 1211.58,
        "squawk": null,
        "spi": false,
        "position_source": 0
      }
    },
    {
      "type": "Feature",
      "geometry": {
        "type": "Point",
        "coordinates": [
          12.7589,
          45.481
        ]
      },
      "properties": {
        "icao24": "49d353",
        "callsign": "TVS2J",
        "origin_country": "Czech Republic",
        "time_position": 1783127964,
        "last_contact": 1783127964,
        "baro_altitude": 12192,
        "on_ground": false,
        "velocity": 209.76,
        "true_track": 11.89,
        "vertical_rate": 0.33,
        "geo_altitude": 12702.54,
        "squawk": "1000",
        "spi": false,
        "position_source": 0
      }
    },
    {
      "type": "Feature",
      "geometry": {
        "type": "Point",
        "coordinates": [
          18.3209,
          39.5319
        ]
      },
      "properties": {
        "icao24": "040242",
        "callsign": "ETH500",
        "origin_country": "Ethiopia",
        "time_position": 1783127964,
        "last_contact": 1783127964,
        "baro_altitude": 12192,
        "on_ground": false,
        "velocity": 236.1,
        "true_track": 299.36,
        "vertical_rate": 0,
        "geo_altitude": 12778.74,
        "squawk": "5521",
        "spi": false,
        "position_source": 0
      }
    },
    {
      "type": "Feature",
      "geometry": {
        "type": "Point",
        "coordinates": [
          17.3527,
          46.814
        ]
      },
      "properties": {
        "icao24": "4ba903",
        "callsign": "TKJ51T",
        "origin_country": "Turkey",
        "time_position": 1783127964,
        "last_contact": 1783127964,
        "baro_altitude": 11277.6,
        "on_ground": false,
        "velocity": 273.89,
        "true_track": 128.44,
        "vertical_rate": -0.33,
        "geo_altitude": 11666.22,
        "squawk": "7666",
        "spi": false,
        "position_source": 0
      }
    },
    {
      "type": "Feature",
      "geometry": {
        "type": "Point",
        "coordinates": [
          12.1215,
          45.7229
        ]
      },
      "properties": {
        "icao24": "407c0a",
        "callsign": "TOM7PV",
        "origin_country": "United Kingdom",
        "time_position": 1783127963,
        "last_contact": 1783127964,
        "baro_altitude": 10972.8,
        "on_ground": false,
        "velocity": 212.47,
        "true_track": 306.73,
        "vertical_rate": 0,
        "geo_altitude": 11506.2,
        "squawk": "6633",
        "spi": false,
        "position_source": 0
      }
    },
    {
      "type": "Feature",
      "geometry": {
        "type": "Point",
        "coordinates": [
          8.0417,
          47.6497
        ]
      },
      "properties": {
        "icao24": "407ac3",
        "callsign": "TOM649",
        "origin_country": "United Kingdom",
        "time_position": 1783127964,
        "last_contact": 1783127964,
        "baro_altitude": 11254.74,
        "on_ground": false,
        "velocity": 210.93,
        "true_track": 302.45,
        "vertical_rate": 4.88,
        "geo_altitude": 11795.76,
        "squawk": "2747",
        "spi": false,
        "position_source": 0
      }
    },
    {
      "type": "Feature",
      "geometry": {
        "type": "Point",
        "coordinates": [
          17.6107,
          47.7102
        ]
      },
      "properties": {
        "icao24": "504e61",
        "callsign": "HYS474",
        "origin_country": "Republic of Moldova",
        "time_position": 1783127964,
        "last_contact": 1783127964,
        "baro_altitude": 11292.84,
        "on_ground": false,
        "velocity": 259.33,
        "true_track": 91.14,
        "vertical_rate": -0.33,
        "geo_altitude": 11643.36,
        "squawk": "2231",
        "spi": false,
        "position_source": 0
      }
    },
    {
      "type": "Feature",
      "geometry": {
        "type": "Point",
        "coordinates": [
          11.589,
          39.4043
        ]
      },
      "properties": {
        "icao24": "46b8ad",
        "callsign": "AEE7VH",
        "origin_country": "Greece",
        "time_position": 1783127964,
        "last_contact": 1783127964,
        "baro_altitude": 11285.22,
        "on_ground": false,
        "velocity": 227.81,
        "true_track": 96.48,
        "vertical_rate": 0,
        "geo_altitude": 11925.3,
        "squawk": "1444",
        "spi": false,
        "position_source": 0
      }
    },
    {
      "type": "Feature",
      "geometry": {
        "type": "Point",
        "coordinates": [
          8.5526,
          47.4634
        ]
      },
      "properties": {
        "icao24": "4b1802",
        "callsign": "SWR",
        "origin_country": "Switzerland",
        "time_position": 1783127905,
        "last_contact": 1783127905,
        "baro_altitude": null,
        "on_ground": true,
        "velocity": 0,
        "true_track": 5.62,
        "vertical_rate": null,
        "geo_altitude": null,
        "squawk": "2000",
        "spi": false,
        "position_source": 0
      }
    },
    {
      "type": "Feature",
      "geometry": {
        "type": "Point",
        "coordinates": [
          9.7652,
          35.8375
        ]
      },
      "properties": {
        "icao24": "4952c3",
        "callsign": "TAP9003",
        "origin_country": "Portugal",
        "time_position": 1783127893,
        "last_contact": 1783127893,
        "baro_altitude": 10195.56,
        "on_ground": false,
        "velocity": 231.66,
        "true_track": 161.48,
        "vertical_rate": -4.88,
        "geo_altitude": 10835.64,
        "squawk": "5204",
        "spi": false,
        "position_source": 0
      }
    },
    {
      "type": "Feature",
      "geometry": {
        "type": "Point",
        "coordinates": [
          12.4633,
          39.2194
        ]
      },
      "properties": {
        "icao24": "02a1a2",
        "callsign": "LBT839",
        "origin_country": "Tunisia",
        "time_position": 1783127964,
        "last_contact": 1783127964,
        "baro_altitude": 10660.38,
        "on_ground": false,
        "velocity": 248.41,
        "true_track": 209.8,
        "vertical_rate": 0,
        "geo_altitude": 11239.5,
        "squawk": "6033",
        "spi": false,
        "position_source": 0
      }
    },
    {
      "type": "Feature",
      "geometry": {
        "type": "Point",
        "coordinates": [
          12.9205,
          39.8367
        ]
      },
      "properties": {
        "icao24": "4690e1",
        "callsign": "AEE713",
        "origin_country": "Greece",
        "time_position": 1783127964,
        "last_contact": 1783127964,
        "baro_altitude": 11277.6,
        "on_ground": false,
        "velocity": 232.95,
        "true_track": 103.67,
        "vertical_rate": 0.33,
        "geo_altitude": 11879.58,
        "squawk": "1416",
        "spi": false,
        "position_source": 0
      }
    },
    {
      "type": "Feature",
      "geometry": {
        "type": "Point",
        "coordinates": [
          13.0203,
          37.6664
        ]
      },
      "properties": {
        "icao24": "0a0076",
        "callsign": "DAH3021",
        "origin_country": "Algeria",
        "time_position": 1783127964,
        "last_contact": 1783127964,
        "baro_altitude": 11582.4,
        "on_ground": false,
        "velocity": 231.88,
        "true_track": 249.07,
        "vertical_rate": -0.33,
        "geo_altitude": 12184.38,
        "squawk": "2332",
        "spi": false,
        "position_source": 0
      }
    },
    {
      "type": "Feature",
      "geometry": {
        "type": "Point",
        "coordinates": [
          8.5652,
          47.444
        ]
      },
      "properties": {
        "icao24": "4b5d9e",
        "callsign": "ATL785",
        "origin_country": "Switzerland",
        "time_position": 1783127866,
        "last_contact": 1783127954,
        "baro_altitude": null,
        "on_ground": true,
        "velocity": 0.45,
        "true_track": 160.31,
        "vertical_rate": null,
        "geo_altitude": null,
        "squawk": null,
        "spi": false,
        "position_source": 0
      }
    },
    {
      "type": "Feature",
      "geometry": {
        "type": "Point",
        "coordinates": [
          9.8881,
          39.3634
        ]
      },
      "properties": {
        "icao24": "3c6483",
        "callsign": "DLH1327",
        "origin_country": "Germany",
        "time_position": 1783127963,
        "last_contact": 1783127964,
        "baro_altitude": 10972.8,
        "on_ground": false,
        "velocity": 224.3,
        "true_track": 359.74,
        "vertical_rate": 0,
        "geo_altitude": 11597.64,
        "squawk": "6133",
        "spi": false,
        "position_source": 0
      }
    },
    {
      "type": "Feature",
      "geometry": {
        "type": "Point",
        "coordinates": [
          8.5359,
          44.9388
        ]
      },
      "properties": {
        "icao24": "48448c",
        "callsign": "P4SKN",
        "origin_country": "Kingdom of the Netherlands",
        "time_position": 1783127964,
        "last_contact": 1783127964,
        "baro_altitude": 3901.44,
        "on_ground": false,
        "velocity": 150.75,
        "true_track": 359.22,
        "vertical_rate": -5.85,
        "geo_altitude": 4191,
        "squawk": "1000",
        "spi": false,
        "position_source": 0
      }
    },
    {
      "type": "Feature",
      "geometry": {
        "type": "Point",
        "coordinates": [
          17.4375,
          35.453
        ]
      },
      "properties": {
        "icao24": "7105ab",
        "callsign": "SVA377",
        "origin_country": "Saudi Arabia",
        "time_position": 1783127964,
        "last_contact": 1783127964,
        "baro_altitude": 10972.8,
        "on_ground": false,
        "velocity": 224.74,
        "true_track": 278.56,
        "vertical_rate": -0.33,
        "geo_altitude": 11620.5,
        "squawk": null,
        "spi": false,
        "position_source": 0
      }
    },
    {
      "type": "Feature",
      "geometry": {
        "type": "Point",
        "coordinates": [
          15.4428,
          43.3818
        ]
      },
      "properties": {
        "icao24": "4ca9a1",
        "callsign": "NOS5500",
        "origin_country": "Ireland",
        "time_position": 1783127964,
        "last_contact": 1783127964,
        "baro_altitude": 10972.8,
        "on_ground": false,
        "velocity": 211.75,
        "true_track": 306.7,
        "vertical_rate": 0,
        "geo_altitude": 11513.82,
        "squawk": "2065",
        "spi": false,
        "position_source": 0
      }
    },
    {
      "type": "Feature",
      "geometry": {
        "type": "Point",
        "coordinates": [
          18.375,
          44.8502
        ]
      },
      "properties": {
        "icao24": "440a8c",
        "callsign": "TAY400",
        "origin_country": "Austria",
        "time_position": 1783127963,
        "last_contact": 1783127964,
        "baro_altitude": 10363.2,
        "on_ground": false,
        "velocity": 218.59,
        "true_track": 303.58,
        "vertical_rate": 0,
        "geo_altitude": 10812.78,
        "squawk": "0563",
        "spi": false,
        "position_source": 0
      }
    },
    {
      "type": "Feature",
      "geometry": {
        "type": "Point",
        "coordinates": [
          8.5276,
          45.2192
        ]
      },
      "properties": {
        "icao24": "4ca894",
        "callsign": "RYR9DB",
        "origin_country": "Ireland",
        "time_position": 1783127964,
        "last_contact": 1783127964,
        "baro_altitude": 2461.26,
        "on_ground": false,
        "velocity": 131.75,
        "true_track": 1.57,
        "vertical_rate": -5.2,
        "geo_altitude": 2689.86,
        "squawk": "1000",
        "spi": false,
        "position_source": 0
      }
    },
    {
      "type": "Feature",
      "geometry": {
        "type": "Point",
        "coordinates": [
          18.9601,
          47.1619
        ]
      },
      "properties": {
        "icao24": "424690",
        "callsign": "VPBXV",
        "origin_country": "United Kingdom",
        "time_position": 1783127964,
        "last_contact": 1783127964,
        "baro_altitude": 12192,
        "on_ground": false,
        "velocity": 210.93,
        "true_track": 292.06,
        "vertical_rate": 0,
        "geo_altitude": 12573,
        "squawk": "3201",
        "spi": false,
        "position_source": 0
      }
    },
    {
      "type": "Feature",
      "geometry": {
        "type": "Point",
        "coordinates": [
          17.6576,
          47.6082
        ]
      },
      "properties": {
        "icao24": "49d5ee",
        "callsign": "TVS6KN",
        "origin_country": "Czech Republic",
        "time_position": 1783127964,
        "last_contact": 1783127964,
        "baro_altitude": 10972.8,
        "on_ground": false,
        "velocity": 179.9,
        "true_track": 301.55,
        "vertical_rate": 0.33,
        "geo_altitude": 11308.08,
        "squawk": "2373",
        "spi": false,
        "position_source": 0
      }
    },
    {
      "type": "Feature",
      "geometry": {
        "type": "Point",
        "coordinates": [
          17.0316,
          46.0115
        ]
      },
      "properties": {
        "icao24": "4bcde7",
        "callsign": "SXS79Y",
        "origin_country": "Turkey",
        "time_position": 1783127963,
        "last_contact": 1783127964,
        "baro_altitude": 11277.6,
        "on_ground": false,
        "velocity": 278.72,
        "true_track": 138.22,
        "vertical_rate": 0,
        "geo_altitude": 11711.94,
        "squawk": "6027",
        "spi": false,
        "position_source": 0
      }
    },
    {
      "type": "Feature",
      "geometry": {
        "type": "Point",
        "coordinates": [
          7.1099,
          44.2334
        ]
      },
      "properties": {
        "icao24": "3c1bb1",
        "callsign": "BCS7CK",
        "origin_country": "Germany",
        "time_position": 1783127964,
        "last_contact": 1783127964,
        "baro_altitude": 10050.78,
        "on_ground": false,
        "velocity": 229.3,
        "true_track": 231.74,
        "vertical_rate": 0,
        "geo_altitude": 10607.04,
        "squawk": "1000",
        "spi": false,
        "position_source": 0
      }
    },
    {
      "type": "Feature",
      "geometry": {
        "type": "Point",
        "coordinates": [
          10.3619,
          36.1944
        ]
      },
      "properties": {
        "icao24": "8940ca",
        "callsign": "GFA021",
        "origin_country": "Bahrain",
        "time_position": 1783127964,
        "last_contact": 1783127964,
        "baro_altitude": 10355.58,
        "on_ground": false,
        "velocity": 221.32,
        "true_track": 278.02,
        "vertical_rate": -0.33,
        "geo_altitude": 10972.8,
        "squawk": "5502",
        "spi": false,
        "position_source": 0
      }
    },
    {
      "type": "Feature",
      "geometry": {
        "type": "Point",
        "coordinates": [
          12.1773,
          36.0293
        ]
      },
      "properties": {
        "icao24": "010244",
        "callsign": "MSR892",
        "origin_country": "Egypt",
        "time_position": 1783127964,
        "last_contact": 1783127964,
        "baro_altitude": 10675.62,
        "on_ground": false,
        "velocity": 255.75,
        "true_track": 91.38,
        "vertical_rate": 0,
        "geo_altitude": 11292.84,
        "squawk": "4104",
        "spi": false,
        "position_source": 0
      }
    },
    {
      "type": "Feature",
      "geometry": {
        "type": "Point",
        "coordinates": [
          17.4065,
          42.9906
        ]
      },
      "properties": {
        "icao24": "34761a",
        "callsign": "VOE9WP",
        "origin_country": "Spain",
        "time_position": 1783127964,
        "last_contact": 1783127964,
        "baro_altitude": 10972.8,
        "on_ground": false,
        "velocity": 217.88,
        "true_track": 304.03,
        "vertical_rate": 0,
        "geo_altitude": 11513.82,
        "squawk": "1054",
        "spi": false,
        "position_source": 0
      }
    },
    {
      "type": "Feature",
      "geometry": {
        "type": "Point",
        "coordinates": [
          14.6705,
          46.1796
        ]
      },
      "properties": {
        "icao24": "4075f4",
        "callsign": "TOM62L",
        "origin_country": "United Kingdom",
        "time_position": 1783127964,
        "last_contact": 1783127964,
        "baro_altitude": 11582.4,
        "on_ground": false,
        "velocity": 199.93,
        "true_track": 307.58,
        "vertical_rate": 0,
        "geo_altitude": 12062.46,
        "squawk": "2213",
        "spi": false,
        "position_source": 0
      }
    },
    {
      "type": "Feature",
      "geometry": {
        "type": "Point",
        "coordinates": [
          14.4418,
          44.7232
        ]
      },
      "properties": {
        "icao24": "4075f3",
        "callsign": "TOM9VE",
        "origin_country": "United Kingdom",
        "time_position": 1783127964,
        "last_contact": 1783127964,
        "baro_altitude": 9753.6,
        "on_ground": false,
        "velocity": 224.93,
        "true_track": 305.03,
        "vertical_rate": 0,
        "geo_altitude": 10264.14,
        "squawk": "2205",
        "spi": false,
        "position_source": 0
      }
    },
    {
      "type": "Feature",
      "geometry": {
        "type": "Point",
        "coordinates": [
          7.7454,
          44.2751
        ]
      },
      "properties": {
        "icao24": "3e1dcb",
        "callsign": "DICMD",
        "origin_country": "Germany",
        "time_position": 1783127964,
        "last_contact": 1783127964,
        "baro_altitude": 12496.8,
        "on_ground": false,
        "velocity": 196.52,
        "true_track": 232.98,
        "vertical_rate": 0,
        "geo_altitude": 13106.4,
        "squawk": "1000",
        "spi": false,
        "position_source": 0
      }
    },
    {
      "type": "Feature",
      "geometry": {
        "type": "Point",
        "coordinates": [
          13.4978,
          37.0744
        ]
      },
      "properties": {
        "icao24": "3005c5",
        "callsign": "ISRNT",
        "origin_country": "Italy",
        "time_position": 1783127786,
        "last_contact": 1783127820,
        "baro_altitude": 967.74,
        "on_ground": false,
        "velocity": 69.65,
        "true_track": 22.59,
        "vertical_rate": -1.95,
        "geo_altitude": 1082.04,
        "squawk": "0072",
        "spi": false,
        "position_source": 0
      }
    },
    {
      "type": "Feature",
      "geometry": {
        "type": "Point",
        "coordinates": [
          14.2405,
          46.6347
        ]
      },
      "properties": {
        "icao24": "4d248f",
        "callsign": "WMT7SR",
        "origin_country": "Malta",
        "time_position": 1783127964,
        "last_contact": 1783127964,
        "baro_altitude": 10980.42,
        "on_ground": false,
        "velocity": 249.02,
        "true_track": 74.3,
        "vertical_rate": 0,
        "geo_altitude": 11475.72,
        "squawk": "1000",
        "spi": false,
        "position_source": 0
      }
    },
    {
      "type": "Feature",
      "geometry": {
        "type": "Point",
        "coordinates": [
          9.7272,
          43.7545
        ]
      },
      "properties": {
        "icao24": "4d21b1",
        "callsign": "LBT521P",
        "origin_country": "Malta",
        "time_position": 1783127964,
        "last_contact": 1783127964,
        "baro_altitude": 11590.02,
        "on_ground": false,
        "velocity": 216.31,
        "true_track": 357.27,
        "vertical_rate": 0,
        "geo_altitude": 12199.62,
        "squawk": "6142",
        "spi": false,
        "position_source": 0
      }
    },
    {
      "type": "Feature",
      "geometry": {
        "type": "Point",
        "coordinates": [
          12.9204,
          42.8679
        ]
      },
      "properties": {
        "icao24": "4d20bd",
        "callsign": "WMT3C",
        "origin_country": "Malta",
        "time_position": 1783127964,
        "last_contact": 1783127964,
        "baro_altitude": 10972.8,
        "on_ground": false,
        "velocity": 215.78,
        "true_track": 306.08,
        "vertical_rate": 0.33,
        "geo_altitude": 11567.16,
        "squawk": "2076",
        "spi": false,
        "position_source": 0
      }
    },
    {
      "type": "Feature",
      "geometry": {
        "type": "Point",
        "coordinates": [
          16.4374,
          43.2537
        ]
      },
      "properties": {
        "icao24": "408357",
        "callsign": "EXS23FH",
        "origin_country": "United Kingdom",
        "time_position": 1783127964,
        "last_contact": 1783127964,
        "baro_altitude": 11582.4,
        "on_ground": false,
        "velocity": 201.1,
        "true_track": 310.33,
        "vertical_rate": -0.33,
        "geo_altitude": 12123.42,
        "squawk": "2021",
        "spi": false,
        "position_source": 0
      }
    },
    {
      "type": "Feature",
      "geometry": {
        "type": "Point",
        "coordinates": [
          13.3894,
          47.7733
        ]
      },
      "properties": {
        "icao24": "40832b",
        "callsign": "TOM267",
        "origin_country": "United Kingdom",
        "time_position": 1783127964,
        "last_contact": 1783127964,
        "baro_altitude": 10972.8,
        "on_ground": false,
        "velocity": 202.27,
        "true_track": 315.62,
        "vertical_rate": 0,
        "geo_altitude": 11430,
        "squawk": "2054",
        "spi": false,
        "position_source": 0
      }
    },
    {
      "type": "Feature",
      "geometry": {
        "type": "Point",
        "coordinates": [
          17.6119,
          42.9901
        ]
      },
      "properties": {
        "icao24": "40836c",
        "callsign": "EZY52DQ",
        "origin_country": "United Kingdom",
        "time_position": 1783127964,
        "last_contact": 1783127964,
        "baro_altitude": 10355.58,
        "on_ground": false,
        "velocity": 217.64,
        "true_track": 296.69,
        "vertical_rate": 0.33,
        "geo_altitude": 10881.36,
        "squawk": "5344",
        "spi": false,
        "position_source": 0
      }
    },
    {
      "type": "Feature",
      "geometry": {
        "type": "Point",
        "coordinates": [
          17.5831,
          42.8841
        ]
      },
      "properties": {
        "icao24": "01018d",
        "callsign": "LMU5492",
        "origin_country": "Egypt",
        "time_position": 1783127964,
        "last_contact": 1783127964,
        "baro_altitude": 11277.6,
        "on_ground": false,
        "velocity": 255.74,
        "true_track": 135.57,
        "vertical_rate": -0.65,
        "geo_altitude": 11841.48,
        "squawk": "1133",
        "spi": false,
        "position_source": 0
      }
    },
    {
      "type": "Feature",
      "geometry": {
        "type": "Point",
        "coordinates": [
          16.3707,
          43.4994
        ]
      },
      "properties": {
        "icao24": "0100a2",
        "callsign": "MSR5061",
        "origin_country": "Egypt",
        "time_position": 1783127964,
        "last_contact": 1783127964,
        "baro_altitude": 11887.2,
        "on_ground": false,
        "velocity": 266.94,
        "true_track": 132.27,
        "vertical_rate": 0,
        "geo_altitude": 12428.22,
        "squawk": "2550",
        "spi": false,
        "position_source": 0
      }
    },
    {
      "type": "Feature",
      "geometry": {
        "type": "Point",
        "coordinates": [
          16.1212,
          45.9558
        ]
      },
      "properties": {
        "icao24": "4692d8",
        "callsign": "AEE507",
        "origin_country": "Greece",
        "time_position": 1783127964,
        "last_contact": 1783127964,
        "baro_altitude": 10660.38,
        "on_ground": false,
        "velocity": 261.79,
        "true_track": 137.47,
        "vertical_rate": 0,
        "geo_altitude": 11102.34,
        "squawk": "7375",
        "spi": false,
        "position_source": 0
      }
    },
    {
      "type": "Feature",
      "geometry": {
        "type": "Point",
        "coordinates": [
          18.1609,
          40.5349
        ]
      },
      "properties": {
        "icao24": "47ae38",
        "callsign": "NBT50P",
        "origin_country": "Norway",
        "time_position": 1783127964,
        "last_contact": 1783127964,
        "baro_altitude": 11879.58,
        "on_ground": false,
        "velocity": 257.5,
        "true_track": 137.83,
        "vertical_rate": -0.33,
        "geo_altitude": 12489.18,
        "squawk": "2255",
        "spi": false,
        "position_source": 0
      }
    },
    {
      "type": "Feature",
      "geometry": {
        "type": "Point",
        "coordinates": [
          18.2907,
          46.6533
        ]
      },
      "properties": {
        "icao24": "451e8b",
        "callsign": "GPX6940",
        "origin_country": "Bulgaria",
        "time_position": 1783127964,
        "last_contact": 1783127964,
        "baro_altitude": 11567.16,
        "on_ground": false,
        "velocity": 210.39,
        "true_track": 354.39,
        "vertical_rate": 0.33,
        "geo_altitude": 11948.16,
        "squawk": "1332",
        "spi": false,
        "position_source": 0
      }
    },
    {
      "type": "Feature",
      "geometry": {
        "type": "Point",
        "coordinates": [
          8.5173,
          42.097
        ]
      },
      "properties": {
        "icao24": "4082cc",
        "callsign": "TOM421",
        "origin_country": "United Kingdom",
        "time_position": 1783127964,
        "last_contact": 1783127964,
        "baro_altitude": 11582.4,
        "on_ground": false,
        "velocity": 223,
        "true_track": 332.08,
        "vertical_rate": 0,
        "geo_altitude": 12222.48,
        "squawk": "4051",
        "spi": false,
        "position_source": 0
      }
    },
    {
      "type": "Feature",
      "geometry": {
        "type": "Point",
        "coordinates": [
          8.5612,
          47.4448
        ]
      },
      "properties": {
        "icao24": "4b17de",
        "callsign": "SWR",
        "origin_country": "Switzerland",
        "time_position": 1783127960,
        "last_contact": 1783127960,
        "baro_altitude": null,
        "on_ground": true,
        "velocity": 0,
        "true_track": 244.69,
        "vertical_rate": null,
        "geo_altitude": null,
        "squawk": null,
        "spi": false,
        "position_source": 0
      }
    },
    {
      "type": "Feature",
      "geometry": {
        "type": "Point",
        "coordinates": [
          8.5643,
          47.4408
        ]
      },
      "properties": {
        "icao24": "4b17fd",
        "callsign": "SWR",
        "origin_country": "Switzerland",
        "time_position": 1783127956,
        "last_contact": 1783127963,
        "baro_altitude": null,
        "on_ground": true,
        "velocity": 0,
        "true_track": 151.88,
        "vertical_rate": null,
        "geo_altitude": null,
        "squawk": null,
        "spi": false,
        "position_source": 0
      }
    }
  ]
}