{
  "type": "FeatureCollection",
  "source": "opensky",
  "dataset": "aircraft_italy",
  "generated_at": "2026-09-04T23:23:47.696586+00:00",
  "opensky_time": 1788564226,
  "count": 159,
  "features": [
    {
      "type": "Feature",
      "geometry": {
        "type": "Point",
        "coordinates": [
          6.6169,
          43.4577
        ]
      },
      "properties": {
        "icao24": "500494",
        "callsign": "T7AFZ",
        "origin_country": "San Marino",
        "time_position": 1788564225,
        "last_contact": 1788564225,
        "baro_altitude": 2415.54,
        "on_ground": false,
        "velocity": 153.01,
        "true_track": 97.34,
        "vertical_rate": -7.48,
        "geo_altitude": 2651.76,
        "squawk": "6302",
        "spi": false,
        "position_source": 0
      }
    },
    {
      "type": "Feature",
      "geometry": {
        "type": "Point",
        "coordinates": [
          15.3472,
          44.3224
        ]
      },
      "properties": {
        "icao24": "46b828",
        "callsign": "AEE609",
        "origin_country": "Greece",
        "time_position": 1788564225,
        "last_contact": 1788564225,
        "baro_altitude": 10668,
        "on_ground": false,
        "velocity": 247.43,
        "true_track": 133.65,
        "vertical_rate": 0,
        "geo_altitude": 11292.84,
        "squawk": "0544",
        "spi": false,
        "position_source": 0
      }
    },
    {
      "type": "Feature",
      "geometry": {
        "type": "Point",
        "coordinates": [
          8.717,
          45.6328
        ]
      },
      "properties": {
        "icao24": "471f66",
        "callsign": "WMT4JM",
        "origin_country": "Hungary",
        "time_position": 1788564225,
        "last_contact": 1788564225,
        "baro_altitude": null,
        "on_ground": true,
        "velocity": 5.92,
        "true_track": 258.75,
        "vertical_rate": null,
        "geo_altitude": null,
        "squawk": "1000",
        "spi": false,
        "position_source": 0
      }
    },
    {
      "type": "Feature",
      "geometry": {
        "type": "Point",
        "coordinates": [
          12.3844,
          45.4306
        ]
      },
      "properties": {
        "icao24": "505ceb",
        "callsign": "TOM2YE",
        "origin_country": "Slovakia",
        "time_position": 1788564225,
        "last_contact": 1788564225,
        "baro_altitude": 10363.2,
        "on_ground": false,
        "velocity": 215.5,
        "true_track": 311.03,
        "vertical_rate": 0,
        "geo_altitude": 10942.32,
        "squawk": "5537",
        "spi": false,
        "position_source": 0
      }
    },
    {
      "type": "Feature",
      "geometry": {
        "type": "Point",
        "coordinates": [
          8.7379,
          45.1685
        ]
      },
      "properties": {
        "icao24": "440389",
        "callsign": "EJU35FN",
        "origin_country": "Austria",
        "time_position": 1788564225,
        "last_contact": 1788564225,
        "baro_altitude": 3108.96,
        "on_ground": false,
        "velocity": 153.68,
        "true_track": 66.52,
        "vertical_rate": -1.63,
        "geo_altitude": 3352.8,
        "squawk": "1000",
        "spi": false,
        "position_source": 0
      }
    },
    {
      "type": "Feature",
      "geometry": {
        "type": "Point",
        "coordinates": [
          18.7581,
          45.2173
        ]
      },
      "properties": {
        "icao24": "4bb4f0",
        "callsign": "MGH560",
        "origin_country": "Turkey",
        "time_position": 1788564225,
        "last_contact": 1788564225,
        "baro_altitude": 11277.6,
        "on_ground": false,
        "velocity": 243.28,
        "true_track": 125.71,
        "vertical_rate": 0,
        "geo_altitude": 11871.96,
        "squawk": "7666",
        "spi": false,
        "position_source": 0
      }
    },
    {
      "type": "Feature",
      "geometry": {
        "type": "Point",
        "coordinates": [
          13.5626,
          46.0542
        ]
      },
      "properties": {
        "icao24": "471fa9",
        "callsign": "WZZ1JS",
        "origin_country": "Hungary",
        "time_position": 1788564225,
        "last_contact": 1788564225,
        "baro_altitude": 10972.8,
        "on_ground": false,
        "velocity": 250.87,
        "true_track": 61.86,
        "vertical_rate": 0,
        "geo_altitude": 11582.4,
        "squawk": "1000",
        "spi": false,
        "position_source": 0
      }
    },
    {
      "type": "Feature",
      "geometry": {
        "type": "Point",
        "coordinates": [
          8.7218,
          45.6252
        ]
      },
      "properties": {
        "icao24": "471fa7",
        "callsign": "WZZ8987",
        "origin_country": "Hungary",
        "time_position": 1788564225,
        "last_contact": 1788564225,
        "baro_altitude": null,
        "on_ground": true,
        "velocity": 5.14,
        "true_track": 348.75,
        "vertical_rate": null,
        "geo_altitude": null,
        "squawk": "1000",
        "spi": false,
        "position_source": 0
      }
    },
    {
      "type": "Feature",
      "geometry": {
        "type": "Point",
        "coordinates": [
          18.2167,
          45.1311
        ]
      },
      "properties": {
        "icao24": "471fad",
        "callsign": "WZZ2524",
        "origin_country": "Hungary",
        "time_position": 1788564225,
        "last_contact": 1788564225,
        "baro_altitude": 10988.04,
        "on_ground": false,
        "velocity": 223.53,
        "true_track": 12.63,
        "vertical_rate": 0,
        "geo_altitude": 11597.64,
        "squawk": "1000",
        "spi": false,
        "position_source": 0
      }
    },
    {
      "type": "Feature",
      "geometry": {
        "type": "Point",
        "coordinates": [
          15.5077,
          45.0202
        ]
      },
      "properties": {
        "icao24": "8015f7",
        "callsign": "AIC11E",
        "origin_country": "India",
        "time_position": 1788564225,
        "last_contact": 1788564225,
        "baro_altitude": 11887.2,
        "on_ground": false,
        "velocity": 256.57,
        "true_track": 136.71,
        "vertical_rate": 0,
        "geo_altitude": 12496.8,
        "squawk": "1171",
        "spi": false,
        "position_source": 0
      }
    },
    {
      "type": "Feature",
      "geometry": {
        "type": "Point",
        "coordinates": [
          8.7627,
          45.5243
        ]
      },
      "properties": {
        "icao24": "4401e8",
        "callsign": "EJU72TV",
        "origin_country": "Austria",
        "time_position": 1788564225,
        "last_contact": 1788564225,
        "baro_altitude": 701.04,
        "on_ground": false,
        "velocity": 93.73,
        "true_track": 349.25,
        "vertical_rate": -4.88,
        "geo_altitude": 822.96,
        "squawk": "1000",
        "spi": false,
        "position_source": 0
      }
    },
    {
      "type": "Feature",
      "geometry": {
        "type": "Point",
        "coordinates": [
          7.2789,
          43.5261
        ]
      },
      "properties": {
        "icao24": "4891ac",
        "callsign": "ENT1364",
        "origin_country": "Poland",
        "time_position": 1788564225,
        "last_contact": 1788564225,
        "baro_altitude": 10972.8,
        "on_ground": false,
        "velocity": 249.58,
        "true_track": 48.26,
        "vertical_rate": 0,
        "geo_altitude": 11620.5,
        "squawk": "1000",
        "spi": false,
        "position_source": 0
      }
    },
    {
      "type": "Feature",
      "geometry": {
        "type": "Point",
        "coordinates": [
          18.3515,
          45.3801
        ]
      },
      "properties": {
        "icao24": "471d62",
        "callsign": "WZZ6579",
        "origin_country": "Hungary",
        "time_position": 1788564225,
        "last_contact": 1788564225,
        "baro_altitude": 8199.12,
        "on_ground": false,
        "velocity": 211.51,
        "true_track": 109.32,
        "vertical_rate": -7.48,
        "geo_altitude": 8686.8,
        "squawk": "6005",
        "spi": false,
        "position_source": 0
      }
    },
    {
      "type": "Feature",
      "geometry": {
        "type": "Point",
        "coordinates": [
          7.8764,
          43.9323
        ]
      },
      "properties": {
        "icao24": "440198",
        "callsign": "EJU59VN",
        "origin_country": "Austria",
        "time_position": 1788564225,
        "last_contact": 1788564225,
        "baro_altitude": 10126.98,
        "on_ground": false,
        "velocity": 236.76,
        "true_track": 40.68,
        "vertical_rate": -5.85,
        "geo_altitude": 10759.44,
        "squawk": "1000",
        "spi": false,
        "position_source": 0
      }
    },
    {
      "type": "Feature",
      "geometry": {
        "type": "Point",
        "coordinates": [
          9.681,
          44.5555
        ]
      },
      "properties": {
        "icao24": "440195",
        "callsign": "EJU31LR",
        "origin_country": "Austria",
        "time_position": 1788564225,
        "last_contact": 1788564225,
        "baro_altitude": 8100.06,
        "on_ground": false,
        "velocity": 188.68,
        "true_track": 299.57,
        "vertical_rate": -9.1,
        "geo_altitude": 8648.7,
        "squawk": "1000",
        "spi": false,
        "position_source": 0
      }
    },
    {
      "type": "Feature",
      "geometry": {
        "type": "Point",
        "coordinates": [
          16.7354,
          45.6114
        ]
      },
      "properties": {
        "icao24": "471dba",
        "callsign": "WZZ1714",
        "origin_country": "Hungary",
        "time_position": 1788564225,
        "last_contact": 1788564225,
        "baro_altitude": 11269.98,
        "on_ground": false,
        "velocity": 225.96,
        "true_track": 14.1,
        "vertical_rate": 0.33,
        "geo_altitude": 11887.2,
        "squawk": "1213",
        "spi": false,
        "position_source": 0
      }
    },
    {
      "type": "Feature",
      "geometry": {
        "type": "Point",
        "coordinates": [
          18.6014,
          43.2847
        ]
      },
      "properties": {
        "icao24": "8017f7",
        "callsign": "AIC130",
        "origin_country": "India",
        "time_position": 1788564224,
        "last_contact": 1788564224,
        "baro_altitude": 11269.98,
        "on_ground": false,
        "velocity": 259.05,
        "true_track": 136.13,
        "vertical_rate": 0,
        "geo_altitude": 11894.82,
        "squawk": "5232",
        "spi": false,
        "position_source": 0
      }
    },
    {
      "type": "Feature",
      "geometry": {
        "type": "Point",
        "coordinates": [
          7.2109,
          43.6619
        ]
      },
      "properties": {
        "icao24": "345687",
        "callsign": "ANE1217",
        "origin_country": "Spain",
        "time_position": 1788564086,
        "last_contact": 1788564090,
        "baro_altitude": null,
        "on_ground": true,
        "velocity": 0.06,
        "true_track": 320.62,
        "vertical_rate": null,
        "geo_altitude": null,
        "squawk": "1000",
        "spi": false,
        "position_source": 0
      }
    },
    {
      "type": "Feature",
      "geometry": {
        "type": "Point",
        "coordinates": [
          11.8053,
          37.725
        ]
      },
      "properties": {
        "icao24": "4bb26c",
        "callsign": "THY658",
        "origin_country": "Turkey",
        "time_position": 1788564225,
        "last_contact": 1788564225,
        "baro_altitude": 7818.12,
        "on_ground": false,
        "velocity": 230.54,
        "true_track": 72.33,
        "vertical_rate": 4.88,
        "geo_altitude": 8397.24,
        "squawk": "6156",
        "spi": false,
        "position_source": 0
      }
    },
    {
      "type": "Feature",
      "geometry": {
        "type": "Point",
        "coordinates": [
          9.6593,
          35.9729
        ]
      },
      "properties": {
        "icao24": "3c5b32",
        "callsign": "OCN132W",
        "origin_country": "Germany",
        "time_position": 1788564065,
        "last_contact": 1788564065,
        "baro_altitude": 10668,
        "on_ground": false,
        "velocity": 246.21,
        "true_track": 184.67,
        "vertical_rate": 0,
        "geo_altitude": 11338.56,
        "squawk": null,
        "spi": false,
        "position_source": 0
      }
    },
    {
      "type": "Feature",
      "geometry": {
        "type": "Point",
        "coordinates": [
          7.8644,
          39.5733
        ]
      },
      "properties": {
        "icao24": "4bb289",
        "callsign": "THY5LY",
        "origin_country": "Turkey",
        "time_position": 1788564224,
        "last_contact": 1788564224,
        "baro_altitude": 10363.2,
        "on_ground": false,
        "velocity": 234.3,
        "true_track": 79.63,
        "vertical_rate": -0.33,
        "geo_altitude": 11056.62,
        "squawk": null,
        "spi": false,
        "position_source": 0
      }
    },
    {
      "type": "Feature",
      "geometry": {
        "type": "Point",
        "coordinates": [
          16.5187,
          44.8001
        ]
      },
      "properties": {
        "icao24": "8005ee",
        "callsign": "AIC132",
        "origin_country": "India",
        "time_position": 1788564225,
        "last_contact": 1788564225,
        "baro_altitude": 11277.6,
        "on_ground": false,
        "velocity": 260.1,
        "true_track": 131.95,
        "vertical_rate": -0.33,
        "geo_altitude": 11879.58,
        "squawk": "5204",
        "spi": false,
        "position_source": 0
      }
    },
    {
      "type": "Feature",
      "geometry": {
        "type": "Point",
        "coordinates": [
          6.2966,
          43.5325
        ]
      },
      "properties": {
        "icao24": "02019d",
        "callsign": "MAC456Y",
        "origin_country": "Morocco",
        "time_position": 1788564225,
        "last_contact": 1788564225,
        "baro_altitude": 11277.6,
        "on_ground": false,
        "velocity": 208.04,
        "true_track": 235.68,
        "vertical_rate": 0,
        "geo_altitude": 11940.54,
        "squawk": "4053",
        "spi": false,
        "position_source": 0
      }
    },
    {
      "type": "Feature",
      "geometry": {
        "type": "Point",
        "coordinates": [
          11.6701,
          47.6165
        ]
      },
      "properties": {
        "icao24": "8963f4",
        "callsign": "UAE6",
        "origin_country": "United Arab Emirates",
        "time_position": 1788564226,
        "last_contact": 1788564226,
        "baro_altitude": 11277.6,
        "on_ground": false,
        "velocity": 278.12,
        "true_track": 124.6,
        "vertical_rate": 0,
        "geo_altitude": 11818.62,
        "squawk": "2203",
        "spi": false,
        "position_source": 0
      }
    },
    {
      "type": "Feature",
      "geometry": {
        "type": "Point",
        "coordinates": [
          15.177,
          36.1056
        ]
      },
      "properties": {
        "icao24": "8963da",
        "callsign": "UAE194",
        "origin_country": "United Arab Emirates",
        "time_position": 1788564224,
        "last_contact": 1788564224,
        "baro_altitude": 10668,
        "on_ground": false,
        "velocity": 239.23,
        "true_track": 100.66,
        "vertical_rate": 0,
        "geo_altitude": 11308.08,
        "squawk": "1160",
        "spi": false,
        "position_source": 0
      }
    },
    {
      "type": "Feature",
      "geometry": {
        "type": "Point",
        "coordinates": [
          15.9827,
          47.7875
        ]
      },
      "properties": {
        "icao24": "4bb18b",
        "callsign": "THY4RN",
        "origin_country": "Turkey",
        "time_position": 1788564225,
        "last_contact": 1788564225,
        "baro_altitude": 11887.2,
        "on_ground": false,
        "velocity": 276.54,
        "true_track": 116.76,
        "vertical_rate": -0.65,
        "geo_altitude": 12428.22,
        "squawk": "4617",
        "spi": false,
        "position_source": 0
      }
    },
    {
      "type": "Feature",
      "geometry": {
        "type": "Point",
        "coordinates": [
          13.4411,
          47.3693
        ]
      },
      "properties": {
        "icao24": "4bb027",
        "callsign": "TKJ9CT",
        "origin_country": "Turkey",
        "time_position": 1788564225,
        "last_contact": 1788564225,
        "baro_altitude": 11887.2,
        "on_ground": false,
        "velocity": 252.33,
        "true_track": 131.03,
        "vertical_rate": 0,
        "geo_altitude": 12458.7,
        "squawk": "2210",
        "spi": false,
        "position_source": 0
      }
    },
    {
      "type": "Feature",
      "geometry": {
        "type": "Point",
        "coordinates": [
          14.6209,
          47.0183
        ]
      },
      "properties": {
        "icao24": "4076ed",
        "callsign": "EXS41HS",
        "origin_country": "United Kingdom",
        "time_position": 1788564225,
        "last_contact": 1788564225,
        "baro_altitude": 10972.8,
        "on_ground": false,
        "velocity": 216.91,
        "true_track": 318.75,
        "vertical_rate": 0,
        "geo_altitude": 11544.3,
        "squawk": "5370",
        "spi": false,
        "position_source": 0
      }
    },
    {
      "type": "Feature",
      "geometry": {
        "type": "Point",
        "coordinates": [
          10.6702,
          46.4676
        ]
      },
      "properties": {
        "icao24": "4076dd",
        "callsign": "EXS4KJ",
        "origin_country": "United Kingdom",
        "time_position": 1788564225,
        "last_contact": 1788564225,
        "baro_altitude": 10972.8,
        "on_ground": false,
        "velocity": 207.16,
        "true_track": 305.7,
        "vertical_rate": 0,
        "geo_altitude": 11544.3,
        "squawk": "5351",
        "spi": false,
        "position_source": 0
      }
    },
    {
      "type": "Feature",
      "geometry": {
        "type": "Point",
        "coordinates": [
          7.8394,
          47.7902
        ]
      },
      "properties": {
        "icao24": "4078f0",
        "callsign": "EZY81ND",
        "origin_country": "United Kingdom",
        "time_position": 1788564225,
        "last_contact": 1788564225,
        "baro_altitude": 10378.44,
        "on_ground": false,
        "velocity": 219.37,
        "true_track": 306.22,
        "vertical_rate": 0.33,
        "geo_altitude": 10911.84,
        "squawk": "2751",
        "spi": false,
        "position_source": 0
      }
    },
    {
      "type": "Feature",
      "geometry": {
        "type": "Point",
        "coordinates": [
          18.8235,
          41.9096
        ]
      },
      "properties": {
        "icao24": "406696",
        "callsign": "TOM675",
        "origin_country": "United Kingdom",
        "time_position": 1788564225,
        "last_contact": 1788564225,
        "baro_altitude": 10972.8,
        "on_ground": false,
        "velocity": 223.17,
        "true_track": 304.39,
        "vertical_rate": 0,
        "geo_altitude": 11597.64,
        "squawk": "5333",
        "spi": false,
        "position_source": 0
      }
    },
    {
      "type": "Feature",
      "geometry": {
        "type": "Point",
        "coordinates": [
          8.7225,
          45.615
        ]
      },
      "properties": {
        "icao24": "34648a",
        "callsign": "BCS5EF",
        "origin_country": "Spain",
        "time_position": 1788563953,
        "last_contact": 1788563963,
        "baro_altitude": null,
        "on_ground": true,
        "velocity": 0,
        "true_track": 78.75,
        "vertical_rate": null,
        "geo_altitude": null,
        "squawk": "1000",
        "spi": false,
        "position_source": 0
      }
    },
    {
      "type": "Feature",
      "geometry": {
        "type": "Point",
        "coordinates": [
          13.3927,
          44.438
        ]
      },
      "properties": {
        "icao24": "40660c",
        "callsign": "TOM1MN",
        "origin_country": "United Kingdom",
        "time_position": 1788564225,
        "last_contact": 1788564225,
        "baro_altitude": 10972.8,
        "on_ground": false,
        "velocity": 223.19,
        "true_track": 306,
        "vertical_rate": 0.65,
        "geo_altitude": 11597.64,
        "squawk": "2044",
        "spi": false,
        "position_source": 0
      }
    },
    {
      "type": "Feature",
      "geometry": {
        "type": "Point",
        "coordinates": [
          18.9154,
          44.9972
        ]
      },
      "properties": {
        "icao24": "894097",
        "callsign": "GFA006",
        "origin_country": "Bahrain",
        "time_position": 1788564225,
        "last_contact": 1788564225,
        "baro_altitude": 12496.8,
        "on_ground": false,
        "velocity": 257.85,
        "true_track": 124.51,
        "vertical_rate": 0,
        "geo_altitude": 13098.78,
        "squawk": "5254",
        "spi": false,
        "position_source": 0
      }
    },
    {
      "type": "Feature",
      "geometry": {
        "type": "Point",
        "coordinates": [
          15.9251,
          47.518
        ]
      },
      "properties": {
        "icao24": "4bcd83",
        "callsign": "SXS263",
        "origin_country": "Turkey",
        "time_position": 1788564225,
        "last_contact": 1788564225,
        "baro_altitude": 11277.6,
        "on_ground": false,
        "velocity": 258.98,
        "true_track": 126.44,
        "vertical_rate": 0,
        "geo_altitude": 11818.62,
        "squawk": "6036",
        "spi": false,
        "position_source": 0
      }
    },
    {
      "type": "Feature",
      "geometry": {
        "type": "Point",
        "coordinates": [
          18.466,
          47.3789
        ]
      },
      "properties": {
        "icao24": "49d3d6",
        "callsign": "TVS2520",
        "origin_country": "Czech Republic",
        "time_position": 1788564225,
        "last_contact": 1788564225,
        "baro_altitude": 11277.6,
        "on_ground": false,
        "velocity": 249.14,
        "true_track": 144.24,
        "vertical_rate": 0,
        "geo_altitude": 11833.86,
        "squawk": "1436",
        "spi": false,
        "position_source": 0
      }
    },
    {
      "type": "Feature",
      "geometry": {
        "type": "Point",
        "coordinates": [
          12.1932,
          42.0105
        ]
      },
      "properties": {
        "icao24": "4ca565",
        "callsign": "RYR3NW",
        "origin_country": "Ireland",
        "time_position": 1788564225,
        "last_contact": 1788564225,
        "baro_altitude": 929.64,
        "on_ground": false,
        "velocity": 105.86,
        "true_track": 187.54,
        "vertical_rate": -3.9,
        "geo_altitude": 1089.66,
        "squawk": "1000",
        "spi": false,
        "position_source": 0
      }
    },
    {
      "type": "Feature",
      "geometry": {
        "type": "Point",
        "coordinates": [
          17.103,
          40.5437
        ]
      },
      "properties": {
        "icao24": "394a0e",
        "callsign": "AFR672",
        "origin_country": "France",
        "time_position": 1788564224,
        "last_contact": 1788564225,
        "baro_altitude": 9448.8,
        "on_ground": false,
        "velocity": 262.94,
        "true_track": 129.92,
        "vertical_rate": 0,
        "geo_altitude": 10066.02,
        "squawk": "7644",
        "spi": false,
        "position_source": 0
      }
    },
    {
      "type": "Feature",
      "geometry": {
        "type": "Point",
        "coordinates": [
          16.2684,
          42.0775
        ]
      },
      "properties": {
        "icao24": "040088",
        "callsign": "ETH553",
        "origin_country": "Ethiopia",
        "time_position": 1788564220,
        "last_contact": 1788564225,
        "baro_altitude": 11887.2,
        "on_ground": false,
        "velocity": 253.29,
        "true_track": 136.65,
        "vertical_rate": 0,
        "geo_altitude": 12550.14,
        "squawk": "1141",
        "spi": false,
        "position_source": 0
      }
    },
    {
      "type": "Feature",
      "geometry": {
        "type": "Point",
        "coordinates": [
          14.1609,
          36.3113
        ]
      },
      "properties": {
        "icao24": "06a2f0",
        "callsign": "QTR52A",
        "origin_country": "Qatar",
        "time_position": 1788564225,
        "last_contact": 1788564225,
        "baro_altitude": 11269.98,
        "on_ground": false,
        "velocity": 235.4,
        "true_track": 100.45,
        "vertical_rate": 0,
        "geo_altitude": 11932.92,
        "squawk": "6164",
        "spi": false,
        "position_source": 0
      }
    },
    {
      "type": "Feature",
      "geometry": {
        "type": "Point",
        "coordinates": [
          18.4973,
          47.4058
        ]
      },
      "properties": {
        "icao24": "49d403",
        "callsign": "TVS7UZ",
        "origin_country": "Czech Republic",
        "time_position": 1788564224,
        "last_contact": 1788564225,
        "baro_altitude": 10401.3,
        "on_ground": false,
        "velocity": 247.25,
        "true_track": 151.41,
        "vertical_rate": 4.55,
        "geo_altitude": 10927.08,
        "squawk": "1456",
        "spi": false,
        "position_source": 0
      }
    },
    {
      "type": "Feature",
      "geometry": {
        "type": "Point",
        "coordinates": [
          13.4533,
          46.7283
        ]
      },
      "properties": {
        "icao24": "06a2ed",
        "callsign": "QTR1R",
        "origin_country": "Qatar",
        "time_position": 1788564225,
        "last_contact": 1788564225,
        "baro_altitude": 11277.6,
        "on_ground": false,
        "velocity": 276.09,
        "true_track": 116.09,
        "vertical_rate": -0.33,
        "geo_altitude": 11871.96,
        "squawk": "5221",
        "spi": false,
        "position_source": 0
      }
    },
    {
      "type": "Feature",
      "geometry": {
        "type": "Point",
        "coordinates": [
          18.497,
          37.1547
        ]
      },
      "properties": {
        "icao24": "06a2ee",
        "callsign": "QTR48K",
        "origin_country": "Qatar",
        "time_position": 1788564201,
        "last_contact": 1788564201,
        "baro_altitude": 11887.2,
        "on_ground": false,
        "velocity": 235.92,
        "true_track": 114.89,
        "vertical_rate": 0,
        "geo_altitude": 12519.66,
        "squawk": "4311",
        "spi": false,
        "position_source": 0
      }
    },
    {
      "type": "Feature",
      "geometry": {
        "type": "Point",
        "coordinates": [
          16.0985,
          35.2821
        ]
      },
      "properties": {
        "icao24": "06a2eb",
        "callsign": "QTR152",
        "origin_country": "Qatar",
        "time_position": 1788564225,
        "last_contact": 1788564225,
        "baro_altitude": 11277.6,
        "on_ground": false,
        "velocity": 240.6,
        "true_track": 110.53,
        "vertical_rate": -0.33,
        "geo_altitude": 11917.68,
        "squawk": "4110",
        "spi": false,
        "position_source": 0
      }
    },
    {
      "type": "Feature",
      "geometry": {
        "type": "Point",
        "coordinates": [
          13.1214,
          42.4815
        ]
      },
      "properties": {
        "icao24": "49d41e",
        "callsign": "TVS2869",
        "origin_country": "Czech Republic",
        "time_position": 1788564225,
        "last_contact": 1788564225,
        "baro_altitude": 10972.8,
        "on_ground": false,
        "velocity": 230.04,
        "true_track": 9.53,
        "vertical_rate": 0,
        "geo_altitude": 11628.12,
        "squawk": "6132",
        "spi": false,
        "position_source": 0
      }
    },
    {
      "type": "Feature",
      "geometry": {
        "type": "Point",
        "coordinates": [
          12.2128,
          45.073
        ]
      },
      "properties": {
        "icao24": "040102",
        "callsign": "ETH519",
        "origin_country": "Ethiopia",
        "time_position": 1788564225,
        "last_contact": 1788564225,
        "baro_altitude": 11887.2,
        "on_ground": false,
        "velocity": 256.14,
        "true_track": 133.86,
        "vertical_rate": -0.33,
        "geo_altitude": 12519.66,
        "squawk": "2251",
        "spi": false,
        "position_source": 0
      }
    },
    {
      "type": "Feature",
      "geometry": {
        "type": "Point",
        "coordinates": [
          13.4611,
          45.1899
        ]
      },
      "properties": {
        "icao24": "407fad",
        "callsign": "TOM79N",
        "origin_country": "United Kingdom",
        "time_position": 1788564225,
        "last_contact": 1788564225,
        "baro_altitude": 10972.8,
        "on_ground": false,
        "velocity": 226.09,
        "true_track": 308.9,
        "vertical_rate": 0,
        "geo_altitude": 11590.02,
        "squawk": "2004",
        "spi": false,
        "position_source": 0
      }
    },
    {
      "type": "Feature",
      "geometry": {
        "type": "Point",
        "coordinates": [
          17.6819,
          44.4749
        ]
      },
      "properties": {
        "icao24": "406d27",
        "callsign": "EXS7GT",
        "origin_country": "United Kingdom",
        "time_position": 1788564225,
        "last_contact": 1788564225,
        "baro_altitude": 12192,
        "on_ground": false,
        "velocity": 232.71,
        "true_track": 309.71,
        "vertical_rate": 0,
        "geo_altitude": 12824.46,
        "squawk": "5330",
        "spi": false,
        "position_source": 0
      }
    },
    {
      "type": "Feature",
      "geometry": {
        "type": "Point",
        "coordinates": [
          18.9647,
          42.1634
        ]
      },
      "properties": {
        "icao24": "040243",
        "callsign": "ETH701",
        "origin_country": "Ethiopia",
        "time_position": 1788564197,
        "last_contact": 1788564209,
        "baro_altitude": 11277.6,
        "on_ground": false,
        "velocity": 260.54,
        "true_track": 146.03,
        "vertical_rate": 0,
        "geo_altitude": 11902.44,
        "squawk": "5267",
        "spi": false,
        "position_source": 0
      }
    },
    {
      "type": "Feature",
      "geometry": {
        "type": "Point",
        "coordinates": [
          8.3721,
          47.6503
        ]
      },
      "properties": {
        "icao24": "407fda",
        "callsign": "WUK597",
        "origin_country": "United Kingdom",
        "time_position": 1788564225,
        "last_contact": 1788564225,
        "baro_altitude": 10980.42,
        "on_ground": false,
        "velocity": 215.59,
        "true_track": 303.61,
        "vertical_rate": 0.33,
        "geo_altitude": 11551.92,
        "squawk": "3235",
        "spi": false,
        "position_source": 0
      }
    },
    {
      "type": "Feature",
      "geometry": {
        "type": "Point",
        "coordinates": [
          11.4845,
          47.7886
        ]
      },
      "properties": {
        "icao24": "407e69",
        "callsign": "EXS61H",
        "origin_country": "United Kingdom",
        "time_position": 1788564225,
        "last_contact": 1788564225,
        "baro_altitude": 10980.42,
        "on_ground": false,
        "velocity": 205.46,
        "true_track": 303.77,
        "vertical_rate": 0.33,
        "geo_altitude": 11513.82,
        "squawk": "6616",
        "spi": false,
        "position_source": 0
      }
    },
    {
      "type": "Feature",
      "geometry": {
        "type": "Point",
        "coordinates": [
          10.328,
          45.9406
        ]
      },
      "properties": {
        "icao24": "407e61",
        "callsign": "EZY68ZN",
        "origin_country": "United Kingdom",
        "time_position": 1788564225,
        "last_contact": 1788564225,
        "baro_altitude": 11582.4,
        "on_ground": false,
        "velocity": 211.33,
        "true_track": 304.39,
        "vertical_rate": 0,
        "geo_altitude": 12214.86,
        "squawk": "6625",
        "spi": false,
        "position_source": 0
      }
    },
    {
      "type": "Feature",
      "geometry": {
        "type": "Point",
        "coordinates": [
          15.2734,
          45.8196
        ]
      },
      "properties": {
        "icao24": "407e4e",
        "callsign": "EXS9P",
        "origin_country": "United Kingdom",
        "time_position": 1788564225,
        "last_contact": 1788564225,
        "baro_altitude": 10972.8,
        "on_ground": false,
        "velocity": 213.07,
        "true_track": 308.53,
        "vertical_rate": 0,
        "geo_altitude": 11567.16,
        "squawk": "3243",
        "spi": false,
        "position_source": 0
      }
    },
    {
      "type": "Feature",
      "geometry": {
        "type": "Point",
        "coordinates": [
          13.9156,
          45.0255
        ]
      },
      "properties": {
        "icao24": "407e53",
        "callsign": "EXS15QY",
        "origin_country": "United Kingdom",
        "time_position": 1788564225,
        "last_contact": 1788564225,
        "baro_altitude": 10972.8,
        "on_ground": false,
        "velocity": 221.63,
        "true_track": 301.33,
        "vertical_rate": 0,
        "geo_altitude": 11612.88,
        "squawk": "5660",
        "spi": false,
        "position_source": 0
      }
    },
    {
      "type": "Feature",
      "geometry": {
        "type": "Point",
        "coordinates": [
          14.4507,
          46.539
        ]
      },
      "properties": {
        "icao24": "406b13",
        "callsign": "TOM40L",
        "origin_country": "United Kingdom",
        "time_position": 1788564225,
        "last_contact": 1788564225,
        "baro_altitude": 13098.78,
        "on_ground": false,
        "velocity": 220.29,
        "true_track": 307.22,
        "vertical_rate": -0.33,
        "geo_altitude": 13685.52,
        "squawk": "5620",
        "spi": false,
        "position_source": 0
      }
    },
    {
      "type": "Feature",
      "geometry": {
        "type": "Point",
        "coordinates": [
          11.244,
          46.739
        ]
      },
      "properties": {
        "icao24": "407e45",
        "callsign": "EXS23PW",
        "origin_country": "United Kingdom",
        "time_position": 1788564225,
        "last_contact": 1788564225,
        "baro_altitude": 10972.8,
        "on_ground": false,
        "velocity": 213.17,
        "true_track": 314.8,
        "vertical_rate": -0.33,
        "geo_altitude": 11582.4,
        "squawk": "1143",
        "spi": false,
        "position_source": 0
      }
    },
    {
      "type": "Feature",
      "geometry": {
        "type": "Point",
        "coordinates": [
          18.7995,
          42.5445
        ]
      },
      "properties": {
        "icao24": "407f96",
        "callsign": "TOM1XC",
        "origin_country": "United Kingdom",
        "time_position": 1788564224,
        "last_contact": 1788564224,
        "baro_altitude": 10972.8,
        "on_ground": false,
        "velocity": 223.38,
        "true_track": 306.29,
        "vertical_rate": 0,
        "geo_altitude": 11597.64,
        "squawk": "2236",
        "spi": false,
        "position_source": 0
      }
    },
    {
      "type": "Feature",
      "geometry": {
        "type": "Point",
        "coordinates": [
          7.8116,
          47.6225
        ]
      },
      "properties": {
        "icao24": "407f63",
        "callsign": "EZY56EJ",
        "origin_country": "United Kingdom",
        "time_position": 1788564225,
        "last_contact": 1788564225,
        "baro_altitude": 10972.8,
        "on_ground": false,
        "velocity": 213.02,
        "true_track": 305.76,
        "vertical_rate": 0,
        "geo_altitude": 11551.92,
        "squawk": "7527",
        "spi": false,
        "position_source": 0
      }
    },
    {
      "type": "Feature",
      "geometry": {
        "type": "Point",
        "coordinates": [
          15.7577,
          45.1975
        ]
      },
      "properties": {
        "icao24": "407f62",
        "callsign": "EZY75UQ",
        "origin_country": "United Kingdom",
        "time_position": 1788564225,
        "last_contact": 1788564225,
        "baro_altitude": 10965.18,
        "on_ground": false,
        "velocity": 216.53,
        "true_track": 313.36,
        "vertical_rate": 0,
        "geo_altitude": 11582.4,
        "squawk": "5617",
        "spi": false,
        "position_source": 0
      }
    },
    {
      "type": "Feature",
      "geometry": {
        "type": "Point",
        "coordinates": [
          17.5282,
          47.4119
        ]
      },
      "properties": {
        "icao24": "49d006",
        "callsign": "TVS6EH",
        "origin_country": "Czech Republic",
        "time_position": 1788564224,
        "last_contact": 1788564225,
        "baro_altitude": 10538.46,
        "on_ground": false,
        "velocity": 220.01,
        "true_track": 326.35,
        "vertical_rate": -3.25,
        "geo_altitude": 11064.24,
        "squawk": "2651",
        "spi": false,
        "position_source": 0
      }
    },
    {
      "type": "Feature",
      "geometry": {
        "type": "Point",
        "coordinates": [
          9.1793,
          39.2358
        ]
      },
      "properties": {
        "icao24": "3444c9",
        "callsign": "VLG2690",
        "origin_country": "Spain",
        "time_position": 1788564224,
        "last_contact": 1788564225,
        "baro_altitude": 10668,
        "on_ground": false,
        "velocity": 241.13,
        "true_track": 115.8,
        "vertical_rate": 0,
        "geo_altitude": 11369.04,
        "squawk": "4317",
        "spi": false,
        "position_source": 0
      }
    },
    {
      "type": "Feature",
      "geometry": {
        "type": "Point",
        "coordinates": [
          17.4409,
          43.8283
        ]
      },
      "properties": {
        "icao24": "407c0a",
        "callsign": "TOM49T",
        "origin_country": "United Kingdom",
        "time_position": 1788564225,
        "last_contact": 1788564225,
        "baro_altitude": 11582.4,
        "on_ground": false,
        "velocity": 220.54,
        "true_track": 316.7,
        "vertical_rate": 0,
        "geo_altitude": 12214.86,
        "squawk": "2010",
        "spi": false,
        "position_source": 0
      }
    },
    {
      "type": "Feature",
      "geometry": {
        "type": "Point",
        "coordinates": [
          8.5845,
          45.0175
        ]
      },
      "properties": {
        "icao24": "44046d",
        "callsign": "EJU73ZE",
        "origin_country": "Austria",
        "time_position": 1788564225,
        "last_contact": 1788564225,
        "baro_altitude": 3855.72,
        "on_ground": false,
        "velocity": 161.02,
        "true_track": 348.76,
        "vertical_rate": -7.8,
        "geo_altitude": 4183.38,
        "squawk": "6301",
        "spi": false,
        "position_source": 0
      }
    },
    {
      "type": "Feature",
      "geometry": {
        "type": "Point",
        "coordinates": [
          7.5702,
          40.9831
        ]
      },
      "properties": {
        "icao24": "34469a",
        "callsign": "VLG3181",
        "origin_country": "Spain",
        "time_position": 1788564225,
        "last_contact": 1788564225,
        "baro_altitude": 10668,
        "on_ground": false,
        "velocity": 227.64,
        "true_track": 272.72,
        "vertical_rate": 0,
        "geo_altitude": 11346.18,
        "squawk": "1000",
        "spi": false,
        "position_source": 0
      }
    },
    {
      "type": "Feature",
      "geometry": {
        "type": "Point",
        "coordinates": [
          10.4868,
          40.7131
        ]
      },
      "properties": {
        "icao24": "504e65",
        "callsign": "FIE232",
        "origin_country": "Republic of Moldova",
        "time_position": 1788564225,
        "last_contact": 1788564225,
        "baro_altitude": 10363.2,
        "on_ground": false,
        "velocity": 238.31,
        "true_track": 88.14,
        "vertical_rate": 0,
        "geo_altitude": 11033.76,
        "squawk": "3732",
        "spi": false,
        "position_source": 0
      }
    },
    {
      "type": "Feature",
      "geometry": {
        "type": "Point",
        "coordinates": [
          17.2657,
          43.3578
        ]
      },
      "properties": {
        "icao24": "406a59",
        "callsign": "EXS9QS",
        "origin_country": "United Kingdom",
        "time_position": 1788564225,
        "last_contact": 1788564225,
        "baro_altitude": 10972.8,
        "on_ground": false,
        "velocity": 219.9,
        "true_track": 305.96,
        "vertical_rate": 0,
        "geo_altitude": 11605.26,
        "squawk": "5631",
        "spi": false,
        "position_source": 0
      }
    },
    {
      "type": "Feature",
      "geometry": {
        "type": "Point",
        "coordinates": [
          12.354,
          47.2438
        ]
      },
      "properties": {
        "icao24": "407d5c",
        "callsign": "WUK962",
        "origin_country": "United Kingdom",
        "time_position": 1788564225,
        "last_contact": 1788564225,
        "baro_altitude": 10980.42,
        "on_ground": false,
        "velocity": 207.62,
        "true_track": 309.37,
        "vertical_rate": 0,
        "geo_altitude": 11544.3,
        "squawk": "3440",
        "spi": false,
        "position_source": 0
      }
    },
    {
      "type": "Feature",
      "geometry": {
        "type": "Point",
        "coordinates": [
          13.9384,
          47.508
        ]
      },
      "properties": {
        "icao24": "48c22f",
        "callsign": "RYR7HH",
        "origin_country": "Poland",
        "time_position": 1788564225,
        "last_contact": 1788564225,
        "baro_altitude": 10668,
        "on_ground": false,
        "velocity": 257.02,
        "true_track": 51.5,
        "vertical_rate": 0.33,
        "geo_altitude": 11209.02,
        "squawk": "1000",
        "spi": false,
        "position_source": 0
      }
    },
    {
      "type": "Feature",
      "geometry": {
        "type": "Point",
        "coordinates": [
          18.7438,
          45.1873
        ]
      },
      "properties": {
        "icao24": "06a0eb",
        "callsign": "QTR1V",
        "origin_country": "Qatar",
        "time_position": 1788564224,
        "last_contact": 1788564225,
        "baro_altitude": 11887.2,
        "on_ground": false,
        "velocity": 264.27,
        "true_track": 125.73,
        "vertical_rate": 0,
        "geo_altitude": 12489.18,
        "squawk": "7537",
        "spi": false,
        "position_source": 0
      }
    },
    {
      "type": "Feature",
      "geometry": {
        "type": "Point",
        "coordinates": [
          8.7275,
          45.6339
        ]
      },
      "properties": {
        "icao24": "4952c8",
        "callsign": "TAP828",
        "origin_country": "Portugal",
        "time_position": 1788564224,
        "last_contact": 1788564225,
        "baro_altitude": null,
        "on_ground": true,
        "velocity": 7.2,
        "true_track": 278.44,
        "vertical_rate": null,
        "geo_altitude": null,
        "squawk": "2220",
        "spi": false,
        "position_source": 0
      }
    },
    {
      "type": "Feature",
      "geometry": {
        "type": "Point",
        "coordinates": [
          8.7242,
          45.6163
        ]
      },
      "properties": {
        "icao24": "3c5426",
        "callsign": "BCS465",
        "origin_country": "Germany",
        "time_position": 1788564225,
        "last_contact": 1788564225,
        "baro_altitude": null,
        "on_ground": true,
        "velocity": 10.8,
        "true_track": 348.75,
        "vertical_rate": null,
        "geo_altitude": null,
        "squawk": "0475",
        "spi": false,
        "position_source": 0
      }
    },
    {
      "type": "Feature",
      "geometry": {
        "type": "Point",
        "coordinates": [
          16.9486,
          44.8831
        ]
      },
      "properties": {
        "icao24": "40805d",
        "callsign": "WUK451",
        "origin_country": "United Kingdom",
        "time_position": 1788564225,
        "last_contact": 1788564225,
        "baro_altitude": 10363.2,
        "on_ground": false,
        "velocity": 218.77,
        "true_track": 308.89,
        "vertical_rate": 0.33,
        "geo_altitude": 10965.18,
        "squawk": "2053",
        "spi": false,
        "position_source": 0
      }
    },
    {
      "type": "Feature",
      "geometry": {
        "type": "Point",
        "coordinates": [
          8.7218,
          45.6094
        ]
      },
      "properties": {
        "icao24": "3c5433",
        "callsign": "BCS37R",
        "origin_country": "Germany",
        "time_position": 1788564224,
        "last_contact": 1788564224,
        "baro_altitude": null,
        "on_ground": true,
        "velocity": 5.14,
        "true_track": 168.75,
        "vertical_rate": null,
        "geo_altitude": null,
        "squawk": "1000",
        "spi": false,
        "position_source": 0
      }
    },
    {
      "type": "Feature",
      "geometry": {
        "type": "Point",
        "coordinates": [
          18.8477,
          47.6578
        ]
      },
      "properties": {
        "icao24": "40804e",
        "callsign": "WUK7383",
        "origin_country": "United Kingdom",
        "time_position": 1788564225,
        "last_contact": 1788564225,
        "baro_altitude": 10355.58,
        "on_ground": false,
        "velocity": 209.92,
        "true_track": 279.02,
        "vertical_rate": 0,
        "geo_altitude": 10888.98,
        "squawk": "2662",
        "spi": false,
        "position_source": 0
      }
    },
    {
      "type": "Feature",
      "geometry": {
        "type": "Point",
        "coordinates": [
          17.687,
          45.4381
        ]
      },
      "properties": {
        "icao24": "40803c",
        "callsign": "EXS11KE",
        "origin_country": "United Kingdom",
        "time_position": 1788564225,
        "last_contact": 1788564225,
        "baro_altitude": 10972.8,
        "on_ground": false,
        "velocity": 219.67,
        "true_track": 309.39,
        "vertical_rate": 0,
        "geo_altitude": 11567.16,
        "squawk": "3221",
        "spi": false,
        "position_source": 0
      }
    },
    {
      "type": "Feature",
      "geometry": {
        "type": "Point",
        "coordinates": [
          7.4371,
          38.015
        ]
      },
      "properties": {
        "icao24": "02a1a6",
        "callsign": "LBT575",
        "origin_country": "Tunisia",
        "time_position": 1788564224,
        "last_contact": 1788564224,
        "baro_altitude": 11285.22,
        "on_ground": false,
        "velocity": 231.29,
        "true_track": 154.86,
        "vertical_rate": 0,
        "geo_altitude": 11986.26,
        "squawk": "5664",
        "spi": false,
        "position_source": 0
      }
    },
    {
      "type": "Feature",
      "geometry": {
        "type": "Point",
        "coordinates": [
          10.4312,
          35.7285
        ]
      },
      "properties": {
        "icao24": "02a1a3",
        "callsign": null,
        "origin_country": "Tunisia",
        "time_position": 1788564223,
        "last_contact": 1788564224,
        "baro_altitude": 1303.02,
        "on_ground": false,
        "velocity": 102.31,
        "true_track": 193.97,
        "vertical_rate": -5.2,
        "geo_altitude": 1478.28,
        "squawk": null,
        "spi": false,
        "position_source": 0
      }
    },
    {
      "type": "Feature",
      "geometry": {
        "type": "Point",
        "coordinates": [
          6.6397,
          42.8962
        ]
      },
      "properties": {
        "icao24": "02a1a1",
        "callsign": "LBT779",
        "origin_country": "Tunisia",
        "time_position": 1788564225,
        "last_contact": 1788564225,
        "baro_altitude": 11285.22,
        "on_ground": false,
        "velocity": 227.72,
        "true_track": 146.24,
        "vertical_rate": 0.33,
        "geo_altitude": 11940.54,
        "squawk": "7652",
        "spi": false,
        "position_source": 0
      }
    },
    {
      "type": "Feature",
      "geometry": {
        "type": "Point",
        "coordinates": [
          10.0922,
          38.3241
        ]
      },
      "properties": {
        "icao24": "02a1a8",
        "callsign": "LBT599",
        "origin_country": "Tunisia",
        "time_position": 1788564225,
        "last_contact": 1788564225,
        "baro_altitude": 9395.46,
        "on_ground": false,
        "velocity": 236.38,
        "true_track": 163.69,
        "vertical_rate": -15.61,
        "geo_altitude": 10066.02,
        "squawk": "1201",
        "spi": false,
        "position_source": 0
      }
    },
    {
      "type": "Feature",
      "geometry": {
        "type": "Point",
        "coordinates": [
          16.7856,
          45.5682
        ]
      },
      "properties": {
        "icao24": "40820e",
        "callsign": "EXS56HW",
        "origin_country": "United Kingdom",
        "time_position": 1788564225,
        "last_contact": 1788564225,
        "baro_altitude": 10972.8,
        "on_ground": false,
        "velocity": 216.95,
        "true_track": 301.13,
        "vertical_rate": 0,
        "geo_altitude": 11590.02,
        "squawk": "3274",
        "spi": false,
        "position_source": 0
      }
    },
    {
      "type": "Feature",
      "geometry": {
        "type": "Point",
        "coordinates": [
          7.4877,
          47.4644
        ]
      },
      "properties": {
        "icao24": "408213",
        "callsign": "EXS17A",
        "origin_country": "United Kingdom",
        "time_position": 1788564225,
        "last_contact": 1788564225,
        "baro_altitude": 11574.78,
        "on_ground": false,
        "velocity": 214.28,
        "true_track": 308.27,
        "vertical_rate": 0.33,
        "geo_altitude": 12161.52,
        "squawk": "2777",
        "spi": false,
        "position_source": 0
      }
    },
    {
      "type": "Feature",
      "geometry": {
        "type": "Point",
        "coordinates": [
          12.4512,
          47.3569
        ]
      },
      "properties": {
        "icao24": "40823f",
        "callsign": "EXS87ET",
        "origin_country": "United Kingdom",
        "time_position": 1788564225,
        "last_contact": 1788564225,
        "baro_altitude": 11582.4,
        "on_ground": false,
        "velocity": 208.68,
        "true_track": 307.69,
        "vertical_rate": 0,
        "geo_altitude": 12161.52,
        "squawk": "2007",
        "spi": false,
        "position_source": 0
      }
    },
    {
      "type": "Feature",
      "geometry": {
        "type": "Point",
        "coordinates": [
          16.4718,
          45.1481
        ]
      },
      "properties": {
        "icao24": "40823d",
        "callsign": "EXS52MD",
        "origin_country": "United Kingdom",
        "time_position": 1788564224,
        "last_contact": 1788564225,
        "baro_altitude": 11590.02,
        "on_ground": false,
        "velocity": 218.53,
        "true_track": 308.6,
        "vertical_rate": 0.65,
        "geo_altitude": 12222.48,
        "squawk": "2072",
        "spi": false,
        "position_source": 0
      }
    },
    {
      "type": "Feature",
      "geometry": {
        "type": "Point",
        "coordinates": [
          11.205,
          36.1014
        ]
      },
      "properties": {
        "icao24": "0a008b",
        "callsign": "DAH4667",
        "origin_country": "Algeria",
        "time_position": 1788564225,
        "last_contact": 1788564225,
        "baro_altitude": 10972.8,
        "on_ground": false,
        "velocity": 247.58,
        "true_track": 278.48,
        "vertical_rate": 0,
        "geo_altitude": 11620.5,
        "squawk": "2052",
        "spi": false,
        "position_source": 0
      }
    },
    {
      "type": "Feature",
      "geometry": {
        "type": "Point",
        "coordinates": [
          9.1994,
          39.6318
        ]
      },
      "properties": {
        "icao24": "02a1ab",
        "callsign": "LBT521",
        "origin_country": "Tunisia",
        "time_position": 1788564225,
        "last_contact": 1788564225,
        "baro_altitude": 11887.2,
        "on_ground": false,
        "velocity": 231.81,
        "true_track": 151.5,
        "vertical_rate": 0,
        "geo_altitude": 12588.24,
        "squawk": "7646",
        "spi": false,
        "position_source": 0
      }
    },
    {
      "type": "Feature",
      "geometry": {
        "type": "Point",
        "coordinates": [
          9.6155,
          39.196
        ]
      },
      "properties": {
        "icao24": "02a1b4",
        "callsign": "LBT587",
        "origin_country": "Tunisia",
        "time_position": 1788564225,
        "last_contact": 1788564225,
        "baro_altitude": 11277.6,
        "on_ground": false,
        "velocity": 236.64,
        "true_track": 155.33,
        "vertical_rate": 0,
        "geo_altitude": 11971.02,
        "squawk": "0201",
        "spi": false,
        "position_source": 0
      }
    },
    {
      "type": "Feature",
      "geometry": {
        "type": "Point",
        "coordinates": [
          6.0612,
          36.3607
        ]
      },
      "properties": {
        "icao24": "0a0019",
        "callsign": "DAH6168",
        "origin_country": "Algeria",
        "time_position": 1788563904,
        "last_contact": 1788564214,
        "baro_altitude": 4053.84,
        "on_ground": false,
        "velocity": 125.76,
        "true_track": 99.65,
        "vertical_rate": 0,
        "geo_altitude": 4305.3,
        "squawk": "4235",
        "spi": false,
        "position_source": 0
      }
    },
    {
      "type": "Feature",
      "geometry": {
        "type": "Point",
        "coordinates": [
          12.1572,
          46.2918
        ]
      },
      "properties": {
        "icao24": "4080ad",
        "callsign": "EZY46LE",
        "origin_country": "United Kingdom",
        "time_position": 1788564224,
        "last_contact": 1788564225,
        "baro_altitude": 11582.4,
        "on_ground": false,
        "velocity": 215.35,
        "true_track": 315.39,
        "vertical_rate": 0,
        "geo_altitude": 12207.24,
        "squawk": "5503",
        "spi": false,
        "position_source": 0
      }
    },
    {
      "type": "Feature",
      "geometry": {
        "type": "Point",
        "coordinates": [
          14.6942,
          46.1423
        ]
      },
      "properties": {
        "icao24": "40815c",
        "callsign": "EZY17EG",
        "origin_country": "United Kingdom",
        "time_position": 1788564225,
        "last_contact": 1788564225,
        "baro_altitude": 11590.02,
        "on_ground": false,
        "velocity": 217.25,
        "true_track": 308.17,
        "vertical_rate": 0,
        "geo_altitude": 12207.24,
        "squawk": "5520",
        "spi": false,
        "position_source": 0
      }
    },
    {
      "type": "Feature",
      "geometry": {
        "type": "Point",
        "coordinates": [
          9.7813,
          45.653
        ]
      },
      "properties": {
        "icao24": "440c34",
        "callsign": "EJU18KV",
        "origin_country": "Austria",
        "time_position": 1788564225,
        "last_contact": 1788564226,
        "baro_altitude": 7025.64,
        "on_ground": false,
        "velocity": 152.79,
        "true_track": 270.19,
        "vertical_rate": -5.2,
        "geo_altitude": 7467.6,
        "squawk": "2055",
        "spi": false,
        "position_source": 0
      }
    },
    {
      "type": "Feature",
      "geometry": {
        "type": "Point",
        "coordinates": [
          8.5539,
          47.4633
        ]
      },
      "properties": {
        "icao24": "4b5d98",
        "callsign": "ATL779",
        "origin_country": "Switzerland",
        "time_position": 1788563875,
        "last_contact": 1788563943,
        "baro_altitude": null,
        "on_ground": true,
        "velocity": 0.19,
        "true_track": 216.56,
        "vertical_rate": null,
        "geo_altitude": null,
        "squawk": null,
        "spi": false,
        "position_source": 0
      }
    },
    {
      "type": "Feature",
      "geometry": {
        "type": "Point",
        "coordinates": [
          12.2388,
          41.9
        ]
      },
      "properties": {
        "icao24": "4951d3",
        "callsign": "TAP838Z",
        "origin_country": "Portugal",
        "time_position": 1788564225,
        "last_contact": 1788564225,
        "baro_altitude": 289.56,
        "on_ground": false,
        "velocity": 77.61,
        "true_track": 162.65,
        "vertical_rate": -1.95,
        "geo_altitude": 411.48,
        "squawk": "2213",
        "spi": false,
        "position_source": 0
      }
    },
    {
      "type": "Feature",
      "geometry": {
        "type": "Point",
        "coordinates": [
          12.1461,
          40.0623
        ]
      },
      "properties": {
        "icao24": "4951d5",
        "callsign": "TAP900",
        "origin_country": "Portugal",
        "time_position": 1788564224,
        "last_contact": 1788564225,
        "baro_altitude": 10965.18,
        "on_ground": false,
        "velocity": 229.24,
        "true_track": 101.92,
        "vertical_rate": 0,
        "geo_altitude": 11620.5,
        "squawk": "2222",
        "spi": false,
        "position_source": 0
      }
    },
    {
      "type": "Feature",
      "geometry": {
        "type": "Point",
        "coordinates": [
          10.3813,
          42.1703
        ]
      },
      "properties": {
        "icao24": "4ca9ec",
        "callsign": "RYR7DE",
        "origin_country": "Ireland",
        "time_position": 1788564225,
        "last_contact": 1788564225,
        "baro_altitude": 9753.6,
        "on_ground": false,
        "velocity": 229.89,
        "true_track": 25.3,
        "vertical_rate": 0,
        "geo_altitude": 10386.06,
        "squawk": "7063",
        "spi": false,
        "position_source": 0
      }
    },
    {
      "type": "Feature",
      "geometry": {
        "type": "Point",
        "coordinates": [
          9.7216,
          45.6651
        ]
      },
      "properties": {
        "icao24": "4ca911",
        "callsign": "RYR52TC",
        "origin_country": "Ireland",
        "time_position": 1788564102,
        "last_contact": 1788564102,
        "baro_altitude": 198.12,
        "on_ground": false,
        "velocity": 77.11,
        "true_track": 284.69,
        "vertical_rate": -3.25,
        "geo_altitude": 297.18,
        "squawk": "0504",
        "spi": false,
        "position_source": 0
      }
    },
    {
      "type": "Feature",
      "geometry": {
        "type": "Point",
        "coordinates": [
          7.1219,
          41.3725
        ]
      },
      "properties": {
        "icao24": "02a197",
        "callsign": "TAR793",
        "origin_country": "Tunisia",
        "time_position": 1788564224,
        "last_contact": 1788564225,
        "baro_altitude": 8846.82,
        "on_ground": false,
        "velocity": 259.58,
        "true_track": 148.45,
        "vertical_rate": 0.33,
        "geo_altitude": 9464.04,
        "squawk": "0537",
        "spi": false,
        "position_source": 0
      }
    },
    {
      "type": "Feature",
      "geometry": {
        "type": "Point",
        "coordinates": [
          13.1805,
          38.3351
        ]
      },
      "properties": {
        "icao24": "4ca82c",
        "callsign": "MSA734",
        "origin_country": "Ireland",
        "time_position": 1788564179,
        "last_contact": 1788564179,
        "baro_altitude": 2407.92,
        "on_ground": false,
        "velocity": 159.57,
        "true_track": 355.01,
        "vertical_rate": 15.93,
        "geo_altitude": 2606.04,
        "squawk": null,
        "spi": false,
        "position_source": 0
      }
    },
    {
      "type": "Feature",
      "geometry": {
        "type": "Point",
        "coordinates": [
          13.5916,
          42.0727
        ]
      },
      "properties": {
        "icao24": "4ca812",
        "callsign": "RYR3HY",
        "origin_country": "Ireland",
        "time_position": 1788564224,
        "last_contact": 1788564225,
        "baro_altitude": 11582.4,
        "on_ground": false,
        "velocity": 228.6,
        "true_track": 340.55,
        "vertical_rate": 0.33,
        "geo_altitude": 12245.34,
        "squawk": null,
        "spi": false,
        "position_source": 0
      }
    },
    {
      "type": "Feature",
      "geometry": {
        "type": "Point",
        "coordinates": [
          17.5767,
          46.6859
        ]
      },
      "properties": {
        "icao24": "4bcdf6",
        "callsign": "SXS2BQ",
        "origin_country": "Turkey",
        "time_position": 1788564225,
        "last_contact": 1788564225,
        "baro_altitude": 11887.2,
        "on_ground": false,
        "velocity": 243.92,
        "true_track": 128.32,
        "vertical_rate": 0,
        "geo_altitude": 12466.32,
        "squawk": "5231",
        "spi": false,
        "position_source": 0
      }
    },
    {
      "type": "Feature",
      "geometry": {
        "type": "Point",
        "coordinates": [
          16.0328,
          46.8917
        ]
      },
      "properties": {
        "icao24": "4bcdee",
        "callsign": "SXS2PC",
        "origin_country": "Turkey",
        "time_position": 1788564225,
        "last_contact": 1788564225,
        "baro_altitude": 11582.4,
        "on_ground": false,
        "velocity": 210.48,
        "true_track": 319.26,
        "vertical_rate": 0,
        "geo_altitude": 12153.9,
        "squawk": "3202",
        "spi": false,
        "position_source": 0
      }
    },
    {
      "type": "Feature",
      "geometry": {
        "type": "Point",
        "coordinates": [
          8.8707,
          40.084
        ]
      },
      "properties": {
        "icao24": "02a263",
        "callsign": "TAR725",
        "origin_country": "Tunisia",
        "time_position": 1788564224,
        "last_contact": 1788564224,
        "baro_altitude": 11277.6,
        "on_ground": false,
        "velocity": 234.85,
        "true_track": 151.19,
        "vertical_rate": 0,
        "geo_altitude": 11978.64,
        "squawk": "7647",
        "spi": false,
        "position_source": 0
      }
    },
    {
      "type": "Feature",
      "geometry": {
        "type": "Point",
        "coordinates": [
          18.5135,
          47.2849
        ]
      },
      "properties": {
        "icao24": "48ea00",
        "callsign": "ENT7169",
        "origin_country": "Poland",
        "time_position": 1788564225,
        "last_contact": 1788564225,
        "baro_altitude": 10668,
        "on_ground": false,
        "velocity": 242.46,
        "true_track": 168,
        "vertical_rate": 0,
        "geo_altitude": 11216.64,
        "squawk": "6021",
        "spi": false,
        "position_source": 0
      }
    },
    {
      "type": "Feature",
      "geometry": {
        "type": "Point",
        "coordinates": [
          17.3813,
          47.5011
        ]
      },
      "properties": {
        "icao24": "4bcdb4",
        "callsign": "SXS14E",
        "origin_country": "Turkey",
        "time_position": 1788564225,
        "last_contact": 1788564225,
        "baro_altitude": 11277.6,
        "on_ground": false,
        "velocity": 254.59,
        "true_track": 137.87,
        "vertical_rate": 0.33,
        "geo_altitude": 11826.24,
        "squawk": "6427",
        "spi": false,
        "position_source": 0
      }
    },
    {
      "type": "Feature",
      "geometry": {
        "type": "Point",
        "coordinates": [
          17.2216,
          47.4503
        ]
      },
      "properties": {
        "icao24": "4bccb0",
        "callsign": "SXS93K",
        "origin_country": "Turkey",
        "time_position": 1788564225,
        "last_contact": 1788564226,
        "baro_altitude": 11582.4,
        "on_ground": false,
        "velocity": 204.87,
        "true_track": 316.53,
        "vertical_rate": 0,
        "geo_altitude": 12138.66,
        "squawk": "3204",
        "spi": false,
        "position_source": 0
      }
    },
    {
      "type": "Feature",
      "geometry": {
        "type": "Point",
        "coordinates": [
          18.473,
          46.1812
        ]
      },
      "properties": {
        "icao24": "4bce09",
        "callsign": "SXS1ZQ",
        "origin_country": "Turkey",
        "time_position": 1788564225,
        "last_contact": 1788564225,
        "baro_altitude": 11277.6,
        "on_ground": false,
        "velocity": 249.15,
        "true_track": 128.12,
        "vertical_rate": 0,
        "geo_altitude": 11864.34,
        "squawk": "6031",
        "spi": false,
        "position_source": 0
      }
    },
    {
      "type": "Feature",
      "geometry": {
        "type": "Point",
        "coordinates": [
          16.2717,
          47.3756
        ]
      },
      "properties": {
        "icao24": "4bce06",
        "callsign": "SXS37U",
        "origin_country": "Turkey",
        "time_position": 1788564225,
        "last_contact": 1788564225,
        "baro_altitude": 11582.4,
        "on_ground": false,
        "velocity": 208.09,
        "true_track": 308.17,
        "vertical_rate": 0,
        "geo_altitude": 12138.66,
        "squawk": "3213",
        "spi": false,
        "position_source": 0
      }
    },
    {
      "type": "Feature",
      "geometry": {
        "type": "Point",
        "coordinates": [
          15.3356,
          44.6586
        ]
      },
      "properties": {
        "icao24": "4d010a",
        "callsign": "ICV782",
        "origin_country": "Luxembourg",
        "time_position": 1788564225,
        "last_contact": 1788564225,
        "baro_altitude": 10363.2,
        "on_ground": false,
        "velocity": 237.61,
        "true_track": 281.87,
        "vertical_rate": 0,
        "geo_altitude": 10942.32,
        "squawk": "0331",
        "spi": false,
        "position_source": 0
      }
    },
    {
      "type": "Feature",
      "geometry": {
        "type": "Point",
        "coordinates": [
          18.34,
          43.5895
        ]
      },
      "properties": {
        "icao24": "40768c",
        "callsign": "EZY69TN",
        "origin_country": "United Kingdom",
        "time_position": 1788564225,
        "last_contact": 1788564225,
        "baro_altitude": 10972.8,
        "on_ground": false,
        "velocity": 223.18,
        "true_track": 297.16,
        "vertical_rate": 0.33,
        "geo_altitude": 11597.64,
        "squawk": "2003",
        "spi": false,
        "position_source": 0
      }
    },
    {
      "type": "Feature",
      "geometry": {
        "type": "Point",
        "coordinates": [
          15.8983,
          45.5053
        ]
      },
      "properties": {
        "icao24": "40766d",
        "callsign": "EXS32MC",
        "origin_country": "United Kingdom",
        "time_position": 1788564225,
        "last_contact": 1788564225,
        "baro_altitude": 11582.4,
        "on_ground": false,
        "velocity": 215.24,
        "true_track": 308.6,
        "vertical_rate": 0,
        "geo_altitude": 12199.62,
        "squawk": "2021",
        "spi": false,
        "position_source": 0
      }
    },
    {
      "type": "Feature",
      "geometry": {
        "type": "Point",
        "coordinates": [
          8.5933,
          45.0038
        ]
      },
      "properties": {
        "icao24": "300888",
        "callsign": "IMAVV",
        "origin_country": "Italy",
        "time_position": 1788564225,
        "last_contact": 1788564225,
        "baro_altitude": 883.92,
        "on_ground": false,
        "velocity": 64.78,
        "true_track": 325.68,
        "vertical_rate": 0,
        "geo_altitude": 998.22,
        "squawk": "1427",
        "spi": false,
        "position_source": 0
      }
    },
    {
      "type": "Feature",
      "geometry": {
        "type": "Point",
        "coordinates": [
          13.793,
          44.2341
        ]
      },
      "properties": {
        "icao24": "0102b4",
        "callsign": "NIA222",
        "origin_country": "Egypt",
        "time_position": 1788564225,
        "last_contact": 1788564225,
        "baro_altitude": 11277.6,
        "on_ground": false,
        "velocity": 242.09,
        "true_track": 121.09,
        "vertical_rate": 0,
        "geo_altitude": 11902.44,
        "squawk": "0464",
        "spi": false,
        "position_source": 0
      }
    },
    {
      "type": "Feature",
      "geometry": {
        "type": "Point",
        "coordinates": [
          8.9649,
          41.2125
        ]
      },
      "properties": {
        "icao24": "4cafd3",
        "callsign": "RYR28BZ",
        "origin_country": "Ireland",
        "time_position": 1788564225,
        "last_contact": 1788564225,
        "baro_altitude": 10972.8,
        "on_ground": false,
        "velocity": 235.7,
        "true_track": 77.91,
        "vertical_rate": 0,
        "geo_altitude": 11643.36,
        "squawk": "1000",
        "spi": false,
        "position_source": 0
      }
    },
    {
      "type": "Feature",
      "geometry": {
        "type": "Point",
        "coordinates": [
          14.935,
          43.6865
        ]
      },
      "properties": {
        "icao24": "010243",
        "callsign": "MSR716",
        "origin_country": "Egypt",
        "time_position": 1788564225,
        "last_contact": 1788564225,
        "baro_altitude": 11887.2,
        "on_ground": false,
        "velocity": 239.8,
        "true_track": 121.13,
        "vertical_rate": 0,
        "geo_altitude": 12542.52,
        "squawk": "3752",
        "spi": false,
        "position_source": 0
      }
    },
    {
      "type": "Feature",
      "geometry": {
        "type": "Point",
        "coordinates": [
          15.6463,
          46.8246
        ]
      },
      "properties": {
        "icao24": "010248",
        "callsign": "NIA8504",
        "origin_country": "Egypt",
        "time_position": 1788564224,
        "last_contact": 1788564225,
        "baro_altitude": 10675.62,
        "on_ground": false,
        "velocity": 249,
        "true_track": 143.49,
        "vertical_rate": 0,
        "geo_altitude": 11254.74,
        "squawk": "6033",
        "spi": false,
        "position_source": 0
      }
    },
    {
      "type": "Feature",
      "geometry": {
        "type": "Point",
        "coordinates": [
          17.2261,
          47.7463
        ]
      },
      "properties": {
        "icao24": "010264",
        "callsign": "MSC2934",
        "origin_country": "Egypt",
        "time_position": 1788564225,
        "last_contact": 1788564225,
        "baro_altitude": 10972.8,
        "on_ground": false,
        "velocity": 215.41,
        "true_track": 318.58,
        "vertical_rate": 0,
        "geo_altitude": 11521.44,
        "squawk": "7316",
        "spi": false,
        "position_source": 0
      }
    },
    {
      "type": "Feature",
      "geometry": {
        "type": "Point",
        "coordinates": [
          17.5968,
          47.4609
        ]
      },
      "properties": {
        "icao24": "010266",
        "callsign": "MSC2938",
        "origin_country": "Egypt",
        "time_position": 1788564225,
        "last_contact": 1788564225,
        "baro_altitude": 10972.8,
        "on_ground": false,
        "velocity": 215.07,
        "true_track": 318.69,
        "vertical_rate": 0,
        "geo_altitude": 11513.82,
        "squawk": "2660",
        "spi": false,
        "position_source": 0
      }
    },
    {
      "type": "Feature",
      "geometry": {
        "type": "Point",
        "coordinates": [
          15.6209,
          45.1773
        ]
      },
      "properties": {
        "icao24": "01020b",
        "callsign": "MSR780",
        "origin_country": "Egypt",
        "time_position": 1788564225,
        "last_contact": 1788564225,
        "baro_altitude": 11277.6,
        "on_ground": false,
        "velocity": 246.7,
        "true_track": 133.65,
        "vertical_rate": 0,
        "geo_altitude": 11894.82,
        "squawk": "2201",
        "spi": false,
        "position_source": 0
      }
    },
    {
      "type": "Feature",
      "geometry": {
        "type": "Point",
        "coordinates": [
          11.5742,
          45.02
        ]
      },
      "properties": {
        "icao24": "3008b7",
        "callsign": "IATLS",
        "origin_country": "Italy",
        "time_position": 1788564220,
        "last_contact": 1788564220,
        "baro_altitude": 289.56,
        "on_ground": false,
        "velocity": 62.86,
        "true_track": 28.87,
        "vertical_rate": 0.33,
        "geo_altitude": 373.38,
        "squawk": null,
        "spi": false,
        "position_source": 0
      }
    },
    {
      "type": "Feature",
      "geometry": {
        "type": "Point",
        "coordinates": [
          10.2886,
          39.3971
        ]
      },
      "properties": {
        "icao24": "4d24de",
        "callsign": "KMM455",
        "origin_country": "Malta",
        "time_position": 1788564211,
        "last_contact": 1788564211,
        "baro_altitude": 11887.2,
        "on_ground": false,
        "velocity": 231,
        "true_track": 140.6,
        "vertical_rate": 0,
        "geo_altitude": 12588.24,
        "squawk": "1244",
        "spi": false,
        "position_source": 0
      }
    },
    {
      "type": "Feature",
      "geometry": {
        "type": "Point",
        "coordinates": [
          12.5143,
          45.8465
        ]
      },
      "properties": {
        "icao24": "4075bb",
        "callsign": "EXS94Y",
        "origin_country": "United Kingdom",
        "time_position": 1788564225,
        "last_contact": 1788564225,
        "baro_altitude": 11582.4,
        "on_ground": false,
        "velocity": 216.47,
        "true_track": 315.87,
        "vertical_rate": 0,
        "geo_altitude": 12184.38,
        "squawk": "2051",
        "spi": false,
        "position_source": 0
      }
    },
    {
      "type": "Feature",
      "geometry": {
        "type": "Point",
        "coordinates": [
          9.7325,
          45.6631
        ]
      },
      "properties": {
        "icao24": "4caeb1",
        "callsign": "NOS79FT",
        "origin_country": "Ireland",
        "time_position": 1788564225,
        "last_contact": 1788564225,
        "baro_altitude": 243.84,
        "on_ground": false,
        "velocity": 82.89,
        "true_track": 285.85,
        "vertical_rate": -3.9,
        "geo_altitude": 335.28,
        "squawk": "7730",
        "spi": false,
        "position_source": 0
      }
    },
    {
      "type": "Feature",
      "geometry": {
        "type": "Point",
        "coordinates": [
          8.2501,
          40.9092
        ]
      },
      "properties": {
        "icao24": "71ba08",
        "callsign": "KAL922",
        "origin_country": "Republic of Korea",
        "time_position": 1788564225,
        "last_contact": 1788564225,
        "baro_altitude": 10355.58,
        "on_ground": false,
        "velocity": 257.06,
        "true_track": 70.84,
        "vertical_rate": 0,
        "geo_altitude": 11033.76,
        "squawk": "2276",
        "spi": false,
        "position_source": 0
      }
    },
    {
      "type": "Feature",
      "geometry": {
        "type": "Point",
        "coordinates": [
          13.7832,
          43.8764
        ]
      },
      "properties": {
        "icao24": "424b3a",
        "callsign": "MYULI",
        "origin_country": "United Kingdom",
        "time_position": 1788564225,
        "last_contact": 1788564225,
        "baro_altitude": 11582.4,
        "on_ground": false,
        "velocity": 226.45,
        "true_track": 320.16,
        "vertical_rate": 0,
        "geo_altitude": 12214.86,
        "squawk": "2223",
        "spi": false,
        "position_source": 0
      }
    },
    {
      "type": "Feature",
      "geometry": {
        "type": "Point",
        "coordinates": [
          12.2441,
          39.9104
        ]
      },
      "properties": {
        "icao24": "4cadbe",
        "callsign": "RYR28TH",
        "origin_country": "Ireland",
        "time_position": 1788564225,
        "last_contact": 1788564225,
        "baro_altitude": 11277.6,
        "on_ground": false,
        "velocity": 235.58,
        "true_track": 157.8,
        "vertical_rate": 0,
        "geo_altitude": 11948.16,
        "squawk": "3504",
        "spi": false,
        "position_source": 0
      }
    },
    {
      "type": "Feature",
      "geometry": {
        "type": "Point",
        "coordinates": [
          17.8455,
          47.0962
        ]
      },
      "properties": {
        "icao24": "4d2448",
        "callsign": "WZZ2498",
        "origin_country": "Malta",
        "time_position": 1788564225,
        "last_contact": 1788564225,
        "baro_altitude": 6842.76,
        "on_ground": false,
        "velocity": 200.74,
        "true_track": 82.64,
        "vertical_rate": -8.45,
        "geo_altitude": 7239,
        "squawk": "1000",
        "spi": false,
        "position_source": 0
      }
    },
    {
      "type": "Feature",
      "geometry": {
        "type": "Point",
        "coordinates": [
          10.3704,
          43.6607
        ]
      },
      "properties": {
        "icao24": "4cade2",
        "callsign": "RYR135Z",
        "origin_country": "Ireland",
        "time_position": 1788564225,
        "last_contact": 1788564225,
        "baro_altitude": 53.34,
        "on_ground": false,
        "velocity": 81.9,
        "true_track": 37.09,
        "vertical_rate": -4.23,
        "geo_altitude": 160.02,
        "squawk": "0545",
        "spi": false,
        "position_source": 0
      }
    },
    {
      "type": "Feature",
      "geometry": {
        "type": "Point",
        "coordinates": [
          7.8648,
          47.2716
        ]
      },
      "properties": {
        "icao24": "40751b",
        "callsign": "EXS60P",
        "origin_country": "United Kingdom",
        "time_position": 1788564225,
        "last_contact": 1788564225,
        "baro_altitude": 11574.78,
        "on_ground": false,
        "velocity": 213.47,
        "true_track": 308.44,
        "vertical_rate": 0.33,
        "geo_altitude": 12131.04,
        "squawk": "7510",
        "spi": false,
        "position_source": 0
      }
    },
    {
      "type": "Feature",
      "geometry": {
        "type": "Point",
        "coordinates": [
          8.8588,
          47.3473
        ]
      },
      "properties": {
        "icao24": "40756b",
        "callsign": "EZY34PE",
        "origin_country": "United Kingdom",
        "time_position": 1788564225,
        "last_contact": 1788564225,
        "baro_altitude": 11590.02,
        "on_ground": false,
        "velocity": 213.76,
        "true_track": 304.61,
        "vertical_rate": 0.33,
        "geo_altitude": 12146.28,
        "squawk": "2771",
        "spi": false,
        "position_source": 0
      }
    },
    {
      "type": "Feature",
      "geometry": {
        "type": "Point",
        "coordinates": [
          17.9883,
          44.7208
        ]
      },
      "properties": {
        "icao24": "4cae91",
        "callsign": "RYR9742",
        "origin_country": "Ireland",
        "time_position": 1788564225,
        "last_contact": 1788564225,
        "baro_altitude": 10972.8,
        "on_ground": false,
        "velocity": 222.45,
        "true_track": 317.34,
        "vertical_rate": 0,
        "geo_altitude": 11582.4,
        "squawk": "5511",
        "spi": false,
        "position_source": 0
      }
    },
    {
      "type": "Feature",
      "geometry": {
        "type": "Point",
        "coordinates": [
          9.389,
          44.9181
        ]
      },
      "properties": {
        "icao24": "4cae65",
        "callsign": "RYR8512",
        "origin_country": "Ireland",
        "time_position": 1788564225,
        "last_contact": 1788564225,
        "baro_altitude": 4739.64,
        "on_ground": false,
        "velocity": 223.64,
        "true_track": 49.38,
        "vertical_rate": -4.88,
        "geo_altitude": 5105.4,
        "squawk": "1000",
        "spi": false,
        "position_source": 0
      }
    },
    {
      "type": "Feature",
      "geometry": {
        "type": "Point",
        "coordinates": [
          6.6108,
          40.3901
        ]
      },
      "properties": {
        "icao24": "34838b",
        "callsign": "VOE1GD",
        "origin_country": "Spain",
        "time_position": 1788564225,
        "last_contact": 1788564225,
        "baro_altitude": 10888.98,
        "on_ground": false,
        "velocity": 236.84,
        "true_track": 75.15,
        "vertical_rate": -4.55,
        "geo_altitude": 11590.02,
        "squawk": "1450",
        "spi": false,
        "position_source": 0
      }
    },
    {
      "type": "Feature",
      "geometry": {
        "type": "Point",
        "coordinates": [
          9.724,
          45.6646
        ]
      },
      "properties": {
        "icao24": "4d2368",
        "callsign": "RYR265",
        "origin_country": "Malta",
        "time_position": 1788563921,
        "last_contact": 1788563921,
        "baro_altitude": 205.74,
        "on_ground": false,
        "velocity": 77.11,
        "true_track": 284.69,
        "vertical_rate": -4.23,
        "geo_altitude": 304.8,
        "squawk": "1000",
        "spi": false,
        "position_source": 0
      }
    },
    {
      "type": "Feature",
      "geometry": {
        "type": "Point",
        "coordinates": [
          15.0158,
          46.7107
        ]
      },
      "properties": {
        "icao24": "4070e4",
        "callsign": "EXS3714",
        "origin_country": "United Kingdom",
        "time_position": 1788564225,
        "last_contact": 1788564226,
        "baro_altitude": 11582.4,
        "on_ground": false,
        "velocity": 211.49,
        "true_track": 318.95,
        "vertical_rate": 0,
        "geo_altitude": 12153.9,
        "squawk": "2071",
        "spi": false,
        "position_source": 0
      }
    },
    {
      "type": "Feature",
      "geometry": {
        "type": "Point",
        "coordinates": [
          14.7878,
          44.412
        ]
      },
      "properties": {
        "icao24": "4083c0",
        "callsign": "EZY98FB",
        "origin_country": "United Kingdom",
        "time_position": 1788564225,
        "last_contact": 1788564225,
        "baro_altitude": 10972.8,
        "on_ground": false,
        "velocity": 223.88,
        "true_track": 309.87,
        "vertical_rate": 0,
        "geo_altitude": 11605.26,
        "squawk": "5521",
        "spi": false,
        "position_source": 0
      }
    },
    {
      "type": "Feature",
      "geometry": {
        "type": "Point",
        "coordinates": [
          12.5433,
          42.1052
        ]
      },
      "properties": {
        "icao24": "4d2208",
        "callsign": "RYR7RD",
        "origin_country": "Malta",
        "time_position": 1788564224,
        "last_contact": 1788564225,
        "baro_altitude": 11582.4,
        "on_ground": false,
        "velocity": 230.81,
        "true_track": 329.61,
        "vertical_rate": 0,
        "geo_altitude": 12245.34,
        "squawk": "5430",
        "spi": false,
        "position_source": 0
      }
    },
    {
      "type": "Feature",
      "geometry": {
        "type": "Point",
        "coordinates": [
          10.3728,
          43.7986
        ]
      },
      "properties": {
        "icao24": "34714e",
        "callsign": "VOE5FP",
        "origin_country": "Spain",
        "time_position": 1788564225,
        "last_contact": 1788564226,
        "baro_altitude": 11590.02,
        "on_ground": false,
        "velocity": 227.94,
        "true_track": 302.18,
        "vertical_rate": 0,
        "geo_altitude": 12245.34,
        "squawk": "1000",
        "spi": false,
        "position_source": 0
      }
    },
    {
      "type": "Feature",
      "geometry": {
        "type": "Point",
        "coordinates": [
          9.1348,
          45.0955
        ]
      },
      "properties": {
        "icao24": "4d2210",
        "callsign": "RYR2NJ",
        "origin_country": "Malta",
        "time_position": 1788564225,
        "last_contact": 1788564225,
        "baro_altitude": 5288.28,
        "on_ground": false,
        "velocity": 219.07,
        "true_track": 55.04,
        "vertical_rate": -13.66,
        "geo_altitude": 5669.28,
        "squawk": "2242",
        "spi": false,
        "position_source": 0
      }
    },
    {
      "type": "Feature",
      "geometry": {
        "type": "Point",
        "coordinates": [
          8.7127,
          45.2549
        ]
      },
      "properties": {
        "icao24": "4d226a",
        "callsign": "RYR6TZ",
        "origin_country": "Malta",
        "time_position": 1788564225,
        "last_contact": 1788564225,
        "baro_altitude": 2065.02,
        "on_ground": false,
        "velocity": 136.1,
        "true_track": 16.24,
        "vertical_rate": -2.28,
        "geo_altitude": 2255.52,
        "squawk": "1000",
        "spi": false,
        "position_source": 0
      }
    },
    {
      "type": "Feature",
      "geometry": {
        "type": "Point",
        "coordinates": [
          8.1663,
          44.6699
        ]
      },
      "properties": {
        "icao24": "4d2275",
        "callsign": "RYR27XV",
        "origin_country": "Malta",
        "time_position": 1788564225,
        "last_contact": 1788564225,
        "baro_altitude": 6644.64,
        "on_ground": false,
        "velocity": 226.85,
        "true_track": 333.03,
        "vertical_rate": 7.8,
        "geo_altitude": 7094.22,
        "squawk": "0473",
        "spi": false,
        "position_source": 0
      }
    },
    {
      "type": "Feature",
      "geometry": {
        "type": "Point",
        "coordinates": [
          12.5524,
          41.8671
        ]
      },
      "properties": {
        "icao24": "4d227b",
        "callsign": "RYR1PE",
        "origin_country": "Malta",
        "time_position": 1788564225,
        "last_contact": 1788564225,
        "baro_altitude": 2385.06,
        "on_ground": false,
        "velocity": 146.26,
        "true_track": 316.14,
        "vertical_rate": -8.13,
        "geo_altitude": 2628.9,
        "squawk": null,
        "spi": false,
        "position_source": 0
      }
    },
    {
      "type": "Feature",
      "geometry": {
        "type": "Point",
        "coordinates": [
          11.2727,
          44.5412
        ]
      },
      "properties": {
        "icao24": "4d2258",
        "callsign": "RYR8TU",
        "origin_country": "Malta",
        "time_position": 1788564176,
        "last_contact": 1788564176,
        "baro_altitude": 38.1,
        "on_ground": false,
        "velocity": 71.09,
        "true_track": 117.12,
        "vertical_rate": -3.58,
        "geo_altitude": 114.3,
        "squawk": "1000",
        "spi": false,
        "position_source": 0
      }
    },
    {
      "type": "Feature",
      "geometry": {
        "type": "Point",
        "coordinates": [
          6.446,
          46.522
        ]
      },
      "properties": {
        "icao24": "4d2262",
        "callsign": "RYR67RA",
        "origin_country": "Malta",
        "time_position": 1788564225,
        "last_contact": 1788564225,
        "baro_altitude": 11582.4,
        "on_ground": false,
        "velocity": 233.54,
        "true_track": 45.18,
        "vertical_rate": 0,
        "geo_altitude": 12169.14,
        "squawk": "3375",
        "spi": false,
        "position_source": 0
      }
    },
    {
      "type": "Feature",
      "geometry": {
        "type": "Point",
        "coordinates": [
          13.6807,
          35.8705
        ]
      },
      "properties": {
        "icao24": "710060",
        "callsign": "SVA342",
        "origin_country": "Saudi Arabia",
        "time_position": 1788564225,
        "last_contact": 1788564226,
        "baro_altitude": 10668,
        "on_ground": false,
        "velocity": 235.6,
        "true_track": 96.52,
        "vertical_rate": 0,
        "geo_altitude": 11315.7,
        "squawk": "4117",
        "spi": false,
        "position_source": 0
      }
    },
    {
      "type": "Feature",
      "geometry": {
        "type": "Point",
        "coordinates": [
          15.7516,
          44.8315
        ]
      },
      "properties": {
        "icao24": "71002a",
        "callsign": "SVA118",
        "origin_country": "Saudi Arabia",
        "time_position": 1788564225,
        "last_contact": 1788564225,
        "baro_altitude": 11269.98,
        "on_ground": false,
        "velocity": 262.76,
        "true_track": 136.75,
        "vertical_rate": 0,
        "geo_altitude": 11902.44,
        "squawk": "2237",
        "spi": false,
        "position_source": 0
      }
    },
    {
      "type": "Feature",
      "geometry": {
        "type": "Point",
        "coordinates": [
          17.531,
          41.8884
        ]
      },
      "properties": {
        "icao24": "4d20f4",
        "callsign": "WMT4RQ",
        "origin_country": "Malta",
        "time_position": 1788564216,
        "last_contact": 1788564216,
        "baro_altitude": 9799.32,
        "on_ground": false,
        "velocity": 230.11,
        "true_track": 94.36,
        "vertical_rate": -11.05,
        "geo_altitude": 10408.92,
        "squawk": "0217",
        "spi": false,
        "position_source": 0
      }
    },
    {
      "type": "Feature",
      "geometry": {
        "type": "Point",
        "coordinates": [
          15.5248,
          44.0423
        ]
      },
      "properties": {
        "icao24": "40700a",
        "callsign": "EXS1434",
        "origin_country": "United Kingdom",
        "time_position": 1788564225,
        "last_contact": 1788564225,
        "baro_altitude": 10370.82,
        "on_ground": false,
        "velocity": 225.33,
        "true_track": 312.87,
        "vertical_rate": 0,
        "geo_altitude": 10942.32,
        "squawk": "2073",
        "spi": false,
        "position_source": 0
      }
    },
    {
      "type": "Feature",
      "geometry": {
        "type": "Point",
        "coordinates": [
          18.2179,
          44.1181
        ]
      },
      "properties": {
        "icao24": "40832b",
        "callsign": "TOM2MW",
        "origin_country": "United Kingdom",
        "time_position": 1788564225,
        "last_contact": 1788564225,
        "baro_altitude": 11582.4,
        "on_ground": false,
        "velocity": 219.67,
        "true_track": 309.39,
        "vertical_rate": 0,
        "geo_altitude": 12207.24,
        "squawk": "5505",
        "spi": false,
        "position_source": 0
      }
    },
    {
      "type": "Feature",
      "geometry": {
        "type": "Point",
        "coordinates": [
          18.5456,
          47.132
        ]
      },
      "properties": {
        "icao24": "4a1aae",
        "callsign": "AWG655",
        "origin_country": "Romania",
        "time_position": 1788564225,
        "last_contact": 1788564225,
        "baro_altitude": 11887.2,
        "on_ground": false,
        "velocity": 251.54,
        "true_track": 119.4,
        "vertical_rate": -0.33,
        "geo_altitude": 12451.08,
        "squawk": "4626",
        "spi": false,
        "position_source": 0
      }
    },
    {
      "type": "Feature",
      "geometry": {
        "type": "Point",
        "coordinates": [
          15.518,
          44.4185
        ]
      },
      "properties": {
        "icao24": "408389",
        "callsign": "EZY72WY",
        "origin_country": "United Kingdom",
        "time_position": 1788564224,
        "last_contact": 1788564225,
        "baro_altitude": 10980.42,
        "on_ground": false,
        "velocity": 227.84,
        "true_track": 295.12,
        "vertical_rate": -0.33,
        "geo_altitude": 11605.26,
        "squawk": "7733",
        "spi": false,
        "position_source": 0
      }
    },
    {
      "type": "Feature",
      "geometry": {
        "type": "Point",
        "coordinates": [
          10.6096,
          44.3242
        ]
      },
      "properties": {
        "icao24": "4d2100",
        "callsign": "WMT4493",
        "origin_country": "Malta",
        "time_position": 1788564225,
        "last_contact": 1788564225,
        "baro_altitude": 8176.26,
        "on_ground": false,
        "velocity": 246.7,
        "true_track": 66.27,
        "vertical_rate": -4.88,
        "geo_altitude": 8709.66,
        "squawk": "1000",
        "spi": false,
        "position_source": 0
      }
    },
    {
      "type": "Feature",
      "geometry": {
        "type": "Point",
        "coordinates": [
          8.8169,
          45.3995
        ]
      },
      "properties": {
        "icao24": "4d206b",
        "callsign": "WMT3C",
        "origin_country": "Malta",
        "time_position": 1788564225,
        "last_contact": 1788564225,
        "baro_altitude": 1318.26,
        "on_ground": false,
        "velocity": 121.31,
        "true_track": 329.41,
        "vertical_rate": -3.25,
        "geo_altitude": 1463.04,
        "squawk": "1000",
        "spi": false,
        "position_source": 0
      }
    },
    {
      "type": "Feature",
      "geometry": {
        "type": "Point",
        "coordinates": [
          6.6033,
          36.207
        ]
      },
      "properties": {
        "icao24": "39d2b2",
        "callsign": "AFR990",
        "origin_country": "France",
        "time_position": 1788564061,
        "last_contact": 1788564210,
        "baro_altitude": 11277.6,
        "on_ground": false,
        "velocity": 254,
        "true_track": 167.48,
        "vertical_rate": 0,
        "geo_altitude": 11955.78,
        "squawk": "7645",
        "spi": false,
        "position_source": 0
      }
    },
    {
      "type": "Feature",
      "geometry": {
        "type": "Point",
        "coordinates": [
          8.7183,
          45.6267
        ]
      },
      "properties": {
        "icao24": "4d207c",
        "callsign": "RYR64AL",
        "origin_country": "Malta",
        "time_position": 1788564224,
        "last_contact": 1788564225,
        "baro_altitude": null,
        "on_ground": true,
        "velocity": 6.69,
        "true_track": 171.56,
        "vertical_rate": null,
        "geo_altitude": null,
        "squawk": "6577",
        "spi": false,
        "position_source": 0
      }
    },
    {
      "type": "Feature",
      "geometry": {
        "type": "Point",
        "coordinates": [
          12.2593,
          41.8514
        ]
      },
      "properties": {
        "icao24": "4d204b",
        "callsign": "WMT2507",
        "origin_country": "Malta",
        "time_position": 1788563915,
        "last_contact": 1788563915,
        "baro_altitude": 7.62,
        "on_ground": false,
        "velocity": 72.73,
        "true_track": 162.72,
        "vertical_rate": -3.58,
        "geo_altitude": 106.68,
        "squawk": "2060",
        "spi": false,
        "position_source": 0
      }
    },
    {
      "type": "Feature",
      "geometry": {
        "type": "Point",
        "coordinates": [
          14.9535,
          39.5215
        ]
      },
      "properties": {
        "icao24": "3001ca",
        "callsign": "LSA213",
        "origin_country": "Italy",
        "time_position": 1788564225,
        "last_contact": 1788564226,
        "baro_altitude": 13106.4,
        "on_ground": false,
        "velocity": 232.84,
        "true_track": 332.93,
        "vertical_rate": 0.33,
        "geo_altitude": 13731.24,
        "squawk": "4102",
        "spi": false,
        "position_source": 0
      }
    },
    {
      "type": "Feature",
      "geometry": {
        "type": "Point",
        "coordinates": [
          18.8932,
          43.725
        ]
      },
      "properties": {
        "icao24": "407180",
        "callsign": "EXS89NW",
        "origin_country": "United Kingdom",
        "time_position": 1788564225,
        "last_contact": 1788564225,
        "baro_altitude": 10972.8,
        "on_ground": false,
        "velocity": 223.03,
        "true_track": 310.23,
        "vertical_rate": 0,
        "geo_altitude": 11582.4,
        "squawk": "2032",
        "spi": false,
        "position_source": 0
      }
    },
    {
      "type": "Feature",
      "geometry": {
        "type": "Point",
        "coordinates": [
          8.5642,
          47.4408
        ]
      },
      "properties": {
        "icao24": "4b194e",
        "callsign": "HBJPE",
        "origin_country": "Switzerland",
        "time_position": 1788564224,
        "last_contact": 1788564225,
        "baro_altitude": null,
        "on_ground": true,
        "velocity": 0.06,
        "true_track": 146.25,
        "vertical_rate": null,
        "geo_altitude": null,
        "squawk": "1000",
        "spi": false,
        "position_source": 0
      }
    },
    {
      "type": "Feature",
      "geometry": {
        "type": "Point",
        "coordinates": [
          9.6104,
          44.2229
        ]
      },
      "properties": {
        "icao24": "4d2007",
        "callsign": "WMT3MA",
        "origin_country": "Malta",
        "time_position": 1788564225,
        "last_contact": 1788564225,
        "baro_altitude": 9144,
        "on_ground": false,
        "velocity": 184.15,
        "true_track": 330,
        "vertical_rate": -0.33,
        "geo_altitude": 9715.5,
        "squawk": "5442",
        "spi": false,
        "position_source": 0
      }
    },
    {
      "type": "Feature",
      "geometry": {
        "type": "Point",
        "coordinates": [
          11.2736,
          44.5409
        ]
      },
      "properties": {
        "icao24": "4caa57",
        "callsign": "RYR9YL",
        "origin_country": "Ireland",
        "time_position": 1788564035,
        "last_contact": 1788564035,
        "baro_altitude": 30.48,
        "on_ground": false,
        "velocity": 78.45,
        "true_track": 116.9,
        "vertical_rate": -3.25,
        "geo_altitude": 106.68,
        "squawk": "4456",
        "spi": false,
        "position_source": 0
      }
    }
  ]
}